Facility Name,State Facility Type 1 Literal,Status,City,Address,Email Address,Facility ID,Capacity,County,Zip Code,Phone Number
3801 Grand,Residential Care Facilities,Closed,Des Moines,3801 Grand Avenue,,770830,0,Polk,50312-2807,(515) 255-3499
Aase Haugen Assisted Living,Assisted Living Programs,Active,Decorah,8 Ohio Street,,S0133,40,Winneshiek,52101-1563,(563) 382-3603
Aase Haugen Home,Residential Care Facilities,Closed,Decorah,Four Ohio Street,aase@rconnect.com,960338,12,Winneshiek,52101-0512,(563) 382-3603
Abbe Center For Community Care,Residential Care Facilities,Closed,Marion,1860 County Home Road,cbradke@abbe.org,570444,216,Linn,52302-9753,(319) 398-3534
Accura Healthcare Of Pomeroy,Assisted Living Programs,Active,Pomeroy,713 Scuyler Street,,S0161,18,Calhoun,50575-1195,(712) 468-2241
Adel Assisted Living Apartments,Assisted Living Programs,Closed,Adel,504 Van Fossen,lcrawford@wesleyservices.org,S0219,28,Dallas,50003-1689,(515) 993-5176
Afton Oaks AL,Assisted Living Programs,Active,Elma,405 9th St,,S0094,20,Howard,50628-8376,(641) 393-2134
Allen House,Assisted Living Programs,Closed,Atlantic,1406 E 19th,allenhouse@alcco.com; jwatson@alcco.com,S0019,78,Cass,50022-2897,(712) 243-3820
Allen Place,Assisted Living Programs,Active,Atlantic,1406 East 19th Street,,S0347,78,Cass,50022,(712) 243-3820
Amelia House,Assisted Living Programs,Closed,Council Bluffs,57 W Ferndale Dr,scomer@alcco.com,S0046,62,Pottawattamie,51503-4283,(712) 325-4400
Andrew Jackson Care,Residential Care Facilities,Closed,Bellevue,18720 250th Avenue,ajcare@netins.net,490107,40,Jackson,52031-3514,(563) 672-3371
Apple Valley Al,Assisted Living Programs,Active,Clear Lake,405 27th Avenue South,,S0166,118,Cerro Gordo,50428-4012,(641) 357-7083
Apple Valley Assisted Living Charles City,Assisted Living Programs,Active,Charles City,801 Blunt Pkwy #39,,S0083,42,Floyd,50616-2207,(641) 257-3003
Apple Valley Hampton,Assisted Living Programs,Active,Hampton,1724 Central Avenue East,,S0126,42,Franklin,50441-1865,(641) 456-4692
Apple Valley Osage LLC,Assisted Living Programs,Active,Osage,300 Lyndale Street,,S0283,78,Mitchell,50461,(641) 357-7083
Arbor Heights At University,Assisted Living Programs,Active,Des Moines,233 University Ave,,S0072,25,Polk,50314-3124,(515) 284-1280
Arlin Falck Al,Assisted Living Programs,Active,Decorah,911 Ridgewood Dr,,S0081,64,Winneshiek,52101-2354,(563) 387-3777
Ashbrook Assisted Living,Assisted Living Programs,Active,Iowa Falls,1121 Fremont Street,,S0143,82,Hardin,50126-1389,(641) 648-8080
Aspen Heights Assisted Living,Assisted Living Programs,Active,Hull,1410 Aspen Street,,S0320,48,Sioux,51239,(712) 439-6715
Assisi Village Assisted Living,Assisted Living Programs,Active,Dubuque,1001 Assisi Drive,,S0301,68,Dubuque,52001-1312,(563) 583-8234
Assisted Living At Northcrest Community,Assisted Living Programs,Active,Ames,2310 Northcrest Parkway,bbrouwer@northcrestcommunity.org,S0437,64,Story,50010,(515) 232-6760
Avoca Lodge AL,Assisted Living Programs,Active,Avoca,612 East York Road,,S0138,40,Pottawattamie,51521-4504,(712) 343-2400
Azria Health - Rose Vista Assisted Living,Assisted Living Programs,Active,Woodbine,"1108 Park Street, PO Box 6",,S0156,15,Harrison,51579-0006,(712) 647-2010
Azria Health Longview AL,Assisted Living Programs,Active,Missouri Valley,1010 Longview Rd,,S0001,36,Harrison,51555-1227,(712) 642-2264
Azria Health Winterset,Residential Care Facilities,Active,Winterset,1015 West Summit,dlehman@azriahealth.com,610812,18,Madison,50273-2209,(515) 462-1711
Ballard Creek Community,Assisted Living Programs,Active,Huxley,908 N Hwy 69,,S0007,80,Story,50124-9764,(515) 597-2555
Bavarian Meadows,Assisted Living Programs,Active,Remsen,632 - L14; PO Box 265,,S0293,44,Plymouth,51050,(712) 786-1660
Belle Haven Independent and Assisted Living,Assisted Living Programs,Active,Belmond,815 Luicks Lane North,,S0291,32,Wright,50421-7664,(641) 444-3915
Bickford Cottage Cedar Falls,Assisted Living Programs,Active,Cedar Falls,5101 University,,S0028,74,Black Hawk,50613-6246,(319) 266-6800
Bickford Cottage I Sioux City,Assisted Living Programs,Active,Sioux City,4020 Indian Hills Dr,,S0006,44,Woodbury,51108-1418,(712) 239-2065
Bonnett Family Care Home,Residential Care Facilities,Closed,Knoxville,"617 East Marion, Po Box 267",,630793,14,Marion,50138-0267,(641) 828-7318
Boulevard Place,Assisted Living Programs,Closed,Des Moines,900 Polk Blvd,,S0044,16,Polk,50312-0000,(515) 255-5433
Boyson Heights Senior Living Community,Assisted Living Programs,Active,Cedar Rapids,765 Boyson Road Ne,,S0439,132,Linn,52402,(319) 775-4524
Brees Rest Home,Residential Care Facilities,Active,Albia,210 Washington Avenue East,breesresthome@yahoo.com,680656,9,Monroe,52531-2029,(641) 932-5517
Briarcliff Retirement Ctr,Assisted Living Programs,Closed,Altoona,3734 8th St Sw,,S0016,42,Polk,50009-0000,(515) 967-4511
Briarwood Care Center,Residential Care Facilities,Closed,Maquoketa,416 South Clark Street,ginabramer@hotmail.com,490571,15,Jackson,52060-3226,(563) 652-5354
Brio of Johnston Assisted Living,Assisted Living Programs,Active,Johnston,6901 Peckham Street,,S0395,68,Polk,50131,(515) 350-7781
Bryhl Assisted Living,Assisted Living Programs,Active,Cedar Falls,7511 University Avenue,,S0251,68,Black Hawk,50613-5027,(319) 268-0401
Calhoun House,Residential Care Facilities,Active,Ames,3911 Calhoun Avenue,"mlenning@optimaelifeservices.com; 
 mfoster@optimaelifeservices.com",850671,8,Story,50010-5952,(515) 956-2600
Calvin Community AL,Assisted Living Programs,Active,Des Moines,4210 Hickman Road,,S0412,162,Polk,50310,(515) 633-2657
Camelot Square Group Home,Residential Care Facilities,Active,Denison,1011 Fifth Avenue North,dbrown@wescoind.org,240025,13,Crawford,51442-0000,(712) 263-4073
Cardinal Grove,Assisted Living Programs,Active,Garner,1355 Division Street,,S0119,28,Hancock,50438-1968,(641) 923-2677
Care Unit A,Residential Care Facilities,Active,Afton,500 Opal Street,jana.dailey@innovative-industries.org,880682,15,Union,50830-1079,(641) 347-5611
Care Unit B,Residential Care Facilities,Active,Afton,500 Opal Street,jana.dailey@innovative-industries.org,880683,15,Union,50830-1079,(641) 347-5611
Carlisle Center For AL,Assisted Living Programs,Active,Carlisle,685 Cole Street,,S0309,44,Warren,50047,(515) 989-7022
Cedar Creek Rescare,Residential Care Facilities,Closed,Fairfield,1930 250th Street,jkirby@iowarescare.com,510365,45,Jefferson,52556-8865,(641) 693-4541
Cedar Falls Lutheran Home,Residential Care Facilities,Closed,Cedar Falls,7511 University Avenue,wager@cflh.org; bhilmer@cflh.org,70154,50,Black Hawk,50613-5009,(319) 268-0401
Cedar Health Rcf,Residential Care Facilities,Closed,Charles City,807 Fifth Street,admin@cedarhealth.net,340469,15,Floyd,50616-3397,(641) 228-1612
Cedar Lane Estates,Residential Care Facilities,Closed,Jefferson,1114 J Avenue,clestate@netins.net,370317,40,Greene,50129-7022,(515) 386-2387
Cedar Place Assisted Living,Assisted Living Programs,Active,Story City,812 Cedar Street,,S0207,44,Story,50248-1472,(515) 733-9092
Cedar Ridge Village,Assisted Living Programs,Active,West Des Moines,8950 Coachlight Drive,,S0447,68,Dallas,50266,(515) 369-2100
Cedar Vale,Assisted Living Programs,Active,Nashua,100 Poppe Lane,tonia7585@Hotmail.com,S0211,40,Chickasaw,50658-9704,(641) 435-4040
Cedar Valley Ranch,Residential Care Facilities,Active,Vinton,2591 61st Street Lane,cedarvalleyranch@hotmail.com,60691,48,Benton,52349-9212,(319) 472-2671
Cedars of Madrid Homes,Assisted Living Programs,Active,Madrid,600 North Kennedy Avenue,,S0176,94,Boone,50156-7608,(515) 795-4097
"Chariton Residential, Llc",Residential Care Facilities,Closed,Chariton,815 Auburn Avenue,,590011,31,Lucas,50049-0839,(641) 774-2315
Charter Senior Living of Northpark Place,Residential Care Facilities,Active,Sioux City,2562 Pierce Street,,970058,60,Woodbury,51104-3706,(712) 255-1200
Chatham Oaks,Residential Care Facilities,Active,Iowa City,4515 Melrose Avenue,apauls@abbehealth.org; dbrecht@abbehealth.org,520457,16,Johnson,52246,(319) 887-2701
Cherry Ridge,Assisted Living Programs,Active,Mt Vernon,217 Business 30 Sw,,S0124,24,Linn,52314-1597,(319) 895-8249
Circle Terrace Lodge,Assisted Living Programs,Active,Manly,155 Circle Terrace,,S0234,8,Worth,50456-5073,(641) 454-3329
Clarence Assisted Living,Assisted Living Programs,Active,Clarence,408 2nd Avenue,,S0329,36,Cedar,52216,(563) 452-3266
Clarksville Nursing Home,Residential Care Facilities,Closed,Clarksville,115 North Hilton Street,,120205,9,Butler,50619-0159,(319) 278-4900
Clearview Estates AL,Assisted Living Programs,Active,Mt Ayr,500 W Columbus,,S0100,24,Ringgold,50854-1100,(641) 464-0651
Cobble Creek AL of Sheldon,Assisted Living Programs,Active,Sheldon,980 Oak Street,,S0106,12,O'Brien,51201-1221,(712) 324-7404
Cobble Creek AL of Spencer,Assisted Living Programs,Active,Spencer,2116 1st Ave E,,S0091,12,Clay,51301-2313,(712) 262-1430
Cobblestone Court Assisted Living,Assisted Living Programs,Active,Sumner,3187 140th Street,,S0361,60,Bremer,50674,(563) 578-9001
Colonial Estates,Assisted Living Programs,Active,Columbus Junction,815 Colonial Lane,,S0311,18,Louisa,52738,(319) 728-2276
Community Care Inc,Residential Care Facilities,Closed,Charlotte,1611 330th Avenue,a_ganzerbovitz@communitycareinc.net,230904,58,Clinton,52731-9682,(563) 659-4100
"Community Care Of Knoxville, LLC",Residential Care Facilities,Active,Knoxville,205 North Iowa Street,,630299,29,Marion,50138-0287,(641) 842-4618
Community Memorial AL,Assisted Living Programs,Active,Hartley,233 North 8th Avenue West,,S0150,32,O'Brien,51346-1077,(712) 728-2524
Cookson Memorial Home,Residential Care Facilities,Closed,West Branch,204 Cookson Drive,,160500,20,Cedar,52358-0000,(319) 643-2325
Copper Creek,Assisted Living Programs,Active,West Union,609 Hwy 150 North,,S0424,48,Fayette,52175,(563) 422-9200
Cornerstone AL,Assisted Living Programs,Active,Mason City,302 2nd Street Ne,,S0120,90,Cerro Gordo,50401-3412,(641) 424-1740
Corridor Crossing Place,Residential Care Facilities,Active,Cedar Rapids,136 36th Avenue Sw,nurse@corridorcrossingplace.com; bbarclay@jaybirdsl.com; nlensch@jaybirdsl.com,570617,61,Linn,52404-4638,(319) 362-6868
Cottage Grove Place,Assisted Living Programs,Active,Cedar Rapids,2115 1st Ave Se,,S0035,82,Linn,52402-6358,(319) 297-5600
Cottonwood Residential Care Facility,Residential Care Facilities,Active,Burlington,"910 Cottonwood, Suite 1002",dina.garrison@hopehavencorp.com,290970,15,Des Moines,52601,(319) 237-1072
Country Care Center,Residential Care Facilities,Active,Harlan,725 Highway 59    Po Box 351,cccc@fmctc.com,830390,40,Shelby,51537-0351,(712) 744-3453
Country Haven,Residential Care Facilities,Closed,Corning,"2168 Us Highway 34, Po Box 409",libbiew@hotmail.com,20050,31,Adams,50841-0409,(641) 322-3291
"Country Haven Guest Homes, Ltd",Assisted Living Programs,Closed,Winterset,2490 Prairieview Avenue,countryhavenwinterset@gmail.com,S0146,15,Madison,50273-8115,(515) 462-3701
Country Life Health Care,Residential Care Facilities,Closed,Oskaloosa,2554 Ford Avenue,countrylifehealthcare@wildblue.net,620603,25,Mahaska,52577-8850,(641) 673-4447
Country View Estates,Residential Care Facilities,Closed,Guthrie Center,2345 Redwood Avenue,grandel_cve@netins.net,390695,16,Guthrie,50115-8888,(641) 755-2125
Countryside Health Care Center,Residential Care Facilities,Closed,Sioux City,6120 Morningside Avenue,Countryside.Admin@imgcares.com,970370,10,Woodbury,51106-3943,(712) 276-3000
Courtyard Estates Of Walcott,Assisted Living Programs,Active,Walcott,510 North Main Street,,S0263,47,Scott,52773-7827,(563) 284-4211
Courtyard Independent And Assisted Living,Assisted Living Programs,Active,Clear Lake,401 W. 10th Avenue North,,S0128,18,Cerro Gordo,50428-4202,(641) 357-1648
Courtyard Terrace,Assisted Living Programs,Active,Boone,717 W 3rd St,,S0177,50,Boone,50036-8217,(515) 433-4406
Cresco Assisted Living,Assisted Living Programs,Active,Cresco,1004 North Elm Street,,S0210,54,Howard,52136-1097,(563) 547-2364
Crown Pointe,Assisted Living Programs,Active,Sioux Center,1400 7th Ave. SE,,S0125,44,Sioux,51250-1199,(712) 722-8260
Custom Care,Assisted Living Programs,Active,Cedar Rapids,1224 13th St NW,,S0108,48,Linn,52405-2404,(319) 365-9171
"Dallas, Inc.",Residential Care Facilities,Closed,Adel,25747 N Avenue,CarolynDillard@dallasinc.org,250008,93,Dallas,50003-8277,(515) 993-4721
Danbury Circle,Assisted Living Programs,Closed,Waterloo,121 Danbury Circle,bmurphy@abcmcorp.com,S0175,16,Black Hawk,50701-9389,(319) 232-6906
Davenport Lutheran AL,Assisted Living Programs,Active,Davenport,1128 W 53rd St,,S0033,34,Scott,52806-2435,(563) 386-6933
Davis Center,Residential Care Facilities,Closed,Bloomfield,22425 Overland Avenue,dmccarty@optimaelifeservices.com,260567,6,Davis,52537-7169,(641) 664-3202
Deer View Manor,Assisted Living Programs,Active,Sigourney,1212 South Stuart Street,,S0325,50,Keokuk,52591,(641) 622-2142
Deerfield Place,Assisted Living Programs,Active,Sheffield,505 East Gilman St,,S0304,32,Franklin,50475,(641) 892-8080
Deerfield Retirement Community,Residential Care Facilities,Active,Urbandale,13731 Hickman Road,,770064,26,Polk,50323-2196,(515) 331-6900
"Deerfield Retirement Community, Inc.",Assisted Living Programs,Active,Urbandale,13731 Hickman Road,,S0362,40,Polk,50323,(515) 331-6903
Diamond Life Health Care,Residential Care Facilities,Closed,Montezuma,4912 Barnes City Road Box 820,dlife@zumatel.net,790725,50,Poweshiek,50171-0820,(641) 623-5715
Dora Barnes Residential Home,Assisted Living Programs,Closed,Centerville,305 W Washington St,,S0077,6,Appanoose,52544,(641) 437-1290
Dubuque Retirement Community,Assisted Living Programs,Closed,Dubuque,2700 Matthew John Drive,mnauman@alcco.com,S0227,274,Dubuque,52002-2929,(563) 690-1900
Duluth House,Residential Care Facilities,Active,Ames,620 Duluth Street,"mlenning@optimaelifeservices.com; 
 mfoster@optimaelifeservices.com",850672,8,Story,50010-5952,(515) 956-2600
Dumont Wellness Center,Residential Care Facilities,Closed,Dumont,921 Third Street,kallbee@abcmcorp.com,120888,5,Butler,50625-0347,(641) 857-3401
Duncan Heights,Residential Care Facilities,Closed,Garner,1465 Highway 18,cboyken@mchsi.com,410551,51,Hancock,50438-9619,(641) 923-3337
Dunlap Assisted Living,Assisted Living Programs,Active,Dunlap,1405 Harrison Road,,S0249,12,Harrison,51529-1565,(712) 643-2121
Dutchman'S Oak,Assisted Living Programs,Closed,Durant,,,s,0,Cedar,52747,() -
Dutchman's Oaks Assisted Living,Assisted Living Programs,Active,Dumont,921 3rd St. P.o. Box 347,,S0178,12,Butler,50625-1034,(641) 857-3401
Eagle Grove Group Home,Residential Care Facilities,Active,Eagle Grove,605 East Broadway,bklug@onevision.org,990493,12,Wright,50533-1820,(515) 448-5464
Eagle Pointe Place,Assisted Living Programs,Active,Dubuque,2700 Matthew John Drive,sroth@enlivant.com,S0348,138,Dubuque,52002,(563) 690-1900
Eagle Ridge Al,Assisted Living Programs,Closed,Elgin,6000 Harding Rd,eagleridge@acegroup.cc,S0099,14,Fayette,52141-0000,(563) 423-7365
Eagle Ridge Independent And Assisted Living,Assisted Living Programs,Active,Guttenberg,1329 Acre Street,,S0354,36,Clayton,52052,(563) 252-2288
Eastern Star Masonic Home,Residential Care Facilities,Active,Boone,715 West 3rd Street,rcolby@iowaoeshome.com; cflugstad@iowaoeshome.com,80268,125,Boone,50036-4000,(515) 432-5274
Edgewater Assisted Living - Brookside,Assisted Living Programs,Active,West Des Moines,9225 Cascade Avenue,,S0414,62,Dallas,50266,(515) 978-2610
Edinburgh Manor,Residential Care Facilities,Closed,Scotch Grove,13241 E23 County Home Road,rrogerson@communitycareinc.net,530041,47,Jones,52310-0000,(319) 462-3875
Ellen Kennedy Living Center,Assisted Living Programs,Active,Dyersville,1177 7th Street SW,,S0155,64,Dubuque,52040-2513,(563) 875-6323
Elm Care Center,Residential Care Facilities,Closed,Jewell,500 East Lane,,400800,37,Hamilton,50130-0520,(515) 827-5181
Elm Crest Retirement Comm,Assisted Living Programs,Active,Harlan,2108 12th Street,,S0059,64,Shelby,51537-2023,(712) 755-5174
Elm Heights Al,Assisted Living Programs,Closed,Shenandoah,1203 S Elm Street,mwiebold@smchospital.com,S0064,11,Page,51601-2221,(712) 246-7600
Elm Springs Independent And Assisted Living,Assisted Living Programs,Active,Allison,900 Seventh Street West,,S0095,36,Butler,50602-9452,(319) 267-2791
Elms,Assisted Living Programs,Active,Reinbeck,1007 3rd Street,,S0341,24,Grundy,50669,(319) 345-6811
"Elmwood PE, LLC",Assisted Living Programs,Active,Onawa,190 North 15th Street,,S0142,48,Monona,51040-1071,(712) 423-2510
Emerald Oaks,Assisted Living Programs,Active,Emmetsburg,2603 17th Street,,S0169,42,Palo Alto,50536-2032,(712) 852-4266
Emerson House,Residential Care Facilities,Closed,Waterloo,2009 Coachman Drive,"carrie.armbrecht@episervice.org; 
 bonnie.kipper@episervice.org; 
 kristine.olson@episervice.org; 
 Julie.loonan@episervice.org",70497,12,Black Hawk,50701-0000,(319) 232-5215
Emerson Point,Assisted Living Programs,Active,Iowa City,1355 Shannon Drive,,S0181,108,Johnson,52246-4192,(319) 466-0200
Epic House,Residential Care Facilities,Active,Waterloo,1210 Idaho Street,megan.henning@episervice.org; callie.johnson@episervice.org; incident.reports@episervice.org,70969,12,Black Hawk,50703,(319) 235-6183
Estabrook Lodge Assisted Living,Assisted Living Programs,Active,Eldora,2302 Rick Collins Way,,S0154,8,Hardin,50627-8357,(641) 939-3491
Eventide Lutheran Home,Residential Care Facilities,Closed,Denison,114 South 20th Street,mbaker@eventidehome.com,240324,12,Crawford,51442-2297,(712) 263-3114
Evergreen Estates I,Residential Care Facilities,Active,Cedar Rapids,3410 12th Avenue Sw,"pat@evergreenestates.biz; 
 mgiorgio_1@evergreenestates.biz",570002,50,Linn,52404-1307,(319) 396-3692
Evergreen Estates II,Residential Care Facilities,Active,Cedar Rapids,307 Edgewood Road SW,,570010,25,Linn,52404-1307,(319) 365-4116
Evergreen Estates III,Residential Care Facilities,Active,Cedar Rapids,2204 Johnson Avenue NW,,570492,50,Linn,52405-4757,(319) 363-8116
Fair Oaks Care Centre,Residential Care Facilities,Closed,Shenandoah,1201 South Walnut Street,admin.forcf@trilliumhcg.com,730994,27,Page,51601-2176,(712) 246-2055
Fairview Care Center,Residential Care Facilities,Closed,Anamosa,104 Broadway Place,a_ganzerbovitz@communitycareinc.net,530159,36,Jones,52205,(319) 432-7922
Faith Home Assisted Living,Assisted Living Programs,Active,Osage,912 Davidson Drive,,S0231,28,Mitchell,50461-1482,(641) 832-2580
First Resources Corp,Residential Care Facilities,Active,Keosauqua,19248 Maple Avenue,,890403,15,Van Buren,52565-8288,(319) 293-3107
Floyd House,Assisted Living Programs,Closed,Sergeant Bluff,403 C St,floydhouse@alcco.com,S0062,47,Woodbury,51054-7705,(712) 943-7025
Floyd Place,Assisted Living Programs,Active,Sergeant Bluff,403 C Street,,S0343,47,Woodbury,51054,(712) 943-7025
Forest Plaza AL,Assisted Living Programs,Active,Forest City,635 Hwy. 9 East,,S0131,80,Winnebago,50436-1028,(641) 585-1555
Fountain View Assisted Living,Assisted Living Programs,Active,Sioux City,5300 Gordon Drive East,,S0403,68,Woodbury,51106,(712) 276-3821
Franken Manor,Assisted Living Programs,Active,Sioux Center,527 North Main Ave,,S0076,60,Sioux,51250-0000,(712) 722-8174
Friendship Home Association Rcf,Residential Care Facilities,Closed,Audubon,714 North Division Street,friend@friendshiphome.com,50124,30,Audubon,50025-1300,(712) 563-2651
Garden View,Assisted Living Programs,Active,Carroll,502 South Maple Street,,S0376,72,Carroll,51401,(712) 794-5050
Garden View Al,Assisted Living Programs,Closed,Des Moines,4911 Sw 19th St,jstoker@pacificahealth.com,S0085,16,Polk,50315-4487,(515) 285-2559
Gardens Assisted Living,Assisted Living Programs,Active,Jefferson,1000 West Washington,,S0269,68,Greene,50129-4701,(515) 386-2555
Gardens at Cherokee,Assisted Living Programs,Active,Cherokee,1610 Highway 3,,S0278,68,Cherokee,51012,(712) 225-2999
Gardens of Cedar Rapids,Assisted Living Programs,Active,Cedar Rapids,5710 Dean Road SW,,S0411,60,Linn,52404,(319) 632-1350
Gateway Residential Care Facility,Residential Care Facilities,Closed,West Burlington,"Po Box 436,  13702 Washington Road",,290513,50,Des Moines,52655-0436,(319) 753-6261
Genesis Development,Residential Care Facilities,Closed,Winterset,1967 Highway 169 North Box 488,tljgenesis@hotmail.com,610431,51,Madison,50273-0230,(515) 462-9083
Georgian Court Of Oskaloosa,Residential Care Facilities,Closed,Oskaloosa,1320 High Avenue West,toweradm@iowatelecom.net,620807,47,Mahaska,52577-0000,(641) 673-5367
Glen Oaks Alzheimer's Special Care Center,Residential Care Facilities,Active,Urbandale,8525 Urbandale Avenue,,775543,66,Polk,50322-4108,(515) 331-0970
Golden Horizons,Assisted Living Programs,Active,Ida Grove,800 Byron Godbersen Drive,,S0316,46,Ida,51445,(712) 364-4128
Good Samaritan Society - Timber Ridge,Assisted Living Programs,Active,Ottumwa,#2 Oak Ridge Road,,S0310,48,Wapello,52501,(641) 684-3553
Good Samaritan Society - Waukon,Residential Care Facilities,Closed,Waukon,21 East Main Street,,30276,6,Allamakee,52172-1799,(563) 568-3447
Goode Residential Care Facility,Residential Care Facilities,Closed,Bloomfield,402 West Goode Street,rochea@mercyhealth.com,260580,15,Davis,52537-0000,(641) 664-2764
Grand Haven Retirement Community,Assisted Living Programs,Active,Eldridge,201 East Franklin Street,,S0410,152,Scott,52748,(563) 285-4900
Grand Jivante - The Lofts,Assisted Living Programs,Active,Ackley,1008 Second Avenue,,S0332,18,Hardin,50601,(641) 847-3531
Grand Living At Bridgewater,Assisted Living Programs,Closed,Coralville,3 Russell Slade Blvd.,kemrich@grandliving.com,S0375,190,Jones,52241,(319) 930-3000
Grand Living at Bridgewater,Assisted Living Programs,Active,Coralville,3 Russell Slade Blvd.,,S0383,190,Johnson,52241,(319) 930-3000
Grand Living at Indian Creek,Assisted Living Programs,Active,Cedar Rapids,325 Collins Road Se,,S0400,182,Linn,52403,(319) 930-3250
Grand Living At Tower Place Al,Assisted Living Programs,Active,West Des Moines,540 S 51st Street,abarth@grandliving.com,S0442,204,Polk,50265,(515) 505-0757
Grand Meadows AL,Assisted Living Programs,Active,Asbury,5300 Grand Meadow Drive,,S0423,16,Dubuque,52002,(563) 690-7150
Grandview Terrace,Residential Care Facilities,Closed,Davenport,4760 Rockingham Road,myersta@royalneighbors.org,820293,54,Scott,52802-2347,(563) 322-3591
Greenfield AL Community,Assisted Living Programs,Active,Greenfield,615 SE Kent,,S0050,40,Adair,50849-9454,(641) 743-6131
Greenleaf Health Care,Residential Care Facilities,Closed,Fort Dodge,1305 North 22nd Street,jfowler@dodgenet.com,940016,18,Webster,50501-5793,(515) 955-4145
Griswold Care Center AL,Assisted Living Programs,Active,Griswold,106 Harrison Street,,S0188,20,Cass,51535-8042,(712) 778-2534
Halcyon House,Residential Care Facilities,Closed,Washington,1015 South Iowa Avenue,cmarshall@wesleyservices.org,920323,7,Washington,52353-1199,(319) 653-7264
Halcyon House - Sitler Center For Helpful Living,Assisted Living Programs,Active,Washington,1015 South Iowa Avenue,,S0392,18,Washington,52353,(319) 653-7264
"Hammond Center, LLC",Assisted Living Programs,Active,Grinnell,907 Orchard Drive,,S0402,38,Poweshiek,50112,(641) 269-5454
Handicapped Development Center #7,Residential Care Facilities,Active,Davenport,4109 White Pines Drive,keyandraharrington@hdcmail.org,820465,8,Scott,52804-0000,(563) 391-4834
Handicapped Development Center #8,Residential Care Facilities,Active,Davenport,3518 Hillandale Road,lindagill@hdcmail.org,820466,8,Scott,52806-0000,(563) 391-4834
Handicapped Development Center #9,Residential Care Facilities,Active,Davenport,1815 West 59th Street,lindagill@hdcmail.org,820467,8,Scott,52806-0000,(563) 391-4834
Hartley Senior Wellness Center,Residential Care Facilities,Closed,Hartley,611 Third Street Ne,cmhc@tcaexpress.net,710023,19,O'Brien,51346-8010,(712) 728-2231
Hazel House,Residential Care Facilities,Closed,Ames,124 South Hazel Avenue,"mfoster@optimaelifeservices.com; 
 jbarber@optimaelifeservices.com",850670,8,Story,50010-5952,(515) 956-2600
Heartland Care Center,Assisted Living Programs,Active,Marcus,604 E. Fenton,,S0014,21,Cherokee,51035-7170,(712) 376-2500
Heartland Care Ctr AL,Assisted Living Programs,Closed,Marcus,604 East Fenton,,S0014,21,Cherokee,51035-0000,(712) 376-2500
Heartwood Heights,Assisted Living Programs,Active,Sibley,409 9th Ave North,,S0101,44,Osceola,51249-0000,(712) 754-3009
Heritage At Fox Run Assisted Living,Assisted Living Programs,Active,Council Bluffs,3121 Macineery Drive,,S0193,132,Pottawattamie,51501,(712) 256-2741
Heritage House,Assisted Living Programs,Active,Atlantic,1200 Brookridge Cir,,S0055,108,Cass,50022-2304,(712) 243-1850
Heritage House,Residential Care Facilities,Closed,Atlantic,1200 Brookridge Circle,,150075,15,Cass,50022-2351,(712) 243-1850
Heritage House,Residential Care Facilities,Closed,Malvern,103 Third Street,,650302,25,Mills,51551-0060,(712) 624-8000
Heritage Residence,Residential Care Facilities,Active,New Hampton,2275 South Linn Avenue Po Box  110,,190405,16,Chickasaw,50659-0110,(641) 394-2391
Highland Park Care Center,Residential Care Facilities,Closed,Des Moines,3620 Fourth Street,,770897,15,Polk,50313-4343,(515) 243-2150
Highland Place,Residential Care Facilities,Closed,Ottumwa,13011 120th Avenue,deb.lang@hillcrest-fs.org; jim.mcdaniel@hillcrest-fs.org; carol.allman@hillcrest-fs.org,900434,31,Wapello,52501-8662,(641) 684-6692
Highland Ridge,Assisted Living Programs,Active,Williamsburg,100 Village View Circle,,S0196,94,Iowa,52361-9684,(319) 668-3800
Higley Mansion Care Center,Residential Care Facilities,Closed,Cedar Rapids,860 17th Street Se,,570031,50,Linn,52403-2610,(319) 364-6710
Hill Boarding Home #1,Residential Care Facilities,Closed,Des Moines,1711 Tenth Street,,770632,12,Polk,50314-2414,(515) 244-2194
Hill Group Home #2,Residential Care Facilities,Closed,Des Moines,1720 Seventh Street,,770743,12,Polk,50314-2901,(515) 243-5411
Hillcrest Court,Assisted Living Programs,Closed,Sidney,115 Main Street,,S0145,9,Fremont,51652-0000,(712) 374-2693
Hillcrest Family Services - Rcf,Residential Care Facilities,Active,Dubuque,1160 Seippel Road,,310829,66,Dubuque,52002-9647,(563) 583-1791
Hillcrest Family Services - Rcf,Residential Care Facilities,Closed,Dubuque,13034 Seippel Road,todd.birch@hillcrest-fs.org,310829,72,Dubuque,52002,(563) 583-1791
Hillcrest House,Residential Care Facilities,Closed,Cedar Rapids,1744 Second Avenue Se,,570078,14,Linn,52403-0000,(319) 365-1205
Hillcrest Residence,Residential Care Facilities,Closed,Iowa City,214 Church Street,,520027,14,Johnson,52245-1902,(319) 337-7315
Hillside Estates,Residential Care Facilities,Closed,Williamsburg,2227 225th Street,hillsideadmin@hughes.net,480653,63,Iowa,52361-8503,(319) 668-1659
Hillside Terrace,Assisted Living Programs,Closed,Spencer,1209 12th Street Se,kerri.kofoot@stlukelh.com,S0216,50,Clay,51301-6090,(712) 262-5934
Hilltop Manor,Residential Care Facilities,Closed,Pella,408 Jefferson Street,lgarrard@pellahealth.org,630485,59,Marion,50219-1298,(641) 628-1381
Hilltop Manor South Ii,Residential Care Facilities,Closed,Pella,413 Jefferson Street,nbakken@pellahealth.org,630153,50,Marion,50219-1295,(641) 628-1100
Hofstader Residential Home,Residential Care Facilities,Closed,Estherville,1720 First Avenue North,,320038,5,Emmet,51334-0000,(712) 362-2210
Holland Farms Senior Living,Assisted Living Programs,Active,Norwalk,2800 Sunset Drive,,S0448,120,Warren,50211,(515) 981-1888
Holy Spirit Al For Dementia,Assisted Living Programs,Closed,Sioux City,1701 W 25th St,,S0015,22,Woodbury,51103-0000,(712) 252-2726
Homestead Assisted Living,Assisted Living Programs,Active,Mason City,2501 W. State Street,,S0045,70,Cerro Gordo,50401-8916,(641) 423-4809
Homestead of Albia,Assisted Living Programs,Active,Albia,6592 165th Street,,S0333,70,Monroe,52531,(641) 932-2102
Homestead of Chariton,Assisted Living Programs,Active,Chariton,1110 North 6th Street,,S0233,70,Lucas,50049-1265,(641) 774-2303
Homestead Of Creston Al,Assisted Living Programs,Active,Creston,1709 West Prairie,mjameson@homesteadofosceola.com,S0429,76,Union,50801,(641) 782-3131
Homestead of Knoxville,Assisted Living Programs,Active,Knoxville,908 South Park Lane,,S0132,122,Marion,50138-3176,(641) 828-7878
"Homestead Of Osceola Operations, LLC",Assisted Living Programs,Active,Osceola,334 N. West View Drive,,S0391,74,Clarke,50213,(641) 342-1036
Homestead of Oskaloosa,Assisted Living Programs,Active,Oskaloosa,2107 South Market Street,,S0428,96,Mahaska,52577,(641) 672-1090
Hope Haven Residential Training Center,Residential Care Facilities,Closed,Orange City,4353 Ironwood Avenue,dsassman@hopehaven.org,840548,15,Sioux,51041-7567,(712) 737-4508
Horizons Unlimited,Residential Care Facilities,Active,Emmetsburg,2201 21st Street,,740043,8,Palo Alto,50536-2229,(712) 852-4495
Houser Street Residence,Residential Care Facilities,Closed,Muscatine,1810 Houser Street,nnauman@iowarescare.com,700555,8,Muscatine,52761-2215,(563) 263-5594
Huskamp Haven,Assisted Living Programs,Active,Algona,300 Riverview Drive,,S0242,32,Kossuth,50511-3241,(515) 395-3300
Independence Village of Ames,Assisted Living Programs,Active,Ames,"1325 Coconino Rd, Ste 300",,S0041,122,Story,50014-7842,(515) 292-2858
Independence Village of Ankeny AL,Assisted Living Programs,Active,Ankeny,1275 SW State Street,,S0419,88,Polk,50023,(515) 963-4000
Independence Village Of Pella AL,Assisted Living Programs,Active,Pella,2604 Fifield Road,,S0404,68,Marion,50219,(641) 628-8260
Independence Village Of Waukee AL,Assisted Living Programs,Active,Waukee,1654 SE Holiday Crest Circle,,S0257,80,Dallas,50263-8685,(515) 987-3625
Indian Creek Independent & Assisted Living Apts.,Assisted Living Programs,Active,Nevada,98 South 6th Street,,S0324,36,Story,50201,(515) 382-6556
Indianola Residential,Residential Care Facilities,Closed,Indianola,401 West Salem Avenue,rlhemness@qwestoffice.net,910290,32,Warren,50125-0318,(515) 961-2556
Insight Human Services,Residential Care Facilities,Closed,Mount Pleasant,"915 South Iris Street, Suite101",tmeyer@henrycountyiowa.us,440765,15,Henry,52641-0157,(319) 385-2046
Iowa Jewish Senior Life Center,Residential Care Facilities,Closed,Des Moines,900 Polk Boulevard,ijslc@dwx.com,770384,15,Polk,50312-2225,(515) 255-5433
Iowa Veterans Home,Residential Care Facilities,Active,Marshalltown,1301 Summit Street,"Penny.CutlerBermudez@ivh.state.ia.us; 
 Timon.Oujiri@ivh.state.ia.us",640108,113,Marshall,50158-5485,(641) 752-1501
Irving Point,Assisted Living Programs,Active,Cedar Rapids,910 7th Avenue SE,,S0286,110,Linn,52401,(319) 294-5007
Jefferson Point,Assisted Living Programs,Closed,North Liberty,45 West Jefferson St.,victoria@burnshousing.com,S0267,120,Johnson,52317-9050,(319) 626-3263
Kathleens Residential Care,Residential Care Facilities,Closed,Emmetsburg,1505 East Fifth Street,JudyC@kathleenscare.com,740018,15,Palo Alto,50536-0279,(712) 852-2267
Keelson Harbour Senior Living AL,Assisted Living Programs,Active,Spirit Lake,2810 Aurora Avenue,,S0406,134,Dickinson,51360,(712) 336-4501
Kennybrook Village,Assisted Living Programs,Active,Grimes,200 Sw Brookside Drive,,S0323,68,Polk,50111,(515) 369-3900
Kensington (the),Assisted Living Programs,Active,Fort Madison,2210 Avenue H,,S0381,91,Lee,52627,(319) 372-4233
Kensington Place,Assisted Living Programs,Active,New Hampton,504 Short Avenue,,S0202,68,Chickasaw,50659-1867,(641) 394-4153
Kentucky Ridge Neighborhood AL,Assisted Living Programs,Active,Mason City,2060 Kentucky Avenue South,,S0153,120,Cerro Gordo,50401-7129,(641) 423-5707
"Kevington Lane, Inc.",Residential Care Facilities,Closed,Sidney,2876 230th Street,aaron@klaasmeyerconsulting.com,360305,15,Fremont,51652-9785,(712) 374-2296
Keystone Cedars Assisted Living,Assisted Living Programs,Active,Cedar Rapids,6325 Rockwell Drive NE,,S0389,122,Linn,52402,(319) 393-9500
Keystone Place At Forevergreen AL,Assisted Living Programs,Active,North Liberty,1275 W. Forevergreen Road,,S0393,112,Johnson,52317,(319) 459-1964
Keystone Senior Suites,Assisted Living Programs,Active,Keystone,251 6th St,,S0018,24,Benton,52249-9538,(319) 442-3234
Kingston Court,Assisted Living Programs,Active,Elkader,118 Reimer Street SW,,S0152,42,Clayton,52043-9558,(563) 245-1620
Kingston Hill,Residential Care Facilities,Active,Cedar Rapids,202 12th Street Sw,,578962,12,Linn,52405,(319) 362-1382
Kosgrove Estate,Assisted Living Programs,Active,Sioux Center,4155 Us 75,,S0115,20,Sioux,51250-7522,(712) 722-4972
Kossuth County Care Facility,Residential Care Facilities,Closed,Algona,1906 90th Avenue,,550826,46,Kossuth,50511-7140,(515) 295-2832
Lakeside Assisted Living,Assisted Living Programs,Active,Emmetsburg,401 North Lawler Street,,S0340,24,Palo Alto,50536,(712) 852-4060
Lakeview Village,Assisted Living Programs,Active,Amana,3012 F Drive,,S0103,56,Iowa,52203-8224,(319) 622-6500
Lamoni Assisted Living,Assisted Living Programs,Active,Lamoni,810 East Third,,S0256,10,Decatur,50140-1300,(641) 784-8910
Landsmeer Ridge Retirement Comm,Assisted Living Programs,Active,Orange City,"1007 7th Street, Ne",,S0037,44,Sioux,51041-1190,(712) 737-8947
Lawton Senior Living,Assisted Living Programs,Active,Lawton,200 E Char-mac Dr,,S0074,50,Woodbury,51030-8171,(712) 944-4893
Leahy Grove Independent And Assisted Living,Assisted Living Programs,Active,Hampton,800 Second Street Se,,S0305,32,Franklin,50441-2626,(641) 456-2701
Legacy House,Residential Care Facilities,Closed,Indianola,207 East Salem Avenue,legacyhousercf@yahoo.com,910498,15,Warren,50125-0000,(515) 961-5245
Legacy Pointe,Assisted Living Programs,Active,Iowa City,1020 S. Scott Blvd.,,S0116,136,Johnson,52240-5832,(319) 341-0911
Leland R Smith Assisted Living Residences,Assisted Living Programs,Active,Wilton,309 Ovesen Drive,,S0187,48,Muscatine,52778-9605,(563) 732-2086
Liberty Square Care Center,Residential Care Facilities,Closed,Nora Springs,111 South Boulder Avenue,liberty@ahahealthcare.com,340777,58,Floyd,50458-0519,(641) 749-5372
Lincolnway Villa AL,Assisted Living Programs,Active,Wheatland,320 East Lincolnway,,S0171,28,Clinton,52777-9731,(563) 374-1295
Lincolnwood Assisted Living,Assisted Living Programs,Active,Edgewood,"302 W Lincoln, Po Box 189",,S0082,54,Delaware,52042-0189,(563) 928-6461
Linden Place AL,Assisted Living Programs,Active,Waverly,1802 5th Ave Nw,,S0088,60,Bremer,50677-1903,(319) 352-8851
Lindens,Assisted Living Programs,Active,Ames,2355 Hamilton Circle,,S0327,32,Story,50014,(515) 296-5000
Linnwood Estates,Assisted Living Programs,Active,Glenwood,700 North Linn Street,,S0191,50,Mills,51534-1100,(712) 527-1035
Longhouse-Northshire Ltd,Residential Care Facilities,Closed,Spencer,711 West 11th Street,,210065,15,Clay,51301-0177,(712) 262-2344
Lutheran Home Apts,Assisted Living Programs,Active,Vinton,1413 2nd Ave,,S0034,36,Benton,52349-1695,(319) 472-2092
Madrid Home For The Aging,Residential Care Facilities,Closed,Madrid,613 West North Street,kkudej@madridhome.com,80797,20,Boone,50156-1059,(515) 795-3007
Maggie's House Assisted Living,Assisted Living Programs,Active,Dewitt,107 E 2nd,,S0089,40,Clinton,52742-2140,(563) 659-1678
Main Street Manor,Assisted Living Programs,Active,Swea City,207 3rd Street North,,S0312,34,Kossuth,50590,(515) 477-0139
Makee Manor,Residential Care Facilities,Closed,Waukon,877 Highway 9,janellingson@hotmail.com,30709,45,Allamakee,52172-7757,(563) 568-4266
Mallard View Inc,Residential Care Facilities,Closed,Carroll,17504 Mahogany Avenue,sharikitt@gmail.com,140647,47,Carroll,51401-9590,(712) 792-3785
Malone Creek Estate,Residential Care Facilities,Closed,Independence,2059 Lee Avenue,sdavis3485@yahoo.com,100468,15,Buchanan,50644-9207,(319) 334-2508
Manning Senior Living,Assisted Living Programs,Active,Manning,203 11th Street,,S0356,53,Carroll,51455,(712) 655-4893
Maple Grove Senior Living,Assisted Living Programs,Active,Centerville,1917 South 18th Street,,S0148,30,Appanoose,52544-3136,(641) 856-6601
Maple Manor Village,Assisted Living Programs,Active,Aplington,343 Parriott,,S0048,36,Butler,50604-1063,(319) 347-1502
Maple Ridge AL,Assisted Living Programs,Active,Mt Ayr,1500 East South Street,,S0136,24,Ringgold,50854-2262,(641) 464-3204
Maples Assisted Living,Assisted Living Programs,Active,Fayette,98 Bolger Drive,,S0204,26,Fayette,52142-9716,(563) 425-4160
Marilyn Ott Center,Residential Care Facilities,Closed,Cresco,21668 80th Street,pat.ogden@westernhome.org,450478,49,Howard,52136-8412,(563) 547-2398
Marion County Care Facility Of Tenco,Residential Care Facilities,Closed,Knoxville,1111 Newbold Street,"sgehlhaar@tenco.org; bwright@tenco.org; 
 camason@tenco.org",630531,15,Marion,50138-1836,(641) 828-6281
Mark Residential Care Facility,Residential Care Facilities,Closed,Chariton,309 South Grand,,590089,11,Lucas,50049-2122,(641) 774-4431
Marshall County Care Facility,Residential Care Facilities,Closed,Marshalltown,2369 Jessup Avenue,,640359,0,Marshall,50158-0000,(641) 754-6324
Martina Place,Assisted Living Programs,Active,Johnston,5815 Winwood Dr,,S0002,120,Polk,50131-1666,(515) 251-7999
Mason City Group Home,Residential Care Facilities,Active,Mason City,695 South Illinois,"sarahbeyer@comprehensivesystems.org; 
 melissabollman@comprehensivesystems.org",170064,15,Cerro Gordo,50401-0000,(641) 423-4513
Mayflower Home,Assisted Living Programs,Active,Grinnell,927 1st Ave,,S0071,17,Poweshiek,50112-2480,(641) 236-6151
Mayflower Home,Residential Care Facilities,Active,Grinnell,616 Broad Street,kmcgriff@mayflowerhomes.com,790277,23,Poweshiek,50112-2267,(641) 236-6151
Mccall Residential Care,Residential Care Facilities,Closed,Oskaloosa,709 A Avenue East,dixieray@mchsi.com,620798,9,Mahaska,52577-0532,(641) 673-7328
Meadows (the),Assisted Living Programs,Active,Manchester,200 Mccarren Dr,,S0069,74,Delaware,52057-0000,(563) 927-6467
Meadows Assisted Living,Assisted Living Programs,Active,Clarion,1302 South Main Street,,S0225,42,Wright,50525-2091,(515) 532-2035
Meadows Of Shell Rock,Assisted Living Programs,Active,Shell Rock,528 N Kelly St,,S0084,60,Butler,50670-1006,(319) 885-4341
Mediapolis Care Facility,Residential Care Facilities,Active,Mediapolis,142 North Orchard,cdschwartz22@hotmail.com,290360,30,Des Moines,52637-0129,(319) 394-3432
Melrose Meadows Retirement Community,Assisted Living Programs,Active,Iowa City,350 Dublin Drive,,S0159,52,Johnson,52246-6013,(319) 341-7893
Methodist Manor Retirement Community,Residential Care Facilities,Closed,Storm Lake,1206 West Fourth,manor@mmrcsl.org,110001,12,Buena Vista,50588-0000,(712) 732-1120
Mica Hill Estates,Assisted Living Programs,Active,Hawarden,2121 Ave L,,S0097,28,Sioux,51023-1361,(712) 551-1074
Mill Pond AL,Assisted Living Programs,Active,Ankeny,1201 SE Mill Pond Court,,S0399,80,Polk,50021,(515) 965-3107
Mills Harbour Independent & Assisted Living,Assisted Living Programs,Active,Lake Mills,311 South 10th Avenue E,,S0262,70,Winnebago,50450-1870,(641) 592-4900
Milvern Guest Home #1,Residential Care Facilities,Closed,Waterloo,413 East First Street,,70606,6,Black Hawk,50703-3501,(319) 234-1323
Milvern Guest Home #2,Residential Care Facilities,Closed,Waterloo,407 East First Street,,70645,12,Black Hawk,50703-3501,(319) 234-1323
Mitchell County Care Facility,Residential Care Facilities,Closed,Osage,3834 March Avenue,mtaets@countysocialservices.org,660549,15,Mitchell,50461-8372,(641) 732-3145
MJ Estates,Assisted Living Programs,Active,Exira,411 S. Carthage Street,,S0364,32,Audubon,50076,(712) 268-5393
Morningstar at Jordan Creek,Assisted Living Programs,Active,West Des Moines,525 S. 60th Street,,S0387,93,Dallas,50266,(515) 505-7155
Mosaic,Residential Care Facilities,Closed,Council Bluffs,600 Ninth Avenue,"mary.arndt@mosaicinfo.org; 
 jim.poehlman@mosaicinfo.org",780204,12,Pottawattamie,51501-6469,(712) 328-3957
Mount Carmel Bluffs,Residential Care Facilities,Closed,Dubuque,1170 Carmel Drive,srentz@preshomes.org,310979,67,Dubuque,52003,(563) 556-5474
Mount Carmel Bluffs,Residential Care Facilities,Closed,Dubuque,1170 Carmel Drive,SRENTZ@PRESHOMES.ORG,310979,67,Dubuque,52003,(563) 556-5474
Mount Carmel Bluffs,Residential Care Facilities,Active,Dubuque,1170 Carmel Drive,sara.rentt@preshome.org,310979,67,Dubuque,52003,(563) 556-5474
Mulberry Place,Assisted Living Programs,Active,Bloomfield,11 Deborah Drive,,S0123,28,Davis,52537-1174,(641) 664-2523
Murphy Place Assisted Living,Assisted Living Programs,Active,Corydon,620 East Monroe,,S0190,20,Wayne,50060-1620,(641) 872-3993
New Hampton Group Home,Residential Care Facilities,Active,New Hampton,841 West Main Street,melissabollman@comprehensivesystems.org; lherman@comprehensivesystems.org,190367,12,Chickasaw,50659-0000,(641) 394-2670
New Horizon Residential,Residential Care Facilities,Closed,Tipton,1033 Logan Avenue,NHR@IOWATELECOM.NET,160012,15,Cedar,52772-9410,(563) 886-6675
Newton Village Inc.,Assisted Living Programs,Active,Newton,122 North 5th Avenue West,,S0416,70,Jasper,50208,(641) 792-0115
Ninth Street Group Home,Residential Care Facilities,Active,Charles City,310 9th Street,"judyrust@comprehensivesystems.org; 
 melissabollman@comprehensivesystems.org",340957,12,Floyd,50616-0457,(641) 228-5785
Noelridge Manor,Residential Care Facilities,Closed,Cedar Rapids,1010 Regent Street Ne,,570395,28,Linn,52402-5730,(319) 395-9502
Northridge Village,Assisted Living Programs,Active,Ames,3300 George Washington Carver Avenue,,S0353,68,Story,50010,(515) 232-1000
Northside Court,Residential Care Facilities,Active,Hull,1111 Seventh Street,avanroek@hopehaven.org; kpatters@hopehaven.org; leanblau@hopehaven.org,840980,12,Sioux,51239-0499,(712) 439-2261
Northwood Pines,Assisted Living Programs,Active,Northwood,"700 10th Street, North",,S0271,32,Worth,50459-1004,(641) 324-0061
Oak Estates,Assisted Living Programs,Active,Conrad,110 Alice Street,,S0105,32,Grundy,50621-2019,(641) 366-3115
Oak Park Place,Assisted Living Programs,Active,Dubuque,1381 Oak Park Place,,S0418,84,Dubuque,52002,(563) 585-4900
Oak Street Group Home,Residential Care Facilities,Active,Red Oak,100 Oak Street,wdavies@nishna.org,690223,8,Montgomery,51566-1431,(712) 623-9767
Oakhill Assisted Living,Assisted Living Programs,Active,Hawarden,1126 Oak Hill Drive,,S0102,18,Sioux,51023-1368,(712) 551-4284
Oakland Heights,Assisted Living Programs,Active,Oakland,904 N Scenic Dr,,S0070,24,Pottawattamie,51560-4070,(712) 482-3566
Oaks at Parkview Care Center,Assisted Living Programs,Active,Fairfield,2235 Hwy 34,,S0276,32,Jefferson,52556,(641) 472-5022
Oakview Home,Residential Care Facilities,Closed,Conrad,511 East Center Street,shughes@mchsi.com,380345,8,Grundy,50621-0785,(641) 366-2212
Oakwood Place at Ridgecrest Village,Assisted Living Programs,Active,Davenport,4130 Northwest Blvd.,,S0430,90,Scott,52806,(563) 391-3430
Odebolt Assisted Living,Assisted Living Programs,Active,Odebolt,799 South Des Moines,,S0250,12,Sac,51458-1032,(712) 668-2224
Odessa Residential Care Facility,Residential Care Facilities,Closed,Wapello,12635 County Road G56,odessaadmin@iowatelecom.net,580626,15,Louisa,52653-9427,(319) 523-8365
Oneota Village,Assisted Living Programs,Active,Decorah,5 Ohio Street,,S0206,32,Winneshiek,52101-1563,(563) 382-1869
Orchard Hill Rescare,Residential Care Facilities,Closed,Washington,2175 Lexington Boulevard,dlueck@iowarescare.com,920517,30,Washington,52353-0000,(319) 653-6571
Osage Group Home,Residential Care Facilities,Active,Osage,818 North Seventh Street,"melissabollman@comprehensivesystems.org; 
 michelewagner@comprehensivesystems.org",660487,15,Mitchell,50461-0000,(641) 732-5507
Oskaloosa Care Center,Residential Care Facilities,Closed,Oskaloosa,412 North A,,620170,0,Mahaska,52577-2152,(641) 673-7572
Otsego Place,Assisted Living Programs,Active,Storm Lake,520 Otsego Street,,S0184,84,Buena Vista,50588-1760,(712) 299-4750
Ottumwa Residential Home,Residential Care Facilities,Closed,Ottumwa,1021 Hackberry,,900954,0,Wapello,52501-0000,(641) 682-2608
Palmer House,Residential Care Facilities,Active,Emmetsburg,1501 Palmer Street,"katesimonson@horizons-unlimited.net; 
 ronaskland@horizons-unlimited.net",740209,8,Palo Alto,50536-1852,(712) 852-4722
Panora AL,Assisted Living Programs,Active,Panora,807 East Main Street,,S0255,13,Guthrie,50216-1017,(641) 755-2700
Park Centre,Assisted Living Programs,Closed,Newton,500 1st Street North,,S0201,32,Jasper,50208-3119,(641) 791-5000
Park Centre,Residential Care Facilities,Closed,Newton,500 First Street North,jrau@wesleyservices.org,S0201,20,Jasper,50208-3112,(641) 791-5000
Park Centre,Assisted Living Programs,Active,Newton,500 1st Street North,,S0201,32,Jasper,50208-3119,(641) 791-5000
Park Place Estates,Assisted Living Programs,Active,Lemars,900 Lincoln St Ne,,S0021,60,Plymouth,51031-3345,(712) 546-6793
Park Place Independent & Assisted Living,Assisted Living Programs,Active,Sac City,551 Park Avenue,,S0281,20,Sac,50583,(712) 662-6260
Parkview Assisted Living,Assisted Living Programs,Active,Fairbank,114 Forest Street,,S0189,36,Buchanan,50629-7713,(319) 635-2585
Parkview Assisted Living,Assisted Living Programs,Active,Coon Rapids,210 Park Street,,S0274,24,Carroll,50058,(712) 999-0120
Parkview Home,Residential Care Facilities,Active,Wayland,102 North Jackson Street,,440318,18,Henry,52654-0038,(319) 256-3525
Penn Center,Residential Care Facilities,Active,Delhi,2237 245th Street,,280422,60,Delaware,52223-0273,(563) 922-2881
Pennington Square,Assisted Living Programs,Active,Monticello,502 Pinehaven Dr,,S0110,48,Jones,52310-2062,(319) 465-2013
Pennsylvania Place,Assisted Living Programs,Active,Ottumwa,One Pennsylvania Place,,S0421,102,Wapello,52501,(641) 684-4000
Perry Lutheran Home Al,Assisted Living Programs,Closed,Perry,2323 E Willis Ave,acregeen@perrylutheranhomes.org,S0068,9,Dallas,50220-2148,(515) 465-5342
Perry Lutheran Homes Eden Acres Campus,Assisted Living Programs,Active,Perry,1300 28th Street; Po Box 578,,S0346,16,Dallas,50220,(515) 465-5316
Perry Lutheran Homes Spring Valley Campus,Assisted Living Programs,Active,Perry,501 12th Street,,S0129,77,Dallas,50220-1913,(515) 465-7500
Petersen Commons,Assisted Living Programs,Active,Davenport,1607 West 12th Street,,S0214,102,Scott,52804-4086,(563) 323-3888
Pheasant Ridge,Residential Care Facilities,Closed,Toledo,2840 K Avenue,brenda@genesisdevelopment.com,860419,15,Tama,52342-9405,(641) 484-3561
Pine Acres Assisted Living,Assisted Living Programs,Active,West Des Moines,1499 Office Park Rd,,S0056,56,Polk,50265-6500,(515) 223-1224
Pinicon Place,Residential Care Facilities,Active,Anamosa,1615 Breca Ridge Drive,rhinz@enlivant.com; legalhelp@enlivant.com,530956,51,Jones,52205-0000,(319) 462-3070
Pinnacle Group Home Llc,Residential Care Facilities,Active,Muscatine,3500 Diana Queen Drive,Barbara@pinnaclegrouphomes.com,705289,6,Muscatine,52761,(563) 554-3250
Pleasant Hill Residential,Residential Care Facilities,Active,Pleasant Hill,4755 Parkridge Avenue,"rlhemness@qwestoffice.net; 
 jmoorecare@mediacombb.net",772231,35,Polk,50327,(515) 777-3631
Pleasant House,Residential Care Facilities,Active,Emmetsburg,1901 Pleasant Street,audreyhansen@horizons-unlimited.net; carlafirkins@horizons-unlimited.net,740273,8,Palo Alto,50536-2261,(712) 852-4404
Pleasant Place,Residential Care Facilities,Closed,Ottumwa,1419 East Second Street,,900166,6,Wapello,52501-0000,(641) 683-1158
Pleasant View Assisted Living,Assisted Living Programs,Active,Whiting,200 Shannon Dr,,S0149,26,Monona,51063-1021,(712) 458-2417
Pleasantview Home Rcf,Residential Care Facilities,Closed,Kalona,811 Third Street,njedlicka@pvhome.org,920280,20,Washington,52247-0309,(319) 656-2421
Prairie Creek Assisted Living,Assisted Living Programs,Active,West Bend,301 4th Street NW,,S0173,32,Palo Alto,50597-5113,(515) 887-4071
Prairie Gate Assisted Living,Assisted Living Programs,Active,Council Bluffs,16 Valley View Drive,nurinko@preshomes.org,S0431,48,Pottawattamie,51503,(712) 352-6600
Prairie Hills at Des Moines,Assisted Living Programs,Closed,Des Moines,5815 Se 27th Street,,S0417,94,Polk,50320,(515) 256-9143
Prairie Hills at Des Moines,Assisted Living Programs,Active,Des Moines,5815 SE 27th Street,,S0417,94,Polk,50320,(515) 256-9143
Prairie Hills Senior Living,Assisted Living Programs,Active,Cedar Rapids,2903 F Avenue Nw,,S0277,86,Linn,52405,(319) 390-7700
Prairie Park,Residential Care Facilities,Closed,Muscatine,1810 Houser Street,nnauman@iowarescare.com,700148,30,Muscatine,52761-2297,(563) 263-5585
Prairie View,Residential Care Facilities,Active,Fayette,18569 Lane Road,,330278,10,Fayette,52142-9525,(563) 422-5606
Prairie View Inn,Assisted Living Programs,Active,Sanborn,610 N. Eastern Street,,S0039,26,O'Brien,51248-1089,(712) 930-3228
Prairie Vista Village,Assisted Living Programs,Active,Altoona,2785 1st Avenue South,,S0342,68,Polk,50009,(515) 967-8700
Premier Suites,Assisted Living Programs,Closed,Mt Pleasant,701 E Mapleleaf Dr,,S0073,12,Henry,52641-0000,(319) 385-1400
Pride Group @ 12th Street,Residential Care Facilities,Active,Lemars,200 12th Street Se,jennifer@thepridegroup.org,750040,8,Plymouth,51031-2503,(712) 546-6570
Pride Group @ 6th Avenue,Residential Care Facilities,Active,Lemars,115 6th Avenue S.w.,jennifer@thepridegroup.org,750560,7,Plymouth,51031,(712) 541-6028
Pride Group @ Division Street,Residential Care Facilities,Closed,Sioux City,4038 Division Street,terry@thepridegroup.org,970163,10,Woodbury,51104,(712) 239-7214
Pride Group @ Lincoln Street,Residential Care Facilities,Active,LeMars,1240 Lincoln Street NE,,750562,43,Plymouth,51031-3319,(712) 546-6529
Pride Group @ Okoboji,Residential Care Facilities,Closed,Okoboji,2273 170th Street,"tresak@thepridegroup.org; 
 reneek@thepridegroup.org",300271,38,Dickinson,51355-0000,(712) 332-2134
Pride Group @ Primghar,Residential Care Facilities,Active,Primghar,6059 390th Street,jennifer@thepridegroup.org,710257,34,O'Brien,51245-0000,(712) 757-6375
Prime Assisted Living,Assisted Living Programs,Active,Lemars,108 1st Avenue NW,,S0197,54,Plymouth,51031-3542,(712) 548-5488
Prime Assisted Living,Assisted Living Programs,Active,Sioux City,725 Pearl Street,,S0245,120,Woodbury,51101-1014,(712) 226-6300
Primrose Retirement Community,Assisted Living Programs,Active,Council Bluffs,1801 East Kanesville Blvd.,,S0273,64,Pottawattamie,51503,(712) 352-1111
Proffitts Residential Care Facility,Residential Care Facilities,Closed,Centerville,615 West Washington Street,cdproffitt@iowatelecom.net,40542,10,Appanoose,52544-1623,(641) 856-8344
Ramsey Village,Residential Care Facilities,Active,Des Moines,1611 27th Street,laura.coco@ramseyvillage.org,770308,41,Polk,50310-5499,(515) 274-3612
Redwood Court,Residential Care Facilities,Active,Rock Valley,1705 19th Street,avanroek@hopehaven.org; kpatters@hopehaven.org; leanblau@hopehaven.org,840979,12,Sioux,51247-1017,(712) 476-2629
Reed Place,Assisted Living Programs,Active,Denison,2506 3rd Ave N,,S0013,43,Crawford,51442-1730,(712) 263-8657
Regency Assisted Living,Assisted Living Programs,Active,Norwalk,815 High Road,,S0232,60,Warren,50211-1462,(515) 981-4576
Ridge Senior Living,Assisted Living Programs,Active,Holstein,801 Benning Drive,manager@holsteinseniorliving.com,S0420,28,Ida,51025,(712) 368-4893
Ridgeview Assisted Living,Assisted Living Programs,Active,Burlington,4925 West Ave,,S0067,72,Des Moines,52601-0000,(319) 752-1200
Ridgeview Assisted Living,Assisted Living Programs,Active,Cedar Rapids,2975 F Avenue Nw,,S0205,88,Linn,52405-2949,(319) 362-1050
Ridgeview Assisted Living - Marion,Assisted Living Programs,Active,Marion,720 Oakbrook Drive,,S0408,60,Linn,52302,(319) 390-8439
Ridgeway Place,Assisted Living Programs,Closed,Waterloo,155 East Ridgeway Ave,lwikle@fm-inc.org,S0130,169,Black Hawk,50702-5000,(319) 272-2622
Ringgold County Group Home,Residential Care Facilities,Active,Mount Ayr,111 Ringgold Street,,800387,8,Ringgold,50854-9574,(641) 464-2871
Rise Ltd Group Home,Residential Care Facilities,Active,Elkader,107 Maxie Avenue,jpensel@riseltd.net,220379,10,Clayton,52043-0696,(563) 245-1868
Risen Son Christian Village,Residential Care Facilities,Active,Council Bluffs,3000 Risen Son Boulevard,mromshek@chliving.org,780641,36,Pottawattamie,51503-1900,(712) 366-9655
River Bend Retirement Community,Assisted Living Programs,Active,Cascade,813 Tyler Street Ne,,S0237,83,Dubuque,52033,(563) 852-5001
River Hills Village,Assisted Living Programs,Active,Keokuk,20 Village Circle,,S0053,64,Lee,52632-2040,(319) 524-5772
River Living Center,Assisted Living Programs,Active,Guttenberg,831 South Hwy 52,,S0279,11,Clayton,52052,(563) 252-3070
River Ridge and Gardens AL,Assisted Living Programs,Active,Fort Dodge,420 Kenyon Road,,S0394,133,Webster,50501,(515) 573-2121
River Valley Residential Services Inc,Residential Care Facilities,Closed,Boone,388 Nature Road,,80028,0,Boone,50036-7283,(515) 432-1822
Riverside Senior Living,Assisted Living Programs,Active,Charles City,209 Park Drive,,S0194,40,Floyd,50616-1619,(641) 228-2800
Riverview Ridge,Assisted Living Programs,Active,Rock Valley,712 Westview Drive,,S0438,76,Sioux,51247,(712) 476-4001
Riverview Terrace,Assisted Living Programs,Active,Spencer,1501 St. Luke Drive,,S0040,117,Clay,51301-6073,(712) 262-5932
"Rock Rapids PE, LLC",Assisted Living Programs,Active,Rock Rapids,1510 S Carroll,,S0047,39,Lyon,51246-2078,(712) 472-4100
Rock Ridge Assisted Living,Assisted Living Programs,Active,Shellsburg,400 Canton Street Nw,,S0235,24,Benton,52332-9645,(319) 436-5570
Rock Ridge Residential Care Center,Residential Care Facilities,Active,Shellsburg,401 Canton Street Nw,rockridgecarecenter@aol.com,60996,30,Benton,52332-0000,(319) 436-5570
Rockwell Residential Care,Residential Care Facilities,Closed,Delmar,302 Center Street,,230510,10,Clinton,52037-0298,(563) 674-4646
Rose Haven Nursing Home,Residential Care Facilities,Active,Marengo,1500 Franklyn Avenue,jwinn@rosehavennursinghome.com,480183,2,Iowa,52301-1399,(319) 642-5533
Rose of Ames,Assisted Living Programs,Active,Ames,1315 Coconino Road,,S0209,112,Story,50014-8035,(515) 268-8828
Rose of Council Bluffs,Assisted Living Programs,Active,Council Bluffs,2306 Sherwood Drive,,S0318,152,Pottawattamie,51503,(712) 322-1000
Rose of Des Moines,Assisted Living Programs,Active,Des Moines,1330 19th Street,,S0223,104,Polk,50314-5000,(515) 244-3300
Rose of Dubuque,Assisted Living Programs,Active,Dubuque,3390 Lake Ridge Drive,,S0331,140,Dubuque,52003,(563) 556-1977
Rose Of East Des Moines,Assisted Living Programs,Active,Des Moines,1331 Idaho Street,,S0282,128,Polk,50316-2463,(515) 883-1000
Rose Of Waterloo,Assisted Living Programs,Active,Waterloo,421 Oak Avenue,,S0266,128,Black Hawk,50703-3401,(319) 232-6061
Rotary Senior Living,Residential Care Facilities,Active,Eagle Grove,620 Se Fifth Street,Tara.Behrendsen@rotaryseniorliving.com; financial@rotaryseniorliving.com,990615,16,Wright,50533-0000,(515) 448-5124
Ruthven Community Care Center,Assisted Living Programs,Active,Ruthven,2701 Mitchell Street,,S0147,30,Palo Alto,51358-7741,(712) 837-5411
Scenic Acres,Residential Care Facilities,Active,St Olaf,23105 Granite Avenue,shirleyc961@hotmail.com,220378,15,Clayton,52072-8049,(563) 245-2640
Scottish Rite Park-rcf,Residential Care Facilities,Active,Des Moines,2909 Woodland Avenue,dboor@scottishritepark.org,771117,25,Polk,50312-3822,(515) 274-4614
Senior Living Center,Residential Care Facilities,Closed,Pocahontas,313 Ne Fifth Street,,760762,43,Pocahontas,50574-1733,(712) 335-3375
Senior Star At Elmore Place Assisted Living,Assisted Living Programs,Active,Davenport,4500 Elmore Avenue,abuchholz@seniorstar.com,S0295,270,Scott,52807-2597,(563) 359-0100
Senior Suites Of Urbandale,Assisted Living Programs,Active,Urbandale,4700 84th St,,S0098,100,Polk,50322-7352,(515) 270-9700
Senior Suites of Urbandale,Residential Care Facilities,Active,Urbandale,4700 84th Street,,770702,35,Polk,50322-1091,(515) 270-9700
Seventh Heaven,Residential Care Facilities,Closed,Dubuque,1321 Tomahawk,iahst@earthlink.net,310945,0,Dubuque,52003-0000,(563) 557-9110
Sheffield Care Center,Residential Care Facilities,Closed,Sheffield,100 Bennett Drive,admin@sheffieldcarecenter.com,350857,4,Franklin,50475-0400,(641) 892-4691
Shirlees Retirement Home,Residential Care Facilities,Active,Indianola,1302 East Second Avenue,,910597,14,Warren,50125-2804,(515) 961-6673
Shores at Pleasant Hill,Assisted Living Programs,Active,Pleasant Hill,1500 Edgewater Drive,,S0382,210,Polk,50327,(515) 262-4444
Sigourney AL,Assisted Living Programs,Active,Sigourney,810 South Stone Street,,S0144,18,Keokuk,52591-1244,(641) 622-2971
Silver Palms,Assisted Living Programs,Active,Mt. Pleasant,126 W. Stonebrook Drive,,S0373,38,Henry,52641,(319) 931-6901
Silver Pond Assisted Living,Assisted Living Programs,Active,Wellman,1400 6th Ave N.,,S0160,20,Washington,52356-9232,(319) 646-5802
"Silveridge, An Eventide Community, LLC",Assisted Living Programs,Active,Denison,222 South 20th Street,,S0315,72,Crawford,51442,(712) 263-2639
Siouxland Residential Services,Residential Care Facilities,Closed,Sioux City,1600 County Home Road,,970530,120,Woodbury,51106-6932,(712) 943-5093
Sitler Center For Helpful Living,Assisted Living Programs,Closed,Washington,1015 South Iowa Avenue,cmarshall@wesleylife.org,S0392,18,Washington,52353,(319) 653-7264
Skiff Med Center Al,Assisted Living Programs,Closed,Newton,204 N 4th Ave E,,S0114,9,Jasper,50208-0000,(641) 791-4328
Solon Assisted Living Village,Assisted Living Programs,Active,Solon,623 E. 5th Street,,S0306,36,Johnson,52333,(319) 624-5353
Southcrest Manor Ii,Assisted Living Programs,Active,Waukon,602 2nd St Sw,,S0221,32,Allamakee,52172-2242,(563) 568-4207
Southfield Wellness Community AL,Assisted Living Programs,Active,Webster City,2414 Des Moines Street,,S0141,50,Hamilton,50595-3514,(515) 832-3715
Spectra Health Care,Residential Care Facilities,Closed,Storm Lake,5726 120th Avenue,spectra1@alta-tec.net,110175,46,Buena Vista,50588-7568,(712) 732-4118
Spring Creek Independent And Assisted Living,Assisted Living Programs,Active,Armstrong,110 2nd Avenue,,S0302,24,Emmet,50514,(712) 868-5567
Springvale Assisted Living,Assisted Living Programs,Active,Humboldt,1050 15th Street North,,S0203,32,Humboldt,50548-1076,(515) 332-7660
Spurgeon Manor,Residential Care Facilities,Active,Dallas Center,1204 Linden Street,mcahill@spurgeonmanor.com,250199,30,Dallas,50063-1052,(515) 992-3735
St Katharines Living Center,Residential Care Facilities,Closed,Davenport,901 Tremont Avenue,,820795,110,Scott,52803-5638,(563) 324-1601
Stacyville Community Nursing Home,Residential Care Facilities,Active,Stacyville,413 South Broad Street,scnh.kfravel@gmail.com,660408,15,Mitchell,50476-5003,(641) 710-2215
Stanard Family Assisted Living Center,Assisted Living Programs,Active,Cedar Falls,420 E 11th St,,S0036,109,Black Hawk,50613-3364,(319) 277-2141
Stirlingshire Of Coralville Al,Assisted Living Programs,Active,Coralville,1140 Kennedy Parkway,JACKIE.SCOTT@FAIRVIEW.ORG,S0444,112,Johnson,52241,(319) 338-8100
Stonebridge Suites,Assisted Living Programs,Active,Cherokee,921 Riverview Drive,,S0158,24,Cherokee,51012-1578,(712) 225-5724
Stonebridge Suites Of Bancroft,Assisted Living Programs,Active,Bancroft,548 East Ramsey,,S0294,18,Kossuth,50517,(515) 885-2463
Stonebridge Suites Of Milford,Assisted Living Programs,Active,Milford,1401 H Avenue,,S0298,44,Dickinson,51351,(712) 338-4742
Stonehill Care Center Rcf,Residential Care Facilities,Closed,Dubuque,3485 Windsor Avenue,pstockel@stonehilldbq.com,310824,41,Dubuque,52001-1312,(563) 557-7180
Stoney Brook Village,Assisted Living Programs,Active,West Union,705 South Pine Street,,S0238,72,Fayette,52175-1548,(563) 422-7145
Storm Residential Home,Residential Care Facilities,Closed,Knoxville,1721 Highway 14,,630585,8,Marion,50138-8703,(641) 828-7766
Suites of Ankeny,Assisted Living Programs,Active,Ankeny,420 NW Ash Drive,,S0357,68,Polk,50021,(515) 635-0936
Summit Heights,Assisted Living Programs,Active,Nora Springs,8 S Summit Ave,,S0060,16,Floyd,50458-8638,(641) 749-2411
Summit House Assisted Living,Assisted Living Programs,Active,Britt,600 1st Street Nw,,S0336,90,Hancock,50423,(641) 843-3333
Summit Pointe Senior Living,Assisted Living Programs,Active,Marion,3505 English Glen Avenue,,S0398,178,Linn,52302,(319) 373-4242
Sunnybrook AL,Assisted Living Programs,Closed,Fairfield,3000 West Madison Avenue,,S0104,8,Jefferson,52556-0000,(641) 469-5778
Sunnybrook Living Care Center,Residential Care Facilities,Closed,Fairfield,400 Highland Street,"telston@sunnybrooklivingcarecenter.com; 
 lhanson@sunnybrooklivingcarecenter.com",510236,8,Jefferson,52556,(641) 209-1600
Sunnycrest Manor,Residential Care Facilities,Closed,Dubuque,2375 Roosevelt Street,cris.kirsch@dubuquecounty.us,310304,16,Dubuque,52001-1392,(563) 583-1781
Sunnycrest Residential Care,Residential Care Facilities,Closed,Des Moines,1039 M L King Jr Parkway,,770570,22,Polk,50314-1202,(515) 243-4102
Sunrise Assisted Living Suites,Assisted Living Programs,Active,Traer,599 Taylor Street,,S0297,30,Tama,50675,(319) 478-2730
Sunrise Villa,Assisted Living Programs,Active,Bellevue,308 North 12th Street,,S0030,36,Jackson,52031-1944,(563) 872-5521
Sunset Knoll Inc,Residential Care Facilities,Closed,Aurelia,401 West 5th Street,sunknoll@newwmtel.net,180325,13,Cherokee,51005-0067,(712) 434-2294
Swales Assisted Living,Assisted Living Programs,Closed,Strawberry Point,313 Elkader St.,cleachman@splh.org,S0303,17,Clayton,52076,(563) 933-6037
Swan House,Assisted Living Programs,Closed,Carroll,1024 E 12th St,cmasching@alcco.com,S0031,83,Carroll,51401-3913,(712) 792-6974
Swan Place,Assisted Living Programs,Active,Carroll,1024 E. 12th Street,,S0349,83,Carroll,51401,(712) 792-6974
Sykora'S Managed Care,Residential Care Facilities,Closed,Cedar Rapids,1330 First Avenue Nw,,570247,15,Linn,52405-0000,(319) 365-8421
Sylvan Woods,Residential Care Facilities,Closed,Ottumwa,Two Pennsylvania Place,,900730,0,Wapello,52501-0000,(641) 684-4000
Systems Unlimited #11,Residential Care Facilities,Active,Iowa City,1801 High Street,"Chris.Alexander@sui.org,Jen.Simmering@sui.org",520288,6,Johnson,52245-6099,(319) 338-9212
Taylor Ridge Estates,Residential Care Facilities,Closed,Lenox,805 N Home Avenue,bmarxen@taylorridgeestates.org,870320,50,Taylor,50851-0010,(641) 333-2221
"Terrace AL of Hillcrest Home, Inc.",Assisted Living Programs,Active,Sumner,915 West 1st Street,deanna.kahler@westernhome.org,S0363,32,Bremer,50674,(563) 578-8591
Terrace Glen Village,Assisted Living Programs,Active,Marion,3400 Alburnett Road,,S0386,68,Linn,52302,(319) 377-9000
Terrace Park Sr Living,Assisted Living Programs,Active,Leon,201sw Lorraine,,S0109,32,Decatur,50144-1182,(641) 446-8396
Terrace View Residential,Residential Care Facilities,Closed,Clarinda,1040 West State Street,terraceview@clarinda.heartland.net,730242,44,Page,51632-0000,(712) 542-3530
Terrace View Residential,Residential Care Facilities,Closed,Clarinda,1020 West State Street,l.matheny@gendeviowa.com,730943,15,Page,51632-0000,(712) 542-3530
The Abbey Of Lemars Rcf,Residential Care Facilities,Closed,Lemars,320 First Avenue Se,dderoch99@yahoo.com,750489,52,Plymouth,51031-2099,(712) 546-7844
The Alverno Senior Living Community,Residential Care Facilities,Active,Clinton,849 13th Avenue North,nielsetm@mercyhealth.com,230199,41,Clinton,52732,(563) 242-1521
The Larabee Center,Residential Care Facilities,Closed,Waverly,1951 Larrabee Avenue,,90619,37,Bremer,50677-9803,(319) 352-2234
The New Homestead,Assisted Living Programs,Active,Guthrie Center,2306 State St,,S0087,28,Guthrie,50115-8896,(641) 332-2204
The Presbyterian Village Of Ackley,Residential Care Facilities,Closed,Ackley,502 Butler Street,jhinders@presvillage.com,420418,40,Hardin,50601-1730,(641) 847-3531
The Woodlands ( Now Listed As Silvercrest At Woodlands Creek),Assisted Living Programs,Closed,,,IowaPal@aol.com,,136,Polk,50325,(515) 223-9755
Thornton Heights Assisted Living,Assisted Living Programs,Active,Lansing,1329 Main St,,S0183,26,Allamakee,52151-9615,(563) 538-4335
Timberland Assisted Living At Deerfield,Assisted Living Programs,Closed,Urbandale,13731 Hickman Road,brenda.ballard@lcrc.net,S0217,48,Polk,50323-2193,(515) 267-0438
Timberland Village,Assisted Living Programs,Active,Story City,725 Timberland Drive,,S0162,48,Story,50248-8772,(515) 733-6500
Tower Living Center,Assisted Living Programs,Active,Garnavillo,"103 Centre Street, Box 477",,S0247,7,Clayton,52049,(563) 964-9090
Turner Pointe Assisted Living,Assisted Living Programs,Active,McGregor,1203 Buell Avenue,,S0246,18,Clayton,52157-7501,(563) 873-3527
Twilight Acres,Residential Care Facilities,Active,Wall Lake,600 West Sixth Street,awunscheltwiacres@netins.net,810342,18,Sac,51466-0000,(712) 664-2488
Valborg Lutheran Home,Residential Care Facilities,Closed,Des Moines,1101 Grandview Avenue,lcsvalborg@aol.com,770300,46,Polk,50316-1500,(515) 265-1629
Valley Lodge AL,Assisted Living Programs,Active,Correctionville,1118 East Hwy. 20,,S0140,18,Woodbury,51016-8056,(712) 372-4466
Valley View Assisted Living,Assisted Living Programs,Active,North English,"150 W. Washington, PO Box 430",,S0185,24,Iowa,52316-9514,(319) 664-3257
Valley View Manor Al,Assisted Living Programs,Active,Muscatine,2421 Lutheran Dr,,S0121,28,Muscatine,52761-9382,(563) 263-1241
Village Assisted Living,Assisted Living Programs,Active,Des Moines,2571 Guthrie Avenue,,S0308,108,Polk,50317-3096,(515) 265-2571
Village Northwest Unlimited,Residential Care Facilities,Active,Sheldon,330 Village Circle,bwhitsell@villagenorthwest.org,710546,8,O'Brien,51201-1299,(712) 324-4873
Village Terrace Al,Assisted Living Programs,Closed,Keosauqua,302 Franklin,Julie.ludwig@vbch.org; kasha.kite@vbch.org,S0174,20,Van Buren,52565-1165,(319) 293-3171
Vintage Hills Retirement Community AL,Assisted Living Programs,Active,Indianola,604 E. Hillcrest Avenue,,S0390,70,Warren,50125,(515) 961-1924
Vista Prairie At Fieldcrest AL,Assisted Living Programs,Active,Sheldon,2501 East 6th Street,,S0426,138,O'Brien,51201,(712) 324-2338
Vita Health Services,Residential Care Facilities,Active,Des Moines,1725 Sixth Avenue,vitahealth2020@gmail.com,770488,15,Polk,50314-3304,(515) 244-1895
Walden Point,Assisted Living Programs,Closed,Des Moines,1200 Fourth Street,waldenpoint@keywaymanagement.com,S0240,120,Polk,50314-3102,(515) 288-9985
Walnut Ridge,Assisted Living Programs,Active,Clive,1701 Campus Drive,,S0396,88,Polk,50325,(515) 457-1111
Walton Group Home,Residential Care Facilities,Active,Burlington,2101 Northern Drive,maureen.richenberger@hopehavencorp.com; jacque.worden@hopehavencorp.com,290960,12,Des Moines,52601-2230,(319) 752-8805
Waukon Living Ctr,Assisted Living Programs,Closed,Waukon,209 2nd Ave Sw,manager@waukonlivingcenter.com,S0032,15,Allamakee,52172-1900,(563) 568-2915
Wayne County Care Facility,Residential Care Facilities,Closed,Corydon,1858 110th St,,930009,15,Wayne,50060-8749,(641) 872-1830
Webster Health Care,Residential Care Facilities,Closed,Fort Dodge,1940 225th Street,,940480,0,Webster,50501-9766,(515) 955-8545
WEL-Life at Alta,Assisted Living Programs,Active,Alta,705 W 7th St,,S0096,57,Buena Vista,51002-1525,(712) 200-2620
WEL-Life at Spirit Lake,Assisted Living Programs,Active,Spirit Lake,1819 23rd St,,S0025,53,Dickinson,51360-7096,(712) 336-3553
Wellington Place,Residential Care Facilities,Closed,Decorah,2479 River Road,smarnin@wellingtonplacedecorah.com,960443,40,Winneshiek,52101-7596,(563) 382-9691
Wellington Place,Assisted Living Programs,Active,Decorah,2475 River Road,,S0252,68,Winneshiek,52101-7591,(563) 382-2292
Wesley Acres Central AL,Assisted Living Programs,Active,Des Moines,3520 Grand Ave,,S0075,126,Polk,50312-4359,(515) 271-6500
Wesley Acres Rcf,Residential Care Facilities,Active,Des Moines,3520 Grand Avenue,bkranovich@wesleylife.org,770287,27,Polk,50312-4397,(515) 271-6500
WesleyLife the Village,Assisted Living Programs,Active,Indianola,1203 North E Street,ewalton2@wesleylife.org,S0212,28,Warren,50125-3276,(515) 961-7458
West Liberty AL Residences,Assisted Living Programs,Active,West Liberty,1000 North Miller Street,,S0118,36,Muscatine,52776-1102,(319) 627-4775
Westhaven Community,Assisted Living Programs,Active,Boone,112 West 4th Street,,S0321,40,Boone,50036,(515) 432-1393
Westminster House Iii,Residential Care Facilities,Closed,Des Moines,940 Cummins Parkway,lindac@bhrci.org,770484,7,Polk,50312-1100,(515) 699-8627
Westside Assisted Living Suites,Assisted Living Programs,Active,Clarksville,110 Ely Street,,S0334,24,Butler,50619,(319) 278-4900
Whispering Creek Senior Living,Assisted Living Programs,Active,Sioux City,2609 Nicklaus Blvd.,,S0425,78,Woodbury,51106,(712) 276-2091
White Oak Estates,Assisted Living Programs,Active,Oskaloosa,914 N. 12th St.,,S0134,24,Mahaska,52577-2416,(641) 673-4443
Willow Dale Independent & Assisted Living,Assisted Living Programs,Active,Battle Creek,118 North Ida Street,,S0180,20,Ida,51006-9425,(712) 365-4338
Willow Heights,Residential Care Facilities,Active,Atlantic,60191 Willow Street,jsteffens@p4progress.org,150850,43,Cass,50022-8172,(712) 243-3411
Willow Winds Assisted Living,Assisted Living Programs,Active,Denver,121 Bremer Avenue,,S0370,48,Bremer,50622,(319) 984-5867
Willows (the),Assisted Living Programs,Active,Stuart,324 SW 6th Street,,S0122,24,Adair,50250-2169,(515) 523-2815
Willows Of Marshalltown,Assisted Living Programs,Active,Marshalltown,2315 Campbell Drive,,S0385,62,Marshall,50158,(641) 758-3123
Windhaven Assisted Living Center,Assisted Living Programs,Active,Cedar Falls,5500 South Main Street,,S0388,166,Black Hawk,50613,(319) 277-2141
Winding Creek Meadows,Assisted Living Programs,Active,Jesup,1044 9th Street,,S0338,48,Buchanan,50648,(319) 827-1052
Woodland Park Assisted Living,Assisted Living Programs,Active,Anamosa,1207 East Third Street,,S0253,32,Jones,52205-1569,(319) 462-2668