Facility Name,Address,City,State,Zip Code,Phone Number,License Number,Capacity,County
Adams Pointe Assisted Living,213 North 48th Street,Quincy,IL,62305,2172286484,5104747,28,Adams
Addolorata Villa,553 McHenry Rd,Wheeling,IL,60090,8472155854,5100562,61,Cook
Admiral at the Lake,933 W. Foster Ave,Chicago,IL,60640,7734331800,5104192,56,Cook
Amber Glen Alzheimer's SCC,1704 East Amber Lane,Urbana,IL,61802,2173840100,5104101,38,Champaign
Amber Ridge Assisted Living,900 43rd Avenue,Moline,IL,61265,3097978181,5105066,46,Rock Island
Amber Ridge Memory Care,221 11th Avenue,Moline,IL,61265,3097577744,5105090,41,Rock Island
American House Cedarlake,14800 South Van Dyke Road,Plainfield,IL,60544,8152543564,5105041,41,Will
American House Orland Park,8021 151st Street,Orland Park,IL,60462,7084032400,5103293,36,Cook
Anam Care Inc.,8104 Sayer Rd,Rockford,IL,61108,8153325566,5103590,20,Winnebago
Anam Glen,7978 Newburg Road,Rockford,IL,61108,8153321919,5106965,13,Winnebago
Anchor of Marion (The),1501 Sandbar Drive,Marion,IL,62959,6189641205,5105181,39,Williamson
"Angel Acres, Inc.",8380 Worleys Mill Rd,Marion,IL,62959,6189988570,5200453,14,Williamson
Apostolic Christian Skylines,7023 N. E. Skyline Dr,Peoria,IL,61614,3096918091,5104499,37,Peoria
Arbor Rose of Arcola,106 East 2nd South Street,Arcola,IL,61910,2175181105,5201519,8,Douglas
Arbor Rose of Charleston,1911 18th Street,Charleston,IL,61920,2175122814,5107013,12,Coles
Arbor Rose of Monticello,1009 South Irving,Monticello,IL,61856,2176006101,5201626,8,Piatt
Arbor Rose of Robinson,500 S. Reed Street,Robinson,IL,62454,6184691244,5107039,13,Crawford
Arbor Rose of Tolono,503 S. Bourne St,Tolono,IL,61880,2174853030,5107021,13,Champaign
Arbor Terrace Naperville,2920 Levernez,Naperville,IL,60564,6308350030,5106395,95,Will
Arboria of Long Grove LLC,2300 IL Route 53,Long Grove,IL,60047,8473836737,5105835,104,Lake
"Arbors at Adams Pointe, The",201 North 48th Street,Quincy,IL,62305,2172286494,5104754,16,Adams
"Arbors at Centennial Pointe, The",3430 Hedley Road,Springfield,IL,62712,2175469016,5105132,16,Sangamon
Arbors at Parkway Gardens (The),375 Fountains Parkway,Fairview Heights,IL,62208,6186221988,5106221,16,St Clair
Artis Senior Living of Bartlett,1035 South Route 59,Bartlett,IL,60103,6308555939,5106437,64,DuPage
Artis Senior Living of Elmhurst,123 West Brush Hill Road,Elmhurst,IL,60126,6303593113,5106155,72,DuPage
Artis Senior Living of Lakeview,3535 North Ashland Avenue,Chicago,IL,60657,7736979003,5106866,136,Cook
Asbury Court,1750 Elmhurst Road,Des Plaines,IL,60018,8472281500,5105058,162,Cook
Aspen Creek of Sullivan,411 N. West Street,Sullivan,IL,61951,2177282092,5106999,18,Moultrie
Aspen Creek of Troy,1924 SRA Bradley Smith Dr.,Troy,IL,62264,6186672003,5201238,12,Madison
Aspired Living of Prospect Heights,708 N. Elmhurst Rd,Prospect Heights,IL,60070,8478181808,5106700,101,Cook
Aspired Living of Westmont,407 West 63rd Street,Westmont,IL,60559,6309604400,5105850,107,DuPage
Assisi HC Center at Clare Oaks,829 Carillon Dr.,Bartlett,IL,60103,6304834742,5102816,33,Cook
Assisted Living at Franciscan Village,11400 Theresa Drive,Lemont,IL,60439,6302433500,5104622,34,Cook
Assisted Living at Silver Creek,1227 Winding Oaks Ln,Mascoutah,IL,62258,6185664100,5102634,33,St. Clair
Assisted Living at Victory Lakes,1065 Victory Dr,Lindenhurst,IL,60046,8473564800,5102980,60,Lake
Atria at River Trail,370 N. Weber Road,Bolingbrook,IL,60440,3312536511,5106544,128,Will
Atria Park of Glen Ellyn,95 Carleton Avenue,Glen Ellyn,IL,60137,6304695555,5101248,85,DuPage
Atrium (The),2885 McFarland Road,Rockford,IL,61107,8152823340,5106460,40,Winnebago
"Autumn Accolade, Inc.",13516 Townline Rd,Green Valley,IL,61534,3093481548,5100125,40,Tazewell
Autumn Fields Adult Community,325 E. Orange St.,Hoopeston,IL,60942,2172832120,5103897,51,Vermilion
Autumn Fields of Savoy,65 East Airport Road,Savoy,IL,61874,2173551990,5104820,46,Champaign
Autumn Fields of Tilton,316 E 14th St,Tilton,IL,61833,2176552255,5106668,48,Vermilion
Autumn Green at Midway Village,6700 S. Keating,Chicago,IL,60629,7735822888,5103996,44,Cook
Autumn Green at Wright Campus,4239 N. Oak Park Ave.,Chicago,IL,60634,7732023388,5103988,45,Cook
Autumn Leaves of Arlington Heights,1625 S. Arlington Heights Rd,Arlington Heights,IL,60005,8477256700,5105165,42,Cook
Autumn Leaves of Bolingbrook,351 Lily Cache Lane,Bolingbrook,IL,60440,6307590797,5104283,36,DuPage
Autumn Leaves of Crystal Lake,495 Alexandra Blvd,Crystal Lake,IL,60014,8154597800,5102865,36,McHenry
Autumn Leaves of Gurnee,505 N. Hunt Club Road,Gurnee,IL,60031,8886628886,5105363,42,Lake
Autumn Leaves of Oswego,900 Douglas Rd.,Oswego,IL,60543,3314547540,5103962,40,Kendall
Autumn Leaves of South Barrington,215 Bartlett Road,South Barrington,IL,60010,8478441205,5104762,38,Cook
Autumn Leaves of St. Charles,10 N. Peck St.,St. Charles,IL,60174,6304854510,5103970,40,Kane
Autumn Leaves of Vernon Hills,500 Atrium Dr,Vernon Hills,IL,60061,8479961000,5102949,36,Lake
Avonlea Cottage #1/Quad Cities,2021 E. 1st St,Milan,IL,61264,3097560755,5100133,30,Rock Island
Avonlea Cottage #2/Quad Cities,2025 E. 1st St,Milan,IL,61264,3097562257,5100141,16,Rock Island
Avonlea Cottage of Dixon,503 Countryside Lane,Dixon,IL,61021,8152886044,5104838,16,Lee
Avonlea Cottage/Sterling,2201 E. LeFevre Rd,Sterling,IL,61081,8156265439,5100158,30,Whiteside
Axelson Assisted Living,2195 Foxglove Dr,Northbrook,IL,60062,8474806350,5102881,58,Cook
Bell Tower Retirement LLC,430 Sidney Street,East Dubuque,IL,61025,8157476701,5104481,48,JoDaviess
Belmont Village Buffalo Grove,500 McHenry Rd,Buffalo Grove,IL,60089,8475375000,5104242,116,Lake
Benedale Ctr-Villa St. Benedict,1920 Maple Ave,Lisle,IL,60532,6307257000,5101396,65,DuPage
Bethel Place-AZ Establishment,6901 N. Galena Rd,Peoria,IL,61614,3096899658,5100208,20,Peoria
Betty's Garden Memory Care,141 Acorn St South,Kewanee,IL,61443,3098839917,5106650,24,Henry
Bickford - Bloomington House,14 Heartland Dr,Bloomington,IL,61704,3096610094,5100240,71,McLean
Bickford - Champaign Cottage,1002 S. Staley Rd,Champaign,IL,61822,2174031900,5100232,44,Champaign
Bickford - Crystal Lake Cottage,717 McHenry Ave,Crystal Lake,IL,60014,8154774200,5102956,56,McHenry
Bickford - Macomb Cottage,1600 Maple Ave,Macomb,IL,61455,3098369700,5100224,28,McDonough
Bickford - Moline Cottage,3650 41st St,Moline,IL,61265,3097360700,5101883,28,Rock Island
Bickford - Oswego Cottage,3712 Grove Rd,Oswego,IL,60543,6305548811,5102998,56,Kendall
Bickford - Peoria I House,1920 W. Willow Knolls Dr,Peoria,IL,61614,3096895400,5100273,60,Peoria
Bickford - Peoria II Cottage,2000 W. Willow Knolls Dr.,Peoria,IL,61614,3095890800,5102469,32,Peoria
Bickford - Quincy Cottage,4221 Maine,Quincy,IL,62305,2172280800,5101909,46,Adams
Bickford - Rockford House,960 N. Mulford Rd,Rockford,IL,61107,8153977100,5100265,65,Winnebago
Bickford - Springfield House,2451 W. White Oak Dr,Springfield,IL,62704,2177879000,5101891,55,Sangamon
Bickford Cottage - St. Charles,2875 Campton Hills Rd,St.Charles,IL,60175,6305878800,5103210,76,Kane
Bickford of Aurora,7 South Orchard Road,Aurora,IL,60506,6306315555,5105934,60,Kane
Bickford of Gurnee,301 S. Hunt Club Road,Gurnee,IL,60031,8472810780,5106270,60,Lake
Bickford of Tinley Park,17301 80th Ave.,Tinley Park,IL,60477,7088455490,5105579,60,Cook
"Birches, LLC (The)",215 55th St,Clarendon Hills,IL,60514,6307891135,5100307,90,DuPage
Blackberry Cottage,904-B Estates Drive,Jerseyville,IL,62052,6189209898,5201501,10,Jersey
Bourbonnais Bickford House,100 Jones Dr,Bourbonnais,IL,60914,8159369500,5100257,50,Kankakee
Bradford Place,1463 Benchmark Ct,Swansea,IL,62226,6186240683,5103483,39,St Clair
Bradford Villa LLC-IV,1122 Koch's Lane,Quincy,IL,62305,2172283379,5201220,8,Adams
"Bradford Villa, LLC-I",1122 Koch's Ln,Quincy,IL,62305,2172283379,5200362,8,Adams
"Bradford Villa, LLC-II",1122 Koch's Ln,Quincy,IL,62305,2172283379,5200560,8,Adams
"Bradford Villa, LLC-III",1122 Koch's Ln,Quincy,IL,62305,2172283379,5200693,8,Adams
Bridgeway Assisted Living,303 East Washington Street,Bensenville,IL,60106,6307660605,5104978,157,DuPage
Bridle Brook Assisted Living,1505 Patton Drive,Mahomet,IL,61853,2175863200,5105355,78,Champaign
Bright Oaks of Aurora 1  (SMSK Aurora LLC),1340 River Street,Aurora,IL,60506,6308928800,5106874,60,Kane
Brightly Senior Living Mascoutah,649 Legacy Place,Mascoutah,IL,62258,6185660566,5106114,57,St Clair
Brighton Gardens of St. Charles,600 Dunham Rd,St. Charles,IL,60174,6305876120,5106809,104,Kane
Brighton Gardens of Wheaton,831 E. Butterfield Rd,Wheaton,IL,60189,6306811234,5106817,116,DuPage
Brookdale Des Plaines,800 S River Rd,Des Plaines,IL,60016,8472940100,5101743,75,Cook
Brookdale Glen Ellyn,60 N. Nicoll Way,Glen Ellyn,IL,60137,6304461600,5100976,63,DuPage
Brookdale Hawthorne Lakes AL,10 E. Hawthorne Pkwy,Vernon Hills,IL,60061,8473672516,5101768,62,Lake
Brookdale Hoffman Estates,1515 Barrington Rd,Hoffman Estates,IL,60169,8474905800,5101750,30,Cook
Brookdale Lake Shore Drive,2960 N. Lake Shore,Chicago,IL,60657,7738802960,5102378,70,Cook
Brookdale Lake View,3121 N. Sheridan Rd,Chicago,IL,60657,7734049800,5101776,57,Cook
Brookdale Lisle AL,1700 Robin Ln,Lisle,IL,60532,6309631880,5101735,64,DuPage
Brookdale Northbrook,4501 Concord Ln,Northbrook,IL,60062,8478037100,5101131,70,Cook
Brookdale Oak Park,1111 Ontario St,Oak Park,IL,60302,7083831111,5100786,44,Cook
Brookdale Orland Park,16051 S. LaGrange Rd,Orland Park,IL,60467,7084032001,5103574,104,Cook
Brookdale Urbana,1706 E Amber Ln,Urbana,IL,61802,2173283150,5100349,91,Champaign
Brookdale Vernon Hills,145 N. Milwaukee Ave.,Vernon Hills,IL,60061,8477932470,5103798,99,Lake
Brookstone Estates of Charleston,300 Lincoln Highway,Charleston,IL,61920,2173486500,5105009,16,Coles
Brookstone Estates of Olney,1110 North East Street,Olney,IL,62450,6183925870,5104994,46,Richland
Burge House (The),424 N. Worthey Street,Flora,IL,62839,6186620931,5201774,16,Clay
"Caledonian House, The",2800 S Des Plaines Avenue,North Riverside,IL,60546,7084475092,5105496,20,Cook
Carriage Crossing Champaign,1701 Congressional Way,Champaign,IL,61822,2173038840,5105611,60,Champaign
Carriage Crossing Senior Living,909 Green Mill Rd,Arcola,IL,61910,2172683516,5104366,56,Douglas
Carrington at Lincolnwood,3501 Northeast Parkway,Lincolnwood,IL,60712,8479736262,5106247,132,Cook
Casita Catherine AL,1510 N 10th St,Quincy,IL,62301,2172244850,5201725,10,Adams
Cedar Lake Assisted Living & Memory Care,777 Church Street,Lake Zurich,IL,60047,8478474425,5105397,86,Lake
Cedar Trails Senior Living,490 Urbana Drive,Freeburg,IL,62243,6185399190,5105983,61,St Clair
Cedarhurst of Bethalto,903 North Moreland Road,Bethalto,IL,62010,6183910335,5106171,68,Madison
Cedarhurst of Breese,13887 Progress Drive,Breese,IL,62230,6185269600,5106346,57,Clinton
Cedarhurst of Centralia,1827 E. Mc Cord,Centralia,IL,62801,6189183764,5101630,16,Marion
Cedarhurst of Collinsville,1207 Vandalia Avenue,Collinsville,IL,62234,6183430800,5105330,66,Madison
Cedarhurst of Edwardsville,7108 Marine Road,Edwardsville,IL,62025,6186599112,5104606,54,Madison
Cedarhurst of Godfrey,1000 Airport Rd,Godfrey,IL,62035,6184668831,5106890,63,Madison
Cedarhurst of Granite City,3450 Village Ln,Granite City,IL,62040,6189313988,5106882,72,Madison
Cedarhurst of Greenville,1200 E. Harris Avenue,Greenville,IL,62246,6186900116,5105942,16,Bond
Cedarhurst of Highland,220 Field Crossing Dr.,Highland,IL,62249,6186543737,5106338,57,Madison
Cedarhurst of Jacksonville,2225 W. Morton Ave,Jacksonville,IL,62650,2172452996,5105652,68,Morgan
Cedarhurst of Naperville,3333 75th Street,Woodridge,IL,60517,6303134992,5106189,109,DuPage
Cedarhurst of Quincy,319 S. 48th Street,Quincy,IL,62305,2177426067,5106825,56,Adams
"Cedarhurst of Shiloh, LLC",429 S. Main St,Shiloh,IL,62269,6186229890,5103558,87,St. Clair
Cedarhurst of Sparta,211 N. Market Street,Sparta,IL,62286,6184432600,5104713,50,Randolph
Cedarhurst of Sparta Memory Care,217 N Market St,Sparta,IL,62286,3148842000,5106205,16,Randolph
Cedarhurst of Waterloo,526 Legacy Drive,Waterloo,IL,62298,6189394030,5106320,56,Monroe
Cedarhurst of Waterloo MC,518 Legacy Drive,Waterloo,IL,62298,6189394344,5106353,30,Monroe
Cedarhurst of Yorkville,4040 Cannonball Trail,Yorkville,IL,60560,6303828725,5106833,73,Kendall
Centennial Pointe Assisted Living,3440 Hedley Road,Springfield,IL,62712,2175469301,5105124,28,Sangamon
Central Baptist Village,4747 N Canfield Ave,Norridge,IL,60706,7085838500,5100364,96,Cook
Century Assisted Living I,701 South Lewis Lane,Carbondale,IL,62901,6185499898,5200867,12,Jackson
Century Assisted Living II,703 Lewis Lane,Carbondale,IL,62901,6185499898,5200875,14,Jackson
Charter Senior Living of Glen Ellyn,190 Geneva Road,Glen Ellyn,IL,60137,6309090101,5107005,44,DuPage
Cherryvale Place,1545 Temple Lane,Rockford,IL,61112,8153328484,5105686,97,Winnebago
Christian Garden Villa I,3406 W. Washington St,Springfield,IL,62711,2177879600,5200925,10,Sangamon
Christian Garden Villa II,3408 W. Washington St.,Springfield,IL,62711,2177879600,5201147,10,Sangamon
Church Creek,1250 W. Central Road,Arlington Heights,IL,60005,8475063200,5104085,34,Cook
Clarendale of Algonquin,2001 West Algonquin RD,Algonquin,IL,60102,8474586800,5105702,114,Mc Henry
Clarendale of Mokena,21536 South Wolf Road,Mokena,IL,60448,8154644418,5106767,96,Will
Colfax Manor Assisted Living,8200 S Colfax Ave.,Chicago,IL,60617,7732034098,5201162,4,Cook
"Colonnade Senior Living, The",700 Weber Road,O' Fallon,IL,62269,6186246000,5104614,125,St Clair
Concordia Village,4101 West Iles,Springfield,IL,62711,2177939429,5103228,48,Sangamon
Copper Creek Cottages,203 Stahlhut Dr,Lincoln,IL,62656,2176518364,5105462,30,Logan
Copper Creek Cottages,1007 E. Columbia St,Litchfield,IL,62056,2173241900,5106064,30,Montgomery
Copper Creek Cottages,920 Country Club Road,Mattoon,IL,61938,2172350001,5105892,30,Coles
Cordia Senior Residence,865 N. Cass Ave,Westmont,IL,60559,6308877000,5100406,116,DuPage
Cottage at New Perspective (The),1902 Eleventh St.,Silvis,IL,61282,3097922800,5101053,13,Rock Island
"Cottages At Salem, Inc",339 S. Hotze Rd,Salem,IL,62881,6185948581,5201758,15,Marion
Cottages of Fox Lake (The)  (Cottages 18 & 20 AZ),"16,18,20,22 Lilac Ave",Fox Lake,IL,60020,8474374663,5106429,64,Lake
"Cottages of New Lenox, Cottage #1",1023 S. Cedar Rd,New Lenox,IL,60451,8154638880,5106916,16,Will
"Cottages of New Lenox, Cottage #2",1025 S. Cedar Rd,New Lenox,IL,60451,8154638880,5106924,16,Will
"Cottages of New Lenox, Cottage #3",1027 S. Cedar Rd,New Lenox,IL,60451,8154638880,5106932,16,Will
"Cottages of New Lenox, Cottage #4",1029 S. Cedar Rd,New Lenox,IL,60451,8154638880,5106940,16,Will
"Cottages of New Lenox, Cottage #5",1031 S. Cedar Rd,New Lenox,IL,60451,8154638880,5106957,16,Will
Country Comfort -Elmwood,829 Hurff Drive,Elmwood,IL,61529,3097422274,5201386,12,Peoria
Country Comfort Henry,615 Patricia Ln,Henry,IL,61537,3093643607,5200818,8,Marshall
Country Comfort Princeton,802 N. Mercer,Princeton,IL,61356,8158792096,5200800,8,Bureau
Country Lane Memory Care,875 Riverton Road,Riverton,IL,62561,2176294265,5105454,30,Sangamon
Courtyard Estates of Bradford,100 Courtyard Estates,Bradford,IL,61421,3098978316,5102683,18,Stark
Courtyard Estates of Bushnell,1201 N.Cole St,Bushnell,IL,61422,3097728000,5103012,38,McDonough
Courtyard Estates of Farmington,1000 East Fort Street,Farmington,IL,61531,3092452550,5105553,32,Fulton
Courtyard Estates of Galva,1000 Courtyard Estates,Galva,IL,61434,3099322600,5102733,32,Henry
Courtyard Estates of Kewanee,141 Junior Ave South,Kewanee,IL,61443,3098532460,5100414,35,Henry
Courtyard Estates of Knoxville,415 East Main Street,Knoxville,IL,61448,3092892660,5105348,32,Knox
Courtyard Estates of Monmouth,1 Courtyard Blvd,Monmouth,IL,61462,3097349355,5101693,51,Warren
Courtyard Village of Kewanee,860 Sunset Dr,Kewanee,IL,61443,3098534044,5101537,39,Henry
Crimson Pointe,7130 Crimson Ridge Dr.,Rockford,IL,61107,8153987792,5103699,73,Winnebago
Eastland Retirement Community,901 Eastland Drive,Auburn,IL,62615,2174389394,5105405,42,Sangamon
Eberhardt Village,431 W. Palmer,Arthur,IL,61911,2175433705,5101917,37,Moultrie
"Eden Retirement Center, Inc",300 S.Station Rd,Glen Carbon,IL,62034,6182885014,5103020,124,Madison
Elevate Saint Andrew Living,7000 N. Newark Avenue,Niles,IL,60714,8476478332,5106973,59,Cook
Elmcroft of Wyndcrest,4817 Oak Hill Road,Rochester,IL,62563,2174986959,5104424,37,Sangamon
Emerald Place,1879 Chestnut Avenue,Glenview,IL,60025,2242069588,5106197,66,Cook
Ems Haven of Rest,719 S. McKinley,Havana,IL,62644,3094020060,5200404,4,Mason
Estates Senior Living & Spa (Ninebark),6800 Ninebark,Springfield,IL,62712,2179713905,5201733,6,Sangamon
"Estates Senior Living & Spa, The",3305 Collingwood Drive,Springfield,IL,62711,2179713905,5201477,5,Sangamon
Eve Assisted Living,10 N. Washington,Hinsdale,IL,60521,6304911000,5103756,61,DuPage
Ever-Green Manor Memory Care,8641 South Saginaw,Chicago,IL,60617,7732034098,5201782,6,Cook
Evergreen Place,4114 West Springfield Avenue,Champaign,IL,61822,2175304300,5106726,52,Champaign
Evergreen Place AL,801 W Gregory St,Normal,IL,61761,3094519355,5100497,60,McLean
Evergreen Place Senior Living - Orland Park,10820 183rd Street,Orland Park,IL,60467,7084791082,5105439,116,Will
Evergreen Senior Living - Chillicothe,404 S. Stillwater Drive,Chillicothe,IL,61523,3092745440,5105033,73,Peoria
Fairview Assisted Living,605 North 4th St.,Fairbury,IL,61739,8156922572,5201857,13,Livingston
Family 1st Shared Home of Oregon,8 Terrace View Blvd,Oregon,IL,61061,8157324045,5200628,16,Ogle
"Fifth Season Res., Benton",401 N. DuQuoin St,Benton,IL,62812,6184396600,5101719,28,Franklin
"Fifth Season Res., Radcliffe",915 Radcliffe St,Marion,IL,62959,6189932800,5100513,26,Williamson
Fountains at Crystal Lake,965 N. Brighton Circle,Crystal Lake,IL,60012,8154558400,5105140,135,McHenry
Fountainview Manor Memory Care,3432 Village Lane,Granite City,IL,62040,6189313999,5103129,46,Madison
Fox Point,3300 Charles Miller Road,McHenry,IL,60050,8153859840,5104408,97,McHenry
Fox Point Manor,3350 Charles Miller Road,McHenry,IL,60050,8153859840,5104416,40,McHenry
Fox River Apartments,1016 Parker St,Olney,IL,62450,6183926168,5100554,30,Richland
Franciscan Village of Lemont,1260 Franciscan Dr,Lemont,IL,60439,6302433500,5100570,47,Cook
Friendship Manor of Illinois,1209 21st Ave,Rock Island,IL,61201,3097869667,5101495,97,Rock Island
Friendship Village of Schaumburg,350 W Schaumburg Rd,Schaumburg,IL,60194,8478845000,5100604,106,Cook
Galena Stauss Assisted Living,200 Altenburg Dr,Galena,IL,61036,8157767375,5100612,24,Jo Daviess
Garden Place Columbia,480 DD Road,Columbia,IL,62236,6182814200,5106007,46,Monroe
Garden Place Millstadt,208 S. Kossuth,Millstadt,IL,62260,6184761440,5106049,15,St Clair
Garden Place Red Bud,351 Lockwood,Red Bud,IL,62278,6182827775,5106015,15,Randolph
Garden Place Waterloo,735 Columbia Ave,Waterloo,IL,62298,6189394900,5106031,20,Monroe
Gardens at Moweaqua (The),525 South Macon Street,Moweaqua,IL,62550,2177683951,5105231,16,Shelby
Gardens at Park Pointe (The),1550 Dupont Avenue,Morris,IL,60450,8155857200,5105801,60,Grundy
Generations at Riverview Senior Living,500 Centennial Drive,East Peoria,IL,61611,3096940022,5106759,42,Tazewell
"Glenwood of Effingham, The",14061 East 1600th St.,Effingham,IL,62401,2173478880,5104804,42,Effingham
"Glenwood of Mahomet, The",1709 South Division Street,Mahomet,IL,61853,2175865100,5104796,44,Champaign
Golden Age Assisted Living,5734 S. Thurlow St,Hinsdale,IL,60521,6302461968,5201543,4,Du Page
Good Samaritan Home of Quincy,2130 Harrison St,Quincy,IL,62301,2172238717,5103772,26,Adams
Grace Point Place,5701 W 101st,Oak Lawn,IL,60453,7082903255,5106403,66,Cook
Grand Victorian of Rockford,3495 McFarland Road,Rockford,IL,61114,8156541400,5105710,62,Winnebago
Grand Victorian of Sycamore,1440 Somonauk Street,Sycamore,IL,60173,8158951900,5105017,61,DeKalb
Grand View Alzheimer's SCC,6210 N. University Street,Peoria,IL,61614,3093238518,5104895,38,Peoria
Grand View Estates,540 Pleasant St,Elizabeth,IL,61028,8158582275,5100646,23,Jo Daviess
Green House of Clark-Lindsey Village (The),101 W Windsor Rd,Urbana,IL,61802,2173442144,5201675,12,Champaign
Green Oaks Senior Living,14595 West Rockland Road,Libertyville,IL,60048,8476801205,5106098,72,Lake
Greenfields of Geneva,0N801 Friendship Way,Geneva,IL,60134,6305786600,5103954,77,Kane
Greentree at Mt. Vernon,208 Zackery Rd,Mt Vernon,IL,62864,6182445580,5106841,112,Jefferson
Griggsville Estates,201 S. Oak,Griggsville,IL,62340,2178332369,5102121,20,Pike
Gurnee Manor,5631 Manchester,Gurnee,IL,60031,3125434404,5201709,8,Lake
Halina's Home Care-5th Avenue,825 N. 5th Avenue,St. Charles,IL,60174,6306700819,5201014,5,Kane
Halina's Home Care-Marion Ave,555 Marion Ave.,St. Charles,IL,60174,6306700819,5201667,5,Kane
Harbor Chase of Long Grove,1190 Old McHenry Rd,Long Grove,IL,60047,8476134838,5106288,138,Lake
Harbor Chase of Naperville,1619 N. Mill Street,Naperville,IL,60563,6307783475,5105603,101,Du Page
Harbor Chase of Plainfield,12446 S. Van Dyke Road,Plainfield,IL,60585,8152673510,5104523,110,Will
Harry Ekstam Assisted Living,831 N. Batavia Ave,Batavia,IL,60510,6308794300,5100794,62,Kane
Hartwell Place,5520 N. Paulina St,Chicago,IL,60640,7732752400,5100653,29,Cook
Harvest View,100 Harvest View Lane,Herscher,IL,60941,8154262000,5103004,42,Kankakee
Harvester Place,150 South Frontage Road,Burr Ridge,IL,60527,6302301170,5105314,66,DuPage
Hawthorne Inn of Galesburg,2245 N. Seminary St.,Galesburg,IL,61401,3093435050,5101941,52,Knox
Hawthorne Inn of Parkway,3116 Williamson County Pk.,Marion,IL,62959,6189938600,5102253,17,Williamson
Hawthorne Inn of Peoria,6906 N Stalworth Dr.,Peoria,IL,61615,3096931400,5100687,52,Peoria
Hawthorne Inn of Peru,1101 31st St,Peru,IL,61354,8152242200,5100695,52,LaSalle
Hawthorne Inn of Pittsfield,625 Prospect St.,Pittsfield,IL,62363,2172855200,5102295,22,Pike
Hawthorne Inn of Rochelle,2201 Flagg Rd,Rochelle,IL,61068,8155614099,5106528,46,Ogle
Hawthorne Inn of Shelbyville,1111 W. North 12th St.,Shelbyville,IL,62565,2177741020,5102246,20,Shelby
Hearthstone of Arlington Heights,800 W. Oakton St.,Arlington Heights,IL,60004,8473687300,5100729,100,Cook
Hearthstone Village,840 N. Seminary Ave,Woodstock,IL,60098,8153382110,5101859,73,McHenry
Heartis Village of Orland Park,7420 W. 159th Street,Orland Park,IL,60462,7084441231,5106262,96,Cook
Heartis Village of Peoria,8201 N. IL State Route 91,Peoria,IL,61615,3096933960,5105595,108,Peoria
Heritage House/Carthage,601 Locust St,Carthage,IL,62321,2173573651,5200180,6,Hancock
"Heritage Woods of Huntley, LLC",12450 Regency Parkway,Huntley,IL,60142,8476695185,5103251,111,Kane
Herrin Affordable,400 Lou Ann Drive,Herrin,IL,62948,6189889540,5100810,24,Williamson
Herrin Market,400 Lou Ann Dr,Herrin,IL,62948,6189889540,5100828,28,Williamson
Hickory Estates of Taylorville,1091 E. 1500 N. Rd,Taylorville,IL,62568,2178243355,5105926,46,Christian
Hickory Point Christian Village,565 W. Marion Ave,Forsyth,IL,62535,2178721122,5102097,48,Macon
Highlands at Westminster Place,3131 Simpson Street,Evanston,IL,60201,8478661605,5100745,85,Cook
Highlands of Lake Forest Place,1101 Pembridge Dr,Lake Forest,IL,60045,8476046700,5100752,31,Lake
Highview in the Woodlands,1000 Falcon Point Place,Rockton,IL,61072,8156246700,5100760,36,Winnebago
Home Care Advantage 1,646 Van Nortwick Court,Batavia,IL,60510,6306772850,5201436,4,Kane
Home Sweet Home of Arlington Hts.,207 W. Appletree Lane,Arlington Heights,IL,60004,8477978646,5201196,4,Cook
Hopedale Commons,221 SW Railroad St,Hopedale,IL,61747,3094496790,5100802,45,Tazewell
Imboden Creek Gardens,185 W. Imboden Dr,Decatur,IL,62521,2172331425,5100836,46,Macon
Inspirations,1000 N. 6th Ave.,St. Charles,IL,60174,6307122233,5201154,6,Kane
Lake Barrington Woods,22320 Classic Ct.,Lake Barrington,IL,60010,8478428900,5104093,100,Lake
Lakeview Memory Care Community,241 E. Lake St.,Bloomingdale,IL,60108,8474665183,5105728,46,Du Page
Lamoine Retirement Living (The),203 N. Randolph Street,Macomb,IL,61455,3095753018,5106676,46,McDonough
"Landings of Carbondale, LLC (The)",2100 Reed Station Parkway,Carbondale,IL,62901,6185199600,5106056,91,Jackson
Lavender Ridge - Jacksonville,750 W. Walnut,Jacksonville,IL,62650,2172438550,5104515,28,Morgan
Lavender Ridge - Olney,1304 N. East St.,Olney,IL,62450,6183924747,5105769,28,Richland
Lavender Ridge Inc. - Mt. Vernon,1400 S. 34th St,Mt. Vernon,IL,62864,6182424050,5103087,28,Jefferson
"Lexington Sq LC Lombard, LLC",555 Foxworth Blvd.,Lombard,IL,60148,6306292900,5103194,126,DuPage
Lexington Sq Lifecare Elmhurst,400 W. Butterfield Rd,Elmhurst,IL,60126,6308325959,5103889,70,DuPage
Liberty Court,124 Liberty Court,Dixon,IL,61021,8152852000,5106478,36,Lee
Liberty Village of Geneseo,920 S Chicago St.,Geneseo,IL,61254,3099440460,5100885,30,Henry
Liberty Village of Streator,2322 N Eastwood Ave.,Streator,IL,61364,8156721900,5100901,30,LaSalle
Life's Journey Mattoon II,300 South Lerna Road South,Mattoon,IL,61938,2172343003,5105918,22,Coles
Life's Journey SL Mattoon,300 Lerna Road South,Mattoon,IL,61938,2172343003,5105272,28,Coles
Life's Journey SL Pana,340 Illinois Route 29,Pana,IL,62557,2175623004,5201683,15,Christian
Life's Journey SL Paris,705 Kenton Avenue,Paris,IL,61944,2174633003,5105264,24,Edgar
Life's Journey SL Taylorville,920 McAdam Drive,Taylorville,IL,62568,2172877000,5105298,46,Christian
Lincolnshire Place,710 Vellagio,Sycamore,IL,60178,8158959870,5103475,40,DeKalb
Lincolnshire Place - Decatur,1215 W. Arbor Drive,Decatur,IL,62526,2178751440,5104739,40,Macon
Lincolnshire Place Loves Park,6617 Broadcast Parkway,Loves Park,IL,61111,8156335880,5103640,40,Winnebago
Lincolnwood Place,7000 N. McCormick Blvd,Lincolnwood,IL,60712,8476864739,5106692,45,Cook
Lodge at Manito (The),1303 S. East Avenue,Manito,IL,61546,3099685330,5105819,48,Mason
Lombard Place Assisted Living & MC,300 West 22nd Street,Lombard,IL,60148,6309537472,5105199,93,DuPage
Luther Center,111 W. State St,Rockford,IL,61101,8159650055,5105900,29,Winnebago
Luther Oaks Inc.,601 Lutz Rd,Bloomington,IL,61704,3096645940,5102642,58,McLean
Luther Place Assisted Living,403 North 4th Street,Danforth,IL,60930,8152692970,5106502,20,Iroquois
Magnolia House,22 Pinewood Drive,Carbondale,IL,62901,6185199560,5201865,8,Jackson
Manteno Springs,600 N Birch St,Manteno,IL,60950,8154686896,5100943,22,Kankakee
Maple Glen Memory Care,750 S. Park Blvd,Glen Ellyn,IL,60137,6304740991,5105967,46,DuPage
Maple Grove Memory Care Red,401 South Adams,Carthage,IL,62321,2173578800,5201337,10,Hancock
Maple Grove Memory Care Silver,403 South Adams,Carthage,IL,62321,2173578800,5201345,10,Hancock
Marian Village,15624 Marian Dr,Homer Glen,IL,60491,7082263780,5100588,27,Will
Marley Oaks AL Residence,12631 W. 187th St,Mokena,IL,60448,8154855860,5201766,10,Will
Mary Lou's Country Home,11629 Maurer Rd,Buffalo,IL,62515,2175253733,5201113,7,Sangamon
Mather (The),425 Davis St.,Evanston,IL,60201,8474925000,5103350,22,Cook
"Meadows of Franklin Grove, The",510 N. State Street,Franklin Grove,IL,61031,8154563000,5105157,44,Lee
"Mercy Circle
(11/25/13)",3659 West 99th Street,Chicago,IL,60655,7732533600,5104507,43,Cook
Meridian Village Association,27 Auerbach Place,Glen Carbon,IL,62034,6182883700,5101701,68,Madison
Mill Creek Alzheimer's SCC,3319 Ginger Creek Dr,Springfield,IL,62711,2177267900,5104119,38,Sangamon
Montgomery Place,5550 South Shore Drive,Chicago,IL,60637,7737534100,5103046,19,Cook
"Moorings of Arlington Heights, LLC  (MC)",1061 S. Moorings Drive,Arlington Heights,IL,60005,8479564500,5106858,20,Cook
"Moorings of Arlington Heights, LLC (AL)",1071 S. Moorings Dr,Arlington Heights,IL,60005,8479564500,5106148,73,Cook
"Morning Star Village, Inc.",1160 North Mulford Road,Rockford,IL,61107,8154849500,5103202,75,Winnebago
Morningside of Godfrey,1373 D'Adrian Professional Park,Godfrey,IL,62035,6184677062,5105108,78,Madison
Morningside of Pekin,2700 S. 14th Street,Pekin,IL,61544,3099294131,5105074,61,Tazewell
Morningside of Shiloh,1201 Hartman Lane,Shiloh,IL,62221,6184762760,5105751,63,St Clair
Morningside of Sterling,2705 Avenue E,Sterling,IL,61081,8156256601,5105116,87,Whiteside
Morningside of Troy,39 Dorothy Drive,Troy,IL,62294,6186671342,5105744,63,Madison
Morningside of Washington,100 Grand Victorian Place,Washington,IL,61571,3094447400,5105082,61,Tazewell
Neighbors Next Door - Gerten 700,700 Gerten Ave,Aurora,IL,60505,6306505706,5200743,4,Kane
Neighbors Next Door - Gerten 701,701 Gerten Avenue,Aurora,IL,60505,6306505706,5200891,4,Kane
Neighbors Next Door Konen,735 Konen Avenue,Aurora,IL,60505,6306505706,5200909,4,Kane
Neighbors Next Door-Audrey,680 Audrey Ave,Aurora,IL,60505,6306505706,5200735,4,Kane
New Perspective-Silvis,1900 Tenth St.,Silvis,IL,61282,3097922800,5102444,81,Rock Island
North Shore Place,1000 Sunset Ridge Road,Northbrook,IL,60062,2243262600,5106163,156,Cook
Northbrook Inn Memory Care,99 Pointe Drive,Northbrook,IL,60062,2242310690,5105512,49,Cook
Northpointe Terrace,5601 E. Rockton Rd,Roscoe,IL,61073,8155254800,5102352,24,Winnebago
Norwood Crossing,6016-20 N. Nina Ave,Chicago,IL,60631,7736314856,5103137,55,Cook
Oak Park Arms,408 S. Oak Park Ave,Oak Park,IL,60302,7083864040,5100984,60,Cook
Oakley Courts,3117 Kunkle Blvd,Freeport,IL,61032,8152335129,5100992,46,Stephenson
Overlook Village Assisted,941 6th Street,Moline,IL,61265,3095584986,5106536,70,Rock Island
Park Place Christian Community,1150 Euclid Avenue,Elmhurst,IL,60126,6309364100,5103913,66,DuPage
Park Vista Retirement Living,1451 20th Ave,East Moline,IL,61244,3097529711,5104598,95,Rock Island
Parkway Gardens,379 Fountains Parkway,Fairview Heights,IL,62208,6186229940,5103517,28,St Clair
Patrician Home,1511 N. Bigelow St,Peoria,IL,61604,3096858716,5201816,10,Peoria
Peace Village,10300 Village Circle Dr,Palos Park,IL,60464,7086712470,5101065,65,Cook
Pleasant Dale Place,28719 Pleasant Dale,Girard,IL,62640,2176273093,5201097,4,Macoupin
Pleasant Hill Residence,1016 W. North St.,Girard,IL,62640,2176279502,5104440,25,Macoupin
Pleasant View Hearthstone AL,505 College Ave,Ottawa,IL,61350,8155871001,5103681,41,LaSalle
"Plymouth Place, Inc.",315 N. LaGrange Rd,LaGrange Park,IL,60526,7084826848,5102782,78,Cook
Porter Place,17833 Harlem Ave,Tinley Park,IL,60477,7087811050,5105488,66,Cook
Prairie Ridge of Galena,1 Prairie Ridge Drive,Galena,IL,61036,8152812393,5105868,14,Jo Daviess
Prairie View Assisted Living,500 E. McNair Rd,Winnebago,IL,61088,8153351800,5104234,30,Winnebago
Prairieview at the Garlands,6000 Garlands Lane,Barrington,IL,60010,8478523400,5101529,50,Lake
Presence Bethlehem Woods Ret Comm,1571 W. Ogden Ave,LaGrange Park,IL,60526,7085793663,5100216,64,Cook
Presence Fox Knoll,421 N. Lake St,Aurora,IL,60506,6308440380,5101073,79,Kane
Presence Heritage Lodge,995 N. Entrance Ave,Kankakee,IL,60901,8159363229,5101081,26,Kankakee
Presence Resurrection Retirement Community,7262 W. Peterson Ave,Chicago,IL,60631,7737927930,5101685,37,Cook
Primrose of Decatur,1145 W. Arbor Drive,Decatur,IL,62526,2178721800,5104259,68,Macon
Providence Place,100 Faith Dr.,Highland,IL,62249,6186544600,5101099,36,Madison
R & R Country Care LLC,1026 Janet Dr,Ruma,IL,62278,6182828585,5105520,15,Randolph
Radcliff at Wood Dale (The),276 East Irving Park Rd.,Wood Dale,IL,60191,6302422988,5106080,115,DuPage
Radford Green,960 Audubon Way,Lincolnshire,IL,60069,8478762401,5106593,37,Lake
Randall Residence of Decatur,1415 W Mound Rd.,Decatur,IL,62526,2178775327,5105876,55,Macon
Red Oak Estates,435 N. 16th St,Canton,IL,61520,3096472475,5101867,43,Fulton
Red Oak Memory Care,421 N 16th Ave,Canton,IL,61520,3096471732,5105561,24,Fulton
Reflections at Garden Place,710 S. Main,Columbia,IL,62236,6182813388,5106023,19,Monroe
Reflections Memory Care - Chatham,401 N. Park Avenue,Chatham,IL,62629,2174834490,5104648,32,Sangamon
Reflections Memory Care - Herrin,517 Rushing Drive,Carterville,IL,62918,6189882889,5104630,32,Williamson
Reflections Memory Care - Morton,1717 North Main,Morton,IL,61550,3093218690,5106742,32,Tazewell
Reflections Memory Care - Savoy,62 E. Airport Road,Savoy,IL,61874,2173596073,5104952,32,Champaign
Reflections Memory Care - Washington,1280 Independence Court,Washington,IL,61571,3095087200,5104465,32,Tazewell
Reserve of Geneva (The),2508 Kaneville Rd,Geneva,IL,60134,6302089188,5105785,12,Kane
Residential Living Center Inc,608 East Illinois Highway 15,Mt. Vernon,IL,62864,6182449318,5105322,48,Jefferson
Resthave Home of Whiteside,408 Maple Ave.,Morrison,IL,61270,8157724021,5104432,37,Whiteside
River Birch Senior Living,4016 Cockrell Lane,Springfield,IL,62711,2176984016,5200966,14,Sangamon
River Birch Senior Living,4008 Cockrell Lane,Springfield,IL,62711,2176984008,5201071,14,Sangamon
River Birch Senior Living,4012 Cockrell Lane,Springfield,IL,62711,2175470400,5200933,14,Sangamon
River Glen of St. Charles,975 North 5th Avenue,St. Charles,IL,60174,6304438220,5105827,78,Kane
Riverside Senior Life Bourb,85 E. Burns Rd,Bourbonnais,IL,60914,8159353332,5104770,80,Kankakee
Riverside Senior Life Community,1485 Butterfield Trail,Kankakee,IL,60901,8159330793,5100323,96,Kankakee
Robin's Nest Assisted Living - 1522 Fargo,1522 Fargo Blvd,Geneva,IL,60134,6309352935,5201568,7,Kane
Robin's Nest Assisted Living -1101 Geneva,1101 Geneva Rd,St. Charles,IL,60174,6309352935,5201576,8,Kane
Robin's Nest Assisted Living-1819 Fargo,1819 Fargo Blvd,Geneva,IL,60134,6309352935,5201592,7,Kane
Rock Run Place Assisted Living,3320 Executive Drive,Joliet,IL,60431,8157294773,5105660,101,Will
Rock Run Place Memory Care,3315 Executive Drive,Joliet,IL,60431,8157252364,5105678,38,Will
Rolling Hills Place,3521 16th St,Zion,IL,60099,8477462147,5101107,59,Lake
Roma Home Care Inc.,13740 S. Archer Ave,Lemont,IL,60439,6303305644,5201261,4,Cook
Samaritan Place,6901 N. Galena Rd,Peoria,IL,61614,3096899661,5101123,63,Peoria
San Gabriel Memory Care,241 Magnolia Drive,Glen Carbon,IL,62034,6182055280,5105959,34,Madison
San Gabriel Memory Care,813 Lars Hoffman Crossing,Godfrey,IL,62035,6184666447,5106486,34,Madison
San Gabriel Memory Care,2509 Frank Watson Parkway,Highland,IL,62249,6186514444,5104911,34,Madison
"Selfhelp Home, Inc",908 W Argyle,Chicago,IL,60640,7732710300,5102261,60,Cook
Senior Star at Weber Place,600 S. Edward Dr,Romeoville,IL,60446,8154399955,5103319,77,Will
Senior Star at Weber Place-AL,605 S. Edward Dr.,Romeoville,IL,60446,8154392033,5103368,205,Will
Serenity Assisted Living,4000 North Main Street,East Peoria,IL,61611,3092222424,5106213,72,Tazewell
Serenity Villa,1 Fairview Dr,Fairbury,IL,61739,8156922572,5106361,20,Livingston
Shepherd Premier Senior Living,6809 Barnard Mill Road,Ringwood,IL,60072,2243336247,5201485,7,McHenry
Sheridan at Green Oaks,29330 North Waukegan Rd,Lake Bluff,IL,60044,2245346660,5105884,120,Lake
Sheridan at Park Ridge (The),501 Busse Highway,Park Ridge,IL,60068,8476530653,5106577,100,Cook
Sheridan at Tyler Creek (The),508 North McLean,Elgin,IL,60123,2242683268,5105629,96,Kane
Silverado #550 Lake Zurich,550 America Ct,Lake Zurich,IL,60047,8473076990,5103715,16,Lake
Silverado #555 Lake Zurich,555 America Ct.,Lake Zurich,IL,60047,8473076990,5103723,16,Lake
Silverado #579 Lake Zurich,579 America Ct.,Lake Zurich,IL,60047,8473076990,5103731,16,Lake
Silverado #600 Lake Zurich,600 America Ct.,Lake Zurich,IL,60047,8473076990,5103749,16,Lake
Silverado Highland Park,1651 Richfield Ave,Highland Park,IL,60035,2247650094,5104390,62,Lake
Silverado Naperville,1936 Brookdale Road,Naperville,IL,60563,6307789221,5105645,50,DuPage
Silverado Orchard Park,5520 Lincoln Avenue,Morton Grove,IL,60053,8475839800,5104382,84,Cook
Silverado St. Charles,4058 E. Main Street,St. Charles,IL,60174,6307934464,5106494,55,Kane
Simple Blessings,203 E. Monroe,Casey,IL,62420,2179322603,5200750,10,Clark
Simple Comfort Retirement Home,2412 Becker Dr,Peru,IL,61354,8152233045,5200768,6,LaSalle
Smith Crossing,10501 Emilie Ln,Orland Park,IL,60467,7083262326,5101677,62,Will
Smith Village,2320 W. 113th Place,Chicago,IL,60643,7734747314,5102006,82,Cook
Snyder Village Assisted Living,1115 Harbers Lane,Metamora,IL,61548,3093672500,5100950,65,Woodford
"Solana Deer Park, The",21840 W. Lake Cook Road,Deer Park,IL,60010,8475501927,5105389,84,Lake
Spring Meadows Libertyville,901 Florsheim Drive,Libertyville,IL,60048,8478169990,5103673,100,Lake
Spring Meadows Naperville,504 N River Rd,Naperville,IL,60563,6305484488,5103665,107,DuPage
Springfield Homes The Ranch,3363 Spaulding Orchard Road,Springfield,IL,62711,2176791030,5201873,5,Sangamon
"Springs at Monarch Landing, The",2308 N. Route 59,Naperville,IL,60563,6303001200,5106585,28,DuPage
Springs of Vernon Hills (The),350 South Milwaukee Ave,Vernon Hills,IL,60061,8476349300,5106254,70,Lake
"St. James Villas Wellness, Rehab Villas",1251 East Richton Road,Crete,IL,60417,7086726700,5104705,60,Will
St. Joseph Village of Chicago,4021 W. Belmont,Chicago,IL,60641,7733285500,5102030,40,Cook
"Stillwater Senior Living, LLC",1111 University Drive,Edwardsville,IL,62025,6186922273,5104903,46,Madison
Stonecroft Village Retirement Community,1700 Burlington St.,Mendota,IL,61342,8155385300,5106452,32,LaSalle
Sugar Creek Alzheimer's SCC,505 E Vernon Ave,Normal,IL,61761,3094513000,5104127,38,McLean
Summit of Uptown,10 N. Summit,Park Ridge,IL,60068,8478251161,5106569,65,Cook
Sunrise of Barrington,510 Northwest Highway,Barrington,IL,60010,8473828888,5104028,45,Lake
Sunrise of Bloomingdale,129 E Lake St.,Bloomingdale,IL,60108,6302958600,5101206,82,DuPage
Sunrise of Buffalo Grove,180 West Half Day Rd,Buffalo Grove,IL,60089,8474788484,5101214,79,Lake
Sunrise of Crystal Lake,751 E Terra Cotta Ave,Crystal Lake,IL,60014,8154446600,5101222,58,McHenry
Sunrise of Flossmoor,19715 Governor's Hwy,Flossmoor,IL,60422,7087981600,5101230,62,Cook
Sunrise of Fountain Square,2210 Fountain Square,Lombard,IL,60148,6308741405,5103343,80,DuPage
Sunrise of Gurnee,500 N. Hunt Club Rd.,Gurnee,IL,60031,8478568100,5101255,59,Lake
Sunrise of Highland Park,1601 Green Bay Road,Highland Park,IL,60035,8476811620,5104275,75,Lake
Sunrise of Lincoln Park,2710 N. Clark St,Chicago,IL,60614,7732440005,5101263,60,Cook
Sunrise of Naperville,960 E. Chicago Ave.,Naperville,IL,60540,6305791400,5101271,76,DuPage
Sunrise of Naperville North,535 W. Ogden Ave.,Naperville,IL,60563,6303059400,5101289,77,DuPage
Sunrise of Palos Park,12828 S. LaGrange Rd.,Palos Park,IL,60464,7083613577,5101297,85,Cook
Sunrise of Park Ridge,1725 Ballard Rd.,Park Ridge,IL,60068,8478241724,5101305,110,Cook
Sunrise of Schaumburg,790 N. Plum Grove Rd,Schaumburg,IL,60193,8475179700,5101313,82,Cook
Sunrise of Willowbrook,6300 Clarendon Hill Rd,Willowbrook,IL,60527,6307349954,5101321,82,DuPage
Sunrise of Wilmette,615 Ridge Rd,Wilmette,IL,60091,8472561600,5106791,28,Cook
Sunrise Villa Olympia Fields,3633 Breakers Drive,Olympia Fields,IL,60461,7087473333,5105470,31,Cook
Sunset Haven,361 N. Alfred Ave,Elgin,IL,60123,8477421448,5200669,7,Kane
Sunshine Gardens,442 Comfort Drive,Marion,IL,62959,6183640482,5105215,63,Williamson
Sycamore Village,217 Castellano Dr,Swansea,IL,62226,6182222571,5103863,109,St. Clair
Taylorville Estates Inc,705 South Houston Street,Taylorville,IL,62568,2178242222,5104473,49,Christian
Terra Vista of Oakbrook Terrace LLC,1635 D. Ardmore Avenue,Oakbrook Terrace,IL,60181,6305340886,5105207,106,DuPage
Terraces at The Clare,55 East Pearson Street,Chicago,IL,60611,3127848100,5104044,39,Cook
"Theresa's Home Care 1, LLC",6455 Cunningham Court,Gurnee,IL,60031,8475252816,5200917,5,Lake
"Theresa's Home Care II, LLC",5044 Darlene Dr,Gurnee,IL,60031,8475252816,5201063,4,Lake
"Theresa's Home Care III, LLC",402 Bonnie Brae Ave,Grayslake,IL,60030,8475252816,5201303,3,Lake
Three Crowns Park,2323 McDaniel,Evanston,IL,60201,8473288700,5102915,18,Cook
Three Oaks Assisted Living,1055 Silver Lake Rd,Cary,IL,60013,8475166016,5103947,94,McHenry
Timber Creek Village,201 Stahlhut,Lincoln,IL,62656,2176518771,5104812,40,Logan
Timber Creek Village,101 W. Sallee Street,Litchfield,IL,62056,2173132208,5106510,40,Montgomery
Timber Creek Village,1302 W Highland Ave.,Robinson,IL,62454,6185448877,5103855,39,Crawford
Timbers of Shorewood,1100 N. River Rd,Shorewood,IL,60404,8156090669,5101347,90,Will
Travanse Living at Grayslake,1865 East Belvidere Rd,Grayslake,IL,60030,8475487000,5105694,96,Lake
Travanse Living at Wheaton,219 E. Parkway Drive,Wheaton,IL,60187,6307520644,5105793,84,Du Page
Tremont Ridge Assisted Living,801 E Tremont St,Hillsboro,IL,62049,2175322733,5101354,38,Montgomery
Trenton Village LLC,980 E. Broadway,Trenton,IL,62293,6182249465,5102170,57,Clinton
United Methodist Village N. Campus,2101 James St,Lawrenceville,IL,62439,6189433444,5200974,6,Lawrence
"United Methodist Village Retirement Community, INC.",5201 Asbury Avenue,Godfrey,IL,62035,6184670191,5101362,44,Madison
Vi at The Glen,2401 Indigo Lane,Glenview,IL,60026,8479044710,5100398,36,Cook
Victorian Inn,12600 Renaissance Circle,Homer Glen,IL,60491,7083010800,5101370,60,Will
Villa Catherine AL,491 Clinton St,Carlyle,IL,62231,6185948363,5101388,18,Clinton
Village at Mercy Creek (The),1501 Mercy Creek Dr.,Normal,IL,61761,3092681501,5106684,60,McLean
Village Woods,2681 S. Route 394,Crete,IL,60417,7086726111,5101404,50,Will
Villas at St. James,14335 Jamestown Road,Breese,IL,62230,6185260100,5104663,65,Clinton
Villas of Holly Brook & Reflections Pekin,2720 S. 14th Street,Pekin,IL,61455,3092013763,5105777,86,Tazewell
Villas of Holly Brook Bethalto,312 Mechanical Drive,East Alton,IL,62024,6187170820,5106551,74,Madison
Villas of Holly Brook Bloomington Fox Creek,2016 Fox Creek Rd,Bloomington,IL,61701,3098084027,5106239,71,McLean
Villas of Holly Brook Charleston,738 18th Street,Charleston,IL,61920,2175122773,5106106,71,Coles
Villas of Holly Brook Chatham,825 East Walnut,Chatham,IL,62629,2174834655,5104564,50,Sangamon
Villas of Holly Brook Effingham,904 West Evergreen,Effingham,IL,62401,2173422345,5104572,44,Effingham
Villas of Holly Brook Gibson City,1400 N. Melvin Street,Gibson City,IL,60936,2177271082,5105223,50,Ford
Villas of Holly Brook Harrisburg,220 Ron Crank Drive,Harrisburg,IL,62946,6182529218,5105538,68,Saline
Villas of Holly Brook Herrin,505 Rushing Drive,Carterville,IL,62918,6189931997,5104580,50,Williamson
Villas of Holly Brook Marshall,17050 North Quality Lime Road,Marshall,IL,62441,2178265600,5104531,46,Clark
Villas of Holly Brook Monticello,901 Medical Center Dr,Monticello,IL,61856,2176311136,5104291,50,Piatt
Villas of Holly Brook Morton,1709 North Main Street,Morton,IL,61550,3093218393,5105173,76,Tazewell
Villas of Holly Brook Newton,101 South Gregory Dr.,Newton,IL,62448,6187834181,5104549,41,Jasper
Villas of Holly Brook Rantoul,722 Stone Bridge Center Drive,Rantoul,IL,61866,2172829854,5106312,74,Champaign
Villas of Holly Brook Savoy,68 E. Airport Road,Savoy,IL,61874,2173596224,5104945,50,Champaign
Villas of Holly Brook Shelbyville,2201 W. Main Street,Shelbyville,IL,62565,2177741040,5104556,45,Shelby
Villas of Holly Brook Towanda Barnes,1815 N. Towanda Barnes Road,Bloomington,IL,61701,3095850541,5106445,74,McLean
Villas of Holly Brook Washington,1285 Independence Court,Washington,IL,61571,3095087100,5104457,79,Tazewell
Villas of South Park,10000 South Main Street,Chatham,IL,62629,2176975415,5105447,50,Sangamon
Vines Senior Home (The),971 Bode Rd,Elgin,IL,60120,8476959600,5106122,14,Cook
Violet Lane,101 N. Violet Lane,Carbondale,IL,62901,6185199560,5200941,6,Jackson
Voyage Senior Living - Marion South,815 Mississippi Drive,Marion,IL,62959,6189933503,5104218,27,Williamson
Voyage Senior Living - Murphysboro East,5 North Shawnee Dr,Murphysboro,IL,62966,6186845818,5100299,50,Jackson
Voyage Senior Living - Murphysboro West,11 N. Shawnee Dr,Murphysboro,IL,62966,6186845818,5100281,24,Jackson
Waterford Estates,17400 S. Kedzie Ave,Hazel Crest,IL,60429,7083351600,5101412,80,Cook
Waverly Inn Memory Care Community,515 W. Rand Road,Arlington Heights,IL,60004,2242488916,5106411,60,Cook
Weinberg Community,1551 Lake Cook Rd,Deerfield,IL,60015,8473740500,5101420,165,Cook
Welbrook Bloomington Operating Co,1402 Leslie Dr,Bloomington,IL,61704,3096032500,5106387,80,McLean
Wellshire Morton Grove,8415 Waukegan Road,Morton Grove,IL,60053,8474704550,5104887,45,Cook
Westbridge Assisted Living,500 Wyndemere Circle,Wheaton,IL,60187,6306906662,5105025,82,DuPage
Westbrook Senior Living,110 W. Schaumburg Rd,Streamwood,IL,60107,6303724114,5105504,80,Cook
Westminster Village AL,2025 E. Lincoln St,Bloomington,IL,61701,3096636474,5102329,60,McLean
White Oaks at Heritage Woods of McHenry,4605 W. Crystal Lake Rd,Mc Henry,IL,60050,8153442970,5106072,40,McHenry
White Oaks at Spring Street,1300 Spring Street,South Elgin,IL,60177,8477173187,5104846,30,Kane
Willow Crossing Senior Living,809 N. Central Ave.,Addison,IL,60101,6302917500,5201790,3,DuPage
Willow Falls,1681 Willow Circle Drive,Crest Hill,IL,60403,8157255868,5105546,113,Will
Willowbrook of Effingham,100 Blohm Avenue,Effingham,IL,62401,2178210779,5200990,12,Effingham
Willowbrook of Effingham #3,104 Blohm Avenue,Effingham,IL,62401,2178210779,5201550,12,Effingham
Willowbrook of Effingham East,102 Blohm Ave,Effingham,IL,62401,2173423239,5201105,12,Effingham
Willowbrook of Marshall #1,1002 North Second St,Marshall,IL,62441,2178210779,5201741,12,Clark
Willowbrook of Marshall #2,1000 N. 2nd Street,Marshall,IL,62441,2178210779,5201840,12,Clark
Willowbrook of Savoy,404 W. Curtis,Savoy,IL,61874,2176078932,5201394,12,Champaign
Willowbrook of Savoy #2,406 W. Curtis,Savoy,IL,61874,2176007705,5201493,12,Champaign
Willowbrook of Savoy #3,408 W Curtis,Savoy,IL,61874,2178210779,5201527,12,Champaign
Willowbrook of Vandalia #1,1125 Sunset Drive,Vandalia,IL,62471,2178210779,5201808,12,Fayette
Windsor Court - Savoy,401 Burwash Ave,Savoy,IL,61874,2173511490,5102337,36,Champaign
Windsor Manor Morrison,403 Scenic Street,Morrison,IL,61270,8157724031,5104721,40,Whiteside
Windsor Park Manor,124 Windsor Park Dr,Carol Stream,IL,60188,6305105200,5101453,38,DuPage
Winn Prairie,1545 S. Forest Road,Freeport,IL,61032,8156564800,5105587,61,Stephenson
Woodlands at The British Home,3000 McCormick Ave,Brookfield,IL,60513,7084850135,5101461,73,Cook
"Woods Garden Villa, The",302 S. Main St,Lincoln,IL,62656,2177322189,5201535,12,Logan