Facility ID,Facility Name,Phone Number,State Facility Type 1 Literal,County,Address,City,State,Zip Code,Email Address,Ownership Type,Licensee,Capacity
23039K,SHAWNEE GARDENS,3034941123,ASSISTED LIVING RESIDENCE,BOULDER,4755 SHAWNEE PLACE,BOULDER,CO,80303,shawneegardens@comcast.net, PROFIT-CORPORA,"SOMETHING MORE, INC.",7
2303A1,"JONESES ASSISTED LIVING, THE",9706632226,ASSISTED LIVING RESIDENCE,LARIMER,2127 EAGLE DR,LOVELAND,CO,80537,theneergaards@yahoo.com, PROFIT-CORPORA,"JONESES, THE",8
2303H2,BALFOUR RETIREMENT COMMUNITY,3039261000,ASSISTED LIVING RESIDENCE,BOULDER,1855 PLAZA DR,LOUISVILLE,CO,80027,jallen@balfourcare.com, LIMITED LIABIL,WELL BALFOUR TENANT LLC,65
2303KO,BRIDGE ASSISTED LVG AT LIFE CARE CTR-LONGMONT,3037748255,ASSISTED LIVING RESIDENCE,BOULDER,2444 PRATT ST,LONGMONT,CO,80501,, LIMITED LIABIL,"LONGMONT ASSISTED LIVING, LLC",70
2303OR,"ACADEMY, THE",3039381920,ASSISTED LIVING RESIDENCE,BOULDER,970 AURORA AVENUE,BOULDER,CO,80302,shirley@theacademyboulder.com,PARTNERSHIP,"ACADEMY GROUP LP, THE",32
2303QF,BROOKDALE BOULDER CREEK,3034730333,ASSISTED LIVING RESIDENCE,BOULDER,3375 34TH ST,BOULDER,CO,80301,, PROFIT-CORPORA,ALTERRA HEALTHCARE CORPORATION,90
2303VR,ASHLEY MANOR - FT LUPTON 2,3038570116,ASSISTED LIVING RESIDENCE,WELD,1150 4TH ST,FORT LUPTON,CO,80621,, PROFIT-CORPORA,ASHLEY MANOR LLC,14
2303YC,"PEAKS ASSISTED LIVING CENTER, THE",3037762814,ASSISTED LIVING RESIDENCE,BOULDER,1440 COFFMAN STREET,LONGMONT,CO,80501,, LIMITED LIABIL,HEIGHTS HEALTHCARE CO LLC,16
2303Z4,BALFOUR CHERRYWOOD VILLAGE,3036042700,ASSISTED LIVING RESIDENCE,BOULDER,282 MCCASLIN BLVD,LOUISVILLE,CO,80027,, LIMITED LIABIL,WELL BALFOUR TENANT LLC,52
230435,"LIT'L PATCH OF HEAVEN, INC",3032882539,ASSISTED LIVING RESIDENCE,ADAMS,8330 CLARKSON ST,DENVER,CO,80229,litpatchofheaven@aol.com, PROFIT-CORPORA,"LIT'L PATCH OF HEAVEN, INC.",15
23046M,BROOKDALE ARVADA,3034238100,ASSISTED LIVING RESIDENCE,JEFFERSON,7720 ALLISON STREET,ARVADA,CO,80005,calvarez17@brookdale.com, PROFIT-CORPORA,ALTERRA HEALTHCARE CORPORATION,92
230487,CALEY RIDGE ASSISTED LIVING COMMUNITY,3037218900,ASSISTED LIVING RESIDENCE,ARAPAHOE,9350 E CALEY AVE,ENGLEWOOD,CO,80111,admin@caleyridgealf.com, LIMITED LIABIL,"CALEY RIDGE OPERATIONS, LLC",106
2304B1,FRONTIER VALLEY INDEPENDENT AND ASSISTED LIVING,3033411412,ASSISTED LIVING RESIDENCE,ARAPAHOE,11265 EAST MISSISSIPPI AVE,AURORA,CO,80012,dvanvliet@ensignservices.net, PROFIT-CORPORA,WINDSOR LAKE HEALTHCARE INC,120
2304C3,ASPEN CARES 2 LLC,3038345646,ASSISTED LIVING RESIDENCE,JEFFERSON,1398 ZEPHYR ST,LAKEWOOD,CO,80214,, LIMITED LIABIL,ASPEN CARES 2 LLC,14
2304C8,"MANOR ON MARION CIRCLE, THE",3038345646,ASSISTED LIVING RESIDENCE,ARAPAHOE,8089 S MARION CIRCLE,CENTENNIAL,CO,80122,, LIMITED LIABIL,SOUTH MARION MANOR CARES LLC,8
2304D3,FIVE STAR RESIDENCES OF DAYTON PLACE,3037515150,ASSISTED LIVING RESIDENCE,ARAPAHOE,2000 S DAYTON STREET,DENVER,CO,80247,bertollt_ncmt@yahoo.com, PROFIT-CORPORA,SNH AL TRS INC,122
2304DB,BROOKDALE HIGHLANDS RANCH,3036832555,ASSISTED LIVING RESIDENCE,DOUGLAS,9160 S UNIVERSITY BLVD,HIGHLANDS RANCH,CO,80126,chendrick@brookdaleliving.com, PROFIT-CORPORA,"BROOKDALE SENIOR LIVING COMMUNITIES, INC",81
2.30E+10,PORTER PLACE INC,3037656800,ASSISTED LIVING RESIDENCE,DENVER,1001 E YALE AVENUE,DENVER,CO,80210,susano'dell@centura.org, CORPORATE NON-,PORTERCARE ADVENTIST HEALTH SYSTEM,175
2304F3,"GARDENS CARE HOMES LLC, THE - INDIAN TREE",3034316027,ASSISTED LIVING RESIDENCE,JEFFERSON,7319 CARR STREET,ARVADA,CO,80005,, LIMITED LIABIL,"GARDENS CARE HOMES LLC, THE",16
2304GF,LIBBY BORTZ ASSISTED LIVING CENTER,3033479755,ASSISTED LIVING RESIDENCE,ARAPAHOE,5844 S CURTICE,LITTLETON,CO,80120,ed@lbalc.org, CORPORATE NON-,SOUTH METRO HOUSING OPTIONS,115
2304GP,PARK HILL RESIDENCE,3033889437,ASSISTED LIVING RESIDENCE,DENVER,1901 EUDORA STREET,DENVER,CO,80220,vjenkins@seniorhousingoptions.org, CORPORATE NON-,PARK HILL RESIDENCE INC,36
2304H0,CRESTONE PLACE ASSISTED LIVING,3034271386,ASSISTED LIVING RESIDENCE,ADAMS,621 W 96TH AVE,THORNTON,CO,80260,, CORPORATE NON-,ADAMS COMMUNITY MENTAL HEALTH CTR,12
2304J2,MILLBROOK HOMES-PORTLAND,3039321004,ASSISTED LIVING RESIDENCE,JEFFERSON,6731 W PORTLAND PLACE,LITTLETON,CO,80123,, LIMITED LIABIL,"MILLBROOK HOMES, LLC",8
2304LF,"RETREAT AT CHURCH RANCH, THE",3034697178,ASSISTED LIVING RESIDENCE,JEFFERSON,10190 WADSWORTH BLVD,WESTMINSTER,CO,80021,cynavery@msn.com, LIMITED LIABIL,"SIGNATURE - THE RETREAT, LLC",55
2304MO,ARBORS OF SAN MARINO,3034269090,ASSISTED LIVING RESIDENCE,ADAMS,7425 XAVIER ST,WESTMINSTER,CO,80030,mtavenner@leisurecare.com, LIMITED LIABIL,FFI SAN MARINO TENANT LLC,111
2304NE,JUST FOR SENIORS LIVING CENTER II,3032386722,ASSISTED LIVING RESIDENCE,JEFFERSON,1170-1180 BRENTWOOD STREET,LAKEWOOD,CO,80214,, PROFIT-CORPORA,"JUST FOR SENIORS, INC.",24
2304O7,SERENITY HOUSE ASSISTED LIVING I,3035848926,ASSISTED LIVING RESIDENCE,DENVER,3075 CARTER CIRCLE,DENVER,CO,80222,michael.zislis@serenityhouse.net, PROFIT-CORPORA,"SERENITY HOUSE ASSISTED LIVING, INC.",8
2304QB,ASHLEY MANOR AT DUDLEY,3034670210,ASSISTED LIVING RESIDENCE,JEFFERSON,3555 DUDLEY STREET,WHEAT RIDGE,CO,80033,, LIMITED LIABIL,ASHLEY MANOR LLC,16
2304QP,"GARDENS AT COLUMBINE, THE",3039735115,ASSISTED LIVING RESIDENCE,ARAPAHOE,5130 W KEN CARYL AVE,LITTLETON,CO,80128,jklassen@gardensatcolumbine.com, PARTNERSHIP,"SIGNATURE ASSISTED LIVING, L.P.",147
2304S6,MILLER HOUSE RTF,3035047700,ASSISTED LIVING RESIDENCE,DENVER,1920 E 13TH AVENUE,DENVER,CO,80206,joann.toney@mhcd.org, CORPORATE NON-,MENTAL HEALTH CENTER OF DENVER,8
2304SF,BROOKDALE LITTLETON,3039480900,ASSISTED LIVING RESIDENCE,JEFFERSON,8271 S CONTINENTAL DIVIDE RD,LITTLETON,CO,80127,, PROFIT-CORPORA,ALTERRA HEALTHCARE CORPORATION,60
2304SS,ABBY'S ASSISTED LIVING,3033040448,ASSISTED LIVING RESIDENCE,ARAPAHOE,2607 S EUDORA PLACE,DENVER,CO,80222,, LIMITED LIABIL,ASSISTED LIVING LLC,8
2304TZ,SUN VALLEY ASSISTED LIVING,3039326187,ASSISTED LIVING RESIDENCE,JEFFERSON,7631 S DEPEW WAY,LITTLETON,CO,80128,soekarsos@yahoo.com, LIMITED LIABIL,SUN VALLEY ASSISTED LIVING LLC,5
2304U9,GOLDEN ORCHARD II,3037977312,ASSISTED LIVING RESIDENCE,ARAPAHOE,890 E ORCHARD RD,CENTENNIAL,CO,80121,, LIMITED LIABIL,890 ORCHARD MANAGEMENT LLC,12
2304W2,GRANT HOUSE RTF,3037339348,ASSISTED LIVING RESIDENCE,DENVER,2600 S GRANT,DENVER,CO,80210,ann.selling@mhcd.org, CORPORATE NON-,MENTAL HEALTH CENTER OF DENVER,10
2304WE,SERENITY HOUSE ASSISTED LIVING III,3037581932,ASSISTED LIVING RESIDENCE,ARAPAHOE,2480 S HOLLY STREET,DENVER,CO,80222,michael.zislis@serenityhouse.net, PROFIT-CORPORA,"SERENITY HOUSE ASSISTED LIVING, INC.",8
2304X1,MONTAGE HILLS,3036712500,ASSISTED LIVING RESIDENCE,ARAPAHOE,2500 S ROSLYN ST,DENVER,CO,80231,, LIMITED LIABIL,GENDENVER LLC,135
2304XE,ASHLEY MANOR AT PARFET,3034327893,ASSISTED LIVING RESIDENCE,JEFFERSON,3802 N PARFET ST,WHEAT RIDGE,CO,80033,mhager@ashleycares.com, PROFIT-CORPORA,ASHLEY MANOR LLC,16
2304Y5,LINCOLN HOUSE RTF,3032967759,ASSISTED LIVING RESIDENCE,DENVER,5201 SHERMAN STREET,DENVER,CO,80216,, CORPORATE NON-,MENTAL HEALTH CENTER OF DENVER,11
230507,BETHHAVEN HOUSE,7193281609,ASSISTED LIVING RESIDENCE,EL PASO,504 E WILLAMETTE AVE,COLORADO SPRINGS,CO,80903,jjohnston@bethhaveninc.org, CORPORATE NON-,BETHAVEN INCORPORATED,12
230508,BEEWELL ASSISTED LIVING LLC,8016967587,ASSISTED LIVING RESIDENCE,EL PASO,816 W KIOWA ST,COLORADO SPRINGS,CO,80905,, LIMITED LIABIL,BEEWELL ASSISTED LIVING LLC,16
230512,WINSLOW COURT RETIREMENT COMMUNITY,7195971700,ASSISTED LIVING RESIDENCE,EL PASO,3920 E SAN MIGUEL,COLORADO SPRINGS,CO,80909,, LIMITED LIABIL,WINSLOW COURT (COCSWC) LLC,128
230514,BROOKSIDE ASSISTED LIVING,7196326511,ASSISTED LIVING RESIDENCE,EL PASO,225 W BROOKSIDE ST,COLORADO SPRINGS,CO,80905,brooksideALF@qwestoffice.net, PROFIT-CORPORA,"ELDER CARE, INC",62
230528,IVY COTTAGE ASSISTED LIVING FACILITY,7195960076,ASSISTED LIVING RESIDENCE,EL PASO,2060 PIMA DR,COLORADO SPRINGS,CO,80915,ivycottage101@aol.com, PROFIT-CORPORA,WILLCAT INC.,19
23053C,BROOKDALE VISTA GRANDE,7195980400,ASSISTED LIVING RESIDENCE,EL PASO,2780 VICKERS DRIVE,COLORADO SPRINGS,CO,80918,, PROFIT-CORPORA,ALTERRA HEALTHCARE CORPORATION,78
230540,BROADMOOR COURT,7194712285,ASSISTED LIVING RESIDENCE,EL PASO,2045 ROANOKE ST,COLORADO SPRINGS,CO,80906,lhodges@ba.org, LIMITED LIABIL,"BETHESDA GARDENS BROADMOOR, LLC",64
230550,STARLIGHT ASSISTED LIVING LLC,7193904721,ASSISTED LIVING RESIDENCE,EL PASO,68 SECURITY BLVD,SECURITY,CO,80911,, LIMITED LIABIL,STARLIGHT ASSISTED LIVING LLC,8
230560,"MYRON STRATTON HOME, THE",7195403113,ASSISTED LIVING RESIDENCE,EL PASO,2950 HIDDEN TREASURE PT,COLORADO SPRINGS,CO,80906,, CORPORATE NON-,MYRON STRATTON HOME,31
2305ZX,DUNCAN-HART HOUSE,7194710149,ASSISTED LIVING RESIDENCE,EL PASO,615 N CORONA ST,COLORADO SPRINGS,CO,80903,jjohnston@bethaveninc.org, CORPORATE NON-,BETHHAVEN INCORPORATED,16
230636,BELMONT SENIOR CARE,7195443999,ASSISTED LIVING RESIDENCE,PUEBLO,3 DOUGLAS CT,PUEBLO,CO,81001,phyllis@belmontseniorcare.com, CORPORATE NON-,"SENIOR CARE SYSTEMS OF COLORADO, INC.",49
230648,"VILLAS AT ROCK CANYON, THE",7194041015,ASSISTED LIVING RESIDENCE,PUEBLO,1611 ALMA AVE,PUEBLO,CO,81004,, PROFIT-CORPORA,ROCK CANYON HEALTHCARE INC,17
230664,GOLDEN VIEW,7195839132,ASSISTED LIVING RESIDENCE,PUEBLO,525 W 9TH,PUEBLO,CO,81003,mhrrmn@aol.com, PROFIT-CORPORA,GOLDEN GATE MANOR INC,13
23068G,FLORENCE CARE HOME,7192140359,ASSISTED LIVING RESIDENCE,FREMONT,1230 W 3RD ST,FLORENCE,CO,81226,, LIMITED LIABIL,"GNPR, LLC",10
2306FN,CAPPELLA OF PUEBLO WEST,7195472538,ASSISTED LIVING RESIDENCE,PUEBLO,170 S DACONA DR,PUEBLO WEST,CO,81007,carolynspear@gmail.com, LIMITED LIABIL,CAPPELLA PUEBLO WEST LLC,56
23A843,CONTINUING CARE AT WIND CREST,3038768300,ASSISTED LIVING RESIDENCE,DOUGLAS,3420 MILL VISTA ROAD,HIGHLANDS RANCH,CO,80129,micah.peterson@erickson.com, CORPORATE NON-,"WIND CREST, INC",108
23A846,MORNINGSTAR OF FORT COLLINS,9709998790,ASSISTED LIVING RESIDENCE,LARIMER,3509 LOCHWOOD DRIVE,FORT COLLINS,CO,80525,ftcollins.ed@morningstarseniorliving.com, LIMITED LIABIL,FORT COLLINS SENIOR HOUSING I OPCO LLC,96
23A928,FLOURISH SUPPORTIVE LIVING AT PEAKVIEW,3038036977,ASSISTED LIVING RESIDENCE,JEFFERSON,8217 W PEAKVIEW DRIVE,LITTLETON,CO,80123,tdeshano@cqlhomes.com, LIMITED LIABIL,DESHANO CARE CENTERS LLC,8
23A930,STEPHENS FARM AT ADEO COLORADO,9705060008,ASSISTED LIVING RESIDENCES,WELD,2774 RESERVOIR ROAD,GREELEY,CO,80634,jpalmer@gciinc.org, CORPORATE NON-,"GREELEY CENTER FOR INDEPENDENCE, INC.",18
23A931,DOROTHY'S SOFT TOUCH IV,3035873578,ASSISTED LIVING RESIDENCE,ADAMS,790 UVALDA ST,AURORA,CO,80011,, CORPORATE NON-,DOROTHY'S SOFT TOUCH,8
23A936,PEARL ASSISTED LIVING LLC,3036461156,ASSISTED LIVING RESIDENCE,ELBERT,350 S PEARL STREET,ELIZABETH,CO,80107,mike@pearlassistedliving.com, LIMITED LIABIL,PEARL ASSISTED LIVING LLC,8
23A937,ROSE OF SHARON ASSISTED LIVING - WEAVER,3036273772,ASSISTED LIVING RESIDENCE,ARAPAHOE,17495 E WEAVER DRIVE,AURORA,CO,80016,, PROFIT-CORPORA,"ROSE OF SHARON ASSISTED LIVING, INC.",8
23A938,PRAIRIE PINES ASSISTED LIVING COMMUNITY,7194382141,ASSISTED LIVING RESIDENCE,KIOWA,101 E LOWELL AVENUE,EADS,CO,81036,, CORPORATE NON-,PRAIRIE PINES,24
23B428,ATRIA WESTMINSTER,7208059995,ASSISTED LIVING RESIDENCE,ADAMS,9560 SHERIDAN BLVD,WESTMINSTER,CO,80031,, LIMITED LIABIL,CA SENIOR WESTMINSTER OPERATOR LLC,149
23B430,SERENITY HOUSE ASSISTED LIVING PORTLAND DRIVE,3035848926,ASSISTED LIVING RESIDENCE,JEFFERSON,5286 W PORTLAND DRIVE,LITTLETON,CO,80128,michael.zislis@serenityhouse.net, PROFIT-CORPORA,SERENITY HOUSE ASSISTED LIVING INC.,8
23B432,WILLOWBROOK PLACE,3039483838,ASSISTED LIVING RESIDENCE,ARAPAHOE,5275 S KIPLING PARKWAY,LITTLETON,CO,80127,klugo@anthemmemeorycare.com, LIMITED LIABIL,ANTHEM KIPLING MANAGEMENT LLC,76
23B942,ABUNDANT BLESSINGS AND CARE ASSISTED LIVING,3034788174,ASSISTED LIVING RESIDENCE,ARAPAHOE,2510 S HOLLY PLACE,DENVER,CO,80222,, PROFIT-CORPORA,ABUNDANT BLESSINGS AND CARE ASSISTED LIVING,8
23C440,FLOURISH SUPPORTIVE LIVING AT TEXAS,3038036977,ASSISTED LIVING RESIDENCE,JEFFERSON,9232 WEST TEXAS DRIVE,LAKEWOOD,CO,80232,tdeshano@cqlhomes.com, LIMITED LIABIL,DESHANO CARE CENTERS LLC,10
23C491,MEADOW HILLS MAKARIOS ASSISTED LIVING,3037362837,ASSISTED LIVING RESIDENCE,ADAMS,14691 E LEHIGH AVE,AURORA,CO,80014,, LIMITED LIABIL,MEADOW HILLS MAKARIOS ASSISTED LIVING LLC,15
23C498,CASTLE ROCK ASSISTED LIVING III,3038159347,ASSISTED LIVING RESIDENCE,DOUGLAS,2473 WOODHOUSE LANE,CASTLE ROCK,CO,80109,, LIMITED LIABIL,CASTLE ROCK ASSISTED LIVING III LLC,9
23C703,SPRUCE HOUSE,7195745894,ASSISTED LIVING RESIDENCES,EL PASO,2535 BRADY DRIVE,COLORADO SPRINGS,CO,80917,, LIMITED LIABIL,BRAINCARE LLC,8
23C876,HARMONY ASSISTED LIVING INC,3032333076,ASSISTED LIVING RESIDENCE,JEFFERSON,1355 AMMONS STREET,LAKEWOOD,CO,80214,info@livingatharmony.com, PROFIT-CORPORA,HARMONY ASSISTED LIVING INC,9
23C959,ROCKY MOUNTAIN ASSISTED LIVING 44TH AVE AL,3039966886,ASSISTED LIVING RESIDENCE,JEFFERSON,7850 WEST 44TH AVENUE,WHEAT RIDGE,CO,80033,, LIMITED LIABIL,ROCKY MOUNTAIN ASSISTED LIVING LLC,18
23D456,HAVEN OF CARE ASSISTED LIVING AT TOLLGATE CROSSING,3039477392,ASSISTED LIVING RESIDENCE,ARAPAHOE,5010 S DUQUESNE STREET,AURORA,CO,80016,mwrthoc@yahoo.com, LIMITED LIABIL,HAVEN OF CARE ASSISTED LIVING AT TOLLGATE CROSSING,12
23D971,SERENITY HOUSE ASSISTED LIVING APPLEWOOD,3034621096,ASSISTED LIVING RESIDENCE,JEFFERSON,11975 W 22ND PLACE,LAKEWOOD,CO,80215,michael.zislis@serenityhouse .net, PROFIT-CORPORA,SERENITY HOUSE ASSISTED LIVING INC.,8
23E900,SEVENS RESIDENTIAL MEMORY CARE,7204771727,ASSISTED LIVING RESIDENCE,JEFFERSON,1085 VIVIAN ST,LAKEWOOD,CO,80401,francisl@sevensrc.com, LIMITED LIABIL,L & M ALO 1 LLC,12
23E998,ROSEMARK AT MAYFAIR PARK,3037707673,ASSISTED LIVING RESIDENCE,DENVER,833 N JERSEY STREET,DENVER,CO,80220,, LIMITED LIABIL,ROSEMARK MAYFAIR LLC,98
23F100,ORCHARDS AT CRESTVIEW,7194736339,ASSISTED LIVING RESIDENCE,EL PASO,1409 E BUENA VENTURA ST,COLORADO SPRINGS,CO,80909,, PROFIT-CORPORA,PARENT CARE LIFE INC,11
23F490,PEAKVIEW ASSISTED LIVING AND MEMORY CARE,3035899962,ASSISTED LIVING RESIDENCE,ARAPAHOE,6021 SOUTH LIVERPOOL STREET,AURORA,CO,80016,jdavidson@spectrumretirement.com, LIMITED LIABIL,PEAKVIEW OPERATOR LLC,85
23F492,PARK REGENCY LOVELAND,9704611100,ASSISTED LIVING RESIDENCE,LARIMER,1875 FALL RIVER DRIVE,LOVELAND,CO,80538,kvasquez@ba.org, LIMITED LIABIL,BSLC LOVELAND LLC,129
23G116,COLORADO CAREASSIST CASCADE HOME,7193513573,ASSISTED LIVING RESIDENCE,EL PASO,2509 N CASCADE AVE,COLORADO SPRINGS,CO,80907,bonnie@coloradocareassist.com, LIMITED LIABIL,CCA CASCADE HOUSE LLC,8
23G499,TEMENOS ASSISTED LIVING,7204292355,ASSISTED LIVING RESIDENCE,JEFFERSON,12363 W 65TH AVENUE,ARVADA,CO,80004,temenosarvada@gmail.com, LIMITED LIABIL,"TEMENOS ASSISTED LIVING, LLC",7
23G501,ASPYRE AT ROCK CREEK,9703725838,ASSISTED LIVING RESIDENCE,LARIMER,3150 ROCK CREEK DRIVE,FORT COLLINS,CO,80528,, LIMITED LIABIL,FORT COLLINS MEMORY CARE LLC,64
23G509,MAPLE GROVE EAST AT CRESTVIEW ASSISTED LIVING,7194736339,ASSISTED LIVING RESIDENCE,EL PASO,1417 E BUENA VENTURA STREET,COLORADO SPRINGS,CO,80909,, PROFIT-CORPORA,PARENT CARE LIFE INC,11
23G551,FREEDOM HOME CLIFTON,7204363995,ASSISTED LIVING RESIDENCE,EL PASO,8395 CLIFTON DRIVE,COLORADO SPRINGS,CO,80920,, PROFIT-CORPORA,FREEDOM HOME ASSISTED LIVING INC,8
23G933,ROCKY MOUNTAIN ASSISTED LIVING,3034711914,ASSISTED LIVING RESIDENCE,ARAPAHOE,9970 SILVER MAPLE ROAD,HIGHLANDS RANCH,CO,80129,, LIMITED LIABIL,ROCKY MOUNTAIN ASSISTED LIVING LLC,10
23G942,SERENITY HOUSE ASSISTED LIVING HUNTERS HILL,3035848926,ASSISTED LIVING RESIDENCE,ARAPAHOE,8352 E HUNTERS HILL DRIVE,CENTENNIAL,CO,80112,, PROFIT-CORPORA,SERENITY HOUSE ASSISTED LIVING INC.,8
23H132,VI AT HIGHLANDS RANCH ASSISTED LIVING,7203487900,ASSISTED LIVING RESIDENCE,DOUGLAS,9085 RANCH RIVER CIRCLE,HIGHLANDS RANCH,CO,80126,mgsmigiel@viliving.com, PROFIT-CORPORA,"CC-DENVER, INC",36
23H517,ASSURED ASSISTED LIVING 6,3038410470,ASSISTED LIVING RESIDENCE,DOUGLAS,4837 WAGON TRAIL COURT,PARKER,CO,80134,francis@assuredal.com, LIMITED LIABIL,ASSURED ASSISTED LIVING LLC,8
23H523,KEYSTONE PLACE AT LEGACY RIDGE ASSISTED LIVING,3034655600,ASSISTED LIVING RESIDENCE,ADAMS,11150 IRVING DRIVE,WESTMINSTER,CO,80031,mward@keystonesenior.com, LIMITED LIABIL,KEYSTONE FEDERAL LLC,100
23H948,GOSHEN ASSISTED LIVING LLC,3033539041,ASSISTED LIVING RESIDENCE,ARAPAHOE,12099 E LOUISIANA AVENUE,AURORA,CO,80012,, LIMITED LIABIL,GOSHEN ASSISTED LIVING LLC,7
23H949,BALFOUR AT STAPLETON,7204920712,ASSISTED LIVING RESIDENCE,DENVER,2979 UINTA STREET,DENVER,CO,80238,tnitta@balfourcare.com, LIMITED LIABIL,WELL BALFOUR TENANT LLC,85
23I144,SERENITY HOUSE ASSISTED LIVING VI,3037619336,ASSISTED LIVING RESIDENCE,ARAPAHOE,3235 S HIGH STREET,ENGLEWOOD,CO,80113,zislis@msn.com, PROFIT-CORPORA,STRAUSS PROPERTIES,8
23I154,ST ANNA'S HOME,3036272986,ASSISTED LIVING RESIDENCE,ARAPAHOE,13901 E QUINCY AVENUE,AURORA,CO,80015,st.annashome@hotmail.com, CORPORATE NON-,"CONG. OF SISTERS/CHARITY/ST. VINCENT DE PAUL, CO",10
23I969,JAXPOINTE AT 63RD PLACE ASSISTED LIVING,3034209910,ASSISTED LIVING RESIDENCE,JEFFERSON,16495 W. 63RD PLACE,GOLDEN,CO,80403,info@jaxpointe.com, LIMITED LIABIL,ROBERT RUSSELL HOMES LLC,8
23J169,ASHLEY MANOR IRMA 1,3032807019,ASSISTED LIVING RESIDENCE,ADAMS,10527 IRMA DRIVE,NORTHGLENN,CO,80234,, LIMITED LIABIL,ASHLEY MANOR LLC,15
23J544,CASTLE ROCK ASSISTED LIVING II,3036630853,ASSISTED LIVING RESIDENCE,DOUGLAS,1768 ROSE PETAL LANE,CASTLE ROCK,CO,80109,, PROFIT-CORPORA,CASTLE ROCK ASSISTED LIVING II LLC,13
23J545,PEAK GARDENS ASSISTED LIVING INC,3039974876,ASSISTED LIVING RESIDENCE,JEFFERSON,2948 ROUTT CIRCLE,LAKEWOOD,CO,80215,, PROFIT-CORPORA,PEAK GARDENS ASSISTED LIVING INC,10
23J795,CLERMONT ASSISTED LIVING LLC,3038625602,ASSISTED LIVING RESIDENCE,ARAPAHOE,6563 S CLERMONT COURT,CENTENNIAL,CO,80121,bhensen@msn.com, LIMITED LIABIL,HC 2013 LLC,12
23J976,ASPEN HOUSE 1,9706359800,ASSISTED LIVING RESIDENCE,LARIMER,2212 EAST 11TH STREET,LOVELAND,CO,80537,, LIMITED LIABIL,MRSC CO ASPEN HOUSE MASTER TENANT LLC,40
23K101,CHARLESTON ASSISTED LIVING,7208835661,ASSISTED LIVING RESIDENCE,BOULDER,2866 IRONWOOD CIRCLE,ERIE,CO,80516,lisa.charlestonal@gmail.com,LIMITED LIABILITY,,8
23K182,CHERRY HILLS ASSISTED LIVING AND MEMORY CARE,7203985692,ASSISTED LIVING RESIDENCE,ARAPAHOE,6325 SOUTH UNIVERSITY BOULEVARD,CENTENNIAL,CO,80121,, LIMITED LIABIL,CHAL LLC,94
23K558,KRAFT HOME INC,3032882851,ASSISTED LIVING RESIDENCE,ADAMS,8154 DOWNING DRIVE,DENVER,CO,80229,jkraft35@yahoo.com, PROFIT-CORPORA,KRAFT HOME INC.,8
23K560,LIGHTHOUSE ASSISTED LIVING INC-STEELE HOUSE,7204890864,ASSISTED LIVING RESIDENCE,ARAPAHOE,6700 SOUTH STEELE STREET,CENTENNIAL,CO,80122,tom@lighthouseassistedliving.com, PROFIT-CORPORA,LIGHTHOUSE ASSISTED LIVING,8
23L106,SLP COLORADO,7204125730,ASSISTED LIVING RESIDENCE,DOUGLAS,10706 FLAGLER DR,PARKER,CO,80134,, LIMITED LIABIL,TBI COLORADO LLC,8
23L108,BALFOUR AT LONGMONT,7208307480,ASSISTED LIVING RESIDENCE,BOULDER,1850 S HOVER ST,LONGMONT,CO,80501,, LIMITED LIABIL,"BSL LONGMONT MANAGEMENT CO, LLC",160
23L115,GOOD SAMARITAN SOCIETY ESTES PARK VILLAGE,9705777700,ASSISTED LIVING RESIDENCE,LARIMER,1901 PTARMIGAN TRAIL,ESTES PARK,CO,80517,jlee1@good-sam.com, CORPORATE NON-,"EVANGELICAL LUTHERAN GOOD SAMARITAN SOCIETY, THE",30
23L190,ATRIA LONGMONT,3036785050,ASSISTED LIVING RESIDENCE,BOULDER,2310 9TH AVENUE,LONGMONT,CO,80503,, LIMITED LIABIL,WG VISTAS LONGMONT LLC,100
23L199,HIGHLINE PLACE,3037033499,ASSISTED LIVING RESIDENCE,ARAPAHOE,6767 S BROADWAY,LITTLETON,CO,80122,tcolvin@anthemmemorycare.com, LIMITED LIABIL,ANTHEM LITTLETON MANGEMENT LLC,76
23L202,ASSURED ASSISTED LIVING 1,3036634881,ASSISTED LIVING RESIDENCE,DOUGLAS,1687 PAONIA COURT,CASTLE ROCK,CO,80109,francis@assuredal.com, LIMITED LIABIL,ASSURED ASSISTED LIVING LLC,9
23L573,GABRIEL ASSISTED LIVING,3039540531,ASSISTED LIVING RESIDENCE,ARAPAHOE,5235 S LIVERPOOL WAY,CENTENNIAL,CO,80015,gomgom_siregar@yahoo.com, LIMITED LIABIL,GABRIEL ASSISTED LIVING,7
23L575,RENEW SADDLE ROCK,3037668867,ASSISTED LIVING RESIDENCE,ARAPAHOE,7475 S SHAWNEE STREET,AURORA,CO,80016,, LIMITED LIABIL,FIRST PHOENIX-AURORA LLC,64
23L627,ASPEN LEAF ASSISTED LVG RESIDENCE CIRCLE LANE INC,7197759031,ASSISTED LIVING RESIDENCE,LINCOLN,1750 CIRCLE LANE,LIMON,CO,80828,, PROFIT-CORPORA,ASPEN LEAF ASSISTED LIVING RESIDENCE CIRCLE LANE I,28
23M128,SLP COLORADO,7204125730,ASSISTED LIVING RESIDENCES,DOUGLAS,10706 FLAGLER DR,PARKER,CO,80134,,NO VALUE ENTERED,,8
23M211,YAMPA MAKARIOS ASSISTED LIVING,7204041445,ASSISTED LIVING RESIDENCE,ARAPAHOE,2936 S YAMPA WAY,AURORA,CO,80013,, LIMITED LIABIL,MAKARIOS ASSISTED LIVING LLC,8
23M589,APPLEWOOD OUR HOUSE 4 LLC,3032486966,ASSISTED LIVING RESIDENCE,JEFFERSON,1182 S VAN GORDON CT,LAKEWOOD,CO,80228,, LIMITED LIABIL,APPLEWOOD OUR HOUSE 4 LLC,16
23M641,OAKSHIRE COMMONS,7195443001,ASSISTED LIVING RESIDENCE,PUEBLO,2400 OAKSHIRE LANE,PUEBLO,CO,81001,krissprado1@gmail.com, LIMITED LIABIL,OAKSHIRE GARDENS,151
23N140,BEEHIVE HOMES OF PARKER,7203909668,ASSISTED LIVING RESIDENCE,DOUGLAS,11765 NEWLIN GULCH BLVD,PARKER,CO,80138,, LIMITED LIABIL,DAWSON 1 LLC,24
23N217,CHELSEA PLACE,3039293709,ASSISTED LIVING RESIDENCE,ARAPAHOE,14055 E QUINCY AVENUE,AURORA,CO,80015,berickson@anthemmemorycare.com, PROFIT-CORPORA,ANTHEM AURORA MANAGEMENT LLC,64
23N220,SOLANGE AT THE WOODLANDS,7192821155,ASSISTED LIVING RESIDENCE,DOUGLAS,1605 WHITETAIL DR,CASTLE ROCK,CO,80104,, PROFIT-CORPORA,SOLANGE AT THE WOODLANDS,9
23N521,HOME CARE AT MOMA'S ASSISTED LIVING,7196302231,ASSISTED LIVING RESIDENCE,EL PASO,2501 BENNETT AVE,COLORADO SPRINGS,CO,80909,eflee1432@yahoo.com, LIMITED LIABIL,HOME CARE LLC,8
23N600,BROOKDALE MERIDIAN ENGLEWOOD,3037610300,ASSISTED LIVING RESIDENCE,ARAPAHOE,3455 S CORONA ST,ENGLEWOOD,CO,80113,, LIMITED LIABIL,BKD ENGLEWOOD COLORADO LLC,45
23N602,SERENITY HOUSE ASSISTED LIVING CENTENNIAL,3035848926,ASSISTED LIVING RESIDENCE,ARAPAHOE,2947 E DRYCREEK PLACE,CENTENNIAL,CO,80122,MICHAEL.ZISLIS@SERENITYHOUSE.NET, PROFIT-CORPORA,SERENITY HOUSE ASSISTED LIVING INC.,8
23N606,BALSAM HOUSE,3034405140,ASSISTED LIVING RESIDENCE,BOULDER,2818 - 2820 13TH STREET,BOULDER,CO,80304,, LIMITED LIABIL,COLORADO RECOVERY LLC,8
23N608,"BELLAIRE HOUSE ASSISTED LIVING, LLC",3033217692,ASSISTED LIVING RESIDENCE,DENVER,4301 MARTIN LUTHER KING BLVD,DENVER,CO,80207,bellairehousealf@gmail.com, LIMITED LIABIL,BELLAIRE HOUSE ASSISTED LIVING LLC,10
23O158,HEATHERWOOD VILLAGE ASSISTED LIVING,7195429400,ASSISTED LIVING RESIDENCE,PUEBLO,1716 N READING AVENUE,PUEBLO,CO,81001,jtrujillo.heatherwoodvillage@gmail.com, LIMITED LIABIL,UNITED ASSISTED LIVING COMMUNITIES LLC,48
23O235,SOLANGE AT KEENAN LLC,7206487454,ASSISTED LIVING RESIDENCE,ADAMS,9896 KEENAN STREET,HIGHLANDS RANCH,CO,80130,, LIMITED LIABIL,SOLANGE AT KEENAN LLC,8
23O239,TRU LANDMARK MEMORY CARE,7205379355,ASSISTED LIVING RESIDENCE,BOULDER,1744 S PUBLIC ROAD,LAFAYETTE,CO,80026,, CORPORATE NON-,TRU COMMUNITY CARE,18
23O617,"APPLEWOOD OUR HOUSE ASST LVG FACILITIES II, LLC",3032051900,ASSISTED LIVING RESIDENCE,JEFFERSON,1900 UPHAM STREET,LAKEWOOD,CO,80214,sherriebonham@gmail.com, LIMITED LIABIL,APPLEWOOD OUR HOUSE ASSISTED LVG FACILITIES II LLC,16
23P166,MELODY LIVING OF COLORADO SPRINGS,7199604005,ASSISTED LIVING RESIDENCE,EL PASO,7600 SANDY ROCK POINT,COLORADO SPRINGS,CO,80924,, LIMITED LIABIL,"MELODY LIVING ASSOCIATES - CO, LLC",102
23P250,"LEGACY AT STERLING,THE",9705260400,ASSISTED LIVING RESIDENCE,LOGAN,2000 ROBIN ROAD,STERLING,CO,80751,ianshives@hhmsi.com, LIMITED LIABIL,"EAGLE LTC INVESTORS, LLC",29
23P257,NEW DAY COTTAGES AT TURNER,7192661100,ASSISTED LIVING RESIDENCE,EL PASO,1577 TURNER ROAD,COLORADO SPRINGS,CO,80920,newdaycottages@q.com, PROFIT-CORPORA,NEW DAY COTTAGES INC,11
23P547,A WILDFLOWER ASSISTED LIVING AND CARE HOME INC,3034240523,ASSISTED LIVING RESIDENCES,JEFFERSON,9423 W 64TH AVENUE,ARVADA,CO,80004,nicole@awildflowerassistedliving.com, PROFIT-CORPORA,A WILDFLOWER ASSISTED LIVING AND CARE HOME INC,8
23P550,GOLDEN POND LLC,3032710430,ASSISTED LIVING RESIDENCE,JEFFERSON,1270 NORTH FORD STREET,GOLDEN,CO,80403,, LIMITED LIABIL,"GOLDEN POND, LLC",91
23P651,STONECREEK OF FLYING HORSE,7196490780,ASSISTED LIVING RESIDENCE,EL PASO,1889 SILVERSMITH RD,COLORADO SPRINGS,CO,80921,, LIMITED LIABIL,CSC SL REALTY LLC,105
23P892,APPLELEAF ASSISTED LIVING,9705322600,ASSISTED LIVING RESIDENCE,LARIMER,1328 FIRST STREET,BERTHOUD,CO,80513,jpsevy@msn.com, PROFIT-CORPORA,APPLELEAF ASSISTED LIVING INC,12
23Q176,LEAWOOD ASSISTED LIVING #4,7202842996,ASSISTED LIVING RESIDENCE,ARAPAHOE,1665 E NOBLE PL,CENTENNIAL,CO,80121,, LIMITED LIABIL,LEAWOOD ASSISTED LIVING,8
23Q180,"RETREAT AT SUNNY VISTA, THE",7193776701,ASSISTED LIVING RESIDENCE,EL PASO,2450 E CACHE LE POUDRE STREET,COLORADO SPRINGS,CO,80909,Jbarnard@cappellaliving.com, CORPORATE NON-,SUNNY VISTA LIVING CENTER,70
23Q262,CASTLE PEAK ASSISTED LIVING,9709892500,ASSISTED LIVING RESIDENCE,EAGLE,135 FREESTONE ROAD,EAGLE,CO,81631,, LIMITED LIABIL,"CASTLE PEAK SENIOR CARE, LLC",30
23Q263,THRIVECARE CODY LLC,7205047399,ASSISTED LIVING RESIDENCE,JEFFERSON,8295 S CODY STREET,LITTLETON,CO,80128,, LIMITED LIABIL,THRIVECARE CODY LLC,8
23Q264,FOREVER EDELWEISS HOME,3032560128,ASSISTED LIVING RESIDENCE,ARAPAHOE,4045 S HANNIBAL STREET,AURORA,CO,80013,foreveredelweisshomealr@gmail.com, LIMITED LIABIL,"GOSJEN & FORESTY, LLC",5
23Q274,NEW DAWN MEMORY CARE - COLORADO SPRINGS,7194333732,ASSISTED LIVING RESIDENCE,EL PASO,4185 BRIARGATE PARKWAY,COLORADO SPRINGS,CO,80920,, LIMITED LIABIL,RSL COLORADO SPRINGS LLC,48
23Q648,INN AT GREENWOOD VILLAGE,3033277340,ASSISTED LIVING RESIDENCE,ARAPAHOE,5565 S YOSEMITE ST,GREENWOOD VILLAGE,CO,80111,cindyfrick@mbk.com, LIMITED LIABIL,GREENWOOD VILLAGE I MSL LLC,83
23Q649,HILLTOP LIFE ADJUSTMENT PROGRAM,9702453952,ASSISTED LIVING RESIDENCES,MESA,1405 WELLINGTON AVE,GRAND JUNCTION,CO,81501,, CORPORATE NON-,HILLTOP HEALTH SERVICES CORPORATION,92
23Q656,RALSTON CREEK NEIGHBORHOOD,3032847813,ASSISTED LIVING RESIDENCE,JEFFERSON,11825 WEST 64TH AVE,ARVADA,CO,80004,mbesson@ralstoncreekneighborhood.com, LIMITED LIABIL,HAVERLAND CARTER RALSTON CREEK,146
23Q698,RIDGE PINEHURST LLC,7203165226,ASSISTED LIVING RESIDENCE,DENVER,7205 W QUINCY AVE,LAKEWOOD,CO,80235,, LIMITED LIABIL,RIDGE PINEHURST LLC,164
23Q699,TERRY LAKE ASSISTED LIVING,9704931235,ASSISTED LIVING RESIDENCE,LARIMER,3629 WOODRIDGE ROAD,FORT COLLINS,CO,80524,TerryLakeAL@gmail.com, LIMITED LIABIL,"GRACE HOMES, LLC",8
23Q703,ST BERNADETTE ASSISTED LIVING,3036945743,ASSISTED LIVING RESIDENCE,ARAPAHOE,4468 E LAKE CIRCLE S,CENTENNIAL,CO,80121,z1uncle@msn.com, LIMITED LIABIL,CAMPBELL-MULJANAH ENTERPRISES,7
23Q902,GREEN MEADOWS ASSISTED LIVING,3039550026,ASSISTED LIVING RESIDENCE,DENVER,2177 S GOLDEN COURT,DENVER,CO,80227,, LIMITED LIABIL,"GREEN MEADOW ASSISTED LIVING, LLC",6
23R116,RESIDENCE AT GRAND MESA,9702418899,ASSISTED LIVING RESIDENCE,MESA,565 28 1/4 ROAD,GRAND JUNCTION,CO,81501,, PARTNERSHIP,NHA @ GRAND JUNCTION LIMITED PARTNERSHIP,65
23R156,"FREMONT HOME CARE, INC",7192699300,ASSISTED LIVING RESIDENCE,FREMONT,1815 ELM AVENUE,CANON CITY,CO,81212,fremonthomecare@msn.com, PROFIT-CORPORA,FREMONT HOME CARE INC,16
23R160,EXTENDED FAMILY ASSISTED LIVING INC,7202832127,ASSISTED LIVING RESIDENCE,ARAPAHOE,7488 S KIT CARSON STREET,CENTENNIAL,CO,80122,extended_family@yahoo.com, PROFIT-CORPORA,EXTENDED FAMILY ASSISTED LIVING INC,8
23R219,MEDALLION VILLAS,7193814963,ASSISTED LIVING RESIDENCE,EL PASO,1719 E BIJOU STREET,COLORADO SPRINGS,CO,80909,mgardner@ensignservices.net, PROFIT-CORPORA,BIJOU HEALTHCARE INC,44
23R305,SOARING HOUSE,7192724246,ASSISTED LIVING RESIDENCE,EL PASO,6243 SOARING DRIVE,COLORADO SPRINGS,CO,80918,, LIMITED LIABIL,BRAINCARE LLC,8
23R322,VALLEY ASSISTED LIVING,7197834401,ASSISTED LIVING RESIDENCE,CUSTER,30 MAIN STREET,SILVER CLIFF,CO,81252,valiresidence@centurytel.net, CORPORATE NON-,VALLEY ASSISTED LIVING,16
23R503,"ASPEN GARDENS ASSISTED LIVING, INC",9705648600,ASSISTED LIVING RESIDENCE,MONTEZUMA,1200 N DOLORES ROAD,CORTEZ,CO,81321,aspengardens@beyondbb.com, PROFIT-CORPORA,"ASPEN GARDENS ASSISTED LIVING, INC.",6
23R508,SUNRISE ASSISTED LIVING AT UNIVERSITY PARK,7192681818,ASSISTED LIVING RESIDENCE,EL PASO,2105 UNIVERSITY PARK BOULEVARD,COLORADO SPRINGS,CO,80918,, LIMITED LIABIL,WELLTOWER OPCO GROUP LLC,70
23R558,ABBEY ROAD ASSISTED LIVING ULSTER,7204886609,ASSISTED LIVING RESIDENCE,ARAPAHOE,7347 SOUTH ULSTER STREET,CENTENNIAL,CO,80112,abbeypennyal@gmail.com, LIMITED LIABIL,ABBEY ROAD & PENNY LANE LLC,10
23R667,MORRISON MANOR LLC,3039862216,ASSISTED LIVING RESIDENCE,DENVER,9875 W MORRISON RD,LAKEWOOD,CO,80227,, LIMITED LIABIL,MORRISON MANOR LLC,12
23R738,LAKEWOOD RESERVE,3037424800,ASSISTED LIVING RESIDENCE,JEFFERSON,555 SOUTH PIERCE ST,LAKEWOOD,CO,80226,, LIMITED LIABIL,PIERCE SENIOR CARE LLC,274
23R741,EAGLE CREST ASSISTED LIVING COMMUNITY,9706754298,ASSISTED LIVING RESIDENCE,RIO BLANCO,222 EAGLE CREST DRIVE,RANGELY,CO,81648,sshriver@rdhosp.org, DISTRICT,RANGELY HOSPITAL DISTRICT,20
23R742,"GARDENS CARE HOMES PINEHURST, THE",3034216539,ASSISTED LIVING RESIDENCE,JEFFERSON,7052 W STANFORD AVE,LITTLETON,CO,80123,thegardenscarehomes@gmail.com, LIMITED LIABIL,"GARDENS CARE HOMES LLC, THE",12
23R889,"COUNTRY CLUB ASSISTED LIVING, INC",7193291200,ASSISTED LIVING RESIDENCE,EL PASO,3205 LESLIE DRIVE,COLORADO SPRINGS,CO,80909,fmartin@promsi.com, LIMITED LIABIL,"COUNTRY CLUB ASSISTED LIVING, LLC",8
23R990,TY'S HOUSE LLC,3033078332,ASSISTED LIVING RESIDENCE,DENVER,5050 TROY,DENVER,CO,80239,carolyn_@qwestoffice.net, LIMITED LIABIL,"TY'S HOUSE, LLC",8
23S208,A WILDFLOWER ASSISTED LIVING AND CARE HOME INC,3034634363,ASSISTED LIVING RESIDENCES,JEFFERSON,6197 W 83RD WAY,ARVADA,CO,80003,nicole@awildflowerassistedliving.com, PROFIT-CORPORA,A WILDFLOWER ASSISTED LIVING AND CARE HOME INC,8
23S293,MORNINGSTAR AT BEAR CREEK,7196941411,ASSISTED LIVING RESIDENCE,EL PASO,2450 LOWER GOLD CAMP RD,COLORADO SPRINGS,CO,80906,bearcreek.ed@morningstarseniorliving.com, LIMITED LIABIL,MORNINGSTAR BEAR CREEK OPERATOR,60
23S294,"THRIVECARE YARROW, LLC",7208087307,ASSISTED LIVING RESIDENCE,JEFFERSON,8385 S YARROW STREET,LITTLETON,CO,80128,, LIMITED LIABIL,"THRIVECARE YARROW, LLC",10
23S305,LANSING ASSISTED LIVING,7205358028,ASSISTED LIVING RESIDENCE,ARAPAHOE,2141 S LANSING CT,AURORA,CO,80014,g.dirks@comcast.net, LIMITED LIABIL,JEWELL LANSING ASSISTED LIVING LLC,8
23V344,SUNNYSLOPE ESTATE VILLA,7206637141,ASSISTED LIVING RESIDENCE,ADAMS,11275 GRANT DRIVE,NORTHGLENN,CO,80233,, LIMITED LIABIL,CARE GROUP LLC,32
2305HN,GENTLE CARE HOUSE,7194669863,ASSISTED LIVING RESIDENCE,EL PASO,1333 DARBY STREET,COLORADO SPRINGS,CO,80907,gentlecarehouse@yahoo.com, CORPORATE NON-,HUBBARD PROPERTY MANAGEMENT INC,8
2304VQ,SOMEREN GLEN ASSISTED LIVING,3037415555,ASSISTED LIVING RESIDENCE,ARAPAHOE,4761 E COSTILLA AVE,CENTENNIAL,CO,80122,, CORPORATE NON-,CHRISTIAN LIVING NEIGHBORHOODS,55
230383,BEATRICE HOVER ASSISTED LIVING RESIDENCE,3037729292,ASSISTED LIVING RESIDENCE,BOULDER,1380 CHARLES DRIVE,LONGMONT,CO,80503,lczolowski@hovercommunity.org, CORPORATE NON-,"HOVER COMMUNITY, INC",55
235HXR,OPEN ARMS ASSISTED LIVING SUITE B,7204528006,ASSISTED LIVING RESIDENCE,DENVER,12150 E ANDREWS DRIVE SUITE B,DENVER,CO,80239,, CORPORATE NON-,OPEN ARMS ASSISTED LIVING,14
230464,"ARGYLE, THE",3034559513,ASSISTED LIVING RESIDENCE,DENVER,4115 W 38TH AVENUE,DENVER,CO,80212,, CORPORATE NON-,"LADIES RELIEF SOCIETY OF DENVER, THE",140
230426,GARDENS AT ST ELIZABETH,3039642000,ASSISTED LIVING RESIDENCE,DENVER,2825 W 32ND AVE,DENVER,CO,80211,mbouhall@chilivingcomm.org, CORPORATE NON-,CHI LIVING COMMUNITIES,145
230432,COVENANT VILLAGE ASSISTED LIVING,3035156370,ASSISTED LIVING RESIDENCE,JEFFERSON,9221 WADSWORTH PARKWAY,WESTMINSTER,CO,80021,pjmilbourn@covenantretirement.org, CORPORATE NON-,COVENANT LIVING OF COLORADO,60
230329,FORT COLLINS GOOD SAMARITAN RETIREMENT VILLAGE-ALR,9702264909,ASSISTED LIVING RESIDENCE,LARIMER,508 W TRILBY ROAD,FORT COLLINS,CO,80525,jrich@good-sam.com, CORPORATE NON-,"EVANGELICAL LUTHERAN GOOD SAMARITAN SOCIETY, THE",28
230373,GOOD SAMARITAN SOCIETY -LOVELAND VILLAGE,9706693100,ASSISTED LIVING RESIDENCE,LARIMER,2101 S GARFIELD AVE,LOVELAND,CO,80537,, CORPORATE NON-,"EVANGELICAL LUTHERAN GOOD SAMARITAN SOCIETY, THE",60
23L630,"HOMESTEAD AT MONTROSE, THE",9709643400,ASSISTED LIVING RESIDENCE,MONTROSE,1819 PAVILION DR,MONTROSE,CO,81401,dswanson@voa.org, CORPORATE NON-,"HOMESTEAD AT MONTROSE, INC, THE",70
2301H4,EBEN EZER LUTHERAN CARE CENTER-II,9708422861,ASSISTED LIVING RESIDENCE,MORGAN,1920 EDISON ST,BRUSH,CO,80723,lynelle.phillips@ebenezer-cares.org, CORPORATE NON-,EBEN EZER LUTHERAN CARE CENTER,28
230343,TRIANGLE CROSS RANCH,9704542219,ASSISTED LIVING RESIDENCE,WELD,36049 WELD COUNTY ROAD 51,GALETON,CO,80622,director@trianglecrossranch.org, CORPORATE NON-,TRIANGLE CROSS RANCH INC,24
23W277,ROCKY MOUNTAIN ASSISTED LIVING- MILWAUKEE,3039966886,ASSISTED LIVING RESIDENCE,ARAPAHOE,5905 S MILWAUKEE WAY,CENTENNIAL,CO,80121,dave@rockymountainassistedliving.com, CORPORATE NON-,"ROCKY MOUNTAIN ASSISTED LIVING, LLC",12
23Y389,"SUITES AT HOLLY CREEK ASSISTED LIVING, THE",7202662601,ASSISTED LIVING RESIDENCE,ARAPAHOE,5590 E PEAKVIEW AVENUE,CENTENNIAL,CO,80121,, CORPORATE NON-,CHRISTIAN LIVING COMMUNITIES,46
23V721,GOOD SAMARITAN SOCIETY WATER VALLEY SR LVG RESORT,9706862743,ASSISTED LIVING RESIDENCE,WELD,1831 COMPASSION DR,WINDSOR,CO,80550,, CORPORATE NON-,"EVANGELICAL LUTHERAN GOOD SAMARITAN SOCIETY, THE",68
23J640,FRASIER MEADOWS MANOR INC ASSISTED LIVING CENTER,7205624462,ASSISTED LIVING RESIDENCE,BOULDER,4950 THUNDERBIRD DRIVE,BOULDER,CO,80303,mmcparland@frasiermeadows.org, CORPORATE NON-,"FRASIER MEADOWS MANOR, INC.",55
230463,CLERMONT PARK ASSISTED LIVING,7209747275,ASSISTED LIVING RESIDENCE,DENVER,2479 S CLERMONT STREET,DENVER,CO,80222,cmiller@clcmail.org, CORPORATE NON-,CHRISTIAN LIVING NEIGHBORHOODS,40
231128,"WILLOWS, THE",9708582184,ASSISTED LIVING RESIDENCE,MESA,243 N CHERRY STREET,FRUITA,CO,81521,jdavis@fhw.org, CORPORATE NON-,THE LOWER VALLEY HOSPITAL ASSOCIATION,26
230541,VIEWPOINTE,7195288000,ASSISTED LIVING RESIDENCE,EL PASO,555 S ROCKRIMMON BLVD,COLORADO SPRINGS,CO,80919,rparker@ba.org, CORPORATE NON-,BSLC II,107
23Z699,CROSSROADS AT DELTA MEMORY,9708086020,ASSISTED LIVING RESIDENCE,DELTA,1379 ASPEN WAY,DELTA,CO,81416,, CORPORATE NON-,CROSSROADS AT DELTA MEMORY,48
23T750,CROSSROADS AT LAKEWOOD,7203580014,ASSISTED LIVING RESIDENCE,JEFFERSON,8201 WEST JEWELL AVENUE,LAKEWOOD,CO,80232,michele.strauch@crossroadsalc.org, CORPORATE NON-,CROSSROADS AT LAKEWOOD,55
2304FK,LEARNING SERVICES CORPORATION - GLEN DEE,3032323236,ASSISTED LIVING RESIDENCE,JEFFERSON,1555 GLEN DEE DR,LAKEWOOD,CO,80215,rmills@learningservices.com, INDIVIDUAL,LEARNING SERVICES CORPORATION,8
23Y298,"VILLA LUXURY SENIOR LIVING, THE",9707497494,ASSISTED LIVING RESIDENCE,LA PLATA,1379 AVENIDA DEL SOL,DURANGO,CO,81301,, INDIVIDUAL,CAROL CLYNE,8
23T696,HAMPDEN HILLS ASSISTED LIVING LLC,3036993480,ASSISTED LIVING RESIDENCE,ARAPAHOE,14601 E HAMPDEN PLACE,AURORA,CO,80014,jjdedmon@gmail.com, LIMITED LIABIL,ANDROMEDA INVESTMENTS LLC,15
2304JQ,JEWELL ASSISTED LIVING,3037557602,ASSISTED LIVING RESIDENCE,ARAPAHOE,9271 E JEWELL CIRCLE,DENVER,CO,80231,g.dirks@comcast.net, LIMITED LIABIL,JEWELL LANSING ASSISTED LIVING LLC,12
23P249,MODENA CHERRY CREEK,7204050500,ASSISTED LIVING RESIDENCE,ARAPAHOE,2440 S WABASH ST,DENVER,CO,80231,, LIMITED LIABIL,WABASH OWNER LLC,105
23E526,SOLANGE AT SOUTH FORREST LLC,7209650484,ASSISTED LIVING RESIDENCE,DOUGLAS,8788 S FORREST DRIVE,HIGHLANDS RANCH,CO,80126,, LIMITED LIABIL,SOLANGE AT SOUTH FORREST LLC,8
23Z786,LA COLMENA LLC,9705496554,ASSISTED LIVING RESIDENCE,MESA,"2395 H RD, BLDG B",GRAND JUNCTION,CO,81505,, LIMITED LIABIL,LA COLMENA LLC,16
2303C0,GARDEN SQUARE AT WESTLAKE,9703461222,ASSISTED LIVING RESIDENCE,WELD,3151 W 20TH ST,GREELEY,CO,80634,gsgadministrator@gardensquaregreeley.com, LIMITED LIABIL,WESTLAKE ASSISTED LIVING LLC,64
23G126,ST ANDREWS VILLAGE,3036959300,ASSISTED LIVING RESIDENCE,ADAMS,2670 SOUTH ABILENE STREET EAST,AURORA,CO,80014,vasandoval@watermarkcommunities.com, LIMITED LIABIL,AURORA SENIOR HOUSING LLC,72
23A842,SKY WALKER LEGACY LLC,7204088939,ASSISTED LIVING RESIDENCE,ADAMS,422 SUNSHINE WAY,BRIGHTON,CO,80601,r.l.mason@hotmail.com, LIMITED LIABIL,SKY WALKER LEGACY LLC,6
23T700,ABUNDANT BLESSINGS & CARE ASSISTED LIVING-LINCOLN,3034788174,ASSISTED LIVING RESIDENCE,ADAMS,7200 S LINCOLN WAY,CENTENNIAL,CO,80122,, LIMITED LIABIL,ABUNDANT BLESSINGS & CARE ASSISTED LIVING LLC,10
23Y819,LOVING TOUCH ELDERLY ASSISTANT CARE INC,3037980074,ASSISTED LIVING RESIDENCE,ADAMS,280 E STERNE BLVD,CENTENNIAL,CO,80122,lovingtouchec@aol.com, LIMITED LIABIL,LOVING TOUCH ELDERLY ASSISTANT CARE LLP,12
23D976,ROCKY MOUNTAIN ASSISTED LIVING - CHESTNUT,3039966886,ASSISTED LIVING RESIDENCE,ADAMS,6824 CHESTNUT HILL STREET,HIGHLANDS RANCH,CO,80130,jessica@rockymountainassistedliving.com, LIMITED LIABIL,ROCKY MOUNTAIN ASSISTED LIVING LLC,16
23J974,GOLDEN ROCKIES ASSISTED LIVING,3036580346,ASSISTED LIVING RESIDENCE,ADAMS,13533 CLERMONT STREET,THORNTON,CO,80241,, LIMITED LIABIL,GOLDEN ROCKIES ASSISTED LIVING LLC,8
23J600,KARAMBI ASSISTED LIVING HOME LLC,3035877209,ASSISTED LIVING RESIDENCE,ADAMS,12951 CLARKSON CIRCLE,THORNTON,CO,80241,, LIMITED LIABIL,KARAMBI ASSISTED LIVING HOME LLC,8
23R673,ROCKY MOUNTAIN ASSISTED LIVING 120TH EAST,3039966886,ASSISTED LIVING RESIDENCE,ADAMS,3331 E 120TH AVE,THORNTON,CO,80233,, LIMITED LIABIL,ROCKY MOUNTAIN ASSISTED LIVING LLC,16
23Y773,BRIDGE AT ALAMOSA THE,7195873514,ASSISTED LIVING RESIDENCE,ALAMOSA,3407 CARROLL STREET,ALAMOSA,CO,81101,carolr@thebridgeatalamosa.com, LIMITED LIABIL,"ALAMOSA ASSISTED LIVING INVESTORS, LLC",85
23O148,PLANET VIEW ASSISTED LIVING LLC,5052315585,ASSISTED LIVING RESIDENCE,ARAPAHOE,18931 E BRUNSWICK PLACE,AURORA,CO,80013,, LIMITED LIABIL,PLANET VIEW ASSISTED LIVING LLC,5
23W364,CARDAN MANOR ASSISTED LIVING,3035961265,ASSISTED LIVING RESIDENCE,ARAPAHOE,16651 EAST NAVARRO DRIVE,AURORA,CO,80013,cabam@cardanmanor.com, LIMITED LIABIL,CARDAN MANOR ASSISTED LIVING LLC,5
23R196,NORA PERSONAL CARE ASSISTED LIVING LLC,3036178131,ASSISTED LIVING RESIDENCE,ARAPAHOE,17419 EAST FLORA PLACE,AURORA,CO,80013,cabam@norapersonalcare.com, LIMITED LIABIL,NORA PERSONAL CARE ASSISTED LIVING LLC,6
23Q657,"ASPEN VIEW LIVING, LLC",3036957777,ASSISTED LIVING RESIDENCE,ARAPAHOE,11010 E COLORADO DRIVE,AURORA,CO,80012,dmainpt@yahoo.com, LIMITED LIABIL,ASPEN VIEW LIVING LLC,8
23C957,BRASSWOOD ASSISTED LIVING,7202343657,ASSISTED LIVING RESIDENCE,ARAPAHOE,20 SOUTH DE GAULLE STREET,AURORA,CO,80014,, LIMITED LIABIL,SAS HEALTH SERVICES LLC,8
23N226,SUNSET ASSISTED LIVING LLC,7202311198,ASSISTED LIVING RESIDENCE,ARAPAHOE,18603 E LEHIGH AVE,AURORA,CO,80013,, LIMITED LIABIL,SUNSET ASSISTED LIVING LLC,8
23H518,"GARDENS CARE HOMES - MEADOW HILLS, THE",3034216539,ASSISTED LIVING RESIDENCE,ARAPAHOE,3828 S EAGLE STREET,AURORA,CO,80014,, LIMITED LIABIL,"GARDENS CARE HOMES LLC, THE",16
2.30E+08,CHERRY CREEK RETIREMENT VILLAGE,3036930200,ASSISTED LIVING RESIDENCE,ARAPAHOE,14555 E HAMPDEN AVENUE,AURORA,CO,80014,, LIMITED LIABIL,"AURORA RETIREMENT, LLC",35
23R712,BELLEVIEW HEIGHTS ALZHEIMER'S SPECIAL CARE CENTER,3036900700,ASSISTED LIVING RESIDENCE,ARAPAHOE,14500 BELLEVIEW AVE,AURORA,CO,80015,, LIMITED LIABIL,AURORA CARE GROUP LLC,66
23O623,GARDEN PLAZA OF AURORA,3037500820,ASSISTED LIVING RESIDENCE,ARAPAHOE,14211 EAST EVANS AVENUE,AURORA,CO,80014,, LIMITED LIABIL,"ARAPAHOE ASSISTED LIVING INVESTORS, LLC",90
2304M2,LIGHTHOUSE ASSISTED LIVING MAPLEWOOD LLC,7206351951,ASSISTED LIVING RESIDENCE,ARAPAHOE,6088 SOUTH LOCUST STREET,CENTENNIAL,CO,80111,, LIMITED LIABIL,LIGHTHOUSE ASSISTED LIVING MAPLEWOOD LLC,8
23A463,ROCKY MOUNTAIN ASSISTED LIVING - GLENCOE,3039966886,ASSISTED LIVING RESIDENCE,ARAPAHOE,6002 S GLENCOE WAY,CENTENNIAL,CO,80121,, LIMITED LIABIL,ROCKY MOUNTAIN ASSISTED LIVING LLC,10
23O624,ABUNDANT BLESSINGS AND CARE ASST LVG - GEDDES AVE,3039606711,ASSISTED LIVING RESIDENCE,ARAPAHOE,1137 E GEDDES AVE,CENTENNIAL,CO,80122,carol@abundantblessingsandcare.com, LIMITED LIABIL,ABUNDANT BLESSINGS AND CARE ASSISTED LIVING,10
23V339,ABUNDANT BLESSINGS AND CARE-MARION WAY,3034788174,ASSISTED LIVING RESIDENCE,ARAPAHOE,6203 SOUTH MARION WAY,CENTENNIAL,CO,80121,, LIMITED LIABIL,ABUNDANT BLESSINGS AND CARE ASSISTED LIVING,10
23H561,ABUNDANT BLESSINGS AND CARE ASSISTED LIVNG-EASTMAN,3034788174,ASSISTED LIVING RESIDENCE,ARAPAHOE,6461 EAST EASTMAN AVENUE,DENVER,CO,80222,, LIMITED LIABIL,ABUNDANT BLESSINGS & CARE ASSISTED LIVING LLC,8
2304P4,TENDERCARE AT UNIVERSITY HILLS LLC,3037583787,ASSISTED LIVING RESIDENCE,ARAPAHOE,2408 S KEARNEY STREET,DENVER,CO,80222,, LIMITED LIABIL,TENDERCARE AT UNIVERSITY HILLS LLC,10
23Z783,HARVARD SQUARE MEMORY CARE,3036960622,ASSISTED LIVING RESIDENCE,ARAPAHOE,10370 E HARVARD SQUARE,DENVER,CO,80231,, LIMITED LIABIL,WATERMARK HARVARD SQUARE AL LLC,40
23X801,"COURTYARDS AT MOUNTAIN VIEW, THE",3033373400,ASSISTED LIVING RESIDENCE,ARAPAHOE,8101 E MISSISSIPPI AVENUE,DENVER,CO,80247,tcopeland@pegasusseniorliving.com, LIMITED LIABIL,WELLTOWER PEGASUS TENANT LLC,120
23R668,A LEGACY PERSONAL CARE HOME,7203011369,ASSISTED LIVING RESIDENCE,ARAPAHOE,4050 SOUTH FOX STREET,ENGLEWOOD,CO,80110,, LIMITED LIABIL,A1 RESTORATIVE CARE LLC,10
23I532,LIGHTHOUSE ASSISTED LIVING NEWLAND LLC,3039481005,ASSISTED LIVING RESIDENCE,ARAPAHOE,7070 S NEWLAND COURT,LITTLETON,CO,80128,liz@lighthouseassistedliving.com, LIMITED LIABIL,LIGHTHOUSE ASSISTED LIVING NEWLAND LLC,8
23W354,THRIVECARE,7205047399,ASSISTED LIVING RESIDENCE,ARAPAHOE,7168 S INGALLS WAY,LITTLETON,CO,80128,, LIMITED LIABIL,THRIVE CARE LLC,8
23W745,LOVING CARE ASSISTED LIVING SERVICES LLC,7202428310,ASSISTED LIVING RESIDENCE,ARAPAHOE,6271 W MAPLEWOOD PLACE,LITTLETON,CO,80123,, LIMITED LIABIL,LOVING CARE ASSISTED LIVING SERVICES LLC,8
2304J1,THRIVECARE ROWLAND LLC,7205047399,ASSISTED LIVING RESIDENCE,ARAPAHOE,4961 W ROWLAND AVENUE,LITTLETON,CO,80128,, LIMITED LIABIL,THRIVECARE ROWLAND LLC,8
23V775,MEADOW VISTA ASSISTED LIVING LLC - WADSWORTH,7203207719,ASSISTED LIVING RESIDENCE,ARAPAHOE,7516 S WADSWORTH COURT,LITTLETON,CO,80128,, LIMITED LIABIL,MEADOW VISTA ASSISTED LIVING LLC-WADSWORTH,8
23T234,BEE HIVE HOMES OF PAGOSA SPRINGS,9707313340,ASSISTED LIVING RESIDENCE,ARCHULETA,662 PARK AVENUE,PAGOSA SPRINGS,CO,81147,, LIMITED LIABIL,AVERY THOMAS ENTERPRISES,16
23V719,"CARILLON AT BOULDER CREEK ASSISTED LIVING, THE",7205656844,ASSISTED LIVING RESIDENCE,BOULDER,2525 TAFT DRIVE,BOULDER,CO,80302,, LIMITED LIABIL,RESIDENCES AT BOULDER CREEK LLC,135
23Q658,SENIOR LIVING AT LAFAYETTE,7206392207,ASSISTED LIVING RESIDENCE,BOULDER,329 EXEMPLA CIRCLE,LAFAYETTE,CO,80026,, LIMITED LIABIL,"329 EXEMPLA CIRCLE OPERATIONS, LLC",60
2303PP,BROSS STREET ASSISTED LIVING,7206846102,ASSISTED LIVING RESIDENCE,BOULDER,537 BROSS ST,LONGMONT,CO,80501,carmen@samplesupports.com, LIMITED LIABIL,"SAMPLE SUPPORTS, LLC",11
23H130,ALTAVITA MEMORY CARE CENTRE LLC,3033003700,ASSISTED LIVING RESIDENCE,BOULDER,800 S FORDHAM STREET,LONGMONT,CO,80503,, LIMITED LIABIL,ALTAVITA MEMORY CARE CENTRE LLC,56
23F921,ALTAVITA ASSISTED LIVING,3033003700,ASSISTED LIVING RESIDENCE,BOULDER,1001 ALTAVITA COURT,LONGMONT,CO,80503,linda.berens@altavitaliving.com, LIMITED LIABIL,ALTAVITA ASSISTED LIVING LLC,73
23Y832,BALFOUR AT LAVENDER FARMS,7206145000,ASSISTED LIVING RESIDENCE,BOULDER,1800 PLAZA DR,LOUISVILLE,CO,80027,, LIMITED LIABIL,WELL BALFOUR TENANT LLC,62
23K988,TENDERCARE ASSISTED LIVING LLC,3039352448,ASSISTED LIVING RESIDENCE,DENVER,3241 S MABRY WAY,DENVER,CO,80236,marycna@live.com, LIMITED LIABIL,TENDERCARE ASSISTED LIVING,9
23Z784,TENDERCARE AT PINEHURST LLC,3039885295,ASSISTED LIVING RESIDENCE,DENVER,5290 W PRINCETON,DENVER,CO,80235,marycna@live.com, LIMITED LIABIL,TENDERCARE AT PINEHURST LLC,10
23049U,SUNRISE AT PINEHURST,3039841431,ASSISTED LIVING RESIDENCE,DENVER,5195 W QUINCY AVE,DENVER,CO,80236,pinehurst.ed@sunriseseniorliving.com, LIMITED LIABIL,AL I/PINEHURST SENIOR HOUSING LLC,108
2304VK,BELLEVIEW SUITES AT DTC ASSISTED LIVING & MEMORY C,3037968009,ASSISTED LIVING RESIDENCE,DENVER,4901 S MONACO ST,DENVER,CO,80237,kprokai@pegasusseniorliving.com, LIMITED LIABIL,WELLTOWER PEGASUS TENANT LLC,114
23W813,JAI RESIDENTIAL CARE HOME 2 LLC,7202129384,ASSISTED LIVING RESIDENCE,DOUGLAS,5858 POINT RIDER CIR,CASTLE ROCK,CO,80104,, LIMITED LIABIL,JAI RESIDENTIAL CARE HOME 2 LLC,5
23P691,"SOLANGE AT EVENINGSONG, INC",7199850467,ASSISTED LIVING RESIDENCE,DOUGLAS,572 EVENINGSONG DR,CASTLE ROCK,CO,80104,, LIMITED LIABIL,SOLANGE AT EVENINGSONG LLC,8
23F922,"GARDENS CARE HOMES RED HAWK, THE",3039194077,ASSISTED LIVING RESIDENCE,DOUGLAS,1473 ROSEMARY DR,CASTLE ROCK,CO,80109,, LIMITED LIABIL,"GARDENS CARE HOMES LLC, THE",12
23S727,SOLANGE AT GROUSEBERRY WAY LLC,7206487454,ASSISTED LIVING RESIDENCE,DOUGLAS,17618 GROUSEBERRY WAY,PARKER,CO,80134,, LIMITED LIABIL,SOLANGE AT GROUSEBERRY LLC,8
23S217,SENIOR LIVING AT THE SIERRA RIDGE LLC,3038084047,ASSISTED LIVING RESIDENCE,DOUGLAS,10136 ISLE STREET,PARKER,CO,80134,jaya.s@ilaseniorliving.com, LIMITED LIABIL,SENIOR LIVING AT THE SIERRA RIDGE LLC,8
230557,GARDEN RANCH ASSISTED LIVING,7192609121,ASSISTED LIVING RESIDENCE,EL PASO,5075 SADDLE DRIVE,COLORADO SPRINGS,CO,80918,gardenranchassistedliving@outlook.com, LIMITED LIABIL,GARDEN RANCH SENIOR CARE LLC,8
23V729,SOLANGE AT THE LODGE,7199850467,ASSISTED LIVING RESIDENCE,EL PASO,1420 E FOUNTAIN BLVD,COLORADO SPRINGS,CO,80909,cgarduno@aime-management.com, LIMITED LIABIL,"LODGE ASSISTED LIVING LLC, THE",23
23088B,HERITAGE PARK ASSISTED LIVING,9709283222,ASSISTED LIVING RESIDENCE,GARFIELD,1250 VILLAGE ROAD,CARBONDALE,CO,81623,, LIMITED LIABIL,"HERITAGE PARK OPERATIONS, LLC",28
23E913,CARING HEARTS OF ARVADA LLC,7205084195,ASSISTED LIVING RESIDENCE,JEFFERSON,10185 W 71ST PLACE,ARVADA,CO,80004,, LIMITED LIABIL,CARING HEARTS OF ARVADA LLC,8
23X286,"GARDENS CARE HOMES - QUAKER ACRES, THE",3034224446,ASSISTED LIVING RESIDENCE,JEFFERSON,16821 W 74TH AVE,ARVADA,CO,80007,, LIMITED LIABIL,"GARDENS CARE HOMES LLC, THE",8
23Z791,"GARDENS CARE HOMES MAJESTIC VIEW, THE",3034216539,ASSISTED LIVING RESIDENCE,JEFFERSON,6882 GARLAND STREET,ARVADA,CO,80004,TheGardensCareHomes@gmail.com, LIMITED LIABIL,"GARDENS CARE HOMES LLC, THE",12
23Z778,"WELL HOUSE ARVADA LLC, THE",3034899025,ASSISTED LIVING RESIDENCE,JEFFERSON,6501 W 60TH AVENUE,ARVADA,CO,80003,, LIMITED LIABIL,"WELL HOUSE ARVADA LLC, THE",16
230413,ARBOR VIEW,3034033100,ASSISTED LIVING RESIDENCE,JEFFERSON,8001 W 71ST AVENUE,ARVADA,CO,80004,, LIMITED LIABIL,"HACKBERRY HILL OPCO, LLC",36
23Y607,"GARDENS CARE HOMES - JEWELL ESTATES, THE",3034216539,ASSISTED LIVING RESIDENCE,JEFFERSON,6347 HAWTHORN LANE,LAKEWOOD,CO,80227,TheGardensCareHomes@gmail.com, LIMITED LIABIL,"GARDENS CARE HOMES LLC, THE",10
2356OV,ROCKY MOUNTAIN ASSISTED LIVING - REED,3039966886,ASSISTED LIVING RESIDENCE,JEFFERSON,995 REED ST,LAKEWOOD,CO,80214,, LIMITED LIABIL,"ROCKY MOUNTAIN ASSISTED LIVING, LLC",12
23F494,ROCKY MOUNTAIN ASSISTED LIVING-QUINCY WEST,3039966886,ASSISTED LIVING RESIDENCE,JEFFERSON,7985 WEST QUINCY AVENUE,LAKEWOOD,CO,80123,jessica@rockymountainassistedliving.com, LIMITED LIABIL,"ROCKY MOUNTAIN ASSISTED LIVING, LLC",16
23H519,ROCKY MOUNTAIN ASSISTED LIVING QUINCY,3039966886,ASSISTED LIVING RESIDENCE,JEFFERSON,7975 W QUINCY AVENUE,LAKEWOOD,CO,80123,dave@rockymountainassistedliving.com, LIMITED LIABIL,ROCKY MOUNTAIN ASSISTED LIVING LLC,16
2304WQ,MONTAGE RIDGE,3032375700,ASSISTED LIVING RESIDENCE,JEFFERSON,12791 W ALAMEDA PARKWAY,LAKEWOOD,CO,80228,, LIMITED LIABIL,GENGREENMOUNTAIN LLC,131
23E903,RMCC,7204125730,ASSISTED LIVING RESIDENCE,JEFFERSON,6921 S LEE WAY,LITTLETON,CO,80127,, LIMITED LIABIL,ROCKY MOUNTAIN CARE AND CONSULTING LLC,8
2304BH,COLORADO ASSISTED LIVING HOMES LLC-ROWLAND,3033240834,ASSISTED LIVING RESIDENCE,JEFFERSON,5424 W ROWLAND PL,LITTLETON,CO,80128,, LIMITED LIABIL,"COLORADO ASSISTED LIVING HOMES, LLC",8
23R696,THRIVECARE INDORE LLC,7205047399,ASSISTED LIVING RESIDENCE,JEFFERSON,5596 W INDORE DRIVE,LITTLETON,CO,80128,, LIMITED LIABIL,THRIVECARE INDORE LLC,8
23W793,MEADOW VISTA ASSISTED LIVING AT WALDEN,3039042262,ASSISTED LIVING RESIDENCE,JEFFERSON,7243 W WALDEN DRIVE,LITTLETON,CO,80128,sanjay.aryal@gmail.com, LIMITED LIABIL,"MEADOW VISTA ASSISTED LIVING, LLC - WALDEN",8
23YOTG,"THRIVECARE CHASE, LLC",7208087307,ASSISTED LIVING RESIDENCE,JEFFERSON,6398 S CHASE CT,LITTLETON,CO,80123,, LIMITED LIABIL,THRIVECARE CHASE LLC,10
2304OJ,"MANOR ON MARSTON LAKE, THE",3039329808,ASSISTED LIVING RESIDENCE,JEFFERSON,4800 OLD S WADSWORTH BLVD,LITTLETON,CO,80123,rebmn16@gmail.com, LIMITED LIABIL,"MANOR ON MARSTON LAKE, LLC",50
2304YQ,GOLDEN ORCHARD III,3037977312,ASSISTED LIVING RESIDENCE,JEFFERSON,3510 HOLLAND ST,WHEAT RIDGE,CO,80033,, LIMITED LIABIL,3510 HOLLAND MANAGEMENT LLC,16
23I527,EVENINGS PORCH LLC,9708840101,ASSISTED LIVING RESIDENCE,LA PLATA,42811 HIGHWAY 160,BAYFIELD,CO,81122,, LIMITED LIABIL,EVENINGS PORCH LLC,16
23E478,MONARCH GREENS ASSISTED LIVING,9704495644,ASSISTED LIVING RESIDENCE,LARIMER,1725 LAKEVIEW DRIVE,FORT COLLINS,CO,80524,melisa@ahome4life.com, LIMITED LIABIL,"A HOME FOR LIFE, LLC",8
23Y394,TURNBERRY PLACE ASSISTED LIVING,9704822215,ASSISTED LIVING RESIDENCE,LARIMER,2401 TURNBERRY ROAD,FORT COLLINS,CO,80524,redrmr@yahoo.com, LIMITED LIABIL,RRESIDENTS LLC,8
230314,LIVE TO ASSIST,9702241400,ASSISTED LIVING RESIDENCE,LARIMER,2914 W PROSPECT,FORT COLLINS,CO,80526,livetoassistllc@gmail.com, LIMITED LIABIL,LIVE TO ASSIST LLC,8
23G123,FOX MEADOWS ASSISTED LIVING,9704494472,ASSISTED LIVING RESIDENCE,LARIMER,4021 SPRUCE DRIVE,FORT COLLINS,CO,80526,tamra.meurer@outlook.com, LIMITED LIABIL,NORTHERN COLORADO LIVING SOLUTION,8
23HXHC,PRESTIGE LIVING LLC,3036387814,ASSISTED LIVING RESIDENCE,LARIMER,700 GREENBRIAR DR,FORT COLLINS,CO,80524,, LIMITED LIABIL,PRESTIGE LIVING LLC,8
23J170,SENECA HOUSE ASSISTED LIVING,9707958600,ASSISTED LIVING RESIDENCE,LARIMER,4406 SENECA STREET,FORT COLLINS,CO,80526,greg@stjohnal.com, LIMITED LIABIL,"ST JOHN ASSISTED LIVING, LLC",8
23Z318,EAGLES NEST ASSISTED LIVING LLC,9704931073,ASSISTED LIVING RESIDENCE,LARIMER,1026 SALMON RUN,FORT COLLINS,CO,80524,scott@eaglesnestal.com, LIMITED LIABIL,EAGLE'S NEST ASSISTED LIVING LLC,8
23D505,CENTER AT ROCK CREEK LLC,7199001398,ASSISTED LIVING RESIDENCE,LARIMER,4880 ZIEGLER ROAD,FORT COLLINS,CO,80528,, LIMITED LIABIL,CENTER AT ROCK CREEK LLC,21
23V260,HARMONY HOME,9705541484,ASSISTED LIVING RESIDENCE,LOGAN,703 HOLLY DRIVE,STERLING,CO,80751,thh703@gmail.com, LIMITED LIABIL,"HARMONY HOME, LLC, THE",15
23G504,GRANDVIEW CARE LODGE ASSISTED LIVING,9702418896,ASSISTED LIVING RESIDENCE,MESA,815 26 1/2 ROAD,GRAND JUNCTION,CO,81506,, LIMITED LIABIL,GRANDVIEW CARE LODGE,8
23D504,BEE HIVE HOMES OF GRAND JUNCTION,9706445920,ASSISTED LIVING RESIDENCE,MESA,2395 H ROAD,GRAND JUNCTION,CO,81505,wgates@beehivehomes.com, LIMITED LIABIL,GARDEN GATES LLC,15
23B424,VILLA PUEBLO ASSISTED LIVING,7192533723,ASSISTED LIVING RESIDENCE,PUEBLO,855 HUNTER DR,PUEBLO,CO,81001,sturner@villapueblo.com, LIMITED LIABIL,1111 BONFORTE OPCO LLC,11
23Z405,PRIMROSE RETIREMENT COMMUNITY OF PUEBLO,7195433300,ASSISTED LIVING RESIDENCE,PUEBLO,5055 OUTLOOK BOULEVARD,PUEBLO,CO,81008,gmackenzie@primroseretirement.com, LIMITED LIABIL,PUEBLO RETIREMENT LLC,45
23D501,COLUMBINE CHATEAU ASSISTED LIVING,7195661185,ASSISTED LIVING RESIDENCE,PUEBLO,720 E SPRINGMONT DRIVE,PUEBLO WEST,CO,81007,lemoncheri2002@yahoo.com, LIMITED LIABIL,"THE CHATEAUS, LLC",24
23K559,"ASPEN, THE",7198221016,ASSISTED LIVING RESIDENCE,TELLER,107 EAST VILLAGE TERRACE,WOODLAND PARK,CO,80863,, LIMITED LIABIL,ELEMENTS OF LIVING LLC,24
23036H,BRIDGE ASSISTED LIVING AT LIFE CARE CTR OF GREELEY,9703390022,ASSISTED LIVING RESIDENCE,WELD,4750 25TH ST,GREELEY,CO,80634,, LIMITED LIABIL,"GREELEY ASSISTED LIVING INVESTORS, LLC",70
2303IY,MILLBROOK HOMES-COVE,3037749296,ASSISTED LIVING RESIDENCE,BOULDER,1746 COVE CT,LONGMONT,CO,80501,millbrook5650jmc@live.com, LIMITED LIABIL,"MILLBROOK HOMES, LLC",5
23J598,BLESSINGS SENIOR SERVICES,3035236659,ASSISTED LIVING RESIDENCE,ADAMS,1594 E 131 PLACE,THORNTON,CO,80241,, LIMITED LIABIL,BIDHYA AND VICTORIA LLC,8
2304UX,MILLBROOK HOMES-FILLMORE,3032218353,ASSISTED LIVING RESIDENCE,ARAPAHOE,7364 S FILLMORE CIRCLE,CENTENNIAL,CO,80122,millbrook5650jmc@live.com, LIMITED LIABIL,"MILLBROOK HOMES, LLC",8
23V725,ASSURED ASSISTED LIVING 9,3037663431,ASSISTED LIVING RESIDENCE,ARAPAHOE,5286 S ANDES CT,CENTENNIAL,CO,80015,francis@assuredal.com, LIMITED LIABIL,ASSURED ASSISTED LIVING LLC,8
23N219,ASSURED ASSISTED LIVING 8,3037943335,ASSISTED LIVING RESIDENCE,ARAPAHOE,2 MEADOWBROOK PLACE,LITTLETON,CO,80120,francis@assuredal.com, LIMITED LIABIL,ASSURED ASSISTED LIVING LLC,8
23X762,ASSURED ASSISTED LIVING 7,3036634881,ASSISTED LIVING RESIDENCE,DOUGLAS,10139 RIVERSTONE DRIVE,PARKER,CO,80134,francis@assuredal.com, LIMITED LIABIL,ASSURED ASSISTED LIVING LLC,8
23H567,JAXPOINTE AT FLOWER COURT ASSISTED LIVING,3034209910,ASSISTED LIVING RESIDENCE,JEFFERSON,5475 FLOWER COURT,ARVADA,CO,80003,info@jaxpointe.com, LIMITED LIABIL,ROBERT RUSSELL HOMES LLC,8
23X280,JAXPOINTE AT SAULSBURY CT ASSISTED LIVING,3034205590,ASSISTED LIVING RESIDENCE,JEFFERSON,6445 SAULSBURY CT,ARVADA,CO,80003,info@jaxpointe.com, LIMITED LIABIL,ROBERT RUSSELL HOMES LLC,8
23X365,JAXPOINTE AT HOLLAND ST ASSISTED LIVING,3034209910,ASSISTED LIVING RESIDENCE,JEFFERSON,2013 HOLLAND STREET,LAKEWOOD,CO,80215,info@jaxpointe.com, LIMITED LIABIL,ROBERT RUSSELL HOMES LLC,8
23R663,JAXPOINTE AT ALLISON CT ASSISTED LIVING,3034209910,ASSISTED LIVING RESIDENCE,JEFFERSON,3525 ALLISON CT,WHEAT RIDGE,CO,80033,, LIMITED LIABIL,ROBERT RUSSELL HOMES LLC,8
23N613,"MANOR ON MARSTON LAKE-2, THE",3039329808,ASSISTED LIVING RESIDENCE,ARAPAHOE,4802 S WADSWORTH BLVD,LITTLETON,CO,80123,marston4800@gmail.com   alt:  Becky Norris rebmn16@gmail.com, LIMITED LIABIL,"MANOR ON MARSTON LAKE, LLC",9
23L198,ASSURED ASSISTED LIVING 3,3036606946,ASSISTED LIVING RESIDENCE,DOUGLAS,815 TARPAN PLACE,CASTLE ROCK,CO,80104,francis@assuredal.com, LIMITED LIABIL,ASSURED ASSISTED LIVING LLC,9
23S301,ASSURED ASSISTED LIVING 4,3036609757,ASSISTED LIVING RESIDENCE,DOUGLAS,1861 SAPLING COURT,CASTLE ROCK,CO,80109,francis@assuredal.com, LIMITED LIABIL,ASSURED ASSISTED LIVING LLC,9
23U704,ASSURED ASSISTED LIVING 2,3036604252,ASSISTED LIVING RESIDENCE,DOUGLAS,797 TARPAN PLACE,CASTLE ROCK,CO,80104,francis@assuredal.com, LIMITED LIABIL,ASSURED ASSISTED LIVING LLC,9
23F916,S&S MEMORY CARE ASSISTED LIVING LLC,7206259484,ASSISTED LIVING RESIDENCE,ARAPAHOE,7741 E  EASTER PLACE,CENTENNIAL,CO,80112,, LIMITED LIABIL,S&S MEMORY CARE ASSISTED LIVING LLC,10
23Q568,PARK REGENCY THORNTON,3033505820,ASSISTED LIVING RESIDENCE,ADAMS,12610 HUDSON,THORNTON,CO,80241,jessecamcd@gmail.com, LIMITED LIABIL,BSLC THORNTON LLC,130
2304CL,GOLDEN ORCHARD I,3037977312,ASSISTED LIVING RESIDENCE,ARAPAHOE,850 E ORCHARD RD,CENTENNIAL,CO,80121,, LIMITED LIABIL,850 ORCHARD MANAGEMENT LLC,12
23D173,APPLEWOOD OUR HOUSE ASSISTED LIVING LLC,7203989743,ASSISTED LIVING RESIDENCE,JEFFERSON,1365 YANK STREET,GOLDEN,CO,80401,malou@applewoodourhouse.com, LIMITED LIABIL,APPLEWOOD OUR HOUSE ASSISTED LIVING LLC,12
23W268,ASHLEY MANOR YUKON,7207737804,ASSISTED LIVING RESIDENCE,JEFFERSON,80 YUKON ST,LAKEWOOD,CO,80226,, LIMITED LIABIL,ASHLEY MANOR LLC,12
23E476,HILLCREST OF LOVELAND,9705939800,ASSISTED LIVING RESIDENCE,LARIMER,535 NORTH DOUGLAS AVENUE,LOVELAND,CO,80537,nikischmidt@mbk.com, LIMITED LIABIL,HILLCREST PROPCO LLC,30
23W782,"LODGE AT GRAND JUNCTION, THE",9708224141,ASSISTED LIVING RESIDENCE,MESA,2656 PATTERSON RD,GRAND JUNCTION,CO,81506,, LIMITED LIABIL,GRAND JUNCTION  WELLAGE PACIFICA LLC,50
23C354,ASHLEY MANOR IRMA 2,3032801720,ASSISTED LIVING RESIDENCE,ADAMS,10525 IRMA DRIVE,NORTHGLENN,CO,80234,, LIMITED LIABIL,ASHLEY MANOR LLC,15
2304I0,SPRINGBROOKE RETIREMENT AND ASSISTED LIVING,3033319963,ASSISTED LIVING RESIDENCE,DENVER,6800 LEETSDALE DR,DENVER,CO,80224,admin@cherryoaksslc.com, LIMITED LIABIL,SPRINGFIELD GROUP LLC,151
23N653,"GARDENS CARE HOMES - CAMENISCH PARK, THE",3034216539,ASSISTED LIVING RESIDENCE,ADAMS,2599 W 90TH,DENVER,CO,80260,TheGardensCareHomes@gmail.com, LIMITED LIABIL,"GARDENS CARE HOMES LLC, THE",16
23A415,ROCKY MOUNTAIN ASSISTED LIVING 120TH WEST,3039966886,ASSISTED LIVING RESIDENCE,ADAMS,3301 E 120TH AVE,THORNTON,CO,80233,, LIMITED LIABIL,"ROCKY MOUNTAIN ASSISTED LIVING, LLC",16
23U756,BETHESDA GARDENS MONUMENT,8669588771,ASSISTED LIVING RESIDENCE,EL PASO,55 BEACON LITE ROAD,MONUMENT,CO,80132,, LIMITED LIABIL,BSLC MONUMENT LLC,81
23D697,APPLEWOOD OUR HOUSE ASSISTED LIVING FACILITY  III,3034246435,ASSISTED LIVING RESIDENCE,JEFFERSON,6435 GARRISON ST,ARVADA,CO,80003,malou@applewoodourhouse.com, LIMITED LIABIL,APPLEWOOD OUR HOUSE III ASSISTED LVG FACILITY LLC,16
23N684,"GARDENS CARE HOMES COLUMBINE ACRES, THE",3034216539,ASSISTED LIVING RESIDENCE,JEFFERSON,5375 OTIS STREET,ARVADA,CO,80002,TheGardensCareHomes@gmail.com, LIMITED LIABIL,"GARDENS CARE HOMES LLC, THE",16
2304JL,ASHLEY MANOR - SAULSBURY,3032337900,ASSISTED LIVING RESIDENCE,JEFFERSON,1370 SAULSBURY ST,LAKEWOOD,CO,80214,, LIMITED LIABIL,ASHLEY MANOR LLC,16
23Z827,BEEHIVE HOMES AT THE CORTEZ HOMESTEAD,9705292050,ASSISTED LIVING RESIDENCE,MONTEZUMA,694 COTTONWOOD STREET,CORTEZ,CO,81321,janlgardner@gmail.com, LIMITED LIABIL,"GARDNER'S HOMESTEADS, LLC",16
2303DK,GARDEN SQUARE OF GREELEY,9703369063,ASSISTED LIVING RESIDENCE,WELD,1663 29TH AVE PLACE,GREELEY,CO,80634,gsgadministrator@gardensquaregreeley.com, LIMITED LIABIL,"GREELEY ASSISTED LIVING, LLC",34
2304K7,BROOKDALE LOWRY,3033647149,ASSISTED LIVING RESIDENCE,DENVER,150 QUEBEC STREET,DENVER,CO,80230,kbackes@brookdale.com, LIMITED LIABIL,S-H THIRTY-FIVE OPCO LOWRY LLC,172
23Q715,GREELEY VILLAGE LLC,9706464850,ASSISTED LIVING RESIDENCE,WELD,1090 43RD AVE,GREELEY,CO,80634,, LIMITED LIABIL,GREELEY VILLAGE LLC,71
2305WD,BROOKDALE MONUMENT VALLEY PARK,7196356300,ASSISTED LIVING RESIDENCE,EL PASO,10 W MONUMENT ST,COLORADO SPRINGS,CO,80903,, LIMITED LIABIL,BROOKDALE PLACE OF COLORADO SPRINGS LLC,75
23F531,ROCKY MOUNTAIN ASSISTED LIVING 44TH AVE MC,3039966886,ASSISTED LIVING RESIDENCE,JEFFERSON,7860 WEST 44TH AVENUE,WHEAT RIDGE,CO,80033,, LIMITED LIABIL,ROCKY MOUNTAIN ASSISTED LIVING LLC,18
23U762,PALISADES AT BROADMOOR PARK,7192262273,ASSISTED LIVING RESIDENCE,EL PASO,4531 PALISADES PARK VIEW,COLORADO SPRINGS,CO,80906,taramiller@mbk.com, LIMITED LIABIL,PALISADES I MSL LLC,77
23Z782,LEGEND ASSISTED LIVING & MEMORY CARE OF BROOMFIELD,3034663500,ASSISTED LIVING RESIDENCE,BOULDER,12600 LOWELL BOULEVARD,BROOMFIELD,CO,80020,, LIMITED LIABIL,DEN ALF 1 LLC,103
23D500,LINCOLN MEADOWS SENIOR LIVING,3037901910,ASSISTED LIVING RESIDENCE,DOUGLAS,10001 S OSWEGO,PARKER,CO,80134,, LIMITED LIABIL,"LINCOLN MEADOWS SENIOR LIVING, LLC",90
2309QO,LEGEND OF COLORADO SPRINGS,3166166288,ASSISTED LIVING RESIDENCE,EL PASO,2368 RESEARCH PKWY,COLORADO SPRINGS,CO,80920,, LIMITED LIABIL,COS ALF 1 LLC,103
23N615,MEADOWVIEW OF GREELEY,9703536800,ASSISTED LIVING RESIDENCE,WELD,5300 W 29TH STREET,GREELEY,CO,80634,bobbiejo.mccarley@legendseniorliving.com, LIMITED LIABIL,"29TH STREET ALF, LLC",86
23U333,BONAVENTURE OF CASTLE ROCK,3036813752,ASSISTED LIVING RESIDENCE,DOUGLAS,1855 LOW MEADOW BLVD,CASTLE ROCK,CO,80109,, LIMITED LIABIL,BONAVENTURE OF CASTLE ROCK LLC,83
230558,LIBERTY HEIGHTS ASSISTED LIVING,7194819494,ASSISTED LIVING RESIDENCE,EL PASO,12105 AMBASSADOR DRIVE,COLORADO SPRINGS,CO,80921,, LIMITED LIABIL,"GA HC REIT II LIBERTY TRS SUB, LLC",60
23N139,"CARILLON AT BELLEVIEW STATION, THE",7204408200,ASSISTED LIVING RESIDENCE,DENVER,4855 S NIAGARA STREET,DENVER,CO,80237,, LIMITED LIABIL,BMSH I DTC CO LLC,207
23W353,GRACEFUL SENIOR LIVING OF CASTLE ROCK,3038192544,ASSISTED LIVING RESIDENCE,DOUGLAS,864 BARRANCA DRIVE,CASTLE ROCK,CO,80104,, LIMITED LIABIL,CASTLE ROCK MEMORY CARE LLC,48
23Y392,MORNINGSTAR AT MOUNTAIN SHADOWS,7192605605,ASSISTED LIVING RESIDENCE,EL PASO,5355 CENTENNIAL BLVD,COLORADO SPRINGS,CO,80919,mtnshadows.ed@morningstarseniorliving.com, LIMITED LIABIL,MOUNTAIN SHADOWS AL LLC,78
23F410,RENEW ROARING FORK,9709451121,ASSISTED LIVING RESIDENCE,GARFIELD,2800 MIDLAND AVE,GLENWOOD SPRINGS,CO,81601,, LIMITED LIABIL,FIRST PHOENIX-GLENWOOD SPRINGS LLC,122
23K185,MORNINGSTAR OF WHEAT RIDGE,7202509405,ASSISTED LIVING RESIDENCE,JEFFERSON,10100 W 38TH AVENUE,LAKEWOOD,CO,80033,sshellenberger@morningstarseniorliving.com, LIMITED LIABIL,MS WHEAT RIDGE MANAGEMENT CO LLC,79
23Y771,BONAVENTURE OF PUEBLO,7195426254,ASSISTED LIVING RESIDENCE,PUEBLO,3125 BONAVENTURE COURT,PUEBLO,CO,81008,719-470-8657, LIMITED LIABIL,"BONAVENTURE OF PUEBLO, LLC",106
23R710,"LODGE AT GREELEY, THE",7205315280,ASSISTED LIVING RESIDENCE,WELD,4430 24TH STREET ROAD,GREELEY,CO,80634,, LIMITED LIABIL,GREELEY PACIFICA WELLAGE LLC,72
23N524,STONECREEK OF LITTLETON,3032493754,ASSISTED LIVING RESIDENCE,ARAPAHOE,7800 S WINDERMERE STREET,LITTLETON,CO,80120,, LIMITED LIABIL,LCO SL REALTY LLC,100
23L584,MACKENZIE PLACE - COLORADO SPRINGS,7196338181,ASSISTED LIVING RESIDENCE,EL PASO,1655 ELM CREEK VIEW,COLORADO SPRINGS,CO,80907,, LIMITED LIABIL,MACKENZIE PLACE COLORADO SPRINGS LLC,84
23Z789,MACKENZIE PLACE - FORT COLLINS,9702071939,ASSISTED LIVING RESIDENCE,LARIMER,4750 PLEASANT OAK DRIVE,FORT COLLINS,CO,80525,, LIMITED LIABIL,MACKENZIE PLACE FORT COLLINS LLC,61
23T749,GRACE POINTE CONTINUING CARE SENIOR CAMPUS AL,9703041919,ASSISTED LIVING RESIDENCE,WELD,1919 68TH AVENUE,GREELEY,CO,80634,shareen.anderson@continuumhealth.com, LIMITED LIABIL,WGCC LLC,105
23V342,ATRIA ENGLEWOOD,7203709446,ASSISTED LIVING RESIDENCE,ARAPAHOE,3555 S CLARKSON STREET,ENGLEWOOD,CO,80113,, LIMITED LIABIL,"CA SENIOR ENGLEWOOD OPERATOR, LLC",178
23048J,CADENCE AURORA,3033690736,ASSISTED LIVING RESIDENCE,ARAPAHOE,1820 S POTOMAC ST,AURORA,CO,80012,, LIMITED LIABIL,CV AURORA OPCO LLC,188
23I587,BALFOUR AT RIVERFRONT PARK,7203604500,ASSISTED LIVING RESIDENCE,DENVER,1500 LITTLE RAVEN ST,DENVER,CO,80202,nloebl@balfourcare.com, LIMITED LIABIL,WELL BALFOUR TENANT LLC,100
23U246,CAPPELLA OF GRAND JUNCTION,9708475444,ASSISTED LIVING RESIDENCE,MESA,628 26 1/2 ROAD,GRAND JUNCTION,CO,81506,, LIMITED LIABIL,CAPPELLA OF GRAND JUNCTION LLC,78
23R753,SUNRISE OF WESTMINSTER,3034100500,ASSISTED LIVING RESIDENCE,ADAMS,10280 N SHERIDAN BLVD,WESTMINSTER,CO,80020,westminster.ed@sunriseseniorliving.com, LIMITED LIABIL,"SUNRISE SECOND WESTMINSTER ASSISTED LIVING, LLC",109
23M124,BALFOUR AT LITTLETON,7207889310,ASSISTED LIVING RESIDENCE,ARAPAHOE,8160 W COAL MINE AVE,LITTLETON,CO,80123,zstrunk@balfourcare.com, LIMITED LIABIL,CPI/BLFR LITTLETON LLC,90
23H946,JACKSON CREEK SENIOR LIVING,7197256060,ASSISTED LIVING RESIDENCE,EL PASO,16601 JACKSON CREEK PARKWAY,MONUMENT,CO,80132,dmackey@jcseniorliving.com, LIMITED LIABIL,JACKSON CREEK ASSISTED LIVING LLC,110
2304DC,CADENCE LAKEWOOD,3039697666,ASSISTED LIVING RESIDENCE,JEFFERSON,3151 S WADSWORTH BLVD,LAKEWOOD,CO,80227,, LIMITED LIABIL,CV LAKEWOOD OPCO LLC,142
23N258,MORNINGSTAR ASSISTED LIVING OF LITTLETON,3039723030,ASSISTED LIVING RESIDENCE,JEFFERSON,5344 SOUTH KIPLING PARKWAY,LITTLETON,CO,80127,littleton.ed@morningstarseniorliving.com, LIMITED LIABIL,"LITTLETON SENIOR HOUSING I OPCO, LLC",112
23O530,LEGACY VILLAGE OF CASTLE PINES LLC,3036639800,ASSISTED LIVING RESIDENCE,DOUGLAS,535 W CASTLE PINES PARKWAY,CASTLE ROCK,CO,80108,, LIMITED LIABIL,LEGACY VILLAGE OF CASTLE PINES LLC,120
23U764,GARDENS ON QUAIL,3034561500,ASSISTED LIVING RESIDENCE,JEFFERSON,6447 QUAIL STREET,ARVADA,CO,80004,, LIMITED LIABIL,GQOOPS LLC,96
23Z408,VILLAGE AT BELMAR,3033330482,ASSISTED LIVING RESIDENCE,JEFFERSON,7825 WEST ALAMEDA AVENUE,LAKEWOOD,CO,80226,, LIMITED LIABIL,BMSH I LAKEWOOD CO LLC,115
2303F3,BROOKDALE MARIANA BUTTE,9706220012,ASSISTED LIVING RESIDENCE,LARIMER,215 SHUPE CIRCLE,LOVELAND,CO,80537,, LIMITED LIABIL,"BKD STERLING HOUSE OF LOVELAND-ORCHARDS, LLC",105
23S295,"VINEYARDS MEMORY CARE, THE",9706237126,ASSISTED LIVING RESIDENCE,MESA,1530 WALNUT,GRAND JUNCTION,CO,81501,, LIMITED LIABIL,TRIUMPH PROPERTIES LLC,32
2304NM,SUNRISE AT ORCHARD,3037731609,ASSISTED LIVING RESIDENCE,ARAPAHOE,5975 S HOLLY ST,LITTLETON,CO,80121,, LIMITED LIABIL,SZR ORCHARD AL LLC,108
23N138,PINE GROVE CROSSING,3039968000,ASSISTED LIVING RESIDENCE,DOUGLAS,19160 COTTONWOOD DRIVE,PARKER,CO,80138,, LIMITED LIABIL,COTTONWOOD SENIOR CARE LLC,153
23H563,SUNRISE ASSISTED LIVING OF BOULDER,7204061000,ASSISTED LIVING RESIDENCE,BOULDER,3955 28TH STREET,BOULDER,CO,80304,krpate@yahoo.com, LIMITED LIABIL,WELLTOWER OPCO GROUP LLC,110
23X760,MORNINGSTAR AT RIDGEGATE,7205451645,ASSISTED LIVING RESIDENCE,DOUGLAS,10100  COMMONS STREET,LONE TREE,CO,80124,rlunnon@morningstarseniorliving.com, LIMITED LIABIL,COMMONS SENIOR CARE LLC,135
23Q716,GOLDEN LODGE ASSISTED  LIVING LLC,7206052111,ASSISTED LIVING RESIDENCE,JEFFERSON,1111 NEW STAR WAY,GOLDEN,CO,80403,, LIMITED LIABIL,GOLDEN LODGE ASSISTED LIVING LLC,111
23R708,SUNRISE AT FLATIRONS,3034662422,ASSISTED LIVING RESIDENCE,JEFFERSON,400 SUMMIT BOULEVARD,BROOMFIELD,CO,80021,, LIMITED LIABIL,WELLTOWER OPCO GROUP LLC,114
2304AL,SPRING RIDGE PARK ASSISTED LIVING,3032338518,ASSISTED LIVING RESIDENCE,JEFFERSON,5361 W 26TH AVE,WHEAT RIDGE,CO,80214,303-838-0810, LIMITED LIABIL,"CONTINUUM AT SPRING RIDGE PARK, LLC",37
23E528,MORNINGSTAR AT JORDAN,3033213277,ASSISTED LIVING RESIDENCE,ARAPAHOE,14301 EAST ARAPAHOE ROAD,CENTENNIAL,CO,80112,jordan.ed@morningstarseniorliving.com, LIMITED LIABIL,MORNINGSTAR JORDAN OPERATOR LLC,105
23T231,MORNINGSTAR OF ARVADA,7209079071,ASSISTED LIVING RESIDENCE,JEFFERSON,17351 WEST 64TH AVE,ARVADA,CO,80007,, LIMITED LIABIL,EASLEY SENIOR CARE LLC,90
23G939,ASPEN HOUSE 2,9706352500,ASSISTED LIVING RESIDENCE,LARIMER,2224 EAST 11TH STREET,LOVELAND,CO,80537,, LIMITED LIABIL,MRSC CO ASPEN HOUSE MASTER TENANT LLC,40
23S218,SEVEN LAKES MEMORY CARE,9704615918,ASSISTED LIVING RESIDENCE,LARIMER,1990 PIKES PEAK DRIVE,LOVELAND,CO,80538,, LIMITED LIABIL,SEVEN LAKES MSL LLC,48
2305B9,BROOKDALE BRIARGATE,7195984200,ASSISTED LIVING RESIDENCE,EL PASO,7560 LEXINGTON DR,COLORADO SPRINGS,CO,80920,, LIMITED LIABIL,"BKD STERLING HOUSE OF COLORADO SPRINGS-BRIARGATE,",50
23D467,APPLEWOOD PLACE,3032334343,ASSISTED LIVING RESIDENCE,JEFFERSON,2800 YOUNGFIELD STREET,LAKEWOOD,CO,80215,, LIMITED LIABIL,YOUNGFIELD SENIOR CARE LLC,133
23K987,WINDSONG AT NORTHRIDGE,9704497199,ASSISTED LIVING RESIDENCE,WELD,7010 WEST 8TH STREET,GREELEY,CO,80634,, LIMITED LIABIL,GREELEY MEMORY CARE LLC,52
23X291,PARKER SENIOR LIVING BY MORNINGSTAR,3038050818,ASSISTED LIVING RESIDENCE,DOUGLAS,18900 E MAINSTREET,PARKER,CO,80134,parker.ed@morningstarseniorliving.com, LIMITED LIABIL,SHP V PARKER LLC,167
23W376,ASPEN RIDGE ALZHEIMERS SPECIAL CARE CENTER,9702541233,ASSISTED LIVING RESIDENCE,MESA,622 28 1/4 ROAD,GRAND JUNCTION,CO,81506,tracy.waite@jeaseniorliving.net, LIMITED LIABIL,SH1 ASPEN RIDGE LLC,56
23F542,MORNINGSTAR OF BOULDER,7205451575,ASSISTED LIVING RESIDENCE,BOULDER,575 TANTRA DRIVE,BOULDER,CO,80305,boulder.ed@morningstarseniorliving.com, LIMITED LIABIL,4640 TABLE MESA LLC,118
2304OU,SUNRISE AT CHERRY CREEK,3033331166,ASSISTED LIVING RESIDENCE,DENVER,251 S COLORADO BLVD,DENVER,CO,80246,, LIMITED LIABIL,SUNRISE SENIOR LIVING AT CHERRY CREEK LLC,126
23Z839,SPRINGS RANCH MEMORY CARE COMMUNITY,7198964168,ASSISTED LIVING RESIDENCE,EL PASO,3315 EMMETT VIEW,COLORADO SPRINGS,CO,80922,springsranched@koelschsenior.com, LIMITED LIABIL,COLORADO SPRINGS MEMORY CARE LLC,72
23Z321,VILLAGIO OF BROOMFIELD,7206342535,ASSISTED LIVING RESIDENCE,BOULDER,11952 GRAY STREET,BROOMFIELD,CO,80020,cbrown@villagioliving.com, LIMITED LIABIL,SELECT OPERATIONS OF BROOMFIELD LLC,75
2304CA,BROOKDALE PINEHURST PARK,3037388500,ASSISTED LIVING RESIDENCE,DENVER,3790 W QUINCY AVE,DENVER,CO,80236,, LIMITED LIABIL,"BREA DENVER, LLC",76
23054K,BROOKDALE SKYLINE-ALR,7196675360,ASSISTED LIVING RESIDENCE,EL PASO,2365 PATRIOT HEIGHTS,COLORADO SPRINGS,CO,80904,, LIMITED LIABIL,"BLC - VILLAGE AT SKYLINE, LLC",187
23R666,"ACADEMY AT BELLA VISTA, THE",3034423896,ASSISTED LIVING RESIDENCE,BOULDER,2762 BELLA VISTA LANE,BOULDER,CO,80302,gary@theacademyboulder.com, LIMITED PARTNE,"ACADEMY AT BELLA VISTA, LLLP",10
23V340,"PEAKS AT OLD LARAMIE TRAIL, THE",3034406050,ASSISTED LIVING RESIDENCE,BOULDER,660 OLD LARAMIE TRAIL,LAFAYETTE,CO,80026,, LIMITED PARTNE,MERIDIAN LAFAYETTE OE LP,95
23033N,JUNIPER VILLAGE AT LOUISVILLE,3036653722,ASSISTED LIVING RESIDENCE,BOULDER,1078 S 88TH ST,LOUISVILLE,CO,80027,, LIMITED PARTNE,WELLSPRING AT LOUISVILLE LP,52
23052X,BRIDGE ASSISTED LVG AT LIFE CARE CTR OF CO SPRINGS,7196303330,ASSISTED LIVING RESIDENCE,EL PASO,2494 INTERNATIONAL CIRCLE,COLORADO SPRINGS,CO,80910,, PARTNERSHIP,"COLORADO SPRINGS RETIREMENT OPERATIONS, LLC",65
2304XO,NIGHTINGALE LANE,3034248777,ASSISTED LIVING RESIDENCE,JEFFERSON,12805 W 65TH WAY,ARVADA,CO,80004,lanedir@springwoodretirement.com, PARTNERSHIP,ARVADA HOUSING ASSOCIATES LLC,28
2304F8,NIGHTINGALE SUITES,3034244411,ASSISTED LIVING RESIDENCE,JEFFERSON,12825 W 65TH WAY,ARVADA,CO,80004,, PARTNERSHIP,ARVADA NIGHTINGALE ASSOCIATES LLLP,72
2304A2,BROOKDALE PARKPLACE,3037440400,ASSISTED LIVING RESIDENCE,DENVER,111 EMERSON ST,DENVER,CO,80218,bwestlake@brookdale.com, PARTNERSHIP,FORT AUSTIN LTD PARTNERSHIP,93
2304S1,JUNIPER VILLAGE AT AURORA,3033416335,ASSISTED LIVING RESIDENCE,ARAPAHOE,11901 E MISSISSIPPI AVE,AURORA,CO,80012,, PARTNERSHIP,WELLSPRING AT AURORA GENERAL PARTNERSHIP,52
23J979,ROSE OF SHARON ASSISTED LIVING - DETROIT,3037704900,ASSISTED LIVING RESIDENCE,ADAMS,7521 S DETROIT STREET,CENTENNIAL,CO,80122,htanny7@gmail.com, PROFIT-CORPORA,"ROSE OF SHARON ASSISTED LIVING, INC.",8
23Q273,CARDAN MANOR ASSISTED LIVING II,7205247192,ASSISTED LIVING RESIDENCE,ARAPAHOE,2895 SOUTH KILLARNEY WAY,AURORA,CO,80013,cabam@cardanmanor.com, PROFIT-CORPORA,CARDAN MANOR ASSISTED LIVING II INC,11
23J546,ROSE OF SHARON VALENTIA,7204822223,ASSISTED LIVING RESIDENCE,ARAPAHOE,6988 SOUTH VALENTIA STREET,CENTENNIAL,CO,80112,htanny7@gmail.com, PROFIT-CORPORA,"ROSE OF SHARON ASSISTED LIVING, INC.",7
23R130,LIGHTHOUSE ASSISTED LIVING INC-ELIZABETH HOUSE,7205298338,ASSISTED LIVING RESIDENCE,ARAPAHOE,7783 SOUTH ELIZABETH WAY,CENTENNIAL,CO,80122,tom@lighthouseassistedliving.com, PROFIT-CORPORA,LIGHTHOUSE ASSISTED LIVING INC,8
23G128,ROSE OF SHARON ASSISTED LIVING - WASHINGTON,3037943262,ASSISTED LIVING RESIDENCE,ARAPAHOE,7487 S WASHINGTON STREET,CENTENNIAL,CO,80122,htanny7@gmail.com, PROFIT-CORPORA,ROSE OF SHARON WASHINGTON INC,8
23K564,ST FRANCIS ASSISTED LIVING FACILITY,7206124813,ASSISTED LIVING RESIDENCE,ARAPAHOE,6694 S FRANKLIN STREET,CENTENNIAL,CO,80121,affmd@yahoo.com  ferrer_dahlia@yahoo.com, PROFIT-CORPORA,"WE CARE HOMES OF COLORADO, INC",8
23M587,ROSE OF SHARON ASSISTED LIVING - HARRISON,7203285013,ASSISTED LIVING RESIDENCE,ARAPAHOE,8108 S HARRISON WAY,CENTENNIAL,CO,80122,, PROFIT-CORPORA,"ROSE OF SHARON ASSISTED LIVING, INC.*",8
23Z788,ROSE OF SHARON ASSISTED LIVING,3037303825,ASSISTED LIVING RESIDENCE,ARAPAHOE,5853 SOUTH SHERMAN WAY,CENTENNIAL,CO,80121,htanny7@gmail.com, PROFIT-CORPORA,"ROSE OF SHARON ASSISTED LIVING, INC.",8
23U239,ST FRANCIS ASSISTED LIVING II,3032841913,ASSISTED LIVING RESIDENCE,ARAPAHOE,6610 S ONEIDA CT,CENTENNIAL,CO,80111,, PROFIT-CORPORA,"WE CARE HOMES OF COLORADO, INC",10
23O244,ROCKY MOUNTAIN ASSISTED LIVING- EUCLID,3039966886,ASSISTED LIVING RESIDENCE,ARAPAHOE,3638 E EUCLID AVE,CENTENNIAL,CO,80121,jessica@rockymountainassistedliving.com, PROFIT-CORPORA,ROCKY MOUNTAIN ASSISTED LIVING LLC,12
23X282,SENIOR CARE ASSISTED LIVING JERSEY HOUSE INC,7204357163,ASSISTED LIVING RESIDENCE,ARAPAHOE,2640 S JERSEY ST,DENVER,CO,80222,, PROFIT-CORPORA,SENIOR CARE ASSISTED LIVING - JERSEY HOUSE INC,8
23X373,ROSE OF SHARON ASSISTED LIVING - SNOWBERRY,3037303113,ASSISTED LIVING RESIDENCE,ARAPAHOE,5890 SNOWBERRY DRIVE,LITTLETON,CO,80123,, PROFIT-CORPORA,"ROSE OF SHARON ASSISTED LIVING, INC.",8
23I537,ROSE OF SHARON ASSISTED LIVING - YUKON,3039737123,ASSISTED LIVING RESIDENCE,ARAPAHOE,7762 S YUKON WAY,LITTLETON,CO,80128,htanny@qwest.net, PROFIT-CORPORA,"ROSE OF SHARON ASSISTED LIVING, INC.",8
23R935,"LIGHTHOUSE ASSISTED LIVING, INC-IRWIN HOUSE",7204935008,ASSISTED LIVING RESIDENCE,ARAPAHOE,2745 E IRWIN PLACE,LITTLETON,CO,80122,tom@lighthouseassistedliving.com, PROFIT-CORPORA,LIGHTHOUSE ASSISTED LIVING,8
23I533,LIGHTHOUSE ASSISTED LIVING INC - WADSWORTH,7204890864,ASSISTED LIVING RESIDENCE,ARAPAHOE,8603 S WADSWORTH COURT,LITTLETON,CO,80128,liz@lighthouseassistedliving.com, PROFIT-CORPORA,LIGHTHOUSE ASSISTED LIVING,12
23M122,SAFE HARBOR ASSISTED LIVING LLC,3037764384,ASSISTED LIVING RESIDENCE,BOULDER,1424 16TH AVENUE,LONGMONT,CO,80501,, PROFIT-CORPORA,SAFE HARBOR ASSISTED LIVING LLC,6
2303JU,BROOKDALE LONGMONT,3036821066,ASSISTED LIVING RESIDENCE,BOULDER,2240 PRATT ST,LONGMONT,CO,80501,kharden@brookdale.com, PROFIT-CORPORA,ALTERRA HEALTHCARE CORPORATION,50
230490,BROOKDALE UNIVERSITY PARK,3037571404,ASSISTED LIVING RESIDENCE,DENVER,2020 S MONROE ST,DENVER,CO,80210,, PROFIT-CORPORA,ARC HERITAGE CLUB INC,40
230480,HEATHER GROVE,3034774262,ASSISTED LIVING RESIDENCE,DENVER,3289 GROVE ST,DENVER,CO,80211,, PROFIT-CORPORA,MITCH B CORPORATION,45
23052H,A ROBIN'S NEST,7192262941,ASSISTED LIVING RESIDENCE,EL PASO,3182 E OAK CREEK DR,COLORADO SPRINGS,CO,80906,, PROFIT-CORPORA,"A ROBIN'S NEST OF CHEYENNE MOUNTAIN, INC.",8
23E517,"FREEDOM HOME ASSISTED LIVING, INC",7204363995,ASSISTED LIVING RESIDENCE,EL PASO,10080 LEXINGTON DRIVE,COLORADO SPRINGS,CO,80920,, PROFIT-CORPORA,FREEDOM HOME ASSISTED LIVING INC,8
23R718,NEW DAY COTTAGES AT PINE CREEK,7192661100,ASSISTED LIVING RESIDENCE,EL PASO,10975 HOWELLS ROAD,COLORADO SPRINGS,CO,80908,newadaycottages@q.com, PROFIT-CORPORA,NEW DAY COTTAGES INC,16
23V337,"HEALTHCARE RESORT OF COLORADO SPRINGS, THE",7196327000,ASSISTED LIVING RESIDENCE,EL PASO,2818 GRAND VISTA CIRCLE,COLORADO SPRINGS,CO,80904,, PROFIT-CORPORA,"PIKES PEAK HEALTHCARE, INC. USETHIS",32
23G121,PEAK GARDENS ASSISTED LIVING INC,3034676842,ASSISTED LIVING RESIDENCE,JEFFERSON,9585 W 51ST AVENUE,ARVADA,CO,80002,, PROFIT-CORPORA,PEAK GARDENS ASSISTED LIVING INC,8
23V250,CARE HAVEN ASSISTED LIVING INC,3032743636,ASSISTED LIVING RESIDENCE,JEFFERSON,632 DEFRAME COURT,GOLDEN,CO,80401,malachi_adam@yahoo.com, PROFIT-CORPORA,CARE HAVEN ASSISTED LIVING INC,8
23T229,ROCKY MOUNTAIN ASSISTED LIVING- VIRGINIA,3039966886,ASSISTED LIVING RESIDENCE,JEFFERSON,9000 W VIRGINIA AVE,LAKEWOOD,CO,80226,dave@rockymountainassistedliving.com, PROFIT-CORPORA,ROCKY MOUNTAIN ASSISTED LIVING LLC,12
23A413,RISING SUN SENIOR HOME AT BELMAR INC THE,3039890301,ASSISTED LIVING RESIDENCE,JEFFERSON,835 S FLOWER STREET,LAKEWOOD,CO,80226,, PROFIT-CORPORA,"RISING SUN SENIOR HOME AT BELMAR INC, THE",12
2304JT,COLORADO ASSISTED LIVING HOMES LLC - KENDALL,3039322289,ASSISTED LIVING RESIDENCE,JEFFERSON,7456 S KENDALL BLVD,LITTLETON,CO,80128,, PROFIT-CORPORA,"COLORADO ASSISTED LIVING HOMES, LLC",7
2303WA,BROOKDALE FORT COLLINS AL (CO),9702299777,ASSISTED LIVING RESIDENCE,LARIMER,1002 RULE DR,FORT COLLINS,CO,80525,pthomaskline@brookdaleliving.com, PROFIT-CORPORA,ALTERRA HEALTHCARE CORPORATION,80
2303RR,BROOKDALE NORTH LOVELAND,9706679500,ASSISTED LIVING RESIDENCE,LARIMER,2895 N EMPIRE AVE,LOVELAND,CO,80538,, PROFIT-CORPORA,ALTERRA HEALTHCARE CORPORATION,60
2306MT,BROOKDALE EL CAMINO,7195611400,ASSISTED LIVING RESIDENCE,PUEBLO,4723 SURFWOOD LANE,PUEBLO,CO,81005,jsandoval@brookdaleliving.com, PROFIT-CORPORA,ALTERRA HEALTHCARE CORPORATION,75
2303AM,ASHLEY MANOR - EVANS 3,9703361966,ASSISTED LIVING RESIDENCE,WELD,1715 32ND ST,EVANS,CO,80620,, PROFIT-CORPORA,ASHLEY MANOR LLC,16
23I528,EAGLES NEST AVIATOR'S HOMES INC,5052315585,ASSISTED LIVING RESIDENCE,WELD,6994 CR 39,FORT LUPTON,CO,80621,, PROFIT-CORPORA,PLANET VIEW INC,16
23R659,COLUMBINE COMMONS ASSISTED LIVING,9704495540,ASSISTED LIVING RESIDENCE,WELD,1475 MAIN ST,WINDSOR,CO,80550,, PROFIT-CORPORA,"COLUMBINE COMMONS HEATLH & REHAB, LLC",65
2305RA,CONSTANT CARE VI OAKRIDGE,7196606826,ASSISTED LIVING RESIDENCE,EL PASO,2204 OAKRIDGE LANE,COLORADO SPRINGS,CO,80915,, PROFIT-CORPORA,"CONSTANT CARE OF COLORADO SPRINGS, INC",6
2305T2,CONSTANT CARE V CHEYENNE,7196606826,ASSISTED LIVING RESIDENCE,EL PASO,427 W CHEYENNE ROAD,COLORADO SPRINGS,CO,80906,, PROFIT-CORPORA,"CONSTANT CARE OF COLORADO SPRINGS, INC",6
2305U1,CONSTANT CARE IV WOODBURN,7196606826,ASSISTED LIVING RESIDENCE,EL PASO,2402 WOODBURN STREET,COLORADO SPRINGS,CO,80906,, PROFIT-CORPORA,"CONSTANT CARE OF COLORADO SPRINGS, INC",6
2305FX,CONSTANT CARE III LOMA LINDA,7196606826,ASSISTED LIVING RESIDENCE,EL PASO,19 LOMA LINDA DR,COLORADO SPRINGS,CO,80906,, PROFIT-CORPORA,"CONSTANT CARE OF COLORADO SPRINGS, INC",8
23D453,ASSISTED LIVING OF AURORA INC,3038345646,ASSISTED LIVING RESIDENCE,ARAPAHOE,21 DELMAR CIRCLE,AURORA,CO,80011,, PROFIT-CORPORA,ASSISTED LIVING OF AURORA INC,10
23W736,ROCKY MOUNTAIN ASSISTED LIVING-NEWLAND,3039966886,ASSISTED LIVING RESIDENCE,JEFFERSON,1570 S NEWLAND ST,LAKEWOOD,CO,80232,zieglermeghann@gmail.com, PROFIT-CORPORA,ROCKY MOUNTAIN ASSISTED LIVING LLC,12
23U325,SERENITY HOUSE ASSISTED LIVING HOYT STREET,3035848926,ASSISTED LIVING RESIDENCE,JEFFERSON,155 S HOYT STREET,LAKEWOOD,CO,80226,michael.zislis@serenityhouse.net, PROFIT-CORPORA,"SERENITY HOUSE ASSISTED LIVING, INC.",12
23F488,ASHLEY MANOR - FT LUPTON 1,3038571921,ASSISTED LIVING RESIDENCE,WELD,1102 4TH STREET,FORT LUPTON,CO,80621,, PROFIT-CORPORA,ASHLEY MANOR LLC,12
2303Y3,ASHLEY MANOR - EVANS 1,9703469891,ASSISTED LIVING RESIDENCE,WELD,1805 32ND STREET,EVANS,CO,80620,, PROFIT-CORPORA,ASHLEY MANOR LLC,13
2304MV,BROOKDALE GREENWOOD VILLAGE-ALR,3032249455,ASSISTED LIVING RESIDENCE,ARAPAHOE,6450 S BOSTON STREET,GREENWOOD VILLAGE,CO,80111,"ipollak@brookdale,com", PROFIT-CORPORA,"ARC GREENWOOD VILLAGE, INC.",136
23R199,LEARNING SERVICES CORPORATION -  BEAR CREEK,3039896660,ASSISTED LIVING RESIDENCE,JEFFERSON,7201 W HAMPDEN,LAKEWOOD,CO,80227,rmills@learningservices.com, PROFIT-CORPORA,LEARNING SERVICES CORPORATION,15
23U714,FORGETMENOT MEMORY CARE ASSISTED LIVING,7193720749,ASSISTED LIVING RESIDENCE,FREMONT,9 S DORIS DRIVE,FLORENCE,CO,81226,, PROFIT-CORPORA,CARE HAVEN ASSISTED LIVING INC,16
2306N1,CHATEAU AT SHARMAR ASSISTED LIVING,7195441173,ASSISTED LIVING RESIDENCE,PUEBLO,1201 W ABRIENDO AVE,PUEBLO,CO,81004,luanna.tapia@continuumhealth.com, PROFIT-CORPORA,"CONTINUUM AT CHATEAU, INC.",87
23S304,MONTAGE CREEK,9702400600,ASSISTED LIVING RESIDENCE,MONTROSE,1968 SUNRISE DRIVE,MONTROSE,CO,81401,praab@generationsllc.com, PROFIT-CORPORA,EMERITUS CORPORATION,107
23054G,BEAR CREEK SENIOR LIVING,7193291774,ASSISTED LIVING RESIDENCE,EL PASO,1685 SOUTH 21ST STREET,COLORADO SPRINGS,CO,80904,, PROFIT-CORPORA,"S-H OPCO BEAR CREEK, LLC",137
23M205,HIGHPOINTE ASSISTED LIVING & MEMORY CARE,3037564567,ASSISTED LIVING RESIDENCE,ARAPAHOE,6383 E GIRARD PLACE,DENVER,CO,80222,jsullivan@spectrumretirement.com, PROFIT-CORPORA,"HIGHPOINTE OPERATOR, LLC",100
23036U,NEW MERCER COMMONS,9704951000,ASSISTED LIVING RESIDENCE,LARIMER,900 CENTRE AVENUE,FORT COLLINS,CO,80526,gina.digiallonardo@columbinehealth.com, PROFIT-CORPORA,THE WORTHINGTON INC.,120
2305CK,BROOKDALE BROADMOOR,7195795000,ASSISTED LIVING RESIDENCE,EL PASO,615 SOUTHPOINTE COURT,COLORADO SPRINGS,CO,80906,, PROFIT-CORPORA,"EMERITUS PROPERTIES XVI, INC.",89
2303C1,BROOKDALE FORT COLLINS MC (CO),9702299777,ASSISTED LIVING RESIDENCE,LARIMER,1008 RULE DRIVE,FORT COLLINS,CO,80525,, PROFIT-CORPORA,ALTERRA HEALTHCARE CORPORATION,62
23Y383,ALMOST LIKE HOME,3034322000,ASSISTED LIVING RESIDENCE,JEFFERSON,6761 WEST 65TH AVENUE,ARVADA,CO,80003,tim@alzhomes.com, PROFIT-CORPORA,"ALMOST LIKE HOME, INC",72
23Y387,GREENRIDGE PLACE,3034650504,ASSISTED LIVING RESIDENCE,JEFFERSON,7700 W 101ST AVENUE,WESTMINSTER,CO,80021,(303)465-0504, PROFIT-CORPORA,"ANTHEM WESTMINSTER MANAGEMENT, LLC",76
23R660,APPLEWOOD OUR HOUSE ASSISTED LIVING FACILITY 5 LLC,7209237923,ASSISTED LIVING RESIDENCE,JEFFERSON,6595 GARRISON ST,ARVADA,CO,80004,,NO VALUE ENTERED,,16
23U243,BONAVENTURE OF COLORADO SPRINGS,7194345230,ASSISTED LIVING RESIDENCE,EL PASO,9112 GRAND CORDERA PARKWAY,COLORADO SPRINGS,CO,80924,executivedirectorCOS@livebsl.com,NO VALUE ENTERED,BONAVENTURE OF COLORADO SPRINGS LLC,109
23O534,BONAVENTURE OF THORNTON LLC,7206421140,ASSISTED LIVING RESIDENCE,ADAMS,12281 WASHINGTON CENTER PKWY,THORNTON,CO,80241,executivedirectortho@livebsl.com,NO VALUE ENTERED,,95
2304PG,ASHLEY MANOR AT CARSON,3036997744,ASSISTED LIVING RESIDENCE,ARAPAHOE,4056 S CARSON WAY,AURORA,CO,80014,,PROFIT-CORPORATION,ASHLEY MANOR LLC,16
230428,HARVARD SQUARE RETIREMENT COMMUNITY,3036960622,ASSISTED LIVING RESIDENCE,DENVER,10200 E HARVARD AVE,DENVER,CO,80231,licensing@watermarkcommunities.com,PROFIT-CORPORATION,WATERMARK HARVARD SQUARE LLC,155
2302T0,PRAIRIE VIEW VILLAGE OF LAS ANIMAS,7194561340,ASSISTED LIVING RESIDENCE,BENT,821 SECOND ST,LAS ANIMAS,CO,81054,alf-bchcc.org, CITY-COUNTY,BENT COUNTY HEALTHCARE CENTER,16
23R871,GUNNISON VALLEY HEALTH ASSISTED LIVING,9706413031,ASSISTED LIVING RESIDENCE,GUNNISON,300 N THIRD ST,GUNNISON,CO,81230,wbaker@gvh-colorado.org, CITY-COUNTY,GUNNISON COUNTY,15
2301LU,JACOB J AND ANNE B WALTER MEMORIAL LIVING CENTER,9704743323,ASSISTED LIVING RESIDENCE,SEDGWICK,900 PINE ST,JULESBURG,CO,80737,kmollendor@schealth.org, CITY-COUNTY,SEDGWICK COUNTY,26
23R129,MESA HOUSE,3038533644,ASSISTED LIVING RESIDENCE,ADAMS,5831 EAST 74TH AVENUE,COMMERCE CITY,CO,80022,, CORPORATE NON-,ADAMS COMMUNITY MENTAL HEALTH CTR,10
23041O,PRAIRIE CREEKS LIVING CENTER,3036226262,ASSISTED LIVING RESIDENCE,ADAMS,56175 SUNSET AVE,STRASBURG,CO,80136,prairiecreeks@outlook.com, CORPORATE NON-,EASTERN SLOPE HOUSING INC,19
2304MZ,CROSSROADS AT NORTHGLENN ALF,3032521118,ASSISTED LIVING RESIDENCE,ADAMS,451 MALLEY DR,NORTHGLENN,CO,80233,michele.strauch@crossroadsalc.org, CORPORATE NON-,CROSSROADS AT NORTHGLENN ALF,100
23M636,DOROTHYS SOFT TOUCH II,3033411120,ASSISTED LIVING RESIDENCE,ARAPAHOE,716 URSULA STREET,AURORA,CO,80011,chinyerejoiner@q.com, CORPORATE NON-,DOROTHY'S SOFT TOUCH,6
23K179,DOROTHY'S SOFT TOUCH,3037392700,ASSISTED LIVING RESIDENCE,ARAPAHOE,1139 TUCSON STREET,AURORA,CO,80011,cjoiner@dsstouch.org, CORPORATE NON-,DOROTHY'S SOFT TOUCH,8
230354,"MARY SANDOE HOUSE, THE",3034947317,ASSISTED LIVING RESIDENCE,BOULDER,1244 GILLASPIE DR,BOULDER,CO,80305,dotti@themarysandoehouse.com, CORPORATE NON-,"BOULDER GRAY PANTHERS SERVICE PROJECT, INC.",24
230379,"MEZZANINE-ASSISTED LIVING AT GOLDEN WEST, THE",3034443967,ASSISTED LIVING RESIDENCE,BOULDER,1055 ADAMS CIRCLE,BOULDER,CO,80303,jgiovanetto@gwboulder.org, CORPORATE NON-,"GOLDEN WEST COMMUNITIES, INC",56
23R567,CROSSROADS AT DELTA ALF,9708741421,ASSISTED LIVING RESIDENCE,DELTA,1380 ASPEN WAY,DELTA,CO,81416,, CORPORATE NON-,CROSSROADS AT DELTA ALF,49
2.30E+05,JUST FOR SENIORS LIVING CENTER I,3038935356,ASSISTED LIVING RESIDENCE,DENVER,1395 VRAIN ST,DENVER,CO,80204,, CORPORATE NON-,"JUST FOR SENIORS, INC.",8
23045S,INN BETWEEN,3039804082,ASSISTED LIVING RESIDENCE,DENVER,10295 W KEENE AVE,DENVER,CO,80235,, CORPORATE NON-,JEFFERSON CENTER FOR MENTAL HEALTH,8
23HIDN,OPEN ARMS ASSISTED LIVING SUITE A,7204528006,ASSISTED LIVING RESIDENCE,DENVER,12150 E ANDREWS DR SUITE A,DENVER,CO,80239,, CORPORATE NON-,OPEN ARMS ASSISTED LIVING,16
230445,KAVOD SENIOR LIFE,3033991146,ASSISTED LIVING RESIDENCE,DENVER,11 S ADAMS ST,DENVER,CO,80209,sbedell@ajsh.org, CORPORATE NON-,"ALLIED HOUSING, INC.",35
230477,"BARTH HOTEL, THE",3035347142,ASSISTED LIVING RESIDENCE,DENVER,1514 17TH ST,DENVER,CO,80202,, CORPORATE NON-,SENIOR HOUSING OPTIONS,62
2304ST,MARYCREST ASSISTED LIVING,3034330282,ASSISTED LIVING RESIDENCE,DENVER,2800/2850 COLUMBINE RD,DENVER,CO,80221,, CORPORATE NON-,LSS OF MARYCREST LLC,138
23048Y,VICTORIAN HOUSE ASSISTED LIVING,3038140668,ASSISTED LIVING RESIDENCE,DOUGLAS,19600 VICTORIAN DR,PARKER,CO,80138,patlogue@castlecountryassistedliving.org, CORPORATE NON-,CASTLE COUNTRY ASSISTED LIVING INC,26
230561,CANTRIL HOUSE ASSISTED LIVING,3036888186,ASSISTED LIVING RESIDENCE,DOUGLAS,221 CANTRIL ST,CASTLE ROCK,CO,80104,bom@castlecountry.org, CORPORATE NON-,CASTLE COUNTRY ASSISTED LIVING INC,16
2305HL,VALLEY HOUSE ASSISTED LIVING,3038140668,ASSISTED LIVING RESIDENCE,DOUGLAS,255 S VALLEY DRIVE,CASTLE ROCK,CO,80104,dennisscott@castlecountryassistedliving.org, CORPORATE NON-,CASTLE COUNTRY ASSISTED LIVING INC,22
230505,"CRESCENT HOME ADULT CARE FACILITY, INC",7196342237,ASSISTED LIVING RESIDENCE,EL PASO,812 W COLORADO AVENUE,COLORADO SPRINGS,CO,80905,rs308@comcast.net, CORPORATE NON-,"CRESCENT HOME ADULT CARE FACILITY, INC.",20
2306W8,"LEGACY CENTER, INCORPORATED",7192752917,ASSISTED LIVING RESIDENCE,FREMONT,1335 BAUER LANE,CANON CITY,CO,81212,legacycenter@piopc.net, CORPORATE NON-,"LEGACY CENTER, INC",40
23C967,FRIENDSHIP HOUSE AT THE HOME,7192757451,ASSISTED LIVING RESIDENCE,FREMONT,1020 NORTH 15TH STREET,CANON CITY,CO,81212,, CORPORATE NON-,GRAND LODGE OF THE IND. ORDER OF ODD FELLOWS OF CO,36
23082E,MESA VISTA ASSISTED LIVING RESIDENCE,9702851844,ASSISTED LIVING RESIDENCE,GARFIELD,72 E SIPPRELLE DR,PARACHUTE,CO,81635,mesavista@seniorhousingoptions.org, CORPORATE NON-,SENIOR HOUSING OPTIONS,32
23080R,CLIFFVIEW ASSISTED LIVING CENTER,9707243530,ASSISTED LIVING RESIDENCE,GRAND,710 EAGLE AVENUE,KREMMLING,CO,80459,, CORPORATE NON-,GRAND COUNTY HOUSING AUTHORITY,28
2304PZ,ROCKY MOUNTAIN SOLSTICE II,3039734003,ASSISTED LIVING RESIDENCE,JEFFERSON,12057 W QUINCY PL,MORRISON,CO,80465,ldrcare@comcast.net, CORPORATE NON-,ROCKY MOUNTAIN SOLSTICE INC,8
23A122,KARENS HOUSE,3034244136,ASSISTED LIVING RESIDENCE,JEFFERSON,12751 W 56TH PLACE,ARVADA,CO,80002,maryse@jcmh.org, CORPORATE NON-,JEFFERSON CENTER FOR MENTAL HEALTH,8
2311QA,"FOUNTAINS OF HILLTOP, THE",9702438800,ASSISTED LIVING RESIDENCE,MESA,3203 N 15TH ST,GRAND JUNCTION,CO,81506,, CORPORATE NON-,HILLTOP HEALTH SERVICES CORPORATION,110
231133,"OAKS, THE",9708582178,ASSISTED LIVING RESIDENCE,MESA,805 WEST OTTLEY AVE,FRUITA,CO,81521,jdavis@familyhealthwest.org, CORPORATE NON-,LOWER VALLEY HOSPITAL ASSOCIATION,70
231211,MADISON HOUSE,9705652047,ASSISTED LIVING RESIDENCE,MONTEZUMA,120 S MADISON ST,CORTEZ,CO,81321,madison@seniorhousingoptions.org, CORPORATE NON-,SENIOR HOUSING OPTIONS INC,32
23X372,COTTONWOOD RIDGE,7192543667,ASSISTED LIVING RESIDENCE,OTERO,1122 SOUTH 12TH ST,ROCKY FORD,CO,81067,atanabe@phoenixmanagementinc.com, CORPORATE NON-,"COMMUNITY ASSISTED LIVING, INC",32
2308Z8,"HAVEN, THE",9708751888,ASSISTED LIVING RESIDENCE,ROUTT,300 S SHELTON LANE,HAYDEN,CO,81639,aidsal@northwestcoloradohealth.org, CORPORATE NON-,"WEST ROUTT RURAL HEALTH COUNCIL, INC",20
23V723,MAXWELL CENTER ASSISTED LIVING RESIDENCE,9703531956,ASSISTED LIVING RESIDENCE,WELD,1700 7TH AVENUE,GREELEY,CO,80631,sherry.meyer@northrange.org, CORPORATE NON-,NORTH RANGE BEHAVIORAL HEALTH,14
230327,BONELL GOOD SAMARITAN CENTER,9703526082,ASSISTED LIVING RESIDENCE,WELD,708 - 22ND STREET,GREELEY,CO,80631,, CORPORATE NON-,"EVANGELICAL LUTHERAN GOOD SAMARITAN SOCIETY, THE",41
23R904,"TOWERS, THE",9703324856,ASSISTED LIVING RESIDENCE,YUMA,360 CANYON RIDGE DR,WRAY,CO,80758,ginger.williams@bannerhealth.com, CORPORATE NON-,WRAY COMMUNITY LONG TERM CARE INC,24
2304HP,ROBERT RUSSELL EASTERN STAR-MASONIC CTR OF COLORAD,3037569489,ASSISTED LIVING RESIDENCE,DENVER,2445 S QUEBEC STREET,DENVER,CO,80231,larryl@esmrc.com, CORPORATE NON-,ROBERT RUSSELL EASTERN STAR-MASONIC CENTER,111
230109,EBEN EZER LUTHERAN CARE CENTER,9708422861,ASSISTED LIVING RESIDENCE,MORGAN,1910 EDISON STREET,BRUSH,CO,80723,lynelle.phillips@ebenezer-cares.org, CORPORATE NON-,EBEN EZER LUTHERAN CARE CENTER,86
2304SY,MOUNTAIN VISTA ASSISTED LIVING & MEMORY CARE,3034204192,ASSISTED LIVING RESIDENCE,JEFFERSON,11800 AND 11830 W 49TH AVE,WHEAT RIDGE,CO,80033,hwheat@abhomes.org, CORPORATE NON-,"BAPTIST HOME ASSN. OF THE ROCKY MOUNTAINS, INC.",76
23T695,"COMMONS OF HILLTOP, THE",9702433333,ASSISTED LIVING RESIDENCE,MESA,625 27 1/2 RD,GRAND JUNCTION,CO,81506,, CORPORATE NON-,HILLTOP HEALTH SERVICES CORPORATION,185
23Y775,CASEY'S POND SENIOR LIVING,9708798855,ASSISTED LIVING RESIDENCE,ROUTT,2855 OWL HOOT TRAIL,STEAMBOAT SPRINGS,CO,80487,, CORPORATE NON-,"COLORADO SENIOR RESIDENCES, INC",114
2303UO,COLLINWOOD ASSISTED LIVING,9702233552,ASSISTED LIVING RESIDENCE,LARIMER,5055 S LEMAY AVE,FORT COLLINS,CO,80525,kjacoby@ba.org, CORPORATE NON-,BSLC II,107
2302C5,MAPLEWOOD HOMES,7193245282,ASSISTED LIVING RESIDENCE,BACA,150 NORTH NEVADA,WALSH,CO,81090,marmills@centurytel.net, DISTRICT,WALSH HOSPITAL DISTRICT,20
230901,WHITCOMB TERRACE,9705441530,ASSISTED LIVING RESIDENCE,PITKIN,0275 CASTLE CREEK ROAD,ASPEN,CO,81611,mgerardi@aspenhospital.org, DISTRICT,ASPEN VALLEY HOSPITAL DISTRICT,15
230357,ALOHA CARE ASSISTED LIVING,7203694335,ASSISTED LIVING RESIDENCE,ADAMS,1594 WALNUT DRIVE,BRIGHTON,CO,80601,, INDIVIDUAL,CHERYL ANN H PADAKEN,13
23P172,AUBURN VIEW ASSISTED LIVING,7209495869,ASSISTED LIVING RESIDENCE,ARAPAHOE,19543 E ARKANSAS AVE,AURORA,CO,80017,kahsa12@yahoo.com, INDIVIDUAL,KASHA GEBEYEHU,8
230614,PEASE GUEST HOME,7195460104,ASSISTED LIVING RESIDENCE,PUEBLO,401 W 13TH STREET,PUEBLO,CO,81003,cpease1@comcast.net, INDIVIDUAL,CAREN PEASE,4
23M127,HAVEN OF CARE ASSISTED LIVING AT ARGONNE,3039477392,ASSISTED LIVING RESIDENCE,ARAPAHOE,3920 S ARGONNE WAY,AURORA,CO,80013,mwrt@msn.com, LIMITED LIABIL,"HAVEN OF CARE ASSISTED LIVING AT ARGONNE, LLC",8
23V349,LAKEWOOD TERRACE AFFORDABLE ASSISTED LIVING,7204841760,ASSISTED LIVING RESIDENCE,JEFFERSON,13969 W WARREN AVENUE,LAKEWOOD,CO,80228,lakewoodterracealf@gmail.com, LIMITED LIABIL,LAKEWOOD TERRACE ASSISTED LIVING LLC,8
23I538,RUSTIC ROSE ASSISTED LIVING LLC,3039235253,ASSISTED LIVING RESIDENCE,ADAMS,6666 S PINEY CREEK CIRCLE,CENTENNIAL,CO,80016,rusticroseassistedliving@protonmail.com, LIMITED LIABIL,RUSTIC ROSE ASSISTED LIVING LLC,8
23I963,ST PETRO LAUREL HAUS,3037700600,ASSISTED LIVING RESIDENCE,ADAMS,7032  S FRANKLIN ST,CENTENNIAL,CO,80122,stpetro2012@gmail.com, LIMITED LIABIL,ST PETRO LLC,7
23R280,GRACE ASSISTED LIVING LLC,3033670632,ASSISTED LIVING RESIDENCE,ADAMS,15011 E MONTVIEW BLVD,AURORA,CO,80011,, LIMITED LIABIL,GRACE ASSISTED LIVING LLC,8
23A468,SLP COLORADO WELLINGTON,7204125730,ASSISTED LIVING RESIDENCE,ADAMS,7681 WELLINGTON STREET,CENTENNIAL,CO,80122,, LIMITED LIABIL,TBI COLORADO LLC,8
23O620,CARE GROUP OF NORTHGLENN LLC,7203288229,ASSISTED LIVING RESIDENCE,ADAMS,9777 FRED DRIVE,NORTHGLENN,CO,80260,rossevelt.collierjr@gmail.com, LIMITED LIABIL,CARE GROUP OF NORTHGLENN LLC,16
23R281,RANDOLPH COTTAGE LLC,7202726398,ASSISTED LIVING RESIDENCE,ARAPAHOE,18929 E KENT CIRCLE,AURORA,CO,80013,, LIMITED LIABIL,RANDOLPH COTTAGE LLC,4
23V720,PENNY LANE ASSISTED LIVING RESIDENCE,3036940136,ASSISTED LIVING RESIDENCE,ARAPAHOE,7463 E COSTILLA PLACE,CENTENNIAL,CO,80112,abbeypennyal@gmail.com, LIMITED LIABIL,ABBEY ROAD & PENNY LANE LLC,8
23W788,AURORA MAKARIOS ASSISTED LIVING,3036969177,ASSISTED LIVING RESIDENCE,ARAPAHOE,17003 E PACIFIC PLACE,AURORA,CO,80013,, LIMITED LIABIL,MAKARIOS ASSISTED LIVING LLC,8
23U630,AURORA EVERGREEN ASSISTED LIVING LLC,3033680888,ASSISTED LIVING RESIDENCE,ARAPAHOE,12311 E ARKANSAS AVE,AURORA,CO,80012,auroraevergreen@outlook.com, LIMITED LIABIL,AURORA EVERGREEN ASSISTED LIVING LLC,8
23V259,EAST ORCHARD MANOR CARES LLC,3038345646,ASSISTED LIVING RESIDENCE,ARAPAHOE,290 EAST ORCHARD ROAD,CENTENNIAL,CO,80121,, LIMITED LIABIL,EAST ORCHARD MANOR CARES LLC,8
2304ZS,A LOVING HAND LLC,7203011369,ASSISTED LIVING RESIDENCE,ARAPAHOE,3079 S HOLLY PLACE,DENVER,CO,80222,, LIMITED LIABIL,DKD CARE LLC,8
23Q270,ROCKY MOUNTAIN CARE AND CONSULTING LLC,7204125730,ASSISTED LIVING RESIDENCE,ARAPAHOE,5130 W PLYMOUTH DR,LITTLETON,CO,80128,, LIMITED LIABIL,ROCKY MOUNTAIN CARE AND CONSULTING LLC,8
23V263,ROCK CREEK ASSISTED LIVING AT SOMERSET VILLAGE,3035963300,ASSISTED LIVING RESIDENCE,ARAPAHOE,1109 S RIFLE STREET,AURORA,CO,80017,Neal.Price@gmail.com, LIMITED LIABIL,ROCK CREEK INVESTMENTS LLC,10
2304AW,ABBEY ROAD ASSISTED LIVING-NEWPORT,7205296772,ASSISTED LIVING RESIDENCE,ARAPAHOE,8155 S NEWPORT WAY,CENTENNIAL,CO,80112,abbeypennyal@gmail.com, LIMITED LIABIL,ABBEY ROAD & PENNY LANE LLC,9
2304BG,GRACEFUL HEARTS ASSISTED LIVING LLC,3095584725,ASSISTED LIVING RESIDENCE,ARAPAHOE,6780 E LAKE CIRCLE,CENTENNIAL,CO,80111,, LIMITED LIABIL,GRACEFUL HEARTS ASSISTED LIVING LLC,9
23Z309,FLOURISH SUPPORTIVE LIVING AT FLOYD,3038036977,ASSISTED LIVING RESIDENCE,ARAPAHOE,2330 E FLOYD AVE,ENGLEWOOD,CO,80113,, LIMITED LIABIL,DESHANO CARE CENTERS LLC,9
23U322,ROCK CREEK ASSISTED LIVING ON KENTON,3036328393,ASSISTED LIVING RESIDENCE,ARAPAHOE,1994 S KENTON COURT,AURORA,CO,80014,, LIMITED LIABIL,ROCK CREEK INVESTMENTS LLC,10
23V262,"MANOR ON SYCAMORE STREET, THE",7202838326,ASSISTED LIVING RESIDENCE,ARAPAHOE,6365 S SYCAMORE STREET,LITTLETON,CO,80120,laurenkanizay@hotmail.com, LIMITED LIABIL,SOUTH SYCAMORE MANOR CARES LLC,10
23M119,"IVORY ASSISTED LIVING, LLC",3036904150,ASSISTED LIVING RESIDENCE,ARAPAHOE,4633 S IVORY CIR,AURORA,CO,80015,jlee789@msn.com, LIMITED LIABIL,IVORY ASSISTED LIVING LLC,11
23H572,"VILLAGE ASSISTED LIVING LLC, THE",3033670700,ASSISTED LIVING RESIDENCE,ARAPAHOE,209 SOUTH REVERE STREET,AURORA,CO,80012,datir.marini@gmail.com, LIMITED LIABIL,THE VILLAGE ASSISTED LIVING LLC,11
23H133,MONTAGE HEIGHTS,3032830400,ASSISTED LIVING RESIDENCE,ARAPAHOE,1640 S QUEBEC WAY,DENVER,CO,80231,, LIMITED LIABIL,GENHIGHLINE LLC,80
230322,"LEGACY AT LAFAYETTE, THE",3036660691,ASSISTED LIVING RESIDENCE,BOULDER,225 WANEKA PARKWAY,LAFAYETTE,CO,80026,, LIMITED LIABIL,LAFAYETTE LEASING LLC,75
2304UN,HARVEY PARK ASSISTED LIVING,3039221472,ASSISTED LIVING RESIDENCE,DENVER,1999 S RALEIGH ST,DENVER,CO,80219,rebecca@crpcolorado.com, LIMITED LIABIL,HARVEY PARK ASSISTED LIVING LLC,6
23049P,APEX ASSISTED LIVING LLC,4236763210,ASSISTED LIVING RESIDENCE,DENVER,3071 S ROSEMARY STREET,DENVER,CO,80231,, LIMITED LIABIL,APEX ASSISTED LIVING LLC,8
2304A3,MEADOW VISTA ASSISTED LIVING LLC,3037566589,ASSISTED LIVING RESIDENCE,DENVER,3901 E DARTMOUTH AVE,DENVER,CO,80210,Kanchana Aryal - (720)530-8679 kay@meadowvistas.com, LIMITED LIABIL,"MEADOW VISTA ASSISTED LIVING, LLC",8
23T697,JERUSALEM ASSISTED LIVING FACILITY,3036681397,ASSISTED LIVING RESIDENCE,DENVER,4783  CHANDLER CT,DENVER,CO,80239,, LIMITED LIABIL,JERUSALEM ASSISTED LIVING FACILITY,8
23K615,HAWKEYE CARE HOME LLC,3039352822,ASSISTED LIVING RESIDENCE,DENVER,2710 S JAY ST,DENVER,CO,80227,wheels7@comcast.net, LIMITED LIABIL,HAWKEYE CARE HOME LLC,8
23S302,ACORN HOUSE C LLC,7209418839,ASSISTED LIVING RESIDENCE,DENVER,4949 E 9TH AVENUE,DENVER,CO,80220,rc@acornhouse.info, LIMITED LIABIL,ACORN HOUSE @ 4949 E 9TH AVENUE LLC,8
23Z312,ASSISTED LIVING OF DENVER NE LLC,3033710106,ASSISTED LIVING RESIDENCE,DENVER,4827 LISBON STREET,DENVER,CO,80249,aldenver@q.com, LIMITED LIABIL,"ASSISTED LIVING OF DENVER NE, LLC",10
23W780,ASPIN WALL RESIDENTIAL ASSISTED LIVING,3033411192,ASSISTED LIVING RESIDENCE,DENVER,8263 EAST MANSFIELD AVE,DENVER,CO,80237,, LIMITED LIABIL,ASPINWALL LIMITED LIABILITY COMPANY,10
2304IX,DAYSPRING VILLA,3034555066,ASSISTED LIVING RESIDENCE,DENVER,3777 W 26TH AVE,DENVER,CO,80211,lgarcia@clcmail.org, LIMITED LIABIL,CLC DAYSPRING VILLA LLC,71
23R713,CASTLE ROCK ASSISTED LIVING 1,3036603827,ASSISTED LIVING RESIDENCE,DOUGLAS,1640 WILD RYE COURT,CASTLE ROCK,CO,80109,cral@comcast.net, LIMITED LIABIL,"CASTLE ROCK ASSISTED LIVING, LLC",11
23T320,SOLANGE AT CLAIRTON,3032845018,ASSISTED LIVING RESIDENCE,DOUGLAS,2951 CLAIRTON DR,HIGHLANDS RANCH,CO,80126,, LIMITED LIABIL,SOLANGE AT CLAIRTON LLC,8
23W266,SENIOR LIVING AT THE PINERY  LLC,3038412136,ASSISTED LIVING RESIDENCE,DOUGLAS,6875 N WINDVIEW CIRCLE,PARKER,CO,80134,, LIMITED LIABIL,SENIOR LIVING AT THE PINERY LLC,8
23I155,ASSURED ASSISTED LIVING 5,3036609769,ASSISTED LIVING RESIDENCE,DOUGLAS,1671 THATCH CIRCLE,CASTLE ROCK,CO,80109,francis@assuredal.com, LIMITED LIABIL,ASSURED ASSISTED LIVING LLC,9
23M206,HOME CARE AT POPA'S ASSISTED LIVING,7194957453,ASSISTED LIVING RESIDENCE,EL PASO,9340 BURGESS ROAD,COLORADO SPRINGS,CO,80908,2flee1532@yahoo.com, LIMITED LIABIL,HOME CARE LLC,8
2305F2,COLUMBINE HOUSE,7195971402,ASSISTED LIVING RESIDENCE,EL PASO,5523 S BUCKSKIN PASS DR,COLORADO SPRINGS,CO,80917,DRYERS4@COMCAST.NET, LIMITED LIABIL,BRAINCARE LLC,8
23G941,A DOCTOR'S TOUCH LLC,7196388198,ASSISTED LIVING RESIDENCE,EL PASO,1550 HIAWATHA DRIVE,COLORADO SPRINGS,CO,80915,info@adoctorstouch.com, LIMITED LIABIL,A DOCTORS TOUCH LLC,8
23R687,SPRUCE HOUSE,7195745894,ASSISTED LIVING RESIDENCE,EL PASO,2535 BRADY DRIVE,COLORADO SPRINGS,CO,80917,, LIMITED LIABIL,BRAINCARE LLC,8
23U759,HOME CARE AT KETTLES ASSISTED LIVING,7196332166,ASSISTED LIVING RESIDENCE,EL PASO,1929 MEYERS AVENUE,COLORADO SPRINGS,CO,80909,eflee1432@yahoo.com, LIMITED LIABIL,HOME CARE LLC,8
23D512,ASSISTED LIVING AT SPRING LLC,7194347042,ASSISTED LIVING RESIDENCE,EL PASO,1605 JET WING DRIVE,COLORADO SPRINGS,CO,80916,, LIMITED LIABIL,ASSISTED LIVING AT SPRINGS,30
230518,"COLORADO SPRINGS SENIOR HOMES, INC",7196362731,ASSISTED LIVING RESIDENCE,EL PASO,3106 N PROSPECT STREET,COLORADO SPRINGS,CO,80907,, LIMITED LIABIL,TRUSTCARE OPERATORCO LLC,40
23S681,"RESIDENCE AT SKYWAY PARK LLC, THE",7192277340,ASSISTED LIVING RESIDENCE,EL PASO,886 ARCTURUS DRIVE,COLORADO SPRINGS,CO,80905,, LIMITED LIABIL,"RESIDENCE AT SKYWAY PARK, LLC",68
23H136,"RESIDENCE AT VILLAGE GREEN LLC, THE",7199995744,ASSISTED LIVING RESIDENCE,EL PASO,3455 N CAREFREE CIRCLE,COLORADO SPRINGS,CO,80917,rmatrazzo@nhaconsulting.com, LIMITED LIABIL,"RESIDENCE AT VILLAGE GREEN LLC, THE",68
23B948,POINT OF THE PINES GARDENS ASSISTED LIVING,7192650030,ASSISTED LIVING RESIDENCE,EL PASO,330 ELKTON DRIVE,COLORADO SPRINGS,CO,80907,rdarosenbach@gmail.com, LIMITED LIABIL,POINT OF THE PINES GARDENS LLC,115
23D458,PINE RIDGE TERRACE MANOR LLC,7203989787,ASSISTED LIVING RESIDENCE,ELBERT,378 S PEARL ST,ELIZABETH,CO,80107,altris1001@gmail.com, LIMITED LIABIL,PINE RIDGE TERRACE MANOR,8
23040Q,COUNTRY HOME,3038401986,ASSISTED LIVING RESIDENCE,ELBERT,1425 DEBBI CIRCLE,PARKER,CO,80138,lmelbardis@yahoo.com, LIMITED LIABIL,COUNTRY HOME ASSISTED LIVING LLC,8
2308EI,CHATEAU AT RIFLE,9706254343,ASSISTED LIVING RESIDENCE,GARFIELD,375 W 24TH ST,RIFLE,CO,81650,, LIMITED LIABIL,"TCO RIFLE,LLC",32
23M595,COLORADO ASSISTED LIVING HOMES LLC-LAMAR,3039042506,ASSISTED LIVING RESIDENCE,JEFFERSON,6952 S LAMAR STREET,LITTLETON,CO,80128,twkinrade@msn.com, LIMITED LIABIL,"COLORADO ASSISTED LIVING HOMES, LLC",6
23U705,COLORADO ASSISTED LIVING HOMES LLC HOUSE 7,3039481628,ASSISTED LIVING RESIDENCE,JEFFERSON,5984 W ROWLAND PL,LITTLETON,CO,80128,twkinrade@msn.com, LIMITED LIABIL,"COLORADO ASSISTED LIVING HOMES, LLC",7
23Z833,OUR FAMILY CARE HOME ASSISTED LIVING LLC,3035873909,ASSISTED LIVING RESIDENCE,JEFFERSON,1169 JOHNSON STREET,LAKEWOOD,CO,80215,, LIMITED LIABIL,OUR FAMILY CARE HOME ASSISTED LIVING LLC,8
2.30E+06,HELPING HANDS HOMECARE LTD LIABILITY CO,3039726466,ASSISTED LIVING RESIDENCE,JEFFERSON,11503 W BERRY PLACE,LITTLETON,CO,80127,omoobabeyu53@yahoo.com, LIMITED LIABIL,HELPING HANDS HOMECARE LTD LIABILITY CO.,8
2304I7,BRIGHT SUN ASSISTED LIVING LLC,3039334807,ASSISTED LIVING RESIDENCE,JEFFERSON,11541 W TEMPLE AVE,LITTLETON,CO,80127,, LIMITED LIABIL,BRIGHT SUN ASSISTED LIVING LLC,8
23Q272,COLORADO ASSISTED LIVING HOMES - BRANDT,3039484873,ASSISTED LIVING RESIDENCE,JEFFERSON,11965 W BRANDT PL,LITTLETON,CO,80127,, LIMITED LIABIL,CALHOMES-BRANDT LLC,8
230414,TENDER CARE ASSISTED LIVING LLC,3032332808,ASSISTED LIVING RESIDENCE,JEFFERSON,3113 TELLER STREET,WHEAT RIDGE,CO,80033,, LIMITED LIABIL,TENDER CARE ASSISTED LIVING LLC,8
2304A9,YOUR SECOND HOME LLC,3034241266,ASSISTED LIVING RESIDENCE,JEFFERSON,3880 DOVER ST,WHEAT RIDGE,CO,80033,julieannwolfe01@gmail.com, LIMITED LIABIL,YOUR SECOND HOME LLC,8
2304KB,FLOURISH SUPPORTIVE LIVING AT REED,3038036977,ASSISTED LIVING RESIDENCE,JEFFERSON,3225 S REED COURT,LAKEWOOD,CO,80227,tdeshano@cqlhomes.com, LIMITED LIABIL,DESHANO CARE CENTERS LLC,9
23C879,FLOURISH SUPPORTIVE LIVING AT OWENS,3038036977,ASSISTED LIVING RESIDENCE,JEFFERSON,1975 OWENS COURT,LAKEWOOD,CO,80215,tdeshano@cqlhomes.com, LIMITED LIABIL,DESHANO CARE CENTERS LLC,9
23Q702,TCAL 2 LLC,3036676890,ASSISTED LIVING RESIDENCE,JEFFERSON,1069 S TELLER ST,LAKEWOOD,CO,80226,, LIMITED LIABIL,TCAL 2 LLC,10
23S685,TCAL 2 LLC,3036676890,ASSISTED LIVING RESIDENCE,JEFFERSON,6419 W MEXICO AVENUE,LAKEWOOD,CO,80232,, LIMITED LIABIL,TCAL 2 LLC,10
23F112,ASPEN CARES ASSISTED LIVING LLC,3033599990,ASSISTED LIVING RESIDENCE,JEFFERSON,1030 JAY STREET,LAKEWOOD,CO,80214,leeannefaulkner17@gmail.com, LIMITED LIABIL,ASPEN CARES ASSISTED LIVING LLC,12
23043K,MANTO HOMES LLC,3034316575,ASSISTED LIVING RESIDENCE,JEFFERSON,7465 W 69TH PL,ARVADA,CO,80003,, LIMITED LIABIL,MANTO HOMES LLC,12
230406,GARDENS CARE HOMESTEAD,3034216539,ASSISTED LIVING RESIDENCE,JEFFERSON,2121 WADSWORTH BLVD,LAKEWOOD,CO,80214,, LIMITED LIABIL,"GARDENS CARE HOMES LLC, THE",49
2304C7,"OBERON HOUSE, THE",3034207258,ASSISTED LIVING RESIDENCE,JEFFERSON,9160 W 64TH AVENUE,ARVADA,CO,80004,g.dirks@comcast.net, LIMITED LIABIL,WESTCARE LLC,66
2304RB,VERANDAS ASSISTED LVG AT WHEAT RIDGE,3034256328,ASSISTED LIVING RESIDENCE,JEFFERSON,9495 W 49TH AVE,WHEAT RIDGE,CO,80033,, LIMITED LIABIL,VERANDA'S COLORADO SENIOR LIVING LEASING LLC,32
23O618,RETREAT AT HIGHLANDS THE,3034620934,ASSISTED LIVING RESIDENCE,JEFFERSON,3315 SHERIDAN BLVD,WHEAT RIDGE,CO,80212,cparenteau@scoptions.com; psanchezrn@outlook.com, LIMITED LIABIL,WHEAT RIDGE ASSISTED LIVING CORP,46
23R962,AUGUSTANA ELK RUN ASSISTED LIVING,3036798777,ASSISTED LIVING RESIDENCE,JEFFERSON,31383 FROST WAY,EVERGREEN,CO,80439,, LIMITED LIABIL,"AUGUSTANA ELK RUN, LLC",68
2301PN,"LEGACY AT BURLINGTON, THE",7193467403,ASSISTED LIVING RESIDENCE,KIT CARSON,233 S 9TH ST,BURLINGTON,CO,80807,assisted@plains.net, LIMITED LIABIL,"BURLINGTON ASSISTED LIVING, LLC",24
2312W2,SUNSHINE GARDENS WEST ASSISTED LIVING,9703854090,ASSISTED LIVING RESIDENCE,LA PLATA,25 SUNSHINE COURT,DURANGO,CO,81301,, LIMITED LIABIL,SUNSHINE GARDENS WEST LLC,70
230344,LOVELAND HOUSE ASSISTED LIVING,9706632223,ASSISTED LIVING RESIDENCE,LARIMER,2115 EAGLE DR,LOVELAND,CO,80537,pstrozzi59@peoplepc.com 970-667-7511, LIMITED LIABIL,LOVELAND HOUSE,8
2303BK,LAKEVIEW COMMONS LLC,9702784000,ASSISTED LIVING RESIDENCE,LARIMER,1422 W 29TH ST,LOVELAND,CO,80538,janel.baily@columbinehealth.com, LIMITED LIABIL,"LAKEVIEW COMMONS, LLC",54
230369,"COURTYARD OF LOVELAND, THE",9706673342,ASSISTED LIVING RESIDENCE,LARIMER,605 CALIFORNIA AVE,LOVELAND,CO,80537,Jean.Mendez@courtyardofloveland.com, LIMITED LIABIL,THE COURTYARD OF LOVELAND LEASING LLC,44
230320,GARDEN SQUARE AT SPRING CREEK,9704943253,ASSISTED LIVING RESIDENCE,LARIMER,1000 E STUART ST,FORT COLLINS,CO,80525,, LIMITED LIABIL,SSC FORT COLLINS SPRING CREEK OPERATING CO LLC,62
23Z790,"LEGACY AT TRINIDAD, THE",7198468662,ASSISTED LIVING RESIDENCE,LAS ANIMAS,33 LEGACY LANE,TRINIDAD,CO,81082,trinidad@hhmsi.com, LIMITED LIABIL,TRINIDAD ASSISTED LIVING LLC,28
2301FB,LINCOLN PARK LIVING CENTER,7197432421,ASSISTED LIVING RESIDENCE,LINCOLN,323 SEVENTH STREET,HUGO,CO,80821,jweeks@lchnh.com, LIMITED LIABIL,LINCOLN COMMUNITY HOSPITAL LINCOLN PARK LIVING CTR,12
2301FP,"HARMONY HOMES LLC, THE",9705227335,ASSISTED LIVING RESIDENCE,LOGAN,604 JAY DR,STERLING,CO,80751,, LIMITED LIABIL,"HARMONY HOME, LLC, THE",10
230106,DEVONSHIRE ACRES,9705224888,ASSISTED LIVING RESIDENCE,LOGAN,1330 N SIDNEY AVE,STERLING,CO,80751,, LIMITED LIABIL,CHANCELLOR HEALTH CARE OF COLORADO LLC,24
2311A0,ASPEN MEADOWS ASSISTED LIVING LLC,9704337385,ASSISTED LIVING RESIDENCE,MESA,476 GUNNISON WAY,GRAND JUNCTION,CO,81504,, LIMITED LIABIL,ASPEN MEADOWS ASSISTED LIVING LLC,8
230238,MONUMENT ASSISTED LIVING CARE CENTER LLC,9702416562,ASSISTED LIVING RESIDENCE,MESA,2194 MCKINLEY DRIVE,GRAND JUNCTION,CO,81507,, LIMITED LIABIL,MONUMENT ASSISTED LIVING CARE CENTER LLC,8
23118Q,PILGRIM HOUSE ASSISTED LIVING LLC,9702558345,ASSISTED LIVING RESIDENCE,MESA,405 W MAYFIELD DR,GRAND JUNCTION,CO,81507,, LIMITED LIABIL,PILGRIM HOUSE ASSISTED LIVING LLC,9
23111U,FAMILY CARE ASSISTED LIVING LLC,9702416379,ASSISTED LIVING RESIDENCE,MESA,174 EDLUN RD,GRAND JUNCTION,CO,81503,samhan@msn.com, LIMITED LIABIL,FAMILY CARE ASSISTED LIVING LLC,10
231123,PEACHTREE ASSISTED LIVING LLC #2,9704347062,ASSISTED LIVING RESIDENCE,MESA,3452 F ROAD,CLIFTON,CO,81520,ptacc1@aol.com, LIMITED LIABIL,PEACHTREE ASSISTED LIVING LLC,15
231117,PEACHTREE ASSISTED LIVING LLC #1,9704347062,ASSISTED LIVING RESIDENCE,MESA,3450 F ROAD,CLIFTON,CO,81520,ptacc1@aol.com, LIMITED LIABIL,PEACHTREE ASSISTED LIVING LLC,16
23G929,HIGH DESERT ASSISTED LIVING-HOUSE 2 LLC,9704343888,ASSISTED LIVING RESIDENCE,MESA,3291 LOMBARDY LANE,CLIFTON,CO,81520,highdesertal@gmail.com, LIMITED LIABIL,HIGH DESERT ASSISTED LIVING - HOUSE 2 LLC,16
23U321,HIGH DESERT ASSISTED LIVING-HOUSE 1 LLC,9704347036,ASSISTED LIVING RESIDENCE,MESA,3293 LOMBARDY LANE,CLIFTON,CO,81520,, LIMITED LIABIL,HIGH DESERT ASSISTED LIVING LLC,16
231118,BOOKCLIFF MANOR ASSISTED LIVING,9702450788,ASSISTED LIVING RESIDENCE,MESA,2897 ORCHARD AVENUE,GRAND JUNCTION,CO,81501,baburrough@aol.com, LIMITED LIABIL,L.L.B. -- L.L.C.,25
231132,GRAND VILLA,9702618739,ASSISTED LIVING RESIDENCE,MESA,2680 N 15TH STREET,GRAND JUNCTION,CO,81506,vseiferd@ba.org, LIMITED LIABIL,"BETHESDA GARDENS GRAND JUNCTION, LLC",64
231214,GOLDEN YEARS RETIREMENT HOME II,9708827438,ASSISTED LIVING RESIDENCE,MONTEZUMA,103 N 18TH STREET,DOLORES,CO,81323,goldenyearsreturementhomeII@gmail.com, LIMITED LIABIL,T&H LLC,16
2311S4,HEIDI'S CHATEAU,9702528228,ASSISTED LIVING RESIDENCE,MONTROSE,2720 SUNNYSIDE RD,MONTROSE,CO,81401,, LIMITED LIABIL,"TCO MONTROSE,LLC",30
2301IS,ALADDIN AT BRUSH THE,9708425463,ASSISTED LIVING RESIDENCE,MORGAN,428 WESTERN AVE,BRUSH,CO,80723,garnold@drivemgmt.com, LIMITED LIABIL,MADISON SENIOR LIVING MANAGEMENT LLC,15
2301SC,"HARMONY HOME LLC, THE",9708675336,ASSISTED LIVING RESIDENCE,MORGAN,1640 E RIVERVIEW AVENUE,FORT MORGAN,CO,80701,, LIMITED LIABIL,"HARMONY HOME, LLC, THE",11
2301CF,"HARMONY HOME LLC, THE",9708675336,ASSISTED LIVING RESIDENCE,MORGAN,1620 E RIVERVIEW AVENUE,FORT MORGAN,CO,80701,, LIMITED LIABIL,"HARMONY HOME, LLC, THE",12
23028D,EVERGREEN GARDENS AT LA JUNTA,7193849333,ASSISTED LIVING RESIDENCE,OTERO,909 W 10TH STREET,LA JUNTA,CO,81050,burlington@hhmsi.com, LIMITED LIABIL,"LA JUNTA LTC INVESTORS, LLC",49
23R455,CARRIAGE HOUSE ASSISTED LIVING,9708545180,ASSISTED LIVING RESIDENCE,PHILLIPS,816 S INTEROCEAN AVE,HOLYOKE,CO,80734,, LIMITED LIABIL,RED OAK REHABILITATION AND CARE COMMUNITY LLC,32
23029P,"LEGACY AT LAMAR, THE",7193367004,ASSISTED LIVING RESIDENCE,PROWERS,650 KENDALL DR,LAMAR,CO,81052,, LIMITED LIABIL,"LAMAR ASSISTED LIVING, LLC.",24
23D457,"TAMMY AND MARTYS COZY ADULT CARE HOME II, LLC",7195661189,ASSISTED LIVING RESIDENCE,PUEBLO,523 WEST COKEDALE DRIVE,PUEBLO WEST,CO,81007,rmtammy1006@msn.com, LIMITED LIABIL,TAMMY AND MARTY'S COZY ADULT CARE HOME,15
23E471,OASIS HOUSE,7192178850,ASSISTED LIVING RESIDENCE,PUEBLO,972 S PURCELL BLVD,PUEBLO,CO,81001,, LIMITED LIABIL,BRAINCARE LLC,10
230659,SHALOM HOME CARE LLC,7195422715,ASSISTED LIVING RESIDENCE,PUEBLO,134 LAMAR AVENUE,PUEBLO,CO,81004,shalomhomecare@comcast.net, LIMITED LIABIL,SHALOM HOME CARE,12
230662,EDDIE'S HOUSE LLC,7203011369,ASSISTED LIVING RESIDENCE,PUEBLO,1724 SPRUCE STREET,PUEBLO,CO,81004,, LIMITED LIABIL,TRIPLE RRR,14
23M203,NORTH POINTE GARDENS,7195456222,ASSISTED LIVING RESIDENCE,PUEBLO,3777 PARKER BLVD,PUEBLO,CO,81008,krisprado1@gmail.com, LIMITED LIABIL,"ACCOLADE LIVING CENTERS, LLC",64
23Z781,PUEBLO WEST GARDENS ASSISTED LIVING,7199248624,ASSISTED LIVING RESIDENCE,PUEBLO,960 E SAXONY DRIVE,PUEBLO WEST,CO,81007,, LIMITED LIABIL,PUEBLO WEST GARDENS LLC,65
2310NW,"LEGACY AT MONTE VISTA, THE",7198525179,ASSISTED LIVING RESIDENCE,RIO GRANDE,100 CHICO CAMINO,MONTE VISTA,CO,81144,rcdavid@bresnan.net, LIMITED LIABIL,"MONTE VISTA INVESTORS, LLC",36
2303VE,ALADDIN AT KEENESBURG THE,3037324856,ASSISTED LIVING RESIDENCE,WELD,15 SOUTH ASH,KEENESBURG,CO,80643,thealaddinalfals@msn.com, LIMITED LIABIL,MADISON SENIOR LIVING MANAGEMENT LLC,16
23Z395,"ASSISTED LIVING AT GREELEY, LLC",9705156952,ASSISTED LIVING RESIDENCE,WELD,218 1/2 10TH STREET,GREELEY,CO,80631,, LIMITED LIABIL,ASSISTED LIVING AT GREELEY LLC,16
2301MN,"HARMONY HOME LLC, THE",9708488444,ASSISTED LIVING RESIDENCE,YUMA,600 W 10TH AVE,YUMA,CO,80759,thh703@gmail.com, LIMITED LIABIL,"HARMONY HOME, LLC, THE",28
2304A5,A CHANGE OF SEASONS ASSISTED LIVING LLC,3032382588,ASSISTED LIVING RESIDENCE,JEFFERSON,225 N MARSHALL ST,LAKEWOOD,CO,80226,, LIMITED LIABIL,A CHANGE OF SEASONS ASSISTED LIVING LLC,10
2.30E+12,"HARMONY HOME LLC, THE",9705227335,ASSISTED LIVING RESIDENCE,LOGAN,610 JAY DR,STERLING,CO,80751,, LIMITED LIABIL,"HARMONY HOME, LLC, THE",10
23I151,ASSISTED LIVING ON BROADWAY,7203838083,ASSISTED LIVING RESIDENCE,ARAPAHOE,7120 S BROADWAY,LITTLETON,CO,80122,info@aspenhillliving.com, LIMITED LIABIL,KASKO LLC,12
230430,NORTHGLENN HEIGHTS ASSISTED LIVING COMMUNITY,3034520501,ASSISTED LIVING RESIDENCE,ADAMS,11475 PEARL STREET,NORTHGLENN,CO,80233,GINGER@MILESTONERETIREMENT.COM, LIMITED LIABIL,LSREF GOLDEN OPS 26 (CO) LLC,172
2305S9,LARK SPRINGS,7196370877,ASSISTED LIVING RESIDENCE,EL PASO,2850 N ACADEMY BLVD,COLORADO SPRINGS,CO,80917,, LIMITED LIABIL,AMERICAN EAGLE PALMER PARK LLC,76
23045K,"GRANVILLE ASSISTED LIVING CENTER, THE",3032744400,ASSISTED LIVING RESIDENCE,JEFFERSON,1325 VANCE ST,LAKEWOOD,CO,80214,, PARTNERSHIP,"GRANVILLE LTD, THE",120
2303GK,INGLENOOK AT BRIGHTON,3036594148,ASSISTED LIVING RESIDENCE,ADAMS,2195 E EGBERT STREET,BRIGHTON,CO,80601,, PARTNERSHIP,"INGLENOOK SENIOR VENTURES, LP",110
23A411,A WILDFLOWER ASSISTED LIVING AND CARE HOME INC,3037289238,ASSISTED LIVING RESIDENCE,ADAMS,10130 MELODY DR,NORTHGLENN,CO,80260,, PROFIT-CORPORA,A WILDFLOWER ASSISTED LIVING AND CARE HOME INC,5
2304JA,A FEATHERED NEST AT THORNTON,3034530810,ASSISTED LIVING RESIDENCE,ADAMS,11540 MILWAUKEE ST,THORNTON,CO,80233,anetfarrell@aol.com, PROFIT-CORPORA,A FEATHERED NEST INC,7
230410,A WILDFLOWER ASSISTED LIVING AND CARE HOME INC,3036505450,ASSISTED LIVING RESIDENCE,ADAMS,8823 PRINCETON STREET,WESTMINSTER,CO,80031,nicole@awildflowerassistedliving.com, PROFIT-CORPORA,A WILDFLOWER ASSISTED LIVING AND CARE HOME INC,8
23L581,MY HOME CARE ASSISTED LIVING  INC,3038108197,ASSISTED LIVING RESIDENCE,ADAMS,14522 E 12TH AVE,AURORA,CO,80011,, PROFIT-CORPORA,MY HOME CARE ASSISTED LIVING INC,10
23033U,BROOKDALE BRIGHTON,3036379500,ASSISTED LIVING RESIDENCE,ADAMS,2215 EAST EGBERT ST,BRIGHTON,CO,80601,, PROFIT-CORPORA,ALTERRA HEALTHCARE CORPORATION,55
23U240,"VILLAS AT SUNNY ACRES, THE",7209771707,ASSISTED LIVING RESIDENCE,ADAMS,2515 E 104TH AVENUE,THORNTON,CO,80233,, PROFIT-CORPORA,SUNNY ACRES HEALTHCARE INC,36
23N222,SERENITY HOUSE ASSISTED LIVING HINSDALE,3037414573,ASSISTED LIVING RESIDENCE,ARAPAHOE,3197 E HINSDALE AVENUE,CENTENNIAL,CO,80122,michael.zislis@serenityhouse.net, PROFIT-CORPORA,SERENITY HOUSE ASSISTED LIVING INC.,8
23S213,SERENITY HOUSE ASSISTED LIVING KIT CARSON,3035848926,ASSISTED LIVING RESIDENCE,ARAPAHOE,6770 S KIT CARSON CIRCLE E,CENTENNIAL,CO,80122,michael.zislis@serenityhouse.net, PROFIT-CORPORA,SERENITY HOUSE ASSISTED LIVING INC.,8
23W747,SERENITY HOUSE ASSISTED LIVING V,3037587403,ASSISTED LIVING RESIDENCE,ARAPAHOE,3068 S KEARNEY STREET,DENVER,CO,80222,michael.zislis@serenityhouse.net, PROFIT-CORPORA,STRAUSS PROPERTIES,8
23N230,SERENITY HOUSE ASSISTED LIVING VIII,3037414381,ASSISTED LIVING RESIDENCE,ARAPAHOE,5750 S KENTON WAY,ENGLEWOOD,CO,80111,michael.zislis@serenityhouse.net, PROFIT-CORPORA,SERENITY HOUSE ASSISTED LIVING INC.,7
23D978,SERENITY HOUSE ASSISTED LIVING IX,3037216144,ASSISTED LIVING RESIDENCE,ARAPAHOE,6128 SOUTH IOLA WAY,ENGLEWOOD,CO,80111,zislis@msn.com, PROFIT-CORPORA,STRAUSS PROPERTIES,8
23M202,SERENITY HOUSE ASSISTED LIVING LITTLETON,3039720827,ASSISTED LIVING RESIDENCE,ARAPAHOE,5310 W GEDDES AVENUE,LITTLETON,CO,80128,michael.zislis@serenityhouse.net, PROFIT-CORPORA,SERENITY HOUSE ASSISTED LIVING INC.,8
23W735,SERENITY HOUSE ASSISTED LIVING VII,3037570830,ASSISTED LIVING RESIDENCE,ARAPAHOE,2337 SOUTH FOREST DRIVE,DENVER,CO,80222,michael.zislis@serenityhouse.net, PROFIT-CORPORA,STRAUSS PROPERTIES,10
23048A,SERENITY HOUSE ASSISTED LIVING II,3036944003,ASSISTED LIVING RESIDENCE,ARAPAHOE,10760 EAST IDA COURT,ENGLEWOOD,CO,80111,michael.zislis@serenityhouse.net, PROFIT-CORPORA,SERENITY HOUSE ASSISTED LIVING INC.,7
23K605,XANADU ASSISTED LIVING RESIDENCE INC,3033649630,ASSISTED LIVING RESIDENCE,ARAPAHOE,1391-1395  XANADU STREET,AURORA,CO,80011,rrailxtrss@q.com, PROFIT-CORPORA,"XANADU ASSISTED LIVING RESIDENCE, INC",8
2304L5,MASTERS TOUCH HOMES INC,3036940710,ASSISTED LIVING RESIDENCE,ARAPAHOE,7422 S MARION ST,CENTENNIAL,CO,80122,priscillamiller1@yahoo.com, PROFIT-CORPORA,"MASTER'S TOUCH HOMES, INC.",11
2304O6,LIGHTHOUSE ASSISTED LIVING INC-EMPORIA HOUSE,3037713835,ASSISTED LIVING RESIDENCE,ARAPAHOE,6318 S EMPORIA CIRCLE,ENGLEWOOD,CO,80111,tom@lighthouseassistedliving.com, PROFIT-CORPORA,LIGHTHOUSE ASSISTED LIVING,8
23R848,SERENITY HOUSE ASSISTED LIVING IV,3035848926,ASSISTED LIVING RESIDENCE,ARAPAHOE,5841 SOUTH KINGSTON WAY,ENGLEWOOD,CO,80111,zislis@msn.com, PROFIT-CORPORA,STRAUSS PROPERTIES,7
23T313,MAGNOLIA PLACE ASSISTED LIVING,7208592792,ASSISTED LIVING RESIDENCE,ARAPAHOE,394 NOME STREET,AURORA,CO,80010,magnoliaplace.aurora@gmail.com, PROFIT-CORPORA,"CARING GARDENS, INC",9
23P631,CARELINK ASSISTED LIVING LLC,3037979110,ASSISTED LIVING RESIDENCE,ARAPAHOE,2602 E WEAVER AVENUE,CENTENNIAL,CO,80121,, PROFIT-CORPORA,PLANET VIEW INC,12
230367,CINNAMON PARK,3037722882,ASSISTED LIVING RESIDENCE,BOULDER,1335 CINNAMON STREET,LONGMONT,CO,80501,, PROFIT-CORPORA,SENIOR HOUSING OPTIONS,48
231113,DELTA HOUSE,9708741117,ASSISTED LIVING RESIDENCE,DELTA,233 MAIN ST,DELTA,CO,81416,deltahouse@montrose.net, PROFIT-CORPORA,SANFORD & CLAY CARE INC,28
23P643,SCS ASSISTED LIVING DENVER INC,3038345646,ASSISTED LIVING RESIDENCE,DENVER,941 S FULTON AVE,DENVER,CO,80247,scs.alr.marshall@gmail.com, PROFIT-CORPORA,SCS ASSISTED LIVING DENVER INC,10
23O672,ASSISTED LIVING OF DENVER,3038345646,ASSISTED LIVING RESIDENCE,DENVER,3545 LEYDEN STREET,DENVER,CO,80207,scs.alr.co@gmail.com, PROFIT-CORPORA,AL OF DENVER INC,16
230481,DECATUR WEST PERSONAL CARE FACILITY,3034557001,ASSISTED LIVING RESIDENCE,DENVER,2801 W 33RD AVE,DENVER,CO,80211,mommyduck1@aol.com, PROFIT-CORPORA,"SUE-DANIEL, INC.",32
230472,MONARCH MANOR,3038614301,ASSISTED LIVING RESIDENCE,DENVER,555 E 11TH AVE,DENVER,CO,80203,monarch.jsparks@gmail.com, PROFIT-CORPORA,ALL SPARKS CORP,39
230425,LENNOX GUEST HOME INC THE,3034778426,ASSISTED LIVING RESIDENCE,DENVER,2875 W 33RD AVENUE,DENVER,CO,80211,lennoxgh@gmail.com, PROFIT-CORPORA,"LENNOX GUEST HOME, INC., THE",55
23K566,ARA AT THE PINERY,3038777965,ASSISTED LIVING RESIDENCE,DOUGLAS,7822 WINDWOOD WAY,PARKER,CO,80134,mmouw@auroraservices.com, PROFIT-CORPORA,AURORA RESIDENTIAL ALTERNATIVES INC,8
23U713,CONSTANT CARE OF COLORADO SPRINGS INC,7196606826,ASSISTED LIVING RESIDENCE,EL PASO,11 WESTMARK AVE,COLORADO SPRINGS,CO,80906,, PROFIT-CORPORA,"CONSTANT CARE OF COLORADO SPRINGS, INC",8
23C445,SOLANGE HIGHLAND PARK INC,7192821155,ASSISTED LIVING RESIDENCE,EL PASO,2107 PRINCETON WAY,COLORADO SPRINGS,CO,80909,, PROFIT-CORPORA,SOLANGE HIGHLAND PARK,8
23G932,CONSTANT CARE OF COLORADO SPRINGS II,7192602354,ASSISTED LIVING RESIDENCE,EL PASO,8320 SUTTERFIELD DR,COLORADO SPRINGS,CO,80920,jeff.reynolds1@yahoo.com, PROFIT-CORPORA,"CONSTANT CARE OF COLORADO SPRINGS, INC",8
23055B,SOLANGE ASSISTED LIVING INC,7193824844,ASSISTED LIVING RESIDENCE,EL PASO,10102 ROLLING RIDGE RD,COLORADO SPRINGS,CO,80925,, PROFIT-CORPORA,SOLANGE ASSISTED LIVING INC,10
230542,"WILLOWS AT CRESTVIEW, THE",7194731362,ASSISTED LIVING RESIDENCE,EL PASO,1410 E BUENA VENTURA STREET,COLORADO SPRINGS,CO,80909,crestviewcare@msn.com, PROFIT-CORPORA,PARENT CARE LIFE INC,11
230543,WHISPERING PINES AT CRESTVIEW,7194734239,ASSISTED LIVING RESIDENCE,EL PASO,1209 E CARAMILLO ST,COLORADO SPRINGS,CO,80909,crestviewcare@msn.com, PROFIT-CORPORA,PARENT CARE LIFE INC,11
2305B2,VALLEY HI ASSISTED LIVING,7194478719,ASSISTED LIVING RESIDENCE,EL PASO,3116 WELLSHIRE BLVD,COLORADO SPRINGS,CO,80910,yolundusrmurriel@yahoo.com, PROFIT-CORPORA,VALLEY HI ASSISTED LIVING,12
2305I0,APPLE TREE ASSISTED LIVING,7192821155,ASSISTED LIVING RESIDENCE,EL PASO,1125 BROCKDELL DR,COLORADO SPRINGS,CO,80911,, PROFIT-CORPORA,SOLANGE AT APPLE TREE ASSISTED LIVING INC,48
23H131,FREMONT HOME CARE CEDAR,7193454300,ASSISTED LIVING RESIDENCE,FREMONT,1425 CEDAR AVENUE,CANON CITY,CO,81212,fremonthomecare@msn.com, PROFIT-CORPORA,FREMONT HOME CARE INC,16
2304J0,"CARING HEARTS, INC",3034217368,ASSISTED LIVING RESIDENCE,JEFFERSON,7465 W 48TH AVE,WHEAT RIDGE,CO,80033,tber713331@aol.com, PROFIT-CORPORA,CARING HEARTS INC,8
2304NY,"EQC ACCENT ASSISTED LIVING, INCORPORATED",3034569246,ASSISTED LIVING RESIDENCE,JEFFERSON,6395 W 66TH AVE,ARVADA,CO,80003,, PROFIT-CORPORA,EQC ACCENT ASSISTED LIVING INCORPORATED,6
23X367,A WILDFLOWER ASSISTED LIVING AND CARE HOME INC,3034240523,ASSISTED LIVING RESIDENCE,JEFFERSON,9423 W 64TH AVENUE,ARVADA,CO,80004,, PROFIT-CORPORA,A WILDFLOWER ASSISTED LIVING AND CARE HOME INC,8
23H526,A WILDFLOWER ASSISTED LIVING AND CARE HOME INC,3034634363,ASSISTED LIVING RESIDENCE,JEFFERSON,6197 W 83RD WAY,ARVADA,CO,80003,nicole@awildflowerassistedliving.com, PROFIT-CORPORA,A WILDFLOWER ASSISTED LIVING AND CARE HOME INC,8
23J158,A WILDFLOWER ASSISTED LIVING AND CARE HOME INC,3034567890,ASSISTED LIVING RESIDENCE,JEFFERSON,8417 W 74TH PLACE,ARVADA,CO,80005,, PROFIT-CORPORA,A WILDFLOWER ASSISTED LIVING AND CARE HOME INC,8
2304ML,EQC SILVER ROSE INCORPORATED,3034204295,ASSISTED LIVING RESIDENCE,JEFFERSON,5420 FIELD COURT,ARVADA,CO,80002,rmking65@msn.com, PROFIT-CORPORA,EQC SILVER ROSE INCORPORATED,10
2304J4,ALTERNATIVE CARE HOMES-MARSHALL,3038345646,ASSISTED LIVING RESIDENCE,JEFFERSON,8029 S MARSHALL STREET,LITTLETON,CO,80128,scs.alr.marshall@gmail.com, PROFIT-CORPORA,SCS ASSISTED LIVING DENVER INC,10
23S680,ASSISTED LIVING OF ARVADA INC,3038345646,ASSISTED LIVING RESIDENCE,JEFFERSON,6845 NEWLAND STREET,ARVADA,CO,80003,scs.alr.co@gmail.com, PROFIT-CORPORA,ASSISTED LIVING OF ARVADA INC,12
23F110,"RISING SUN SENIOR HOME INC, THE",3039373473,ASSISTED LIVING RESIDENCE,JEFFERSON,421 & 431 S FENTON STREET,LAKEWOOD,CO,80226,therisingsun@comcast.net, PROFIT-CORPORA,THE RISING SUN SENIOR HOME INC,15
230186,ASPEN LEAF ASSISTED LIVING RESIDENCE INC-STRATTON,7193484666,ASSISTED LIVING RESIDENCE,KIT CARSON,410 MAIN ST,STRATTON,CO,80836,kathy@aspenleafassistedliving.com, PROFIT-CORPORA,ASPEN LEAF ASSISTED LIVING RESIDENCE - STRATTON,12
23W733,ASPEN LEAF ASSISTED LIVING RESIDENCE,7197654353,ASSISTED LIVING RESIDENCE,KIT CARSON,419 PAWNEE AVENUE,FLAGLER,CO,80815,, PROFIT-CORPORA,ASPEN LEAF ASSISTED LIVING RESIDENCE INC,16
23036C,PRIMROSE PLACE,9706695616,ASSISTED LIVING RESIDENCE,LARIMER,1330 E 1ST ST,LOVELAND,CO,80537,, PROFIT-CORPORA,"PRIMROSE PLACE, INC.",18
230345,HERITAGE HAUS,9706695616,ASSISTED LIVING RESIDENCE,LARIMER,208 19TH STREET S E,LOVELAND,CO,80537,, PROFIT-CORPORA,"PRIMROSE PLACE, INC.",18
23R289,"RESIDENCE AT OAKRIDGE, THE",9702295800,ASSISTED LIVING RESIDENCE,LARIMER,4750 WHEATON DRIVE,FORT COLLINS,CO,80525,claudiaatoakridge@gmail.com, PROFIT-CORPORA,"RESIDENCE AT OAKRIDGE LLC, THE",68
23S688,ASPEN LEAF ASSISTED LIVING RESIDENCE LIMON INC,7197759412,ASSISTED LIVING RESIDENCE,LINCOLN,2050 6TH ST,LIMON,CO,80828,, PROFIT-CORPORA,ASPEN LEAF ASSISTED LIVING RESIDENCE LIMON INC,30
23P259,COMFORT CARE-ALZHEIMERS,9702421967,ASSISTED LIVING RESIDENCE,MESA,807 TAHITI,GRAND JUNCTION,CO,81506,kdpuls@yahoo.com, PROFIT-CORPORA,COMFORT CARE INC,8
2311JT,ASPEN GLEN,9702548403,ASSISTED LIVING RESIDENCE,MESA,448 BOOKCLIFF DR,GRAND JUNCTION,CO,81501,aspen_glen@yahoo.com, PROFIT-CORPORA,ASPEN GLEN,9
231104,BLOSSOM VIEW ASSISTED LIVING,9704346707,ASSISTED LIVING RESIDENCE,MESA,3456 F ROAD,CLIFTON,CO,81520,wallacebroad@bresnan.net, PROFIT-CORPORA,BLOSSOM VIEW INC.,16
2311RP,COMFORT CARE ASSISTED LIVING & MEMORY CARE,9702434682,ASSISTED LIVING RESIDENCE,MESA,445 SANDIA DR,GRAND JUNCTION,CO,81507,kdpuls@yahoo.com, PROFIT-CORPORA,COMFORT CARE INC,35
2311QG,"RETREAT AT PALISADE, THE",9704645167,ASSISTED LIVING RESIDENCE,MESA,3781 HERITAGE LANE,PALISADE,CO,81526,cparenteau@sloptions.com, PROFIT-CORPORA,TRIUMPH PROPERTIES LLC,60
23114D,RETREAT AT HARBOR COVE,9702437224,ASSISTED LIVING RESIDENCE,MESA,2835 PATTERSON RD,GRAND JUNCTION,CO,81506,cparenteau@sloption.com, PROFIT-CORPORA,TRIUMPH PROPERTIES LLC,64
231289,MESA VIEW RETIREMENT HOME INC,9705640716,ASSISTED LIVING RESIDENCE,MONTEZUMA,24760 ROAD G,CORTEZ,CO,81321,mesaviewcortez@hotmail.com, PROFIT-CORPORA,"MESA VIEW RETIREMENT HOME, INC.",16
230654,GOLDEN GATE MANOR II,7195832473,ASSISTED LIVING RESIDENCE,PUEBLO,1219 LAKE AVENUE,PUEBLO,CO,81004,mhrrmn@aol.com, PROFIT-CORPORA,GOLDEN GATE MANOR INC,10
23062L,GREENWOOD MANOR,7195621742,ASSISTED LIVING RESIDENCE,PUEBLO,421 & 423 W 11TH ST,PUEBLO,CO,81003,kcarterwells@yahoo.com, PROFIT-CORPORA,GREENWOOD MANOR INCORPORATED,16
230663,GOLDEN HORIZON,7195839132,ASSISTED LIVING RESIDENCE,PUEBLO,2109 CHAUTARD,PUEBLO,CO,81005,, PROFIT-CORPORA,GOLDEN GATE MANOR INC,14
230667,GOLDEN VALLEY ASSISTED LIVING,7195450152,ASSISTED LIVING RESIDENCE,PUEBLO,1033 E EVANS,PUEBLO,CO,81004,mhrrmn@aol.com, PROFIT-CORPORA,GOLDEN GATE MANOR INC,14
230604,PAL'S ACF,7195434108,ASSISTED LIVING RESIDENCE,PUEBLO,232 BROADWAY,PUEBLO,CO,81004,little-angels@hotmail.com, PROFIT-CORPORA,P.A.L'S ACF & DAY PROGRAM SERVICES,15
230635,GOLDEN GATE MANOR,7195839132,ASSISTED LIVING RESIDENCE,PUEBLO,606 W ABRIENDO AVE,PUEBLO,CO,81004,mhrrmn@aol.com, PROFIT-CORPORA,GOLDEN GATE MANOR INC,16
23W276,VILLA GROVE ASSISTED LIVING,7195441561,ASSISTED LIVING RESIDENCE,PUEBLO,715 EAST B STREET,PUEBLO,CO,81003,pspicola@gmail.com, PROFIT-CORPORA,JOHNSON ASSISTED LIVING HOME INC,16
230333,GRAY CARA,3037324424,ASSISTED LIVING RESIDENCE,WELD,195 EAST GANDY AVENUE,KEENESBURG,CO,80643,kmgray@rtebb.net, PROFIT-CORPORA,GRAYCARA ENTERPRISES INC.,14
2303J4,ASHLEY MANOR - EVANS 2,9703049277,ASSISTED LIVING RESIDENCE,WELD,1725 32ND ST,EVANS,CO,80620,, PROFIT-CORPORA,ASHLEY MANOR LLC,13
2303QB,BRIGHT ASSISTED LIVING CORP,7203346436,ASSISTED LIVING RESIDENCE,WELD,610 HEMLOCK DRIVE,WINDSOR,CO,80550,cclement97@yahoo.com, PROFIT-CORPORA,CLEMENT CONSULTING CORP.,12
2303B5,BROOKDALE GREELEY,9703309500,ASSISTED LIVING RESIDENCE,WELD,1999 38TH AVENUE,GREELEY,CO,80634,kharden@brookdaleliving.com, PROFIT-CORPORA,ALTERRA HEALTHCARE CORPORATION,51
230374,PLANET VIEW INC,9703305133,ASSISTED LIVING RESIDENCE,WELD,3705 CARSON AVENUE,EVANS,CO,80620,chukwumaemeh@yahoo.com, PROFIT-CORPORA,PLANET VIEW INC,14
23Y767,BIRCH ASSISTED LIVING,9703461150,ASSISTED LIVING RESIDENCE,WELD,1819 BIRCH AVENUE,GREELEY,CO,80631,, PROFIT-CORPORA,"BIRCH ASSISTED LIVING, INC.",60
23123I,VISTA MESA ASSISTED LIVING RESIDENCE,9705641888,ASSISTED LIVING RESIDENCE,MONTEZUMA,1206 N MILDRED RD,CORTEZ,CO,81321,linda.carter@continuumhealth.com, PROFIT-CORPORA,"SOUTHWEST PROFESSIONAL PROPERTIES, INC",57
230411,CHATEAU DES MONS CARE AND ASSISTED LIVING,3037815865,ASSISTED LIVING RESIDENCE,ARAPAHOE,3426 S MARION STREET,ENGLEWOOD,CO,80113,, PROFIT-CORPORA,"MARION HEALTHCARE, INC",48
2304I6,STAGES ASSISTED LIVING RESIDENCE,3032877270,ASSISTED LIVING RESIDENCE,ADAMS,11275 HIGHLINE DRIVE,NORTHGLENN,CO,80233,l.pereira@communityreachcenter.org, CORPORATE NON-,ADAMS COMMUNITY MENTAL HEALTH CTR,16
2304OW,JOHN THOMAS HOUSE,3037399913,ASSISTED LIVING RESIDENCE,ARAPAHOE,16390 E 14TH PL,AURORA,CO,80011,, CORPORATE NON-,"AURORA COMPREHENSIVE COMM MENTAL HLTH CTR, INC .",15
2304H4,BEELER STREET RTF,3033606014,ASSISTED LIVING RESIDENCE,ARAPAHOE,1455 BEELER STREET,AURORA,CO,80010,, CORPORATE NON-,MENTAL HEALTH CENTER OF DENVER,15
2304BP,NARCISSUS HOUSE RTF,3036399728,ASSISTED LIVING RESIDENCE,DENVER,3940 S NARCISSUS WAY,DENVER,CO,80237,ann.selling@mhcd.org, CORPORATE NON-,MENTAL HEALTH CENTER OF DENVER,6
2304DZ,ASH STREET RTF,3037592673,ASSISTED LIVING RESIDENCE,DENVER,1450 S ASH ST,DENVER,CO,80222,joann.toney@mhcd.org, CORPORATE NON-,MENTAL HEALTH CENTER OF DENVER,8
2304H3,NEW VISIONS RTF,3039368105,ASSISTED LIVING RESIDENCE,DENVER,1810 S HOOKER,DENVER,CO,80219,christine.lanham@alhcd.org, CORPORATE NON-,MENTAL HEALTH CENTER OF DENVER,8
2304F0,MONACO HOUSE RTF,3033554008,ASSISTED LIVING RESIDENCE,DENVER,1512 MONACO PARKWAY,DENVER,CO,80220,lyndsay.burnett@mhcd.org, CORPORATE NON-,MENTAL HEALTH CENTER OF DENVER,8
2304G5,JOHN VALLEGOS HOUSE RTF,3037447371,ASSISTED LIVING RESIDENCE,DENVER,1810 S COLUMBINE ST,DENVER,CO,80210,joann.toney@mhcd.org, CORPORATE NON-,MENTAL HEALTH CENTER OF DENVER,8
2304P8,SECOND STREET RTF,3037652480,ASSISTED LIVING RESIDENCE,DENVER,200 S SHERMAN STREET,DENVER,CO,80209,joann.toney@mhcd.org, CORPORATE NON-,MENTAL HEALTH CENTER OF DENVER,9
2304G7,MONROE HOUSE RTF,3033772586,ASSISTED LIVING RESIDENCE,DENVER,1425 MONROE STREET,DENVER,CO,80206,joann.toney@mhcd.org, CORPORATE NON-,MENTAL HEALTH CENTER OF DENVER,12
2304VF,DAVID HOUSE RTF,3035047700,ASSISTED LIVING RESIDENCE,DENVER,5201 SHERMAN,DENVER,CO,80216,, CORPORATE NON-,MENTAL HEALTH CENTER OF DENVER,15
2304G8,PARK PLACE RTF,3034333944,ASSISTED LIVING RESIDENCE,DENVER,2829 W 33RD AVENUE,DENVER,CO,80211, joann.toney@mhcd.org, CORPORATE NON-,MENTAL HEALTH CENTER OF DENVER,16
2304I4,TELLER PLACE RTF,3039888493,ASSISTED LIVING RESIDENCE,JEFFERSON,7290 WEST 14TH AVENUE,LAKEWOOD,CO,80215,Paulk@jcmh.org, CORPORATE NON-,JEFFERSON CENTER FOR MENTAL HEALTH,6
2304H8,JEWELL PLACE RTF,3039888493,ASSISTED LIVING RESIDENCE,JEFFERSON,8640 W JEWELL AVE,LAKEWOOD,CO,80232,maryse@jcmh.org, CORPORATE NON-,JEFFERSON CENTER FOR MENTAL HEALTH,8
2303FH,KINNICK CENTER RTF,9703472281,ASSISTED LIVING RESIDENCE,WELD,1316 11TH AVE,GREELEY,CO,80631,sherry.pfifer@northrange.org, CORPORATE NON-,NORTH RANGE BEHAVIORAL HEALTH,12
2304G6,FRANKLIN HOUSE RTF,3033773772,ASSISTED LIVING RESIDENCE,DENVER,1730 FRANKLIN,DENVER,CO,80218,,CORPORATE NON-PROF,MENTAL HEALTH CORP OF DENVER,11
23V733,RMCC,7204125730,ASSISTED LIVING RESIDENCES,ARAPAHOE,10405 W BERRY,LITTLETON,CO,80127,, LIMITED LIABIL,ROCKY MOUNTAIN CARE AND CONSULTING LLC,8
23Y683,SLP COLORADO,7204125730,ASSISTED LIVING RESIDENCES,DOUGLAS,2570 PEMBERLY AVE,HIGHLANDS RANCH,CO,80126,, LIMITED LIABIL,TBI COLORADO LLC,8
23C443,ARA AT HIDDEN RIVER,3038777965,ASSISTED LIVING RESIDENCES,DOUGLAS,20780 BRIDLEWOOD LANE,PARKER,CO,80138,mmouw@auroraservices.com, PROFIT-CORPORA,AURORA RESIDENTIAL ALTERNATIVES INC,5
23G125,ARA AT THE WOODLANDS,3038777965,ASSISTED LIVING RESIDENCES,DOUGLAS,1746 WILD STAR WAY,CASTLE ROCK,CO,80104,mmouw@auroraservices.com, PROFIT-CORPORA,AURORA RESIDENTIAL ALTERNATIVES,8
23W361,ARA AT HOLLY HILLS,7206394599,ASSISTED LIVING RESIDENCES,DOUGLAS,23451 E HOLLY HILLS WAY,PARKER,CO,80138,mmouw@auroraservices.com, PROFIT-CORPORA,AURORA RESIDENTIAL ALTERNATIVES INC,8
23T747,ARA AT LANDER CIRCLE,3038777965,ASSISTED LIVING RESIDENCES,EL PASO,2137 LANDER CIRCLE,COLORADO SPRINGS,CO,80909,mmouw@auroraservices.com, PROFIT-CORPORA,AURORA RESIDENTIAL ALTERNATIVES INC,5
23S684,FLOURISH SUPPORTIVE LIVING AT TEXAS,3039892624,ASSISTED LIVING RESIDENCES,JEFFERSON,9232 W TEXAS DRIVE,LAKEWOOD,CO,80232,, LIMITED LIABIL,DESHANO CARE CENTERS LLC,0
23I970,SLP COLORADO WELLINGTON,7204125730,ASSISTED LIVING RESIDENCES,ARAPAHOE,7681 WELLINGTON STREET,CENTENNIAL,CO,80122,, LIMITED LIABIL,TBI COLORADO LLC,8
23B859,FLOURISH SUPPORTIVE LIVING AT PEAKVIEW,3038036977,ASSISTED LIVING RESIDENCES,ARAPAHOE,8217 W PEAKVIEW DRIVE,LITTLETON,CO,80123,tdeshano@cqlhomes.com, LIMITED LIABIL,DESHANO CARE CENTERS LLC,8
23U248,ROCKY MOUNTAIN CARE AND CONSULTING LLC,7204125730,ASSISTED LIVING RESIDENCES,ARAPAHOE,5130 W PLYMOUTH DR,LITTLETON,CO,80128,, LIMITED LIABIL,ROCKY MOUNTAIN CARE AND CONSULTING LLC,8
23G928,FLOURISH SUPPORTIVE LIVING AT FLOYD,3038036977,ASSISTED LIVING RESIDENCES,ARAPAHOE,2330 E FLOYD AVE,ENGLEWOOD,CO,80113,, LIMITED LIABIL,DESHANO CARE CENTERS LLC,9
23Y769,ASSURED ASSISTED LIVING 5,3038142688,ASSISTED LIVING RESIDENCES,DOUGLAS,1671 THATCH CIRCLE,CASTLE ROCK,CO,80109,, LIMITED LIABIL,ASSURED ASSISTED LIVING LLC,9
23J618,COLUMBINE HOUSE,7195971402,ASSISTED LIVING RESIDENCES,EL PASO,5523 S BUCKSKIN PASS DR,COLORADO SPRINGS,CO,80917,ldryers@comcast.net, LIMITED LIABIL,BRAINCARE LLC,8
23R198,SOARING HOUSE,7192724246,ASSISTED LIVING RESIDENCES,EL PASO,6243 SOARING DRIVE,COLORADO SPRINGS,CO,80918,, LIMITED LIABIL,BRAINCARE LLC,8
23G122,FLOURISH SUPPORTIVE LIVING AT REED,3038036977,ASSISTED LIVING RESIDENCES,JEFFERSON,3225 S REED COURT,LAKEWOOD,CO,80227,, LIMITED LIABIL,DESHANO CARE CENTERS LLC,9
23E988,FLOURISH SUPPORTIVE LIVING AT OWENS,3038036977,ASSISTED LIVING RESIDENCES,JEFFERSON,1975 OWENS COURT,LAKEWOOD,CO,80215,tdeshano@cqlhomes.com, LIMITED LIABIL,DESHANO CARE CENTERS LLC,9
23RBTU,OASIS HOUSE,7192178850,ASSISTED LIVING RESIDENCES,PUEBLO,972 S PURCELL BLVD,PUEBLO,CO,81007,, LIMITED LIABIL,BRAINCARE LLC,10
23O492,A WILDFLOWER ASSISTED LIVING AND CARE HOME INC,3037289238,ASSISTED LIVING RESIDENCES,ADAMS,10130 MELODY DR,NORTHGLENN,CO,80260,, PROFIT-CORPORA,A WILDFLOWER ASSISTED LIVING AND CARE HOME INC,5
23T736,A WILDFLOWER ASSISTED LIVING AND CARE HOME INC,7206289092,ASSISTED LIVING RESIDENCES,ADAMS,8823 PRINCETON STREET,WESTMINSTER,CO,80031,, PROFIT-CORPORA,A WILDFLOWER ASSISTED LIVING AND CARE HOME INC,8
23D454,ARA AT THE PINERY,3038777965,ASSISTED LIVING RESIDENCES,DOUGLAS,7822 WINDWOOD WAY,PARKER,CO,80134,mmouw@auroraservices.com, PROFIT-CORPORA,AURORA RESIDENTIAL ALTERNATIVES,8
23Q655,A WILDFLOWER ASSISTED LIVING AND CARE HOME INC,3034567830,ASSISTED LIVING RESIDENCES,JEFFERSON,8417 W 74TH PLACE,ARVADA,CO,80005,, PROFIT-CORPORA,A WILDFLOWER ASSISTED LIVING AND CARE HOME INC,8