Facility ID,Facility Name,Address,City,State,Zip Code,County,Phone Number,Ownership Type,State Facility Type 2 Literal,State Facility Type 1 Literal
1611,ABLE INC HOUSTON,105 WEST ELM STREET BOX 245,HOUSTON,MN,55943,HOUSTON,507-896-3040,NONPROFIT CORPORATION,Intermediate Care Facility,Supervised Living Facility
1419,ABLE INC LA CRESCENT,1700 LANCER BOULEVARD,LA CRESCENT,MN,55947,HOUSTON,507-895-8111,NONPROFIT CORPORATION,Intermediate Care Facility,Supervised Living Facility
1378,ACR HOME ON CUMMINGS,1385 CUMMINGS LANE,ARDEN HILLS,MN,55112,RAMSEY,651-636-7537,CORPORATION,Intermediate Care Facility,Supervised Living Facility
1620,ACR HOME ON DAWN,191 DAWN AVENUE,SHOREVIEW,MN,55126,RAMSEY,651-486-0380,CORPORATION,Intermediate Care Facility,Supervised Living Facility
20743,ACR HOME ON FALLGOLD,9719 FALLGOLD PARKWAY,BROOKLYN PARK,MN,55443,HENNEPIN,763-424-0352,CORPORATION,Intermediate Care Facility,Supervised Living Facility
1576,ACR HOME ON LYDIA WEST,2528 LYDIA AVENUE WEST,ROSEVILLE,MN,55113,RAMSEY,651-636-7172,CORPORATION,Intermediate Care Facility,Supervised Living Facility
1573,ACR HOME ON REDWOOD,862 REDWOOD LANE,NEW BRIGHTON,MN,55112,RAMSEY,651-635-9060,CORPORATION,Intermediate Care Facility,Supervised Living Facility
1628,ACR HOME ON ROBIN,4404 ROBIN AVENUE,ROBBINSDALE,MN,55422,HENNEPIN,763-535-1022,CORPORATION,Intermediate Care Facility,Supervised Living Facility
24142,ACR ON DALE COURT,1822 DALE COURT,ROSEVILLE,MN,55113,RAMSEY,651-488-1088,CORPORATION,Intermediate Care Facility,Supervised Living Facility
33236,AFTON PLACE,2715 UPPER AFTON ROAD,MAPLEWOOD,MN,55119,RAMSEY,651-254-0500,NONPROFIT CORPORATION,,Supervised Living Facility
1667,ALLENDALE HOUSE,2847 19TH AVENUE NW,ROCHESTER,MN,55901,OLMSTED,507-288-7195,NONPROFIT CORPORATION,Intermediate Care Facility,Supervised Living Facility
1668,AMERICAN INDIAN COMM DEVLP,1800 CHICAGO AVENUE SOUTH,MINNEAPOLIS,MN,55404,HENNEPIN,612-879-3562,NONPROFIT CORPORATION,,Supervised Living Facility
4,ANOKA METRO REG TREATMENT CTR,3301 7TH AVENUE NORTH,ANOKA,MN,55303,ANOKA,651-431-5252,STATE,,Supervised Living Facility
1400,ANTHONY LOUIS CENTER,1000 PAUL PARKWAY,BLAINE,MN,55434,ANOKA,763-757-2906,CORPORATION,,Supervised Living Facility
1222,ARLINGTON HOME,1505 ARLINGTON STREET SOUTH,FERGUS FALLS,MN,56537,OTTER TAIL,218-739-2045,NONPROFIT CORPORATION,Intermediate Care Facility,Supervised Living Facility
1110,ATWATER ICFIID,110 5TH STREET NORTH,ATWATER,MN,56209,KANDIYOHI,320-974-8070,CORPORATION,Intermediate Care Facility,Supervised Living Facility
23246,AXIS ON BELMONT,692 BELMONT LANE WEST,ROSEVILLE,MN,55113,RAMSEY,651-489-4630,CORPORATION,Intermediate Care Facility,Supervised Living Facility
22846,AXIS ON ELDRIDGE,651 ELDRIDGE AVENUE WEST,ROSEVILLE,MN,55113,RAMSEY,651-488-2237,CORPORATION,Intermediate Care Facility,Supervised Living Facility
22370,AXIS ON GLENHILL,1083 GLENHILL ROAD,SHOREVIEW,MN,55126,RAMSEY,651-482-0562,CORPORATION,Intermediate Care Facility,Supervised Living Facility
1325,AXIS ON SENECA,1586 SENECA TRAIL,WHITE BEAR TOWNSHIP,MN,55110,RAMSEY,651-426-3546,CORPORATION,Intermediate Care Facility,Supervised Living Facility
23393,AXIS ON ST. MICHAEL,5533 ST. MICHAEL STREET,MOUNDS VIEW,MN,55112,RAMSEY,763-717-4967,CORPORATION,Intermediate Care Facility,Supervised Living Facility
22847,AXIS ON WHITE BEAR AVENUE,3516 WHITE BEAR AVENUE NORTH,WHITE BEAR LAKE,MN,55110,RAMSEY,651-779-4301,CORPORATION,Intermediate Care Facility,Supervised Living Facility
1546,BELL HILL RECOVERY CENTER,ROUTE 2 PO BOX 206,WADENA,MN,56482,WADENA,218-631-3610,NONPROFIT CORPORATION,,Supervised Living Facility
1538,BETHESDA LUTHERAN COMM COT 5,2483 109TH AVENUE NW,COON RAPIDS,MN,55433,ANOKA,952-443-2756,NONPROFIT CORPORATION,Intermediate Care Facility,Supervised Living Facility
1253,BETHESDA LUTHERAN COMM COT 6,2493 109TH AVENUE NW,COON RAPIDS,MN,55433,ANOKA,952-443-2756,NONPROFIT CORPORATION,Intermediate Care Facility,Supervised Living Facility
1507,BILL KELLY HOUSE,3104 EAST 58TH STREET,MINNEAPOLIS,MN,55417,HENNEPIN,612-726-1502,CORPORATION,,Supervised Living Facility
27145,BRENTWOOD HOME,1012 ESTHER LANE,MARSHALL,MN,56285,LYON,507-532-4380,NONPROFIT CORPORATION,,Supervised Living Facility
25468,BRIDGE RECOVERY LLC,1485 10TH AVENUE NE,SAUK RAPIDS,MN,56379,BENTON,320-406-1850,LIMITED LIABILITY COMPANY,,Supervised Living Facility
1641,BROWN COUNTY EVAL CENTER INC,510 NORTH FRONT STREET,NEW ULM,MN,56073,BROWN,507-359-9111,NONPROFIT CORPORATION,,Supervised Living Facility
1278,C C S INC RIDGEWOOD,1381 KNOLLWOOD DRIVE,WORTHINGTON,MN,56187,NOBLES,507-376-6095,NONPROFIT CORPORATION,Intermediate Care Facility,Supervised Living Facility
1141,CAMILIA ROSE GROUP HOME,11820 XEON BOULEVARD,COON RAPIDS,MN,55448,ANOKA,763-754-2505,LIMITED LIABILITY COMPANY,Intermediate Care Facility,Supervised Living Facility
34188,CARE FERGUS FALLS,1010 MARYLAND LANE,FERGUS FALLS,MN,56537,OTTER TAIL,218-736-1821,STATE,,Supervised Living Facility
1503,CARECO APARTMENTS INC,6115 CARMEN AVENUE EAST,INVER GROVE HEIGHTS,MN,55076,DAKOTA,651-451-1756,CORPORATION,Intermediate Care Facility,Supervised Living Facility
1508,CARLSON DRAKE HOUSE,5414 WEST OLD SHAKOPEE CIRCLE,BLOOMINGTON,MN,55437,HENNEPIN,952-888-5611,CORPORATION,,Supervised Living Facility
1660,CEDAR RIDGE,11400 JULIANNE AVENUE NORTH,STILLWATER,MN,55082,WASHINGTON,651-426-3300,LIMITED LIABILITY COMPANY,,Supervised Living Facility
1666,CLAY COUNTY RECEIVING CENTER,715 11TH STREET NORTH #203,MOORHEAD,MN,56560,CLAY,218-299-5220,COUNTY,,Supervised Living Facility
1406,COCHRAN RECOVERY SERVICES INC,1294 EAST 18TH STREET BLDG 1,HASTINGS,MN,55033,DAKOTA,651-437-4209,NONPROFIT CORPORATION,,Supervised Living Facility
24618,COMM ADDICTION RECOVERY ENTERP,2000 KLEIN STREET,ST. PETER,MN,56082,NICOLLET,507-933-5191,STATE,,Supervised Living Facility
1045,COMM OPTIONS AND RESOURCES I,330 1/2 FOX LAKE AVENUE,SHERBURN,MN,56171,MARTIN,507-764-4612,NONPROFIT CORPORATION,Intermediate Care Facility,Supervised Living Facility
33014,COMMON GRND RECOVERY HSG INC,730 WEST BROADWAY,WINONA,MN,55987,WINONA,507-615-0101,CORPORATION,,Supervised Living Facility
21547,COMMUNITY ADDICTION RECOVERY,810 3RD STREET #102,CARLTON,MN,55718,CARLTON,218-384-7003,STATE,,Supervised Living Facility
26528,COMMUNITY ADDICTION WILLMAR,1801 TECHNOLOGY DRIVE NE,WILLMAR,MN,56201,KANDIYOHI,320-979-5104,STATE,,Supervised Living Facility
1638,CTRL MN RECEIVING AND REFERRAL,1321 NORTH 13TH STREET N,ST. CLOUD,MN,56303,STEARNS,320-252-6654,NONPROFIT CORPORATION,,Supervised Living Facility
1590,DAWSON ICF MR,2974 192ND STREET,DAWSON,MN,56232,LAC QUI PARLE,320-769-4444,CORPORATION,Intermediate Care Facility,Supervised Living Facility
20624,DONOVAN FRANK DETOX CENTER,626 13TH STREET SOUTH,VIRGINIA,MN,55792,SAINT LOUIS,218-741-9120,NONPROFIT CORPORATION,,Supervised Living Facility
1610,DRCC AURORA,417 SOUTH MAIN STREET,AURORA,MN,55705,SAINT LOUIS,218-229-3369,NONPROFIT CORPORATION,Intermediate Care Facility,Supervised Living Facility
1182,DUNGARVIN BALBRIGGEN,1270 EAST LARPENTEUR AVENUE,ST. PAUL,MN,55109,RAMSEY,651-699-6050,LIMITED LIABILITY COMPANY,,Supervised Living Facility
24104,DUNGARVIN CAMARA,3989 VIRGINIA CIRCLE,SHOREVIEW,MN,55126,RAMSEY,651-699-6050,LIMITED LIABILITY COMPANY,,Supervised Living Facility
1211,DUNGARVIN CHAI,1210 OAKVIEW LANE NORTH,PLYMOUTH,MN,55441,HENNEPIN,651-699-6050,LIMITED LIABILITY COMPANY,,Supervised Living Facility
1368,DUNGARVIN TIKVAH,1778 ROME AVENUE,ST PAUL,MN,55116,RAMSEY,651-699-6050,LIMITED LIABILITY COMPANY,,Supervised Living Facility
245,DUNGARVIN YOUGAL,10203 94TH AVENUE,MAPLE GROVE,MN,55369,HENNEPIN,651-699-6050,LIMITED LIABILITY COMPANY,,Supervised Living Facility
1544,E B I INCORPORATED,625 NORTH 56 AVENUE WEST,DULUTH,MN,55807,SAINT LOUIS,218-624-3122,CORPORATION,,Supervised Living Facility
1584,EDEN RESIDENTIAL PROGRAM,1025 PORTLAND AVENUE SOUTH,MINNEAPOLIS,MN,55404,HENNEPIN,612-338-0723,NONPROFIT CORPORATION,,Supervised Living Facility
1178,FOCUS XII HALFWAY HOUSE,3220 8TH STREET NORTH,ST. CLOUD,MN,56303,STEARNS,320-252-2425,NONPROFIT CORPORATION,,Supervised Living Facility
32670,FORENSIC MENTAL HEALTH PROGRAM,1703 COUNTY STATE AID HWY 15,ST. PETER,MN,56082,NICOLLET,507-985-3128,STATE,,Supervised Living Facility
1418,FORENSIC MENTAL HEALTH PROGRAM,100 FREEMAN DRIVE,ST. PETER,MN,56082,NICOLLET,507-985-3128,STATE,,Supervised Living Facility
1390,FOUNTAIN CENTERS,404 WEST FOUNTAIN STREET,ALBERT LEA,MN,56007,FREEBORN,507-377-6411,NONPROFIT CORPORATION,,Supervised Living Facility
1681,FOUR WINDS TREATMENT PROGRAM,11600 STATE AVENUE,BRAINERD,MN,56401,CROW WING,218-454-8900,TRIBAL,,Supervised Living Facility
1604,FURNESS HOUSE,1866 FURNESS STREET,MAPLEWOOD,MN,55109,RAMSEY,651-227-7655,NONPROFIT CORPORATION,Intermediate Care Facility,Supervised Living Facility
36046,GATEWAY RECOVERY CENTER LLC,6775 CAHILL AVENUE,INVER GROVE HEIGHTS,MN,55076,DAKOTA,651-999-3537,LIMITED LIABILITY COMPANY,,Supervised Living Facility
20875,HAMMER CARLSON,1909 WAYZATA BLVD E,WAYZATA,MN,55391,HENNEPIN,952-473-1261,NONPROFIT CORPORATION,Intermediate Care Facility,Supervised Living Facility
1581,HAMMER KENTUCKY,18115 30TH AVENUE NORTH,PLYMOUTH,MN,55447,HENNEPIN,952-473-1261,NONPROFIT CORPORATION,Intermediate Care Facility,Supervised Living Facility
1594,HAMMER LAKESIDE,5209 MICHAELE LANE,MINNETONKA,MN,55345,HENNEPIN,952-473-1261,NONPROFIT CORPORATION,Intermediate Care Facility,Supervised Living Facility
1686,HAMMER LAWNDALE,6688 LAWNDALE LANE NORTH,MAPLE GROVE,MN,55311,HENNEPIN,952-473-1261,NONPROFIT CORPORATION,Intermediate Care Facility,Supervised Living Facility
1607,HAMMER LEE,2825 LEE AVENUE NORTH,GOLDEN VALLEY,MN,55422,HENNEPIN,952-473-1261,NONPROFIT CORPORATION,Intermediate Care Facility,Supervised Living Facility
1669,HAMMER MCGLINCH,18300 26TH AVENUE NORTH,PLYMOUTH,MN,55447,HENNEPIN,952-473-1261,NONPROFIT CORPORATION,Intermediate Care Facility,Supervised Living Facility
4306,HAMMER RIDGEVIEW,401 RIDGEVIEW DRIVE,WAYZATA,MN,55391,HENNEPIN,952-473-1261,NONPROFIT CORPORATION,Intermediate Care Facility,Supervised Living Facility
21172,HAMMER SHERIDAN,2412 SHERIDAN HILLS CURVE,WAYZATA,MN,55391,HENNEPIN,952-473-1261,NONPROFIT CORPORATION,Intermediate Care Facility,Supervised Living Facility
1008,HARRY MEYERING CTR INC,109 HOMESTEAD ROAD,MANKATO,MN,56001,BLUE EARTH,507-387-8281,NONPROFIT CORPORATION,Intermediate Care Facility,Supervised Living Facility
1367,HAZELDEN CTR FOR YOUTH & FAM,11505 36TH AVENUE NORTH,PLYMOUTH,MN,55441,HENNEPIN,763-509-3829,NONPROFIT CORPORATION,,Supervised Living Facility
67,HAZELDEN FOUNDATION,15251 PLEASANT VALLEY,CENTER CITY,MN,55012,CHISAGO,651-213-4217,NONPROFIT CORPORATION,,Supervised Living Facility
32885,HCMC CRISIS RESIDENCE,3633 CHICAGO AVENUE SOUTH,MINNEAPOLIS,MN,55407,HENNEPIN,612-873-6537,COUNTY,,Supervised Living Facility
1091,HENRY HAGEN RESIDENCE,19845 LILLEHEI AVENUE,HASTINGS,MN,55033,DAKOTA,612-770-0304,INDIVIDUAL,Intermediate Care Facility,Supervised Living Facility
1313,HIGH ISLAND CREEK RESIDENCE,708 CHESTNUT DRIVE,ARLINGTON,MN,55307,SIBLEY,507-964-5984,NONPROFIT CORPORATION,Intermediate Care Facility,Supervised Living Facility
36056,HOFFMANN CENTER,1715 SHEPPARD DRIVE,ST PETER,MN,56082,NICOLLET,507-934-2594,NONPROFIT CORPORATION,,Supervised Living Facility
1134,HOME AND COMMUNITY OPTIONS INC,174 EDWARD STREET,WINONA,MN,55987,WINONA,507-452-1021,NONPROFIT CORPORATION,,Supervised Living Facility
1273,HOMEWARD BOUND BROOKLYN PARK,7839 BROOKLYN BOULEVARD,BROOKLYN PARK,MN,55445,HENNEPIN,763-746-4850,NONPROFIT CORPORATION,Intermediate Care Facility,Supervised Living Facility
1585,HOMEWARD BOUND MAPLE GROVE,6769 EAST FISH LAKE ROAD,MAPLE GROVE,MN,55369,HENNEPIN,763-746-4850,NONPROFIT CORPORATION,Intermediate Care Facility,Supervised Living Facility
1583,HOMEWARD BOUND PLYMOUTH,13522 SUNSET TRAIL,PLYMOUTH,MN,55441,HENNEPIN,763-746-4850,NONPROFIT CORPORATION,Intermediate Care Facility,Supervised Living Facility
1603,HOWARD HOUSE,1685 HOWARD STREET NORTH,MAPLEWOOD,MN,55109,RAMSEY,651-227-7655,NONPROFIT CORPORATION,Intermediate Care Facility,Supervised Living Facility
37079,JANET'S RESIDENCE,950 9TH AVENUE,ST. PAUL PARK,MN,55071,WASHINGTON,651-734-9633,LIMITED LIABILITY COMPANY,,Supervised Living Facility
33823,JOHN E HERMAN HOME & TRMT FAC,351 14TH AVENUE SW,ROCHESTER,MN,55902,OLMSTED,507-422-0480,LIMITED LIABILITY COMPANY,,Supervised Living Facility
1535,JORGENSEN HOUSE,3444 GIRARD AVENUE SOUTH,MINNEAPOLIS,MN,55408,HENNEPIN,612-353-5580,NONPROFIT CORPORATION,,Supervised Living Facility
1384,JUDY RATTERATH WDRL MGT CTR,3409 E MEDICINE LAKE BOULEVARD,PLYMOUTH,MN,55441,HENNEPIN,763-559-1402,NONPROFIT CORPORATION,,Supervised Living Facility
1408,KAPLAN WOODS CARE HOME,285 CEDARDALE DRIVE SE,OWATONNA,MN,55060,STEELE,507-451-5327,LIMITED LIABILITY COMPANY,Intermediate Care Facility,Supervised Living Facility
831,LAKE OWASSO RESIDENCE,210 OWASSO BOULEVARD NORTH,SHOREVIEW,MN,55126,RAMSEY,651-266-0711,COUNTY,Intermediate Care Facility,Supervised Living Facility
29821,LAKE SHORE RES TREATMENT,140 QUAIL STREET,MAHTOMEDI,MN,55115,WASHINGTON,651-429-2311,LIMITED LIABILITY COMPANY,,Supervised Living Facility
29465,LATITUDES TREATMENT CENTER LLC,1609 JACKSON STREET,ST. PAUL,MN,55117,RAMSEY,651-454-2016,LIMITED LIABILITY COMPANY,,Supervised Living Facility
1163,LAURA BAKER SERVICES ASSC,211 OAK STREET,NORTHFIELD,MN,55057,RICE,507-645-8866,OTHER NONPROFIT OWNERSHIP,Intermediate Care Facility,Supervised Living Facility
1527,LIVING CHALLENGE,701 EAST 57TH STREET,MINNEAPOLIS,MN,55417,HENNEPIN,952-922-8466,CORPORATION,,Supervised Living Facility
1379,LIVING WELL 3801,3801 WEST BROADWAY AVENUE,ROBBINSDALE,MN,55422,HENNEPIN,763-522-7556,NONPROFIT CORPORATION,Intermediate Care Facility,Supervised Living Facility
1475,LIVING WELL 3807,3807 WEST BROADWAY AVENUE,ROBBINSDALE,MN,55422,HENNEPIN,763-521-1076,NONPROFIT CORPORATION,Intermediate Care Facility,Supervised Living Facility
1401,LIVING WELL 75TH,14850 75TH AVENUE NORTH,MAPLE GROVE,MN,55369,HENNEPIN,763-420-5848,NONPROFIT CORPORATION,Intermediate Care Facility,Supervised Living Facility
1600,LIVING WELL BROOKVIEW,2675 BROOKVIEW DRIVE EAST,MAPLEWOOD,MN,55119,RAMSEY,651-731-1602,NONPROFIT CORPORATION,Intermediate Care Facility,Supervised Living Facility
21108,LIVING WELL CARMEN,915 CARMEN LANE,MENDOTA HEIGHTS,MN,55118,DAKOTA,651-405-0569,NONPROFIT CORPORATION,,Supervised Living Facility
1371,LIVING WELL CENTRAL,1555 CENTRAL AVENUE SW,CAMBRIDGE,MN,55008,ISANTI,763-689-3794,NONPROFIT CORPORATION,Intermediate Care Facility,Supervised Living Facility
20874,LIVING WELL CONGRESS,2207 CONGRESS STREET,SOUTH ST. PAUL,MN,55075,DAKOTA,651-450-2304,NONPROFIT CORPORATION,,Supervised Living Facility
1599,LIVING WELL COPE,1362 EAST COPE AVENUE,MAPLEWOOD,MN,55109,RAMSEY,651-483-9596,NONPROFIT CORPORATION,Intermediate Care Facility,Supervised Living Facility
1646,LIVING WELL DIANE,1668 DIANE ROAD,MENDOTA HEIGHTS,MN,55118,DAKOTA,651-686-7872,NONPROFIT CORPORATION,Intermediate Care Facility,Supervised Living Facility
1179,LIVING WELL DOUGLAS,303 DOUGLAS DRIVE,BUFFALO,MN,55313,WRIGHT,763-682-4588,NONPROFIT CORPORATION,Intermediate Care Facility,Supervised Living Facility
1633,LIVING WELL EAST EMERSON,41 EMERSON AVENUE EAST,WEST ST. PAUL,MN,55118,DAKOTA,651-450-1880,NONPROFIT CORPORATION,Intermediate Care Facility,Supervised Living Facility
1258,LIVING WELL EDGEWOOD,6525 EDGEWOOD AVENUE NORTH,BROOKLYN PARK,MN,55428,HENNEPIN,763-533-5104,NONPROFIT CORPORATION,Intermediate Care Facility,Supervised Living Facility
1290,LIVING WELL FRANCE,2759 FRANCE AVENUE NORTH,ROBBINSDALE,MN,55422,HENNEPIN,763-521-0387,NONPROFIT CORPORATION,Intermediate Care Facility,Supervised Living Facility
1466,LIVING WELL KENNELLY,12000 KENNELLY ROAD,BURNSVILLE,MN,55337,DAKOTA,952-894-3044,NONPROFIT CORPORATION,Intermediate Care Facility,Supervised Living Facility
1595,LIVING WELL LARPENTEUR,1951 LARPENTEUR AVENUE EAST,MAPLEWOOD,MN,55109,RAMSEY,651-770-7120,NONPROFIT CORPORATION,Intermediate Care Facility,Supervised Living Facility
1243,LIVING WELL LYNDALE,5449 LYNDALE AVENUE NORTH,BROOKLYN CENTER,MN,55430,HENNEPIN,763-560-2220,NONPROFIT CORPORATION,Intermediate Care Facility,Supervised Living Facility
20941,LIVING WELL MARY ADELE,1055 MARY ADELE AVENUE,MENDOTA HEIGHTS,MN,55120,DAKOTA,651-365-8707,NONPROFIT CORPORATION,,Supervised Living Facility
20783,LIVING WELL MARYLAND,2355 MARYLAND AVENUE EAST,MAPLEWOOD,MN,55119,RAMSEY,651-773-4074,NONPROFIT CORPORATION,,Supervised Living Facility
20857,LIVING WELL POPPLER,3020 POPPLER LANE,EAGAN,MN,55122,DAKOTA,651-688-8035,NONPROFIT CORPORATION,,Supervised Living Facility
20938,LIVING WELL UPPER 55TH,1885 UPPER 55TH STREET EAST,INVER GROVE HEIGHTS,MN,55077,DAKOTA,651-552-8748,NONPROFIT CORPORATION,,Supervised Living Facility
1359,LIVING WELL VICTORIA,2031 VICTORIA ROAD SOUTH,MENDOTA HEIGHTS,MN,55118,DAKOTA,651-452-4295,NONPROFIT CORPORATION,Intermediate Care Facility,Supervised Living Facility
21238,MARGARETS HOUSE,2535 CONDON COURT,MENDOTA HEIGHTS,MN,55120,DAKOTA,651-686-0518,LIMITED LIABILITY COMPANY,,Supervised Living Facility
1598,MBW COMPANY,1407 10TH STREET NORTH,NEW ULM,MN,56073,BROWN,507-233-3030,BUSINESS TRUST,Intermediate Care Facility,Supervised Living Facility
1210,MBW ON RAYMOND,1131 RAYMOND DRIVE,NEW ULM,MN,56073,BROWN,507-354-3522,BUSINESS TRUST,Intermediate Care Facility,Supervised Living Facility
1637,MEADOW CREEK,17305 MEADOW CREEK LANE,PINE CITY,MN,55063,PINE,763-444-4838,LIMITED LIABILITY COMPANY,,Supervised Living Facility
20793,MERRITT HOUSE,731 3RD STREET SOUTH,VIRGINIA,MN,55792,SAINT LOUIS,218-741-9630,NONPROFIT CORPORATION,,Supervised Living Facility
37546,MIDWEST RECOVERY,529 WOODLEY STREET,NORTHFIELD,MN,55057,RICE,507-225-0201,CORPORATION,,Supervised Living Facility
1674,MN SEX OFFENDER PROGRAM,1111 HIGHWAY 73,MOOSE LAKE,MN,55767,CARLTON,651-431-5874,STATE,,Supervised Living Facility
89,MN SPECIALTY HEALTH SYSTEM,11615 STATE AVENUE,BRAINERD,MN,56401,CROW WING,218-855-8757,STATE,,Supervised Living Facility
25363,MN SPECIALTY HEALTH SYSTEM,1208 OLENA AVENUE SE,WILLMAR,MN,56201,KANDIYOHI,320-235-0341,STATE,,Supervised Living Facility
23896,MN SPECIALTY HEALTH SYSTEM,240 SHADY LANE DRIVE BOX 430,WADENA,MN,56482,WADENA,218-319-6001,STATE,,Supervised Living Facility
37561,MOMENTUM CENTER LLC,1425 EAST ST GERMAIN ST,ST CLOUD,MN,56304,BENTON,320-281-3727,LIMITED LIABILITY COMPANY,,Supervised Living Facility
1440,MONARCH HEIGHTS,501 BURDICK AVENUE,ORTONVILLE,MN,56278,BIG STONE,320-839-6139,NONPROFIT CORPORATION,Intermediate Care Facility,Supervised Living Facility
1022,MOUNT OLIVET ROLLING ACRES,7200 ROLLING ACRES ROAD #220,VICTORIA,MN,55386,CARVER,952-474-5974,NONPROFIT CORPORATION,Intermediate Care Facility,Supervised Living Facility
31654,MOUNT OLIVET ROLLING ACRES,9375 JAN VIEW LANE,WACONIA,MN,55387,CARVER,952-442-3226,NONPROFIT CORPORATION,Intermediate Care Facility,Supervised Living Facility
21000,MOUNT OLIVET ROLLING ACRES,129 MACKENTHUN LANE,NORWOOD YOUNGAMERICA,MN,55368,CARVER,952-467-6484,NONPROFIT CORPORATION,Intermediate Care Facility,Supervised Living Facility
27850,MSOP GREEN ACRES,100 FREEMAN DRIVE,ST. PETER,MN,56082,NICOLLET,651-431-5874,STATE,,Supervised Living Facility
27851,MSOP PEXTON SHANTZ,100 FREEMAN DRIVE,ST. PETER,MN,56082,NICOLLET,651-431-5874,STATE,,Supervised Living Facility
30872,MSOP SUNRISE,100 FREEMAN DRIVE,ST. PETER,MN,56082,NICOLLET,651-431-5874,STATE,,Supervised Living Facility
1565,MTAI ALBERT PLACE,9911 13TH AVENUE SOUTH,BLOOMINGTON,MN,55425,HENNEPIN,763-442-7830,CORPORATION,Intermediate Care Facility,Supervised Living Facility
1098,MTAI BLOOMINGTON,10633 KELL AVENUE SOUTH,BLOOMINGTON,MN,55437,HENNEPIN,952-881-2848,CORPORATION,Intermediate Care Facility,Supervised Living Facility
1021,MTAI BROOKLYN CENTER,507 69TH AVENUE NORTH,BROOKLYN CENTER,MN,55430,HENNEPIN,763-754-2505,CORPORATION,Intermediate Care Facility,Supervised Living Facility
1564,MTAI GLADSON,7350 RIDGEWAY ROAD,GOLDEN VALLEY,MN,55427,HENNEPIN,763-542-8340,CORPORATION,Intermediate Care Facility,Supervised Living Facility
1563,MTAI MINNEHAHA CREEK,8949 48TH AVENUE NORTH,NEW HOPE,MN,55428,HENNEPIN,763-537-9220,CORPORATION,Intermediate Care Facility,Supervised Living Facility
1471,MTAI PLYMOUTH EAST,11550 52ND AVENUE NORTH,PLYMOUTH,MN,55413,HENNEPIN,763-208-4889,CORPORATION,Intermediate Care Facility,Supervised Living Facility
1562,MTAI RICE CREEK,5402 FAIRVIEW AVENUE NORTH,CRYSTAL,MN,55428,HENNEPIN,763-754-2505,CORPORATION,Intermediate Care Facility,Supervised Living Facility
1561,MTAI SAND CREEK,5555 WESTBROOK ROAD,GOLDEN VALLEY,MN,55422,HENNEPIN,763-545-7086,CORPORATION,Intermediate Care Facility,Supervised Living Facility
1614,MTAI TRILLIUM,306 WESTGATE DRIVE,WINSTED,MN,55395,MCLEOD,320-485-3759,CORPORATION,Intermediate Care Facility,Supervised Living Facility
1241,NEW LIFE TREATMENT CENTER,130 DAKOTA STREET,WOODSTOCK,MN,56186,PIPESTONE,507-777-4321,NONPROFIT CORPORATION,,Supervised Living Facility
24059,NEW ULM MEDICAL CENTER,1324 5TH STREET NORTH,NEW ULM,MN,56073,BROWN,507-217-5000,NONPROFIT CORPORATION,,Supervised Living Facility
1608,NORTHLAND RECOVERY CENTER,1215 7TH AVENUE SE,GRAND RAPIDS,MN,55744,ITASCA,218-313-1315,NONPROFIT CORPORATION,,Supervised Living Facility
33695,NORTHWOOD CHILDRENS SVS INC,4000 WEST 9TH STREET,DULUTH,MN,55807,SAINT LOUIS,218-628-0237,NONPROFIT CORPORATION,,Supervised Living Facility
1516,OASIS,6739 GOLDEN VALLEY ROAD,GOLDEN VALLEY,MN,55427,HENNEPIN,763-544-1447,CORPORATION,,Supervised Living Facility
1293,ON BELAY HOUSE,115 FORESTVIEW LANE NORTH,PLYMOUTH,MN,55441,HENNEPIN,763-546-8008,CORPORATION,,Supervised Living Facility
1366,ORONO WOODLANDS,2100 6TH AVENUE NORTH BOX 507,LONG LAKE,MN,55356,HENNEPIN,952-473-0852,NONPROFIT CORPORATION,Intermediate Care Facility,Supervised Living Facility
25956,PAUL'S PLACE,22355 ALBATROSS CIRCLE,FARMINGTON,MN,55024,DAKOTA,651-734-9633,LIMITED LIABILITY COMPANY,,Supervised Living Facility
1556,PEOPLE II,1380 WEST MINNEHAHA PARKWAY,MINNEAPOLIS,MN,55419,HENNEPIN,651-774-0011,NONPROFIT CORPORATION,Intermediate Care Facility,Supervised Living Facility
23589,PHOENIX AT CARVER,2465 CARVER AVENUE,MAPLEWOOD,MN,55119,RAMSEY,651-227-7655,NONPROFIT CORPORATION,Intermediate Care Facility,Supervised Living Facility
23428,PHOENIX AT CASWELL,2168 12TH STREET,WHITE BEAR LAKE,MN,55110,RAMSEY,651-227-7655,NONPROFIT CORPORATION,Intermediate Care Facility,Supervised Living Facility
1649,PHOENIX AT CENTERVILLE,785 COUNTY ROAD EAST,VADNAIS HEIGHTS,MN,55127,RAMSEY,651-227-7655,NONPROFIT CORPORATION,Intermediate Care Facility,Supervised Living Facility
23482,PHOENIX AT DOUGLAS,1538 POINT DOUGLAS ROAD SOUTH,ST. PAUL,MN,55119,RAMSEY,651-227-7655,NONPROFIT CORPORATION,Intermediate Care Facility,Supervised Living Facility
1648,PHOENIX AT ENGLISH,1336 COUNTY ROAD EAST,VADNAIS HEIGHTS,MN,55110,RAMSEY,651-227-7655,NONPROFIT CORPORATION,Intermediate Care Facility,Supervised Living Facility
23483,PHOENIX AT FOSS,1500 AMES AVENUE,ST. PAUL,MN,55106,RAMSEY,651-227-7655,NONPROFIT CORPORATION,Intermediate Care Facility,Supervised Living Facility
23588,PHOENIX AT JANET COURT,1769 JANET COURT,ARDEN HILLS,MN,55112,RAMSEY,651-227-7655,NONPROFIT CORPORATION,Intermediate Care Facility,Supervised Living Facility
23427,PHOENIX AT LUDDEN,7717 LONG LAKE ROAD,MOUNDS VIEW,MN,55112,RAMSEY,651-227-7655,NONPROFIT CORPORATION,Intermediate Care Facility,Supervised Living Facility
23519,PHOENIX AT NEWPORT,351 14TH STREET,NEWPORT,MN,55055,WASHINGTON,651-227-7655,NONPROFIT CORPORATION,Intermediate Care Facility,Supervised Living Facility
1195,PHOENIX AT VIKING,645 VIKING DRIVE EAST,ST. PAUL,MN,55117,RAMSEY,651-227-7655,NONPROFIT CORPORATION,Intermediate Care Facility,Supervised Living Facility
1578,PINE MANORS INC,22195 STATE 34,NEVIS,MN,56467,HUBBARD,218-732-4337,CORPORATION,,Supervised Living Facility
1520,PRAIRIE VIEW,2220 27TH STREET,SLAYTON,MN,56172,MURRAY,218-310-4322,CORPORATION,Intermediate Care Facility,Supervised Living Facility
23697,PRAIRIES EDGE,152 COUGAR DRIVE,MANKATO,MN,56001,BLUE EARTH,507-387-8281,NONPROFIT CORPORATION,Intermediate Care Facility,Supervised Living Facility
1194,PREFERRED RESIDENTIAL LIFESTYL,108 9TH STREET,WINDOM,MN,56101,COTTONWOOD,952-922-6776,CORPORATION,Intermediate Care Facility,Supervised Living Facility
1405,PRIDE INSTITUTE,14400 MARTIN DRIVE,EDEN PRAIRIE,MN,55344,HENNEPIN,952-345-1881,CORPORATION,,Supervised Living Facility
21953,PROJECT TURNABOUT,660 18TH STREET,GRANITE FALLS,MN,56241,YELLOW MEDICINE,320-564-4911,NONPROFIT CORPORATION,,Supervised Living Facility
1617,PROJECT TURNABOUT HALFWAY HSE,1220 BIRCH STREET,MARSHALL,MN,56258,LYON,507-532-3008,NONPROFIT CORPORATION,,Supervised Living Facility
1549,RADIAS HEALTH,1096 GERVAIS AVENUE,MAPLEWOOD,MN,55109,RAMSEY,651-256-1260,OTHER NONPROFIT OWNERSHIP,,Supervised Living Facility
1572,RAJWOOD,2951 BARTELMY LANE,MAPLEWOOD,MN,55109,RAMSEY,651-483-9500,NONPROFIT CORPORATION,Intermediate Care Facility,Supervised Living Facility
1571,RAMSEY COUNTY DETOX CENTER,402 UNIVERSITY AVENUE EAST,ST. PAUL,MN,55130,RAMSEY,651-266-4009,COUNTY,,Supervised Living Facility
1629,RANGE CENTER ASPENWOOD HOME,1820 EAST 39TH STREET,HIBBING,MN,55746,SAINT LOUIS,218-263-9079,NONPROFIT CORPORATION,Intermediate Care Facility,Supervised Living Facility
1062,RANGE CENTER LEGACY,112 9TH STREET NW,CHISHOLM,MN,55719,SAINT LOUIS,218-254-4875,NONPROFIT CORPORATION,Intermediate Care Facility,Supervised Living Facility
1315,RANGE CENTER MAPLEVIEW HOME,506 WEST 47TH STREET,HIBBING,MN,55746,SAINT LOUIS,218-263-4573,NONPROFIT CORPORATION,Intermediate Care Facility,Supervised Living Facility
22017,REBECCAS RESIDENCE,21077 PENROSE AVENUE NORTH,SCANDIA,MN,55073,WASHINGTON,651-433-5839,LIMITED LIABILITY COMPANY,,Supervised Living Facility
1470,REENTRY HOUSE,5812 LYNDALE AVENUE SOUTH,MINNEAPOLIS,MN,55419,HENNEPIN,612-869-2411,CORPORATION,,Supervised Living Facility
33693,REENTRY HOUSE CRISIS STBL PROG,1800 CHICAGO AVENUE SOUTH,MINNEAPOLIS,MN,55404,HENNEPIN,612-540-5703,CORPORATION,,Supervised Living Facility
34437,REFRACTIONS LLC,22575 43RD AVENUE,ST. AUGUSTA,MN,56301,STEARNS,320-252-6017,LIMITED LIABILITY COMPANY,,Supervised Living Facility
1205,REM HEARTLAND INC AMBER,107 DOROTHY STREET,FAIRMONT,MN,56031,MARTIN,952-922-6776,CORPORATION,Intermediate Care Facility,Supervised Living Facility
1537,REM HEARTLAND INC BIRCH,206 THOMAS DRIVE,MANKATO,MN,56001,BLUE EARTH,952-922-6776,CORPORATION,Intermediate Care Facility,Supervised Living Facility
1427,REM HEARTLAND INC BUDD,111 DOROTHY STREET,FAIRMONT,MN,56031,MARTIN,952-922-6776,CORPORATION,Intermediate Care Facility,Supervised Living Facility
1536,REM HEARTLAND INC CYPRESS,204 THOMAS DRIVE,MANKATO,MN,56001,BLUE EARTH,507-387-3181,CORPORATION,Intermediate Care Facility,Supervised Living Facility
1455,REM HEARTLAND INC MADELIA,226 DREW AVENUE SOUTH,MADELIA,MN,56062,WATONWAN,952-922-6776,CORPORATION,Intermediate Care Facility,Supervised Living Facility
26137,REM HENNEPIN INC CRYSTAL,3400 QUAIL AVENUE NORTH,CRYSTAL,MN,55422,HENNEPIN,952-922-6776,CORPORATION,Intermediate Care Facility,Supervised Living Facility
1026,REM HENNEPIN INC LAKELAND,6816 65TH AVENUE NORTH,BROOKLYN PARK,MN,55428,HENNEPIN,952-922-6776,CORPORATION,Intermediate Care Facility,Supervised Living Facility
1130,REM HENNEPIN INC QUEEN,614 QUEEN AVENUE SOUTH,MINNEAPOLIS,MN,55405,HENNEPIN,952-922-6776,CORPORATION,Intermediate Care Facility,Supervised Living Facility
1274,REM HENNEPIN INC REGENT,3239 REGENT AVENUE NORTH,GOLDEN VALLEY,MN,55422,HENNEPIN,952-922-6776,CORPORATION,Intermediate Care Facility,Supervised Living Facility
1149,REM HENNEPIN INC WILLIAM,5100 WILLIAM AVENUE SOUTH,EDINA,MN,55436,HENNEPIN,952-922-6776,CORPORATION,Intermediate Care Facility,Supervised Living Facility
1403,REM HENNEPIN MINNETONKA,21 WESTWOOD ROAD,MINNETONKA,MN,55305,HENNEPIN,952-922-6776,CORPORATION,Intermediate Care Facility,Supervised Living Facility
1320,REM RIVER BLUFFS ROCHESTER SE,1631 19TH AVENUE SE,ROCHESTER,MN,55904,OLMSTED,952-922-6776,CORPORATION,Intermediate Care Facility,Supervised Living Facility
1042,REM SOUTHWEST SRVS MARSHALL A,1003 NORTH 4TH STREET,MARSHALL,MN,56258,LYON,507-922-6776,CORPORATION,Intermediate Care Facility,Supervised Living Facility
1616,REM SOUTHWEST SRVS MARSHALL C,1007 NORTH 4TH STREET,MARSHALL,MN,56258,LYON,952-922-6776,CORPORATION,Intermediate Care Facility,Supervised Living Facility
1266,REM SW SERVICES MONTEVIDEO,585 GRAVEL ROAD,MONTEVIDEO,MN,56265,CHIPPEWA,952-922-6776,CORPORATION,Intermediate Care Facility,Supervised Living Facility
1312,RENVILLE COUNTY COMM RES,831 GROVE AVENUE,BIRD ISLAND,MN,55310,RENVILLE,320-365-3748,NONPROFIT CORPORATION,Intermediate Care Facility,Supervised Living Facility
21125,RES TREATMENT & DETOX CTR,1402 EAST SUPERIOR STREET,DULUTH,MN,55805,SAINT LOUIS,218-723-8444,NONPROFIT CORPORATION,,Supervised Living Facility
1345,RESIDENTIAL ADVANTAGES LLC,107 SOUTH BLUE MOUND AVENUE,LUVERNE,MN,56156,ROCK,952-922-6776,CORPORATION,Intermediate Care Facility,Supervised Living Facility
32962,RIVER RIDGE GLEN CREEK LODGE,16005 JOPLIN AVENUE,LAKEVILLE,MN,55044,DAKOTA,952-894-7722,LIMITED LIABILITY COMPANY,,Supervised Living Facility
25914,RIVER RIDGE LLC A WOMAN'S WAY,7170 BRYANT LAKE DRIVE,EDEN PRAIRIE,MN,55344,HENNEPIN,952-894-7722,LIMITED LIABILITY COMPANY,,Supervised Living Facility
29812,ROLLINGWOOD HOME,2203 ROLLING GREEN LANE,NORTH MANKATO,MN,56003,BLUE EARTH,507-779-7187,NONPROFIT CORPORATION,Intermediate Care Facility,Supervised Living Facility
1430,SHINGLE CREEK OPTION,5624 73RD AVENUE NORTH,BROOKLYN PARK,MN,55429,HENNEPIN,763-560-5330,NONPROFIT CORPORATION,Intermediate Care Facility,Supervised Living Facility
1586,SILVER OAKS,3277 RICE CREEK ROAD,NEW BRIGHTON,MN,55112,RAMSEY,651-636-0546,CORPORATION,Intermediate Care Facility,Supervised Living Facility
1636,SPRINGHILL,531 SPRINGHILL ROAD,VADNAIS HEIGHTS,MN,55127,RAMSEY,651-483-9500,NONPROFIT CORPORATION,Intermediate Care Facility,Supervised Living Facility
4307,ST. PAUL COMO COMMUNITY UNIT,690 COMO AVENUE,ST. PAUL,MN,55103,RAMSEY,651-558-2187,STATE,,Supervised Living Facility
25565,TAPESTRY,135 EAST COLORADO STREET,ST. PAUL,MN,55107,RAMSEY,612-454-2342,LIMITED LIABILITY COMPANY,,Supervised Living Facility
1449,THE GABLES,604 5TH STREET SW,ROCHESTER,MN,55902,OLMSTED,507-282-2500,CORPORATION,,Supervised Living Facility
1682,THE LUTHERAN HOME HOPE RES,611 WEST MAIN STREET,BELLE PLAINE,MN,56011,SCOTT,952-873-2143,CHURCH RELATED,Intermediate Care Facility,Supervised Living Facility
1647,THE WAYSIDE HOUSE INC,3705 PARK CENTER BOULEVARD,ST. LOUIS PARK,MN,55416,HENNEPIN,952-926-5626,NONPROFIT CORPORATION,,Supervised Living Facility
1454,THERESE K SEXTON HOME SOUTH,2050 HAUGHTON AVENUE,NORTH MANKATO,MN,56003,NICOLLET,507-387-8281,NONPROFIT CORPORATION,Intermediate Care Facility,Supervised Living Facility
1358,THUNDERBIRD WREN HOUSE,9302 IDAHO STREET,DULUTH,MN,55808,SAINT LOUIS,218-879-6731,NONPROFIT CORPORATION,,Supervised Living Facility
1678,TURNING POINT INC,1500 GOLDEN VALLEY ROAD,MINNEAPOLIS,MN,55411,HENNEPIN,612-520-4004,NONPROFIT CORPORATION,,Supervised Living Facility
1200,TWIN TOWN TREATMENT CENTER,1706 UNIVERSITY AVENUE,ST. PAUL,MN,55104,RAMSEY,651-326-7592,LIMITED LIABILITY COMPANY,,Supervised Living Facility
36336,VALLEY VIEW RECOVERY CENTER,31591 64TH AVENUE,CANNON FALLS,MN,55009,GOODHUE,507-601-5006,CORPORATION,,Supervised Living Facility
35511,WILLMAR ICFMR,1508 15TH STREET SW,WILLMAR,MN,56201,KANDIYOHI,320-441-2251,CORPORATION,Intermediate Care Facility,Supervised Living Facility
1523,WILLOW HAVEN,3819 LAVERNE AVENUE NORTH,LAKE ELMO,MN,55042,WASHINGTON,651-770-2224,LIMITED LIABILITY COMPANY,,Supervised Living Facility
1287,WINGSPAN LIFE RESOURCES,707 HARRIET AVENUE EAST,SHOREVIEW,MN,55126,RAMSEY,651-646-3846,NONPROFIT CORPORATION,Intermediate Care Facility,Supervised Living Facility
1651,WINTER HOMES INCORPORATED,4982 PAUPORES ROAD,BROOKSTON,MN,55711,SAINT LOUIS,218-879-2275,CORPORATION,,Supervised Living Facility
1502,WOODLAND CENTERS,1125 6TH STREET S PO BOX 787,WILLMAR,MN,56201,KANDIYOHI,320-235-4613,NONPROFIT CORPORATION,,Supervised Living Facility
25343,ZUMBRO VALLEY CONNECTIONS,343 WOOD LAKE DRIVE SE,ROCHESTER,MN,55904,OLMSTED,507-535-5776,NONPROFIT CORPORATION,,Supervised Living Facility