LICENSE #,TYPE,SUBTYPE,FACILITY,ADDRESS,CITY,STATE,ZIP,ADMINISTRATOR,PHONE,EFFECTIVE,EXPIRATION,BEDS,COUNTY
02437,Acute Psychiatric Res Treatment,,CYPRESS CENTER (THE),401 CYPRESS STREET,MANCHESTER,NH,03103,JENNIFER CONLEY,(603) 206-8562,02/01/21,01/31/22,16,HILLSBOROUGH
04391,Adult Day Care,,ADULT DAY CARE OF NASHUA,12 MURPHY DR UNIT 2A,NASHUA,NH,03062,ANN PRUSSEL,(603) 589-9570,01/01/21,12/31/21,,Hillsborough
02914,Adult Day Care,,CASTLE CENTER FOR ADULT GROUP DAY CARE,312 MARLBORO STREET,KEENE,NH,03431,MARY E LUCAS,(603) 355-8281,09/01/20,08/31/21,,CHESHIRE
01779,Adult Day Care,,EASTER SEAL SOCIETY NEW HAMPSHIRE INC,555 AUBURN STREET,MANCHESTER,NH,03103,LAURIE DUFF,(603) 623-8863,04/01/21,03/31/22,,HILLSBOROUGH
04288,Adult Day Care,,"EASTER SEALS NH, INC",215 ROCHESTER HILL RD,ROCHESTER,NH,03867,LAURIE DUFF,(603) 335-1770,09/01/21,08/31/22,,Strafford
02752,Adult Day Care,,GATEWAYS ADULT DAY SERVICE PROGRAM,200 DERRY ROAD,HUDSON,NH,03051,NZENALU OBINELO,(603) 882-6333,04/01/21,03/31/22,,HILLSBOROUGH
04194,Adult Day Care,,GLOBAL ADULT DAY CARE HEALTH CENTER,472 AMHERST ST UNIT 19 & 20,NASHUA,NH,03062,KIRIT MALAVIYA,(603) 233-0709,12/01/20,11/30/21,,Hillsborough
03477,Adult Day Care,,KEARSARGE GOOD DAY RESPITE PROGRAM,82 KING HILL RD,NEW LONDON,NH,03257,"CATHERINE WELLS, RN",(603) 526-4077,01/01/21,12/31/21,,MERRIMACK
04279,Adult Day Care,,MAINTAINING INDEPENDENCE ADULT DAY SERVICES,"11 KIMBALL DR, UNIT 110-113",HOOKSETT,NH,03106,Sara Giannasca,(603) 782-5622,12/01/20,11/30/21,,Merrimack
03299,Adult Day Care,,MONADNOCK ADULT CARE CENTER,22 NORTH STREET,JAFFREY,NH,03452,"CHRISTINE SELMER, RN",(603) 532-2427,10/01/21,09/30/22,,CHESHIRE
04446,Adult Day Care,,MOUNT WASHINGTON VALLEY ADULT DAY CENTER,987 EAST MAIN ST,Center Conway,NH,03813,LYNN M COYLE,(603) 356-4980,10/01/21,09/30/22,,Carroll
04333,Adult Day Care,,NASHUA ADULT DAY HEALTH,32 DANIEL WEBSTER HIGHWAY,Merrimack,NH,03054,KYLE WORTH,(603) 568-9237,05/01/21,04/30/22,,Hillsborough
03209,Adult Day Care,,SENIOR CLASS ADULT DAY SERVICES,201 STATE ROUTE 111,HAMPSTEAD,NH,03841,LINDA STEIR,(603) 329-4401,11/01/20,10/31/21,,ROCKINGHAM
02616,Adult Day Care,,SILVERTHORNE ADULT DAY CARE CENTER,23 GEREMONTY DRIVE,SALEM,NH,03079,MARIA CAMERLENGO,(603) 893-4799,12/01/20,11/30/21,,ROCKINGHAM
04176,Adult Day Care,,"THAT PLACE YOU KNOW, LLC",28 RIDGE RD,HOLLIS,NH,03049,KRIS L WUERDEMAN,(603) 465-3400,08/01/21,07/31/22,,Hillsborough
03802,Adult Day Care,,UPPER VALLEY GOOD DAY RESPITE PROGRAM,18 SCHOOL STREET,LEBANON,NH,03766,"CATHERINE WELLS, RN",(603) 526-4077,02/01/21,01/31/22,,Grafton
AF006,Adult Family Care,,NORTH BARNSTEAD RD (853),853 NORTH BARNSTEAD RD,Center Barnstead,NH,03225,JOHN HENDERSON,(603) 776-0001,09/01/20,08/31/21,1,Belknap
AF013,Adult Family Care,,WATER ST (55),55 WATER ST,Boscawen,NH,03303,NANCY HAAS,(603) 796-2496,07/01/20,06/30/21,1,Merrimack
04249,Ambulatory Surgical Center,,ACCESS AMBULATORY SURGERY CENTER,45 DARTMOUTH DR,AUBURN,NH,03032,LAURA J DEWAR,(603) 518-7190,01/01/21,12/31/21,,Rockingham
02552,Ambulatory Surgical Center,,AMBULATORY SURGERY CENTER (MANCHESTER),100 HITCHCOCK WAY,MANCHESTER,NH,03104,HEATHER A LONG,(603) 629-1800,03/01/21,02/28/22,,HILLSBOROUGH
02579,Ambulatory Surgical Center,,ATLANTIC PLASTIC SURGERY,"100 GRIFFIN ROAD., STE B",PORTSMOUTH,NH,03801,"LAWRENCE N GRAY, MD",(603) 431-8819,07/01/21,06/30/22,,ROCKINGHAM
03537,Ambulatory Surgical Center,,"BARRINGTON SURGICAL CARE, LLC",944 CALEF HIGHWAY,BARRINGTON,NH,03825,JENNIFER PRESTAGE,(603) 664-0100,08/01/21,07/31/22,,STRAFFORD
02756,Ambulatory Surgical Center,,BEDFORD AMBULATORY SURGICAL CENTER,11 WASHINGTON PLACE,BEDFORD,NH,03110,NICHOLAS VAILAS,(603) 622-3670,04/01/21,03/31/22,,HILLSBOROUGH
02943,Ambulatory Surgical Center,,CENTER FOR OUTPATIENT CARE,5 ALUMNI DRIVE,EXETER,NH,03833,BRIAN CAMPBELL,(603) 778-7311,05/01/21,04/30/22,,ROCKINGHAM
02841,Ambulatory Surgical Center,,CENTERS FOR PAIN SOLUTIONS,"280 MAIN STREET, SUITE 420",NASHUA,NH,03060,"JENNIFER FREEMAN, RN",(603) 577-3003,12/01/20,11/30/21,,HILLSBOROUGH
04278,Ambulatory Surgical Center,,CONCORD AMBULATORY SURGERY CENTER,1 COMMERCIAL CENTER@HORSESHOE POND 60 COMMERCIAL ST STE 301,CONCORD,NH,03301,"HEATHER SMITH, RN",(603) 415-9460,11/01/21,10/31/22,,Belknap
04494,Ambulatory Surgical Center,,CONCORD ENDOSCOPY CENTER,60 COMMERCIAL ST,Concord,NH,03301,"HEATHER SCHIMP, MBA",(603) 415-9450,04/01/21,03/31/22,,Merrimack
02786,Ambulatory Surgical Center,,CONCORD EYE SURGERY LLC,"246 PLEASANT STREET, STE 105B",CONCORD,NH,03301,PATRICIA A. BOURGAULT,(603) 224-6503,01/01/21,12/31/21,,MERRIMACK
03823,Ambulatory Surgical Center,,DARTMOUTH-HITCHCOCK NASHUA ENDOSCOPY CTR,2300 SOUTHWOOD DRIVE,NASHUA,NH,03063,HEATHER A LONG,(603) 577-4180,04/01/21,03/31/22,,HILLSBOROUGH
03693,Ambulatory Surgical Center,,ELLIOT 1-DAY SURGERY CENTER@ RIVERS EDGE,185 QUEEN CITY AVENUE,MANCHESTER,NH,03103,"BEVERLY PRIMEAU, RN",(603) 669-5900,04/01/21,03/31/22,,Hillsborough
04135,Ambulatory Surgical Center,,GRANITE STATE SURGICENTER,255 ROUTE 108,SOMERSWORTH,NH,03878,MARIANNA STEWART,(603) 692-3166,06/01/21,05/31/22,,Strafford
04136,Ambulatory Surgical Center,,GRANITE STATE SURGICENTER-MERRIMACK,1 MOUND CT,MERRIMACK,NH,03054,"LINDA SAUCIER, RN",(603) 424-8866,12/01/20,11/30/21,,Hillsborough
04495,Ambulatory Surgical Center,,"LIGHTHOUSE SURGICAL SUITES, LLC","2 MARKET PL, STE #100",Hollis,NH,03049,ASHLEY P LIOTTI,(603) 600-6175,04/06/21,03/31/22,,Hillsborough
04255,Ambulatory Surgical Center,,MINIMALLY INVASIVE SURGERY OF N.E.,4 HAWTHORNE DR,BEDFORD,NH,03110,BETH A DEREGO,(603) 218-1912,03/01/21,02/28/22,,Hillsborough
03848,Ambulatory Surgical Center,,NASHUA AMBULATORY SURGICAL CENTER LLC,15 RIVERSIDE DRIVE,NASHUA,NH,03062,ELIZABETH FRITTS,(603) 882-0950,07/01/21,06/30/22,,HILLSBOROUGH
03000,Ambulatory Surgical Center,,NASHUA EYE SURGERY CENTER,5 COLISEUM AVENUE SUITE 7,NASHUA,NH,03063,"THEODORE MOCHE, CRNA",(603) 689-9242,01/01/21,12/31/21,,HILLSBOROUGH
04477,Ambulatory Surgical Center,,"NORTH ATLANTIC SURGICAL SUITES,  LLC","23 KEEWAYDIN DR, STE 100",Salem,NH,03079,"JENNIFER SLAGER, RN",(603) 386-0272,12/30/20,11/30/21,,Rockingham
04486,Ambulatory Surgical Center,,NORTH COUNTRY ENDOSCOPY,220 COTTAGE  STREET,Littleton,NH,03561,ALAINA QUILLIN,(603) 444-0272,02/12/21,01/31/22,,Grafton
04387,Ambulatory Surgical Center,,NORTHRIDGE SURGICAL SUITES LLC,41 INNOVATIVE WY,NASHUA,NH,03062,MICHAELA F JOHNSTON,(603) 484-7710,01/01/21,12/31/21,,Hillsborough
04080,Ambulatory Surgical Center,,ORCHARD SURGICAL CENTER,16 KEEWAYDIN DR,SALEM,NH,03079,"CATHY D'ENTREMONT, RN",(603) 401-6466,02/01/21,01/31/22,,Rockingham
04475,Ambulatory Surgical Center,,ORTHOPAEDIC SURGERY CENTER,116 LANGLEY PARKWAY,CONCORD,NH,03301,"DONNA M QUINN, RN, BSN, MBA",(603) 228-7211,12/31/20,11/30/21,,Merrimack
04361,Ambulatory Surgical Center,,ORTHOPAEDIC SURGERY CENTER DERRY,14 TSIENNETO RD,DERRY,NH,03038,"DONNA QUINN, RN",(603) 425-6966,01/01/21,12/31/21,,Rockingham
03248,Ambulatory Surgical Center,,PARKLAND ENDOSCOPY CENTER,44 BIRCH STREET STE 103,DERRY,NH,03038,"KATHRYN MARSCHNER, RN",(603) 432-3639,03/01/21,02/28/22,,ROCKINGHAM
02899,Ambulatory Surgical Center,,PORTSMOUTH REGIONAL ASC,333 BORTHWICK AVE SUITE 200,PORTSMOUTH,NH,03801,JENNIFER L MARTIN,(603) 433-0941,09/01/21,08/31/22,,ROCKINGHAM
04020,Ambulatory Surgical Center,,RYE SURGICAL CENTER,270 LAFAYETTE RD,RYE,NH,03870,JENNIFER PRESTAGE,(603) 319-1581,06/01/21,05/31/22,,Rockingham
03504,Ambulatory Surgical Center,,STRATHAM AMBULATORY SURGERY CENTER,4 WEST ROAD,STRATHAM,NH,03885,"THOMAS S MENKE, DO",(603) 772-2076,04/01/21,03/31/22,,ROCKINGHAM
04428,Ambulatory Surgical Center,,SURGICAL CENTER OF NEW HAMPSHIRE AT DERRY,15 TSIENNETO RD,DERRY,NH,03038,BARBARA PLANSINIS,(603) 460-4955,07/01/21,06/30/22,,Rockingham
03946,Ambulatory Surgical Center,,THE SURGERY CENTER OF GREATER NASHUA,10 PROSPECT STREET SUITE 101,NASHUA,NH,03060,BEVERLY PRIMEAU,(603) 578-5108,07/01/21,06/30/22,,HILLSBOROUGH
03999,Ambulatory Surgical Center,,"WENTWORTH SURGERY CENTER, LLC",6 WORKS WAY,SOMERSWORTH,NH,03878,ANN MARIE DAY,(603) 285-9288,02/01/21,01/31/22,,Strafford
04305,Assist Living/Residential Care Facility,,AMERICAN HOUSE KEENE,197 WATER ST,KEENE,NH,03431,HILARY SEIFER,(603) 352-1282,09/01/20,08/31/21,144,Cheshire
03111,Assist Living/Residential Care Facility,,ARTABAN HOUSE,40 PLOWSHARE LANE,GREENFIELD,NH,03047,ROCHELLE H MINK,(603) 547-3717,01/01/21,12/31/21,6,HILLSBOROUGH
04480,Assist Living/Residential Care Facility,,ASSISTED LIVING AT PINE HILL,35 NORTH LOWELL RD,Windham,NH,03087,KAREN MASSAHOS,(603) 506-6626,02/01/21,11/30/21,16,Rockingham
02923,Assist Living/Residential Care Facility,,AUSTIN HOME,532 WHITE PLAINS ROAD,WEBSTER,NH,03303,STEPHANIE ORLANDO,(603) 456-3525,04/01/21,03/31/22,15,MERRIMACK
04481,Assist Living/Residential Care Facility,,BEAVER LAKE LODGE,38 NORTH SHORE ROAD,DERRY,NH,03038,KAREN MASSAHOS,(603) 434-5683,02/01/21,09/30/21,16,Rockingham
03096,Assist Living/Residential Care Facility,,BELLAMY FIELDS,150 GARRISON ROAD,DOVER,NH,03820,STEPHANIE J CARBERRY,(603) 516-8888,11/01/20,10/31/21,52,STRAFFORD
03348,Assist Living/Residential Care Facility,,BENTLEY COMMONS AT BEDFORD,66 HAWTHORNE DRIVE,BEDFORD,NH,03110,JOANNE M RIZZO,(603) 644-2200,03/01/21,02/28/22,100,HILLSBOROUGH
03118,Assist Living/Residential Care Facility,,BIRCH,61 LUKAS DRIVE,TEMPLE,NH,03084,AUREA DAVIS,(603) 878-4796,01/01/21,12/31/21,5,HILLSBOROUGH
03996,Assist Living/Residential Care Facility,,"COLONIAL FOX DEN, LLC",208 NORTH ROAD,SANDOWN,NH,03873,MARK QUEIROS,(603) 887-6333,12/01/20,11/30/21,44,Rockingham
00857,Assist Living/Residential Care Facility,,CROSSROAD FARM,37 MEMORIAL DRIVE,TEMPLE,NH,03084,PAMELA HOLUBECK,(603) 878-4322,01/01/21,12/31/21,5,HILLSBOROUGH
03495,Assist Living/Residential Care Facility,,DESIREE'S PLACE,93 CHARLES STREET,ROCHESTER,NH,03867,KRISTIE L TOUSSAINT,(603) 332-6455,04/01/21,03/31/22,16,STRAFFORD
02422,Assist Living/Residential Care Facility,,ECHO FARM,63 MEMORIAL HIGHWAY,TEMPLE,NH,03084,VIKRANT SHIVDASANI,(603) 878-2761,01/01/21,12/31/21,5,HILLSBOROUGH
03147,Assist Living/Residential Care Facility,,FOUR WINDS COMMUNITY-ST ORAN HOUSE,32 COLBURN ROAD,TEMPLE,NH,03084,PAUL MARTIN,(603) 878-2325,10/01/20,09/30/21,3,HILLSBOROUGH
02801,Assist Living/Residential Care Facility,,FOX MEADOW RETIREMENT HOME,1151 SUMMER STREET,BRISTOL,NH,03222,COREY JOHNSTON,(603) 744-5020,07/01/21,06/30/22,16,GRAFTON
01337,Assist Living/Residential Care Facility,,FRIENDSHIP MANOR,151 MAIN STREET,NEW IPSWICH,NH,03071,GARY CAHOON,(603) 878-2315,01/01/21,12/31/21,22,HILLSBOROUGH
03794,Assist Living/Residential Care Facility,,HARMONY HOMES LLC,1 STAGECOACH RD,DURHAM,NH,03824,TANIA BARRY,(603) 292-6087,02/01/21,01/31/22,24,STRAFFORD
03601,Assist Living/Residential Care Facility,,JOVIS HOUSE,12 WHITNEY DRIVE,GREENFIELD,NH,03047,DONAT BAY,(603) 547-6803,05/01/21,04/30/22,6,HILLSBOROUGH
03061,Assist Living/Residential Care Facility,,LEDGEWOOD,62 LUKAS DRIVE,TEMPLE,NH,03084,LOIS HORAN,(603) 878-0090,01/01/21,12/31/21,5,HILLSBOROUGH
04322,Assist Living/Residential Care Facility,,LEDGEWOOD BAY ASSISTED LIVING AND MEMORY CARE,43 LEDGEWOOD DRIVE,MILFORD,NH,03055,MELANIE F DUNN,(603) 672-5037,10/01/21,09/30/22,150,Hillsborough
03871,Assist Living/Residential Care Facility,,LILAC VIEW CORP,18 HEALTH CARE DRIVE,ROCHESTER,NH,03867,TRISTEN HAFFORD,(603) 332-7004,10/01/21,09/30/22,40,STRAFFORD
04243,Assist Living/Residential Care Facility,,LINCOLN TERRACE ASSISTED LIVING RESIDENCE LLC,11 LINCOLN ST,ROCHESTER,NH,03867,RACHEL M SANCHEZ,(603) 335-3966,03/01/21,02/28/22,16,Strafford
04245,Assist Living/Residential Care Facility,,MAE'S PLACE,212 SUMMER ST,BRISTOL,NH,03222,MEGAN ST GERMAIN,(603) 744-8402,09/01/21,08/31/22,12,Grafton
01450,Assist Living/Residential Care Facility,,MEADOW VIEW MANOR,749 SALMON FALLS ROAD,ROCHESTER,NH,03868,SAMUEL P BAKER JR,(603) 335-2288,08/01/21,07/31/22,5,STRAFFORD
02088,Assist Living/Residential Care Facility,,MERRY MEADOW FARM - HANOVER HOUSE,1 PROSPECT STREET,HANOVER,NH,03755,JEFFREY J HARRIS,(603) 643-3817,09/01/21,08/31/22,8,GRAFTON
02233,Assist Living/Residential Care Facility,,MYRTLE MANOR II INC,83 MYRTLE STREET,MANCHESTER,NH,03104,SUZANNE D DUMONT,(603) 641-6626,08/01/20,07/31/21,25,HILLSBOROUGH
00835,Assist Living/Residential Care Facility,,ON THE GREEN RESIDENTIAL CARE FACILITY,412 DARTMOUTH COLLEGE HIGHWAY,HAVERHILL,NH,03765,JANICE ESTES,(603) 989-5545,07/01/21,06/30/22,11,GRAFTON
03311,Assist Living/Residential Care Facility,,OUR PLACE INN TIME,31 TAPPAN STREET,FARMINGTON,NH,03835,MARY ANN MCCARTHY,(603) 755-2354,10/01/20,09/30/21,16,STRAFFORD
01607,Assist Living/Residential Care Facility,,PILLSBURY HOME,95 HIGH ST,MILFORD,NH,03055,GAIL MORRISON,(603) 672-1232,12/01/20,11/30/21,14,Belknap
02330,Assist Living/Residential Care Facility,,PINE VIEW HAVEN,85 FRANKLIN HIGHWAY,ANDOVER,NH,03216,JAMES DELANEY SR,(603) 735-5208,11/01/20,10/31/21,10,MERRIMACK
04346,Assist Living/Residential Care Facility,,POND VIEW ACRES,923 FRANKLIN PIERCE HWY,BARRINGTON,NH,03825,CASSIE J ROWLEY,(603) 664-9967,02/01/21,01/31/22,10,Strafford
03522,Assist Living/Residential Care Facility,,PRESIDENTIAL OAKS,200 PLEASANT STREET,CONCORD,NH,03301,SHARON J CARON,(603) 225-6644,06/01/21,05/31/22,103,MERRIMACK
03071,Assist Living/Residential Care Facility,,RED FARM HOUSE,24 WHITNEY ROAD,GREENFIELD,NH,03047,ASHLEY ROBINSON,(603) 547-2444,07/01/21,06/30/22,3,HILLSBOROUGH
04383,Assist Living/Residential Care Facility,,RESIDENTIAL FACILITY II,413 LAFAYETTE RD,PORTSMOUTH,NH,03801,JULIE BARRATT,(603) 828-4093,12/01/20,11/30/21,12,Rockingham
04244,Assist Living/Residential Care Facility,,"ROSEWOOD MANOR ASSISTED LIVING RESIDENCE, LLC",2 CHURCH ST,GONIC,NH,03839,RACHEL M SANCHEZ,(603) 355-3966,02/01/21,01/31/22,19,Strafford
01995,Assist Living/Residential Care Facility,,SARTWELL PLACE,6 TERRACE STREET,WHITEFIELD,NH,03598,ELIZABETH HAZARD,(603) 837-2541,12/01/20,11/30/21,24,COOS
04236,Assist Living/Residential Care Facility,,SILVER MAPLES RESIDENTIAL CARE,5 WINTER STREET,CLAREMONT,NH,03743,STAR EITAPENCE,(603) 543-3628,09/01/21,08/31/22,11,Sullivan
03787,Assist Living/Residential Care Facility,,STUDLEY HOME,34 EASTERN AVENUE,ROCHESTER,NH,03867,KATE BUCKOVITCH,(603) 332-1738,01/01/21,12/31/21,15,STRAFFORD
03874,Assist Living/Residential Care Facility,,SUMMERCREST,169 SUMMER STREET,NEWPORT,NH,03773,HAILEY WETHERBEE,(603) 863-8181,11/01/20,10/31/21,83,SULLIVAN
04004,Assist Living/Residential Care Facility,,SUNAPEE COVE ASSISTED LIVING,1250 ROUTE 11,Sunapee,NH,03782,CATHERINE A COURNOYER,(603) 763-0566,04/01/21,03/31/22,25,Sullivan
03969,Assist Living/Residential Care Facility,,THE CARRIAGE HOUSE OF NORTHFIELD,9 SUMMER STREET,NORTHFIELD,NH,03276,JODI L BLANCHARD,(603) 286-7890,10/01/20,09/30/21,35,BELKNAP
04130,Assist Living/Residential Care Facility,,THE INN AT EDGEWOOD,936 SOUTH ST,PORTSMOUTH,NH,03801,PATRICIA M RAMSEY,(603) 431-5327,03/01/21,02/28/22,16,Rockingham
03544,Assist Living/Residential Care Facility,,THE INN AT MEREDITH BAY,21 UPPER MILE POINT DRIVE,MEREDITH,NH,03253,JAMES MURRAY,(603) 279-1500,09/01/20,08/31/21,44,BELKNAP
04283,Assist Living/Residential Care Facility,,THE WELLSTONE HOUSE,125 LANGFORD ST,RAYMOND,NH,03077,AMELIA HAYES,(603) 895-9303,03/01/21,02/28/22,12,Rockingham
03998,Assist Living/Residential Care Facility,,TOBIAS HOUSE,75 BIRCH HILL ROAD,TEMPLE,NH,03084,BERTRAM VON ZABERN,(603) 878-9140,01/01/21,12/31/21,6,HILLSBOROUGH
02221,Assist Living/Residential Care Facility,,VILLAGER RETIREMENT HOME,50 N. MAST STREET,GOFFSTOWN,NH,03045,CHRISTOPHER KELLIHER,(603) 497-4225,12/01/20,11/30/21,16,HILLSBOROUGH
03084,Assist Living/Residential Care Facility,,"VINTAGE HILL, LLC",10 BERRY AVENUE,PITTSFIELD,NH,03263,MARILYN J ROBERTS,(603) 435-5133,08/01/20,07/31/21,10,MERRIMACK
02912,Assist Living/Residential Care Facility,,WASHINGTON MANOR,67 PROSPECT STREET,MANCHESTER,NH,03104,SUSAN VENTRESCA,(603) 668-9111,12/01/20,11/30/21,16,HILLSBOROUGH
04390,Assist Living/Residential Care Facility,,WAYNE'S PLACE,164 OLD SPRINGFIELD RD,Charlestown,NH,03603,ANN CAMPBELL,(603) 826-0840,01/01/21,12/31/21,11,Sullivan
04046,Assist Living/Residential Care Facility,,WESTBORO HOUSE,11 ELM ST WEST,WEST LEBANON,NH,03784,VINCENT JEWELL,(603) 298-8326,02/01/21,01/31/22,12,Grafton
04055,Birthing Center,,BIRTH COTTAGE OF MILFORD,4 PROSPECT STREET,MILFORD,NH,03055,"ADRIAN FELDHUSEN, NHCM",(603) 673-6010,07/01/20,06/30/21,2,Hillsborough
04393,Birthing Center,,"BIRTH COTTAGE OF SALEM, PLLC",141 MAIN ST UNIT 1,SALEM,NH,03079,ADRIAN FELDHUSEN,(603) 458-2955,02/01/21,01/31/22,2,Rockingham
03712,Birthing Center,,CONCORD BIRTH CENTER LLC,254 N STATE STREET UNIT D,CONCORD,NH,03301,"CYNTHIA OWEN, CPM, NHCM",(603) 228-8710,04/01/21,03/31/22,2,MERRIMACK
04478,Birthing Center,,GENTLE LANDING BIRTH CENTER,2 BUCK RD STE C-2,Hanover,NH,03755,"KATHERINE BRAMHALL, NHCM, LMVT",(802) 448-6940,01/20/21,12/31/21,,Grafton
03344,Birthing Center,,"MONADNOCK BIRTH CENTER, LLC",907 ROUTE 10,West Swanzey,NH,03446,"MARY LAWLOR, CPM, NHCM",(603) 352-5860,03/01/21,02/28/22,2,Cheshire
03055,Case Management Agency,,BRAIN INJURY ASSOCIATION OF NH,52 PLEASANT ST,CONCORD,NH,03301,STEVEN WADE,(603) 225-8400,04/01/21,03/31/22,,Belknap
03759,Case Management Agency,,COMMUNITY CROSSROADS,8 COMMERCE DRIVE STE 801,ATKINSON,NH,03811,DENNIS POWERS,(603) 893-1299,11/01/21,10/31/22,,ROCKINGHAM
04299,Case Management Agency,,COMMUNITY PARTNERS,25 OLD DOVER RD,ROCHESTER,NH,03867,"BRIAN COLLINS, DO",(603) 516-9300,10/01/21,09/30/22,,Strafford
03262,Case Management Agency,,CROTCHED MOUNTAIN COMMUNITY CARE,"186 GRANITE ST, STE 3-C",MANCHESTER,NH,03101,KARA NICKULAS,(603) 668-7584,05/01/21,04/30/22,,Hillsborough
02806,Case Management Agency,,GATEWAYS CASE MANAGEMENT SERVICES,144 CANAL STREET,NASHUA,NH,03064,LAVONNE COLON,(603) 882-6333,05/01/21,04/30/22,,HILLSBOROUGH
03221,Case Management Agency,,GRANITE CASE MANAGEMENT LLC,288 BAPTIST HILL RD,CANTERBURY,NH,03224,KERRY PFRIMMER,(603) 856-3120,12/01/20,11/30/21,,Merrimack
02304,Case Management Agency,,LIFE COPING INC,159 MAIN DUNSTABLE RD STE 207,NASHUA,NH,03060,"ELLEN CURELOP, RN",(603) 888-3588,11/01/20,10/31/21,,Belknap
02867,Case Management Agency,,MERRIMACK VALLEY ASSISTANCE PROGRAM,8 WALL STREET,CONCORD,NH,03301,DENISE SLEEPER,(603) 226-0607,04/01/21,03/31/22,,MERRIMACK
04311,Case Management Agency,,MONADNOCK COLLABORATIVE,105 CASTLE ST,KEENE,NH,03431,MARYANNE FERGUSON,(603) 352-7707,01/01/21,12/31/21,,Cheshire
04132,Collecting Station,,ALTON FAMILY MEDICINE,27 NEW DURHAM RD,ALTON,NH,03809,KELLY QUINN-HALL,(603) 875-6151,01/01/21,12/31/21,,Belknap
03559,Collecting Station,,CH CS @ EPSOM MEDICAL OFFICE BUILDING,1990 DOVER ROAD,EPSOM,NH,03234,"DEBRA WILLEY, MBA, NT(ASCP)",(603) 736-6235,12/01/20,11/30/21,,MERRIMACK
03925,Collecting Station,,CH LAB CS @ PENACOOK FAMILY PHYSICIANS,4 CRESCENT STREET,PENACOOK,NH,03303,"DEBRA WILLEY, MT (ASCP)",(603) 565-1095,04/01/21,03/31/22,,MERRIMACK
02827,Collecting Station,,CHESHIRE MEDICAL CENTER CS,17 NINETY-THIRD STREET,KEENE,NH,03431,TRACY BEAM,(603) 354-5400,09/01/21,08/31/22,,CHESHIRE
04362,Collecting Station,,CLAREMONT NH PSC,214 WASHINGTON ST,CLAREMONT,NH,03743,MADELINE CAPANO,(603) 504-3750,09/01/21,08/31/22,,Sullivan
03558,Collecting Station,,CMC LAB COLLECTION STATION @ BEDFORD,188 ROUTE 101,BEDFORD,NH,03110,RENEE JACKSON,(603) 663-6437,12/01/20,11/30/21,,HILLSBOROUGH
03350,Collecting Station,,CMC LAB CS @ FAM PHYS OF MANCHESTER,57 WEBSTER STREET,MANCHESTER,NH,03104,RENEE JACKSON,(603) 663-8013,03/01/21,02/28/22,,HILLSBOROUGH
03337,Collecting Station,,CMC LAB CS @ NOTRE DAME MEDICAL PAVILION,87 MCGREGOR STREET,MANCHESTER,NH,03102,RENEE JACKSON,(603) 663-8013,02/01/21,01/31/22,,HILLSBOROUGH
03285,Collecting Station,,CMC LAB CS @ QUEEN CITY MEDICAL ASSOC.,775 SOUTH MAIN STREET,MANCHESTER,NH,03102,RENEE JACKSON,(603) 663-8013,07/01/21,06/30/22,,HILLSBOROUGH
03633,Collecting Station,,CMC LAB CS@GOFFSTOWN PRIMARY CARE,17A TATRO DRIVE,GOFFSTOWN,NH,03045,RENEE JACKSON,(603) 625-0375,07/01/21,06/30/22,,HILLSBOROUGH
04031,Collecting Station,,CMC LAB CS@HOOKSETT MEDICAL PARK,27 LONDONDERRY TURNPIKE,HOOKSETT,NH,03106,RENEE JACKSON,(603) 314-5990,09/01/21,08/31/22,,Merrimack
03566,Collecting Station,,CONCENTRA URGENT CARE CS - CONCORD,1 PILLSBURY STREET,CONCORD,NH,03301,CHRISTINE BENSON,(603) 223-2300,02/01/21,01/31/22,,MERRIMACK
03568,Collecting Station,,CONCENTRA URGENT CARE-CS NASHUA,14A BROAD ST,NASHUA,NH,03064,SHEILA MORIN,(603) 889-2354,02/01/21,01/31/22,,HILLSBOROUGH
03885,Collecting Station,,CONCENTRA URGENT CARE-MANCHESTER CS,1279 SOUTH WILLOW STREET,MANCHESTER,NH,03103,MEGAN COMEAU,(603) 644-3330,12/01/20,11/30/21,,HILLSBOROUGH
03028,Collecting Station,,CONCORD HOS CS @ HORSESHOE POND,60 COMMERCIAL ST,CONCORD,NH,03301,DEBRA WILLEY,(603) 230-1200,11/01/20,10/31/21,,MERRIMACK
02589,Collecting Station,,CONCORD HOSP COLL STATION - MEMORIAL BLD,246 PLEASANT STREET,CONCORD,NH,03301,DEBRA WILLEY,(603) 227-7180,09/01/20,08/31/21,,MERRIMACK
03026,Collecting Station,,CONCORD HOSP CS AT HERITAGE HEIGHTS,149 EAST SIDE DRIVE,CONCORD,NH,03301,"DEBRA WILLEY, MT",(603) 225-6999,07/01/21,06/30/22,,MERRIMACK
03113,Collecting Station,,CONCORD HOSPITAL CS @ WARNER,2 EAST MAIN STREET,WARNER,NH,03278,DEBRA WILLEY,(603) 456-6106,01/01/21,12/31/21,,MERRIMACK
04515,Collecting Station,,CONCORD HOSPITAL LAB COLLECTION STATION @ RIVERBEND,10 WEST STREET,Concord,NH,03301,SHEILA MULLEN,(603) 225-0123,06/04/21,05/31/22,,Merrimack
04468,Collecting Station,,CONCORD HOSPITAL OCCUPATIONAL AND EMPLOYEE HEALTH,248 PLEASANT ST. STE 202,Concord,NH,03301,SHANEY BLAIS,(603) 230-1220,12/14/20,11/30/21,,Merrimack
04344,Collecting Station,,CONCORD METRO TREATMENT CENTER,100 HALL ST,CONCORD,NH,03301,SHARON DRAKE,(603) 229-4260,06/01/21,05/31/22,,Merrimack
04449,Collecting Station,,CRANMORE HEALTH PARTNERS,1875 WHITE MOUNTAIN HWY,North Conway,NH,03860,"SOHAIB SIDDIQUI, MD",(603) 730-5356,10/01/21,09/30/22,,Carroll
03589,Collecting Station,,DARTMOUTH-HITCHCOCK BEDFORD CS,25 SOUTH RIVER ROAD,BEDFORD,NH,03110,DAVEY PILCHER,(603) 695-2580,04/01/21,03/31/22,,HILLSBOROUGH
03881,Collecting Station,,DARTMOUTH-HITCHCOCK HEATER ROAD,18 OLD ETNA ROAD,LEBANON,NH,03766,MICHAEL T HARHEN,(603) 650-4025,11/01/20,10/31/21,,GRAFTON
03736,Collecting Station,,DARTMOUTH-HITCHCOCK HUDSON CS,208 ROBINSON ROAD,HUDSON,NH,03051,DAVEY PILCHER,(603) 577-3410,07/01/21,06/30/22,,HILLSBOROUGH
03586,Collecting Station,,DARTMOUTH-HITCHCOCK MERRIMACK CS,294 DANIEL WEBSTER HIGHWAY,MERRIMACK,NH,03054,DAVEY PILCHER,(603) 440-7808,04/01/21,03/31/22,,HILLSBOROUGH
03587,Collecting Station,,DARTMOUTH-HITCHCOCK MILFORD CS,14 ARMORY ROAD,MILFORD,NH,03055,DAVEY PILCHER,(603) 673-2515,04/01/21,03/31/22,,HILLSBOROUGH
04105,Collecting Station,,DARTMOUTH-HITCHCOCK WASHINGTON PLACE COLLECTING STATION,5 WASHINGTON PLACE,BEDFORD,NH,03110,DAVEY PILCHER,(603) 695-2900,09/01/21,08/31/22,,Hillsborough
03690,Collecting Station,,ELLIOT COLLECTION STATION @ 185 QUEEN CITY,185 QUEEN CITY AVENUE,MANCHESTER,NH,03101,ALEXANDRA MOREAU,(603) 663-2557,03/01/21,02/28/22,,HILLSBOROUGH
03747,Collecting Station,,ELLIOT COLLECTION STATION @ 190 TARRYTOWN RD,190 TARRYTOWN ROAD,MANCHESTER,NH,03103,ALEXANDRA MOREAU,(603) 663-2557,08/01/21,07/31/22,,HILLSBOROUGH
03525,Collecting Station,,ELLIOT COLLECTION STATION @ 20 CHAMBERS RD,20 CHAMBERS ROAD,HOOKSETT,NH,03106,ALEXANDRA MOREAU,(603) 663-2557,06/01/21,05/31/22,,MERRIMACK
04321,Collecting Station,,ELLIOT COLLECTION STATION @ 25 LEAVY DRIVE,25 LEAVY DRIVE,BEDFORD,NH,03110,ALEXANDRA MOREAU,(603) 663-2557,03/01/21,02/28/22,,Hillsborough
04189,Collecting Station,,ELLIOT LAB @ NORTHEAST REHAB HOSPITAL-SALEM,70 BUTLER ST,SALEM,NH,03079,ALEXANDRA MOREAU,(603) 663-2557,11/01/21,10/31/22,,Rockingham
02945,Collecting Station,,EXETER HOSPITAL-COLLECTING STATION,5 ALUMNI DRIVE,EXETER,NH,03833,ELLEN M SIMMS,(603) 580-7085,05/01/21,04/30/22,,ROCKINGHAM
04403,Collecting Station,,GRANITE STATE LAB,"120 WASHINGTON ST, STE 103",ROCHESTER,NH,03839,BRENDA NILAND,(603) 330-7057,03/01/21,02/28/22,,Strafford
04338,Collecting Station,,KEENE METRO TREATMENT CENTER,1076 WEST SWANZEY RD,SWANZEY,NH,03446,CARLA J EMERY,(603) 358-0500,05/01/21,04/30/22,,Cheshire
04381,Collecting Station,,KING HEALTHCARE DBA INTEGRATE,26 EAST PEARL STREET,NASHUA,NH,03060,NICOLE WHITE,(781) 771-8199,12/01/20,11/30/21,,Hillsborough
04395,Collecting Station,,LABCORP DMC,15 TSIENNETO RD,DERRY,NH,03038,LAURA DUNN,(603) 845-5093,02/01/21,01/31/22,,Rockingham
03156,Collecting Station,,LABCORP/BEDFORD COMMONS PSC,101 RIVERWAY PLACE,BEDFORD,NH,03110,LAURA DUNN,(603) 622-2357,06/01/21,05/31/22,,HILLSBOROUGH
04177,Collecting Station,,LABCORP/CENTRAL COMMONS,750 CENTRAL AVE,DOVER,NH,03820,LAURA DUNN,(603) 749-4444,08/01/21,07/31/22,,Belknap
03142,Collecting Station,,LABCORP/EXETER PCS-HAMPTON RD,19 HAMPTON ROAD #13,EXETER,NH,03833,LAURA DUNN,(603) 772-9603,04/01/21,03/31/22,,ROCKINGHAM
03642,Collecting Station,,LABCORP/GREENLAND RD PSC,875 GREENLAND ROAD,PORTSMOUTH,NH,03801,LAURA DUNN,(603) 436-1760,09/01/21,08/31/22,,ROCKINGHAM
03148,Collecting Station,,LABCORP/LAFAYETTE PROF. PARK,230 LAFAYETTE ROAD BLDG. D,PORTSMOUTH,NH,03801,LAURA DUNN,(603) 436-5311,06/01/21,05/31/22,,ROCKINGHAM
03140,Collecting Station,,LABCORP/ROCHESTER PSC,40 WINTER STREET STE 200,ROCHESTER,NH,03867,LAURA DUNN,(603) 332-6181,05/01/21,04/30/22,,STRAFFORD
03971,Collecting Station,,LABCORP-GREENHOUSE NATUROPATHIC,109 PONEMAH ROAD,AMHERST,NH,03031,LAURA DUNN,(603) 430-4143,10/01/21,09/30/22,,Belknap
03757,Collecting Station,,LABCORP-PELHAM RD,25 PELHAM ROAD 103A,SALEM,NH,03079,LAURA DUNN,(603) 890-3708,11/01/21,10/31/22,,ROCKINGHAM
03967,Collecting Station,,LABCORP-SOMERSWORTH,21 CLARK WAY,SOMERSWORTH,NH,03878,LAURA DUNN,(603) 841-2588,09/01/21,08/31/22,,STRAFFORD
03873,Collecting Station,,LABCORP-WINDHAM PSC,49 RANGE ROAD SUITE 101,WINDHAM,NH,03087,LAURA DUNN,(603) 681-9194,10/01/21,09/30/22,,ROCKINGHAM
04340,Collecting Station,,LANDMARK LABCORP,50 NASHUA RD #301,LONDONDERRY,NH,03053,LAURA DUNN,(603) 828-3666,06/01/21,05/31/22,,Rockingham
04329,Collecting Station,,LOWELL GENERAL PELHAM PATIENT SERVICE CENTER,49 ATWOOD RD STE 2,PELHAM,NH,03076,AMY HOEY,(978) 323-7051,04/01/21,03/31/22,,Hillsborough
03216,Collecting Station,,MANCHESTER HEALTH DEPARTMENT CS,1528 ELM STREET,MANCHESTER,NH,03101,"ANNA THOMAS, MPH",(603) 624-6466,12/01/20,11/30/21,,HILLSBOROUGH
04330,Collecting Station,,MANCHESTER METRO TREATMENT CENTER,228 MAPLE ST,MANCHESTER,NH,03103,KATHLEEN M CHOQUETTE,(603) 622-5005,04/01/21,03/31/22,,Hillsborough
03517,Collecting Station,,MOULTONBORO FAMILY MEDICINE,984 WHITTIER HIGHWAY,MOULTONBOROUGH,NH,03254,KELLY QUINN-HALL,(603) 476-2216,05/01/21,04/30/22,,CARROLL
04336,Collecting Station,,NEW SEASONS FRANKLIN,880 CENTRAL ST STE 10,Franklin,NH,03235,LADD RAINE,(603) 671-7065,05/01/21,04/30/22,,Merrimack
02929,Collecting Station,,NEWPORT HEALTH CENTER,11 JOHN STARK HIGHWAY,NEWPORT,NH,03773,CLOIE BRIDGEO,(603) 863-4100,03/01/21,02/28/22,,SULLIVAN
02469,Collecting Station,,NUTFIELD COLLECTION STATION,44 BIRCH STREET STE 300,DERRY,NH,03038,JANA PETERSON,(603) 421-2266,05/01/21,04/30/22,,ROCKINGHAM
03513,Collecting Station,,OSSIPEE FAMILY MEDICINE,3 WATER VILLAGE ROAD,OSSIPEE,NH,03864,KELLY QUINN-HALL,(603) 539-6996,05/01/21,04/30/22,,CARROLL
04097,Collecting Station,,PRH PATIENT SERVICE CENTER-PEASE,25 NEW HAMPSHIRE AVE STE 105,PORTSMOUTH,NH,03801,ALYSSA M CRAFTS,(603) 570-3130,06/01/21,05/31/22,,Rockingham
03239,Collecting Station,,PRH-PATIENT SERVICE CENTER,330 BORTHWICK AVENUE SUITE 112,PORTSMOUTH,NH,03801,ALYSSA M CRAFTS,(603) 433-1331,03/01/21,02/28/22,,ROCKINGHAM
03646,Collecting Station,,PRH-PATIENT SERVICE CENTER GRIFFIN RD,155 GRIFFIN ROAD,PORTSMOUTH,NH,03801,ALYSSA M CRAFTS,(603) 610-8825,10/01/20,09/30/21,,ROCKINGHAM
03283,Collecting Station,,PRH-PATIENT SERVICES CENTER,55 HIGH STREET - SUITE 104,HAMPTON,NH,03842,ALYSSA M CRAFTS,(603) 433-5282,07/01/21,06/30/22,,ROCKINGHAM
04334,Collecting Station,,QUEST - GOODWIN,311 NH-108,SOMERSWORTH,NH,03878,KATHLEEN WALSH,(603) 327-9217,05/01/21,04/30/22,,Strafford
03035,Collecting Station,,QUEST DIAGNOSTICS,195 MCGREGOR ST,MANCHESTER,NH,03102,SARAH M RONDEAU,(772) 494-3973,11/01/21,10/31/22,,HILLSBOROUGH
04225,Collecting Station,,QUEST DIAGNOSTICS,160 SOUTH RIVER RD,BEDFORD,NH,03110,MADELINE CAPANO,(774) 369-3900,08/01/21,07/31/22,,Hillsborough
02817,Collecting Station,,QUEST DIAGNOSTICS,160 SOUTH RIVER ROAD SUITE 100,BEDFORD,NH,03110,MADELINE E CAPANO,(603) 641-2613,06/01/21,05/31/22,,HILLSBOROUGH
03052,Collecting Station,,QUEST DIAGNOSTICS,200 GRIFFIN RD UNIT 12,PORTSMOUTH,NH,03801,KATHLEEN WALSH,(603) 327-9217,04/01/21,03/31/22,,ROCKINGHAM
03083,Collecting Station,,QUEST DIAGNOSTICS,128 STATE STREET ROUTE 27,RAYMOND,NH,03077,SARAH M RONDEAU,(603) 244-7365,08/01/21,07/31/22,,ROCKINGHAM
04337,Collecting Station,,QUEST DIAGNOSTICS AT CLEARCHOICE MD LEBANON,410 MIRACLE MILE,Lebanon,NH,03766,MADELINE CAPANO,(603) 443-9916,05/01/21,04/30/22,,Grafton
03214,Collecting Station,,QUEST DIAGNOSTICS-300 MAIN STREET,300 MAIN STREET,NASHUA,NH,03060,MADELINE E CAPANO,(603) 578-0323,12/01/20,11/30/21,,HILLSBOROUGH
04072,Collecting Station,,QUEST DIAGNOSTICS-AMHERST,282 STATE RTE 101,AMHERST,NH,03031,MADELINE CAPANO,(603) 249-5306,02/01/21,01/31/22,,Hillsborough
04026,Collecting Station,,QUEST DIAGNOSTICS-ATKINSON,58 ISLAND POND RD,ATKINSON,NH,03811,KATHLEEN WALSH,(603) 327-9217,08/01/21,07/31/22,,Rockingham
03458,Collecting Station,,QUEST DIAGNOSTICS-BEDFORD,169 S RIVER RD,BEDFORD,NH,03110,SARAH M RONDEAU,(781) 942-7000,11/01/20,10/31/21,,HILLSBOROUGH
04025,Collecting Station,,QUEST DIAGNOSTICS-CENTRAL AVE,770 CENTRAL AVE,DOVER,NH,03820,KATHLEEN WALSH,(603) 327-9217,08/01/21,07/31/22,,Strafford
04186,Collecting Station,,QUEST DIAGNOSTICS-CLARK WY,5 CLARK WY,SOMERSWORTH,NH,03878,MADELINE CAPANO,(774) 369-3900,11/01/20,10/31/21,,Strafford
04074,Collecting Station,,QUEST DIAGNOSTICS-CONCORD,10 FERRY ST,CONCORD,NH,03301,MADELINE CAPANO,(603) 715-5910,02/01/21,01/31/22,,Merrimack
03132,Collecting Station,,QUEST DIAGNOSTICS-DERRY,6 TSIENNETO ROAD,DERRY,NH,03038,KATHLEEN M. WALSH,(603) 434-2741,05/01/21,04/30/22,,ROCKINGHAM
04169,Collecting Station,,QUEST DIAGNOSTICS-FAMILY FIRST,100 CAMPUS DR #12,PORTSMOUTH,NH,03801,KATHLEEN WALSH,(603) 627-9217,08/01/21,07/31/22,,Rockingham
03671,Collecting Station,,QUEST DIAGNOSTICS-GILFORD,14 COUNTRY CLUB ROAD,GILFORD,NH,03249,MADELINE E CAPANO,(603) 524-5946,01/01/21,12/31/21,,BELKNAP
03994,Collecting Station,,QUEST DIAGNOSTICS-KEEYWAYDIN DR,22 KEEWAYDIN DR,Salem,NH,03079,SARAH M RONDEAU,(603) 685-6977,01/01/21,12/31/21,,Rockingham
02730,Collecting Station,,QUEST DIAGNOSTICS-LONDONDERRY,6 BUTTERICK ROAD -  SUITE 302,LONDONDERRY,NH,03053,KATHLEEN M WALSH,(603) 327-9217,02/01/21,01/31/22,,ROCKINGHAM
03130,Collecting Station,,QUEST DIAGNOSTICS-NEWMARKET,207 SOUTH MAIN ST,NEWMARKET,NH,03857,SARAH M RONDEAU,(603) 659-0295,04/01/21,03/31/22,,ROCKINGHAM
03480,Collecting Station,,QUEST DIAGNOSTICS-ORCHARD PARK,875 GREENLAND RD,PORTSMOUTH,NH,03801,KATHLEEN WALSH,(603) 327-9217,01/01/21,12/31/21,,ROCKINGHAM
03131,Collecting Station,,QUEST DIAGNOSTICS-PLEASANT ST. CONCORD,280 PLEASANT STREET #1,CONCORD,NH,03301,MADELINE E CAPANO,(603) 223-0307,01/01/21,12/31/21,,Belknap
03756,Collecting Station,,QUEST DIAGNOSTICS-PROSPECT ST,22 PROSPECT STREET,NASHUA,NH,03060,MADELINE E CAPANO,(603) 579-4789,11/01/20,10/31/21,,HILLSBOROUGH
03737,Collecting Station,,QUEST DIAGNOSTICS-RIVERWAY PLACE,201 RIVERWAY PLACE,BEDFORD,NH,03110,MADELINE E CAPANO,(603) 624-8759,07/01/20,06/30/21,,HILLSBOROUGH
04289,Collecting Station,,QUEST DIAGNOSTICS-SALEM NH PSC,8 STILES RD UNIT 111,SALEM,NH,03079,SARAH M RONDEAU,(603) 890-6053,10/01/20,09/30/21,,Rockingham
03995,Collecting Station,,QUEST DIAGNOSTICS-STILES RD,23 STILES RD STE 213,SALEM,NH,03079,SARAH M RONDEAU,(774) 436-9390,01/01/21,12/31/21,,Rockingham
03762,Collecting Station,,QUEST DIAGNOSTICS-TSIENNETO RD,14 TSIENNETO RD #201,DERRY,NH,03038,KATHLEEN M WALSH,(603) 327-9217,12/01/20,11/30/21,,ROCKINGHAM
04024,Collecting Station,,QUEST DIAGNOSTICS-WEST ST,391 WEST ST,KEENE,NH,03431,MADELINE CAPANO,(603) 352-6631,08/01/21,07/31/22,,Cheshire
04476,Collecting Station,,SACO RIVER MEDICAL GROUP,7 GREENWOOD AVE,Conway,NH,03818,MADELINE CAPANO,(603) 447-3500,01/12/21,12/31/21,,Carroll
04412,Collecting Station,,SJH LAB DRAWING STATION-SOUTH NASHUA,173 DANIEL WEBSTER HWY,Nashua,NH,03060,JEANNE WILSON,(603) 891-4483,03/01/21,02/28/22,,Hillsborough
03260,Collecting Station,,SNH MEDICAL CENTER - DERRY RD,300 DERRY ROAD,HUDSON,NH,03051,ALEXANDRA MOREAU,(603) 577-2000,05/01/21,04/30/22,,HILLSBOROUGH
03891,Collecting Station,,SNHMC - PROSPECT ST,17 PROSPECT STREET,NASHUA,NH,03060,ALEXANDRA MOREAU,(603) 577-2000,12/01/20,11/30/21,,HILLSBOROUGH
03213,Collecting Station,,SNHMC-280 MAIN ST 1ST FLOOR,280 MAIN STREET 1ST FLOOR,NASHUA,NH,03060,ALEXANDRA MOREAU,(603) 577-2000,12/01/20,11/30/21,,HILLSBOROUGH
03645,Collecting Station,,SNHMC-JONES RD,10 JONES ROAD,MILFORD,NH,03055,ALEXANDRA MOREAU,(603) 577-2000,10/01/21,09/30/22,,HILLSBOROUGH
04040,Collecting Station,,SNHMC-MAIN ST,280 MAIN ST STE 321,NASHUA,NH,03061,ALEXANDRA MOREAU,(603) 577-2000,10/01/21,09/30/22,,Hillsborough
03849,Collecting Station,,SO NH MEDICAL CENTER CS - PELHAM,33 WINDHAM ROAD,PELHAM,NH,03079,ALEXANDRA T MOREAU,(603) 577-2000,07/01/21,06/30/22,,Rockingham
03952,Collecting Station,,SO NH MEDICAL CENTER-SPIT BROOK RD,112 SPIT BROOK ROAD,NASHUA,NH,03062,ALEXANDRA T MOREAU,(603) 577-2000,07/01/21,06/30/22,,HILLSBOROUGH
02681,Collecting Station,,SOUTHERN NEW HAMPSHIRE MEDICAL CENTER,10 PROSPECT ST,NASHUA,NH,03060,ALEXANDRA MOREAU,(603) 577-2000,08/01/21,07/31/22,,HILLSBOROUGH
03483,Collecting Station,,SOUTHERN NH MEDICAL CENTER - DW HIGHWAY,696 D W HIGHWAY,Merrimack,NH,03054,ALEXANDRA MOREAU,(603) 577-2000,02/01/21,01/31/22,,Hillsborough
04121,Collecting Station,,SOUTHERN NH MEDICAL CENTER -LIMBO LN,8 LIMBO LANE,AMHERST,NH,03031,ALEXANDRA MOREAU,(603) 577-2000,11/01/21,10/31/22,,Hillsborough
03091,Collecting Station,,SOUTHERN NH MEDICAL CENTER-NW BLVD,29 NORTHWEST BLVD,NASHUA,NH,03063,ALEXANDRA MOREAU,(603) 577-2000,11/01/21,10/31/22,,HILLSBOROUGH
03107,Collecting Station,,ST JOSEPH HOSPITAL AMHERST STREET LAB DRAWING STATION,460 AMHERST STREET,NASHUA,NH,03063,JEANNE WILSON,(603) 595-3624,01/01/21,12/31/21,,Hillsborough
03571,Collecting Station,,ST JOSEPH HOSPITAL HUDSON LAB DRAWING STATION,208 ROBINSON ROAD,HUDSON,NH,03051,JEANNE WILSON,(603) 598-2437,02/01/21,01/31/22,,HILLSBOROUGH
03988,Collecting Station,,ST JOSEPH HOSPITAL MILFORD LAB DRAWING STATION,442 NASHUA ST,MILFORD,NH,03055,JEANNE WILSON,(603) 673-5625,12/01/20,11/30/21,,Hillsborough
03514,Collecting Station,,TAMWORTH FAMILY MEDICINE,577 WHITE MOUNTAIN HWY,TAMWORTH,NH,03886,KELLY QUINN-HALL,(603) 323-3311,05/01/21,04/30/22,,CARROLL
04122,Collecting Station,,THE CENTER FOR ORTHOPEDICS AND MOVEMENT COLLECTING STATION,7 ALUMNI DR,EXETER,NH,03833,CANDICE GARDNER,(603) 580-8446,12/01/20,11/30/21,,Rockingham
03508,Collecting Station,,THE WD PROFESSIONAL CNTR @ DOVER CS,10 MEMBERS WAY,DOVER,NH,03820,"SRINIVAS MAGANTI, PhD",(603) 742-1123,05/01/21,04/30/22,,STRAFFORD
04388,Collecting Station,,WENTWORTH-DOUGLASS HOSPITAL LABORATORY SERVICES,67 CORPORATE DR,Portsmouth,NH,03801,"SRINIVAS MAGANTI, PhD",(603) 868-8568,01/01/21,12/31/21,,Rockingham
04399,Collecting Station,,WHITE MOUNTAIN MEDICAL CENTER,2531 WHITE MOUNTAIN HIGHWAY,SANBORNVILLE,NH,03872,BRENDA NILAND,(603) 522-0186,03/01/21,02/28/22,,Carroll
04006,Community Residence (4+ beds),,128 B PASSACONAWAY RD,128 B PASSACONAWAY RD,Conway,NH,03818,WENDY OSTER,(603) 447-1973,04/01/21,03/31/22,6,Carroll
03937,Community Residence (4+ beds),,128 PASSACONAWAY RD,128 PASSACONAWAY RD,North Conway,NH,03860,WENDY OSTER,(603) 356-0282,09/01/20,08/31/21,6,Carroll
00705,Community Residence (4+ beds),,AMOSKEAG RESIDENCE,34 BROWN AVENUE,MANCHESTER,NH,03101,CARLY K PEICOTT,(603) 628-7745,09/01/20,08/31/21,12,HILLSBOROUGH
02911,Community Residence (4+ beds),,ARBOR VIEW INN,163 SUMMER STREET,NEWPORT,NH,03773,JOLENE LONGTIN,(603) 863-1785,08/01/20,07/31/21,16,SULLIVAN
04417,Community Residence (4+ beds),,BARRINGTON RESIDENCE,909 STRAFFORD RD,Barrington,NH,03825,FREDDI GALE,(603) 335-8696,04/20/20,03/31/21,6,Strafford
03783,Community Residence (4+ beds),,BAYBERRY HOUSE,5 HOWARD ROAD,CONCORD,NH,03301,PAUL DANN,(603) 746-7550,07/01/21,06/30/22,6,MERRIMACK
03786,Community Residence (4+ beds),,BRICK HOUSE,91 PLEASANT STREET,CONCORD,NH,03301,PAUL DANN,(603) 746-7550,07/01/21,06/30/22,7,MERRIMACK
02439,Community Residence (4+ beds),,COLUMBIA HOUSE,18 STODDARD ROAD,Columbia,NH,03576,ELIZABETH CHARLES,(603) 237-8537,02/01/21,01/31/22,6,Coos
04444,Community Residence (4+ beds),,DEER RIDGE,87 HORNE RD,Belmont,NH,03220,CRYSTAL CAMERON,(603) 573-6387,09/17/20,08/31/21,16,Belknap
01764,Community Residence (4+ beds),,EMERALD HOUSE,32 EMERALD STREET,KEENE,NH,03431,RAYMOND LAGASSE,(603) 352-6649,05/01/21,04/30/22,10,CHESHIRE
03486,Community Residence (4+ beds),,FAIRVIEW RESIDENCE,16 FAIRVIEW STREET,LACONIA,NH,03246,HOLLY STYLES,(603) 527-1950,01/01/21,12/31/21,6,BELKNAP
01344,Community Residence (4+ beds),,FAIRWEATHER LODGE,463 BREAKFAST HILL RD,GREENLAND,NH,03840,GERALDINE COUTURE,(603) 431-2250,01/01/21,12/31/21,8,Belknap
00992,Community Residence (4+ beds),,FELLOWSHIP HOUSE,11 CHESLEY STREET,CONCORD,NH,03301,"HERBERT S CARPENTER, IV",(603) 225-0977,06/01/20,05/31/21,12,MERRIMACK
03960,Community Residence (4+ beds),,FRANKLIN FALLS FARM,348 VICTORY DRIVE,FRANKLIN,NH,03235,PRATAP THAPA,(603) 934-6700,12/01/19,11/30/20,6,MERRIMACK
01687,Community Residence (4+ beds),,GILPIN RESIDENCE,145 HIGH STREET,LITTLETON,NH,03561,AMY L FINKLE,(603) 444-3905,08/01/20,07/31/21,6,GRAFTON
03785,Community Residence (4+ beds),,GREY HOUSE,93 PLEASANT STREET,CONCORD,NH,03301,PAUL DANN,(603) 746-7550,07/01/21,06/30/22,8,MERRIMACK
02487,Community Residence (4+ beds),,HARBOR AVENUE RESIDENCE,62 HARBOR AVENUE,NASHUA,NH,03060,KIM SHOTTES,(603) 882-2042,07/01/21,06/30/22,5,HILLSBOROUGH
01464,Community Residence (4+ beds),,HARBOR HOMES III INC,156 CHESTNUT ST,NASHUA,NH,03060,PETER KELLEHER,(603) 882-2355,02/01/21,01/31/22,10,HILLSBOROUGH
00709,Community Residence (4+ beds),,HARBOR HOMES INC,3 WINTER STREET,NASHUA,NH,03060,PETER KELLEHER,(603) 595-8601,09/01/20,08/31/21,9,HILLSBOROUGH
03961,Community Residence (4+ beds),,HOPE AVE RESIDENCE,25 HOPE AVENUE,CONCORD,NH,03301,SADDICHCHHA SHAH,(603) 224-3562,08/01/20,07/31/21,6,MERRIMACK
00722,Community Residence (4+ beds),,HUDSON HOUSE,112 MUSQUASH RD,HUDSON,NH,03051,KIM B SHOTTES,(603) 889-0652,10/01/20,09/30/21,4,HILLSBOROUGH
04419,Community Residence (4+ beds),,IONA HOUSE,1172 GIBBONS HIGHWAY,Wilton,NH,03086,PAUL MARTIN,(603) 878-2325,10/01/20,05/31/21,6,Hillsborough
04460,Community Residence (4+ beds),,ISAAC HOUSE,997 ISAAC FRYE HWY,Wilton,NH,03086,RENE SULLIVAN,(603) 722-8428,03/01/21,10/31/21,4,Hillsborough
04392,Community Residence (4+ beds),,KACIE LANE,16 KACIE LANE,Danville,NH,03819,RACHEL SOUZA,(603) 382-0677,02/01/21,01/31/22,4,Rockingham
00801,Community Residence (4+ beds),,KEARSARGE COMMUNITY RESIDENCE,138 KEARSARGE RD,NORTH CONWAY,NH,03860,LEONARD JEWELL,(603) 356-2032,05/01/21,04/30/22,11,CARROLL
03280,Community Residence (4+ beds),,KEARSARGE ROAD (426),426 KEARSARGE ROAD,North Conway,NH,03860,WENDY OSTER,(603) 356-8514,09/01/20,08/31/21,4,Carroll
02761,Community Residence (4+ beds),,LACONIA DEVELOPMENTAL SERVICES/DRF,54 GREEN STREET,LACONIA,NH,03246,JOSHUA GEHLING,(603) 528-5986,06/01/20,05/31/21,6,BELKNAP
04052,Community Residence (4+ beds),,MAPLE LODGE,787 MAPLE ST,Bethlehem,NH,03574,PAUL DANN,(603) 869-0027,03/01/21,02/28/22,8,Grafton
04514,Community Residence (4+ beds),,MAURA COMMUNITY RESIDENCE,69 TAMWORTH ROAD,Tamworth,NH,03886,EDWARD MAURA,(603) 323-7107,06/01/21,11/30/21,4,Carroll
04231,Community Residence (4+ beds),,MOBILE CRISIS RESPONSE TEAM,293 WILSON ST,Manchester,NH,03103,JESSICA LACHANCE,(800) 688-3544,09/01/20,08/31/21,4,Hillsborough
03573,Community Residence (4+ beds),,NEURORESTORATIVE NEW HAMPSHIRE,6 KING ROAD,CHICHESTER,NH,03258,JANICE COMTOIS,(603) 798-3376,03/01/21,02/28/22,8,Merrimack
04039,Community Residence (4+ beds),,NEURORESTORATIVE NH NOTTINGHAM,98 NOTTINGHAM RD,DEERFIELD,NH,03037,JANICE COMTOIS,(603) 463-1053,10/01/20,09/30/21,6,Rockingham
04060,Community Residence (4+ beds),,NEURORESTORATIVE NH-FREEDOM HOUSE,269 VILLAGE RD,FREEDOM,NH,03836,CAROL RIVARD,(603) 539-1073,06/01/20,05/31/21,5,Carroll
04002,Community Residence (4+ beds),,NEURORESTORATIVE NH-HEMLOCK HILL,45 HEMLOCK HILL DR,Loudon,NH,03307,JANICE COMTOIS,(603) 961-0020,09/01/20,08/31/21,4,Merrimack
04061,Community Residence (4+ beds),,NEURORESTORATIVE NH-THOMPSON HOUSE,266 EATON RD,Freedom,NH,03836,CAROL RIVARD,(603) 539-2699,12/01/20,11/30/21,4,Carroll
04063,Community Residence (4+ beds),,NEURORESTORATIVE NH-WENTWORTH HOUSE,70 MOULTONVILLE RD,Center Ossipee,NH,03814,CHERI FISHER,(603) 539-9083,08/01/20,07/31/21,8,Carroll
04101,Community Residence (4+ beds),,NEXT STEPS COMMUNITY SERVICES LLC,2444 MAIN STREET,Bethlehem,NH,03574,LISA D'INNECENZO,(603) 530-2148,02/01/20,01/31/21,7,Grafton
04519,Community Residence (4+ beds),,NEXT STEPS COMMUNITY SERVICES LLC,4266 PROVINCE LAKE RD,East Wakefield,NH,03830,LISA D'INNOCENZO,(603) 871-8111,06/29/21,12/31/21,4,Carroll
02280,Community Residence (4+ beds),,ORFORD ROAD RESIDENCE,16 ORFORD ROAD,LYME,NH,03768,MARK MILLS,(603) 795-4893,01/01/21,12/31/21,10,GRAFTON
01674,Community Residence (4+ beds),,OSGOOD ROAD DUPLEX,482 OSGOOD ROAD,MILFORD,NH,03055,KIM SHOTTES,(603) 673-5829,05/01/21,04/30/22,4,HILLSBOROUGH
02937,Community Residence (4+ beds),,PEASLEE ROAD,26 PEASLEE ROAD,MERRIMACK,NH,03054,KIM SHOTTES,(603) 595-9760,04/01/21,03/31/22,4,HILLSBOROUGH
04520,Community Residence (4+ beds),,PILLAR HOUSE CRISIS APTS,40 PLEASANT ST,Concord,NH,03301,LISA K MADDEN,(603) 226-0817,06/01/21,05/31/22,4,Merrimack
03782,Community Residence (4+ beds),,POND PLACE EAST,125 PLEASANT STREET,CONCORD,NH,03301,PAUL DANN,(603) 746-7550,07/01/21,06/30/22,4,MERRIMACK
03781,Community Residence (4+ beds),,POND PLACE WEST,125 PLEASANT STREET,CONCORD,NH,03301,PAUL DANN,(603) 746-7550,06/01/21,05/31/22,6,MERRIMACK
04369,Community Residence (4+ beds),,STAGE COACH,52 LOOP RD,CONCORD,NH,03301,FAY E BLAKE,(603) 573-6387,11/01/20,12/31/21,8,Merrimack
04028,Community Residence (4+ beds),,START CENTER,46 CORN HILL RD,BOSCAWEN,NH,03303,MICHAEL M BLAU,(603) 225-4153,08/01/21,07/31/22,6,Merrimack
03865,Community Residence (4+ beds),,SWETT ST (20),20 SWETT ST,North Conway,NH,03860,WENDY OSTER,(603) 356-0282,05/01/20,04/30/21,4,Carroll
04382,Community Residence (4+ beds),,THE EQUESTRIAN,50 MANCHESTER DR,WEBSTER,NH,03303,FAY E BLAKE,(603) 573-6387,12/13/19,11/30/20,8,Merrimack
04324,Community Residence (4+ beds),,THS BRADFORD,2554 ROUTE 103 BLDG 2,Bradford,NH,03221,PAUL DANN,(603) 938-5014,03/01/21,02/28/22,4,Merrimack
04266,Community Residence (4+ beds),,TRANSITIONAL HOUSING SERVICES BRADFORD,2554 ROUTE 103,Bradford,NH,03221,PAUL DANN,(603) 938-5014,05/01/21,04/30/22,8,Merrimack
02222,Community Residence (4+ beds),,TWITCHELL HOUSE,111 PLEASANT STREET,CONCORD,NH,03301,LISA K MADDEN,(603) 226-7505,07/01/20,06/30/21,15,MERRIMACK
03369,Community Residence (4+ beds),,VERDUN STREET COMMUNITY RESIDENCE,85 VERDUN STREET,BERLIN,NH,03570,RICHARD LAFLAMME,(603) 752-2689,07/01/20,06/30/21,8,COOS
04240,Community Residence (4+ beds),,WOODRIDGE LN (14),14 WOODRIDGE LN,North Hampton,NH,03862,HEATHER STICE,(603) 379-2392,11/01/20,10/31/21,4,Rockingham
03784,Community Residence (4+ beds),,YELLOW HOUSE,89 PLEASANT STREET,CONCORD,NH,03301,PAUL DANN,(603) 746-7550,07/01/21,06/30/22,9,MERRIMACK
02033,Educational Health Center,,BAIRD HEALTH & COUNSELING CENTER,541 MAIN STREET,NEW LONDON,NH,03257,PAMELA A SPEAR,(603) 526-3621,03/01/21,02/28/22,,MERRIMACK
03164,Educational Health Center,,BREWSTER ACADEMY HEALTH CENTER,205 SOUTH MAIN STREET,WOLFEBORO,NH,03894,"CARRIE MACDONALD,BSN, RN",(603) 569-7121,06/01/21,05/31/22,6,CARROLL
00037,Educational Health Center,,CLARK HOUSE,325 PLEASANT STREET,CONCORD,NH,03301,JOHN BASSI,(603) 229-4850,01/01/21,12/31/21,14,MERRIMACK
00251,Educational Health Center,,DICK HALL'S HOUSE,5-7 ROPE FERRY ROAD,HANOVER,NH,03755,"MARK REED, MD",(603) 646-9423,01/01/21,12/31/21,10,GRAFTON
02003,Educational Health Center,,FRANKLIN PIERCE UNIVERSITY HEALTH SVCS,40 UNIVERSITY  DRIVE,RINDGE,NH,03461,ERICA PEERY,(603) 899-4132,01/01/21,12/31/21,,CHESHIRE
03242,Educational Health Center,,HAMILTON FAMILY FOUNDATION,19 CRAWFORD HINMAN WAY,CANAAN,NH,03741,"KAREN EWER-GRAY, RN",(603) 523-3520,03/01/21,02/28/22,4,GRAFTON
04466,Educational Health Center,,HIGH MOWING SCHOOL,222 ISAAC FRYE HWY,Wilton,NH,03086,WILLOW GRAHAM,(603) 654-9408,12/14/20,11/30/21,,Hillsborough
02983,Educational Health Center,,HOLDERNESS SCHOOL HEALTH CENTER,33 CHAPEL LANE,HOLDERNESS,NH,03245,KAREN D PENNY,(603) 779-5367,12/01/20,11/30/21,4,GRAFTON
00039,Educational Health Center,,LAMONT HEALTH AND WELLNESS CENTER,10 TAN LANE,EXETER,NH,03833,"NANCY THOMPSON, RN",(603) 777-3420,01/01/21,12/31/21,14,ROCKINGHAM
02832,Educational Health Center,,NEW ENGLAND COLLEGE,32 UNION STREET,HENNIKER,NH,03242,"LAURA ANDERSON, APRN",(603) 428-2253,09/01/21,08/31/22,,MERRIMACK
03870,Educational Health Center,,NEW HAMPTON SCHOOL STUDENT HEALTH CENTER,5 ACADEMIC DR,NEW HAMPTON,NH,03256,"CYNTHIA GLIDDEN, RN",(603) 677-3456,10/01/20,09/30/21,,BELKNAP
03165,Educational Health Center,,NHTI HEALTH & COUNSELING SERVICES,4 INSTITUTE DRIVE,CONCORD,NH,03301,"JANET ERCOLINI, RN",(603) 230-4043,06/01/21,05/31/22,,MERRIMACK
00365,Educational Health Center,,PROCTOR ACADEMY HEALTH CENTER,72 NORTH STREET,ANDOVER,NH,03216,"SUSAN NORRIS, RN",(603) 735-6737,01/01/21,12/31/21,5,MERRIMACK
03454,Educational Health Center,,QUIBIN STUDENT HEALTH SERVICES,420 MAIN STREET,NASHUA,NH,03060,PAULA RANDAZZA,(603) 897-8295,10/01/20,09/30/21,,HILLSBOROUGH
04300,Educational Health Center,,SABRA HAMILTON HEALTH CENTER,30 SCHOOL ST,TILTON,NH,03276,"BARBARA HANSON, RN",(603) 286-1760,10/01/20,09/30/21,4,Belknap
01616,Educational Health Center,,SAINT ANSELM COLLEGE-HEALTH SERVICE,100 ST ANSELM DRIVE,MANCHESTER,NH,03102,"MAURA MARSHALL, ARNP",(603) 641-7028,12/01/20,11/30/21,,HILLSBOROUGH
04405,Educational Health Center,,SHORTRIDGE ACADEMY LLC,619 GOVERNOR'S RD,Milton,NH,03851,MEGAN L GERBINO,(603) 775-3096,05/01/21,04/30/22,,Strafford
03639,Educational Health Center,,SNHU HEALTH SERVICES,2500 NORTH RIVER ROAD,MANCHESTER,NH,03106,FELIX F PIZZI,(603) 645-9679,09/01/21,08/31/22,,MERRIMACK
03403,Educational Health Center,,TRACY HEALTH CENTER,51 MAIN STREET,MERIDEN,NH,03770,"MELISSA UNDERHILL, RN",(603) 469-2055,04/01/21,03/31/22,4,SULLIVAN
03893,End-Stage Renal Dialysis,,BEDFORD DIALYSIS,15 CONSTITUTION DRIVE SUITE 1C,BEDFORD,NH,03110,SHANE T BOUCHER,(603) 471-1904,01/01/21,12/31/21,,HILLSBOROUGH
01641,End-Stage Renal Dialysis,,CENTRAL NEW HAMPSHIRE KIDNEY CENTER LLC,87 SPRING STREET,LACONIA,NH,03246,NEMAT EBEID-ISHAK,(603) 528-3738,03/01/21,02/28/22,,BELKNAP
03896,End-Stage Renal Dialysis,,COCHECO RIVER DIALYSIS CENTER,343 SIXTH STREET,DOVER,NH,03820,MELANIE E CLAPP,(603) 742-9765,01/01/21,12/31/21,,STRAFFORD
03580,End-Stage Renal Dialysis,,DERRY DIALYSIS,1 ACTION BLVD SUITE 2,LONDONDERRY,NH,03053,CHERYL BRUNDIGE,(603) 421-9724,02/01/21,01/31/22,,ROCKINGHAM
02748,End-Stage Renal Dialysis,,FMC DIALYSIS SERVICES EXETER,"1 HAMPTON ROAD, SUITE 109",EXETER,NH,03833,"MARY JOHNSON, RN",(603) 777-9931,06/01/21,05/31/22,,ROCKINGHAM
03540,End-Stage Renal Dialysis,,FMC STRAFFORD COUNTY,27 STERLING DRIVE,ROCHESTER,NH,03867,BEATA DERYNIOSKI,(603) 330-0483,09/01/20,08/31/21,,STRAFFORD
04242,End-Stage Renal Dialysis,,FRESENIUS KIDNEY CARE OF NASHUA,20 COTTON RD SUITE 101,NASHUA,NH,03063,"TIFFANY CALVINO, RN",(603) 577-4547,11/01/20,10/31/21,,Hillsborough
03328,End-Stage Renal Dialysis,,FRESENIUS MEDICAL CARE LEBANON,56 ETNA ROAD,LEBANON,NH,03766,DEBRA WINSLOW,(603) 448-5550,10/01/20,09/30/21,,Grafton
03089,End-Stage Renal Dialysis,,FRESENIUS MEDICAL CARE OF LANCASTER,173 MIDDLE STREET,LANCASTER,NH,03584,BEATA DERYNIOSKI,(603) 788-5222,08/01/21,07/31/22,,COOS
03510,End-Stage Renal Dialysis,,FRESENIUS MEDICAL CARE OF LONDONDERRY,1F COMMONS DRIVE,LONDONDERRY,NH,03053,RACHEL J MCMINIS,(603) 434-4517,05/01/21,04/30/22,,ROCKINGHAM
03902,End-Stage Renal Dialysis,,FRESENIUS MEDICAL CARE OF SOUTHERN NH,586 NASHUA STREET UNIT 20 B,MILFORD,NH,03055,ANGELA HOLT,(603) 672-6678,03/01/21,02/28/22,,HILLSBOROUGH
03987,End-Stage Renal Dialysis,,FRESENIUS MEDICAL CARE ROCKINGHAM COUNTY,19 KEEYWADIN DRIVE,SALEM,NH,03079,"CHERYL COTE, RN",(603) 870-0969,12/01/20,11/30/21,,Rockingham
04248,End-Stage Renal Dialysis,,MANCHESTER DIALYSIS,903 HANOVER ST,MANCHESTER,NH,03104,CHERYL L BRUNDIGE,(603) 621-4903,01/01/21,12/31/21,,Hillsborough
03875,End-Stage Renal Dialysis,,MANCHESTER KIDNEY CENTER,1750 ELM STREET,MANCHESTER,NH,03104,"ELISHA PERKINS, RN",(603) 647-4042,10/01/20,09/30/21,,HILLSBOROUGH
02619,End-Stage Renal Dialysis,,MONADNOCK DIALYSIS CENTER,426 B WINCHESTER STREET,KEENE,NH,03431,"SUZANNE BURBANK, RN",(603) 357-3600,06/01/21,05/31/22,,CHESHIRE
03862,End-Stage Renal Dialysis,,MT WASHINGTON VALLEY DIALYSIS CENTER,21 B POLIQUIN DRIVE,CONWAY,NH,03818,"KAREN COTE, RN",(603) 447-3976,09/01/21,08/31/22,,CARROLL
03097,End-Stage Renal Dialysis,,NASHUA DIALYSIS,"38 TYLER ST., SUITE 100",NASHUA,NH,03060,"JULIE PRATT, RN",(603) 598-1665,07/01/21,06/30/22,,HILLSBOROUGH
02414,End-Stage Renal Dialysis,,NEW HAMPSHIRE KIDNEY CENTER,248 PLEASANT STREET PILLSBURY BLDG,CONCORD,NH,03301,WEILLAH DE VERA,(603) 224-9996,11/01/20,10/31/21,,MERRIMACK
04023,End-Stage Renal Dialysis,,ROCKINGHAM COUNTY DIALYSIS,18 PELHAM RD STE 1,SALEM,NH,03079,DIANNA HOLM,(603) 870-9487,07/01/21,06/30/22,,Rockingham
03305,End-Stage Renal Dialysis,,SEACOAST DIALYSIS CENTER,155 BORTHWICK AVE. SUITE 100,PORTSMOUTH,NH,03801,VICKI R DODDS,(603) 436-4567,11/01/20,10/31/21,,ROCKINGHAM
04331,Freestanding Megavoltage Radiation Thera,,SEACOAST CANCER CENTER-PORTSMOUTH,121 CORPORATE DR STE 100,PORTSMOUTH,NH,03801,SUSAN GALLAGHER,(603) 742-8787,04/01/21,03/31/22,,Rockingham
02877,Home Care - Durable Medical,,HERRON AND SMITH,8 INDUSTRIAL PARK DRIVE #20,HOOKSETT,NH,03106,TAMME DUSTIN,(603) 627-8500,05/01/21,04/30/22,,MERRIMACK
02875,Home Care - Durable Medical,,HM MED EQUIP & INFUS SV OF MANCH & SO NH,1050 HOLT AVE UNIT 5,MANCHESTER,NH,31095608,STEVEN DEYOUNG,(603) 663-2728,03/01/21,02/28/22,,HILLSBOROUGH
02866,Home Care - Durable Medical,,"KEENE MEDICAL PRODUCTS, LLC",5 LANDING RD,ENFIELD,NH,03748,KEITH FILIAULT,(603) 448-5290,04/01/21,03/31/22,,Grafton
02997,Home Care - Durable Medical,,TECH MED INC,114 PERIMETER RD UNIT D,NASHUA,NH,03060,NANCY R CAPEN,(603) 595-8717,04/01/21,03/31/22,,HILLSBOROUGH
04304,Home Care Service Provider,,ABUNDANT BLESSINGS HOME CARE INC,22 COSMAR DR,SANBORNVILLE,NH,03872,SHELLEY JARL,(603) 473-2510,01/01/21,12/31/21,,Carroll
03938,Home Care Service Provider,,AGE AT HOME,24 HAMMOND ST,CONCORD,NH,03301,LAUREL M TRAHAN,(603) 224-6100,10/01/21,09/30/22,,MERRIMACK
04503,Home Care Service Provider,,AGING EXCELLENCE,949 WHITTIER HWY,Moultonborough,NH,03254,KATE ADAMS,(207) 329-9075,05/10/21,04/30/22,,Carroll
03948,Home Care Service Provider,,AGING EXCELLENCE,125 BREWERY LANE SUITE 8,PORTSMOUTH,NH,03801,BETHANY L LAWRENCE RN BSN CMC,(603) 294-0119,07/01/21,06/30/22,,ROCKINGHAM
04461,Home Care Service Provider,,ALLIED CAREGIVERS,15 CONSTITUTION DR,Bedford,NH,03110,TRAVIS L CRAM,(603) 477-4369,12/08/20,11/30/21,,Hillsborough
04303,Home Care Service Provider,,ALPHA HOME CARE SOLUTIONS INC,20 TECHNOLOGY WAY,NASHUA,NH,03060,GAHUNGU SIMON,(603) 943-7006,12/01/20,11/30/21,,Hillsborough
04496,Home Care Service Provider,,ARCADIA NEW ENGLAND,130 CENTRAL AVE STE 105,Dover,NH,03820,JEFF A HESS,(603) 842-5020,07/01/21,06/30/22,,Strafford
03066,Home Care Service Provider,,AREA HOME CARE AND FAMILY SERVICES,1320 WOODBURY AVE,PORTSMOUTH,NH,03801,JUDY TAYLOR,(603) 436-9059,01/01/21,12/31/21,,ROCKINGHAM
04181,Home Care Service Provider,,ARMISTEAD SENIOR CARE,127 MASCOMA ST STE 1,LEBANON,NH,03766,ANN M HOWARD,(603) 489-5682,08/01/21,07/31/22,,Grafton
03526,Home Care Service Provider,,ASCENTRIA IN-HOME CARE,261 SHEEP DAVIS ROAD,CONCORD,NH,03301,AMY MOORE,(603) 224-3010,06/01/21,05/31/22,,MERRIMACK
04418,Home Care Service Provider,,ATTENTIVE CARING AT HOME LLC,107 MAIN ST,HAMPSTEAD,NH,03841,JANET M GREELEY,(603) 770-7529,05/01/21,04/30/22,,Rockingham
04462,Home Care Service Provider,,BEDSIDE HOME CARE SERVICES LLC,7 ALLARD CT UNIT A,Hudson,NH,03051,KARINA SOZA,(774) 281-4253,12/10/20,11/30/21,,Hillsborough
04380,Home Care Service Provider,,BLOOM AND SHINE SERVICES,90 AIRPORT ROAD STE 27,CONCORD,NH,03301,SURAJ BUDATHOKI,(603) 262-0500,12/01/21,11/30/22,,Merrimack
04416,Home Care Service Provider,,BLUE SKY,1087 ELM ST,Manchester,NH,03101,PAULA RAYMOND-ROBINSON,(603) 371-0777,04/01/21,03/31/22,,Hillsborough
04319,Home Care Service Provider,,CARE HAVEN LLC,127 MAIN ST #14,NASHUA,NH,03060,SYLVIE WANJIRU,(603) 459-8932,02/01/21,01/31/22,,Hillsborough
04196,Home Care Service Provider,,CAREPOINT PLUS LLC,530 CHESTNUT ST #1B,MANCHESTER,NH,03101,BHOLA SUBEDI,(603) 647-1000,01/01/21,12/31/21,,Hillsborough
02993,Home Care Service Provider,,"CARING WITH A HEART, LLC",609 PORTSMOUTH AVE UNIT 12,Greenland,NH,03840,PAUL G DANIEL,(603) 571-7473,01/01/21,12/31/21,,Rockingham
04485,Home Care Service Provider,,CHRISTINA'S CAREGIVING & HOME HEALTH CARE LLC,502 US-4 STE 2,Enfield,NH,03748,CHRISTINA MOODIE,(603) 293-6260,02/12/21,01/31/22,,Grafton
03638,Home Care Service Provider,,COLONY HOME CARE,21 UPPER MILE POINT DR,MEREDITH,NH,03253,NAELLA MCLAUGLIN,(6032) 791-5000,09/01/21,08/31/22,,BELKNAP
03735,Home Care Service Provider,,COMFORT KEEPERS-KEENE,55 MAIN STREET STE B,KEENE,NH,03431,RENEE BOSLEY,(603) 352-2227,04/01/21,03/31/22,,CHESHIRE
04506,Home Care Service Provider,,COMFORTING HANDS CARE LLC,68 MAIN ST,Northwood,NH,03261,LAURA COSTELLO,(866) 488-0445,05/18/21,04/30/22,,Rockingham
04348,Home Care Service Provider,,COMMONWEALTH NURSING SERVICES,"847 ROGERS ST, STE 201",LOWELL,MA,01852,ANGELA CALLAHAN,(978) 459-7771,07/01/21,06/30/22,,Middlesex
04265,Home Care Service Provider,,"COMPANION CARE PARTNERS, LLC",727 LAFAYETTE RD STE 6,SEABROOK,NH,03874,JAMES GRANT,(215) 618-2324,05/01/21,04/30/22,,Rockingham
04505,Home Care Service Provider,,CONCORD COMPASSIONATE CARE,8 N MAIN ST STE 1C,Concord,NH,03301,BIRAM SAIDYBAH,(603) 785-6584,05/14/21,04/30/22,,Merrimack
03557,Home Care Service Provider,,CURTIS QUALITY CARE LLC,127 ROUTE 28 UNIT 11,Ossipee,NH,03864,HEATHER M TENNEY,(603) 569-2838,12/01/20,11/30/21,,Carroll
04420,Home Care Service Provider,,D & S ELDERSERVICES LLC,257 VALLEY RD,Walpole,NH,03608,DEBORAH MILLER,(603) 313-5691,05/01/21,04/30/22,,Cheshire
04420,Home Care Service Provider,,D & S ELDERSERVICES LLC,257 VALLEY RD,Walpole,NH,03608,SHERRI MCGUIRK,(603) 313-5691,05/01/21,04/30/22,,Cheshire
04042,Home Care Service Provider,,DAVIS CARE GROUP LLC,62 PORTSMOUTH AVE #4,STRATHAM,NH,38850000,DWIGHT DAVIS,(603) 583-4580,10/01/21,09/30/22,,Rockingham
04233,Home Care Service Provider,,ELLIE'S FAMILY HOME CARE LLC,595 NH ROUTE 10,ORFORD,NH,03777,ELON GRIFFITH,(603) 353-9200,09/01/20,08/31/21,,Belknap
04479,Home Care Service Provider,,EMINENCE HOME CARE LLC,15 CONSTITUTION DR,Bedford,NH,03110,CAROL SHAFIR,(603) 635-4444,01/22/21,12/31/21,,Hillsborough
04518,Home Care Service Provider,,FCP LIVE-IN LLC,2573 MAIN STREET,Stratford,CT,06615,DAVID ANTHONY,(877) 845-8527,06/24/21,05/31/22,,Fairfield
03772,Home Care Service Provider,,FIRST LIGHT HOME CARE,"940 ROOSEVELT TRL, #6",WINDHAM,ME,04062,PETER J GARTLAND,(207) 627-1125,12/01/20,11/30/21,,Cumberland
03346,Home Care Service Provider,,"FRIENDLY FOLKS, LLC",716 MAIN STREET,DUBLIN,NH,03444,SYLVIA G. FOX,(603) 563-8991,03/01/21,02/28/22,,CHESHIRE
04118,Home Care Service Provider,,"HELP AT HOME, LLC",88 PROSPECT ST,White River Junction,VT,05001,JOHANNA BELIVEAU,(844) 524-9921,08/01/21,07/31/22,,Windsor
04488,Home Care Service Provider,,HOME HELPERS,243 S MAIN ST,Laconia,NH,03246,ROD GAGNE,(603) 832-4612,03/08/21,02/28/22,,Belknap
04280,Home Care Service Provider,,HOME HELPERS OF LONDONDERRY,3 SANBORN RD 2ND FLOOR UNIT 3,LONDONDERRY,NH,03053,ANDREW GESKE,(603) 848-3443,03/01/21,02/28/22,,Belknap
04442,Home Care Service Provider,,HOME INSTEAD SENIOR CARE MANCHESTER,100A MIDDLE ST,MANCHESTER,NH,03101,BENJAMIN NOBLE,(603) 475-0981,09/01/21,08/31/22,,Hillsborough
04389,Home Care Service Provider,,HOMECAREPROS,150 VILLAGE RD,Freedom,NH,03836,KATIE TYLER,(603) 651-9280,01/01/21,12/31/21,,Carroll
04161,Home Care Service Provider,,HOMEWATCH CAREGIVERS,70 MAIN ST #410,PETERBOROUGH,NH,03458,CALEB AHO,(603) 924-5924,06/01/21,05/31/22,,Hillsborough
04423,Home Care Service Provider,,IMPRESS HEALTHCARE CORP,814 ELM ST,Manchester,NH,03101,JEFFREY CROCKER,(603) 239-0025,06/01/21,05/31/22,,Hillsborough
04372,Home Care Service Provider,,INDEPENDENCE CARE OF NEW HAMPSHIRE LLC,10 FERRY STREET STE 404,CONCORD,NH,03301,PETER VIAR,(603) 283-7778,11/01/21,10/31/22,,Merrimack
04106,Home Care Service Provider,,INTEGRITY CAREGIVERS OF NH LLC DBA HOME INSTEAD SENIOR CARE,16 DEPOT ST,WOLFEBORO,NH,03894,PETER EICHLING,(603) 569-7733,09/01/21,08/31/22,,Carroll
03799,Home Care Service Provider,,"J & S HOME CARE SERVICES, LLC",2 FIRST STREET,GORHAM,NH,03581,SUSAN MARTLOCK,(603) 345-1209,02/01/21,01/31/22,,COOS
03855,Home Care Service Provider,,LAKES REGION COMMUNITY SERVICES,719 NORTH MAIN STREET,LACONIA,NH,03246,SHANNON KELLY,(603) 524-8811,07/01/21,06/30/22,,BELKNAP
03956,Home Care Service Provider,,LIVABILITY HOME HEALTH,1 TARA BLVD STE 257,NASHUA,NH,03060,SAN PHAM,(603) 921-8663,08/01/20,07/31/21,,HILLSBOROUGH
03949,Home Care Service Provider,,MERRILL SENIOR SERVICES LLC,32 DOGWOOD DR,NASHUA,NH,03062,SALLY M LEONARD,(603) 921-0015,11/01/20,10/31/21,,HILLSBOROUGH
02217,Home Care Service Provider,,MONADNOCK LODGE AT RIVERWOODS,7 RIVERWOODS DRIVE,EXETER,NH,03833,"MARY FLANAGAN, ARNP",(603) 772-4700,07/01/21,06/30/22,,ROCKINGHAM
03854,Home Care Service Provider,,MOORE CENTER SERVICES,195 MCGREGOR STREET UNIT 400,MANCHESTER,NH,03102,JENNIFER A MEYER,(603) 206-2826,07/01/21,06/30/22,,HILLSBOROUGH
04284,Home Care Service Provider,,"NEW HAMPSHIRE HOME CARE PROVIDERS, LLC",22 WOODCREST HEIGHTS DR,CONCORD,NH,03301,DILU CHHETRI RAI,(603) 898-6438,08/01/21,07/31/22,,Merrimack
04251,Home Care Service Provider,,REHAB 365,1 STILES RD STE 104,SALEM,NH,03079,VIRGINIA BRACKETT,(855) 390-7774,02/01/21,01/31/22,,Rockingham
04270,Home Care Service Provider,,REST ASSURED HOME CARE LLC,28 JONATHAN LN,BOW,NH,03304,CHRISTINA DEROSE,(603) 715-8574,05/01/21,04/30/22,,Merrimack
04349,Home Care Service Provider,,RIGHT AT HOME,150 NASHUA RD UNIT C,LONDONDERRY,NH,03053,"DARIA SNOW HAYWARD, RN, BSN",(603) 216-9296,07/01/21,06/30/22,,Rockingham
04374,Home Care Service Provider,,SHEKINAH FAMILY SERVICES LLC,15 CONSTITUTION DR STE 1A,Bedford,NH,03110,NARCISSE MUGISHA,(207) 618-3784,12/01/20,11/30/21,,Hillsborough
04363,Home Care Service Provider,,"SOLARI CARGIVERS, LLC",18 LONG HILL RD,HOLLIS,NH,03049,MARY WOJCIK,(603) 213-4887,10/01/21,09/30/22,,Hillsborough
04234,Home Care Service Provider,,"SWEET HOME CARE, LLC",7 BOGIE PL,GRANTHAM,NH,03753,BARBARA SWEET,(603) 309-3154,09/01/20,08/31/21,,Belknap
04273,Home Care Service Provider,,SYNERGY HOMECARE OF NASHUA,2 WELLMAN AVE STE 110,NASHUA,NH,03064,KATARINA KEELER,(603) 336-3999,06/01/21,05/31/22,,Hillsborough
04253,Home Care Service Provider,,"THE DNA GROUP, INCORPORTATED DBA AMADA SENIOR CARE OF SOUTHERN NEW HAMPSHIRE",116 SOUTH RIVER RD UNIT E-7C,Bedford,NH,03110,DINA M BILSBURY,(603) 865-7999,02/01/21,01/31/22,,Hillsborough
03578,Home Care Service Provider,,TIMBERLAND HOME CARE INC,2541 WHITE MOUNTAIN HWY,NORTH CONWAY,NH,03860,MICHELLE REED,(603) 356-2273,07/01/21,06/30/22,,Carroll
04440,Home Care Service Provider,,TRUSTED CHOICE ELDERCARE LLC,21 WHEELOCK ST,Keene,NH,03431,EMILY MITCHELL,(603) 721-9353,09/16/20,08/31/21,,Cheshire
04232,Home Care Service Provider,,VISITING ANGELS,401 GILFORD AVE UNIT 208,GILFORD,NH,03249,DEBRA DESROSIERS,(603) 366-1993,09/01/21,08/31/22,,Belknap
03699,Home Care Service Provider,,VISITING ANGELS,39 SIMON ST UNIT 4,NASHUA,NH,03060,LOUISE MURPHY,(603) 821-0277,04/01/21,03/31/22,,Hillsborough
03660,Home Care Service Provider,,VISITING ANGELS,14 HOOKSETT ROAD,AUBURN,NH,03032,DEBRA DESROSIERS,(603) 483-8999,04/01/21,03/31/22,,ROCKINGHAM
04310,Home Care Service Provider,,VISITING ANGELS OF WESTERN NEW HAMPSHIRE,24 OPERA HOUSE SQ STE 209,CLAREMONT,NH,03743,SARAH D HOADLEY,(603) 504-6080,01/01/21,12/31/21,,Sullivan
03934,Home Care Service Provider,,VISITING ANGELS-NEWBURYPORT,182 STATE STREET,NEWBURYPORT,MA,01950,JOHN SPELLMAN,(603) 583-4890,01/01/21,12/31/21,,ESSEX
04465,Home Care Service Provider,,WAY MAKER HOME CARE LLC,66 HANOVER ST. STE 101,Manchester,NH,03101,DOEL LOPEZ,(617) 850-5925,12/10/20,11/30/21,,Hillsborough
04339,Home Care Service Provider,,WHOLE HEARTED SENIOR HOME CARE,33 SOUTH MAIN STREET UNIT 2,WOLFEBORO,NH,03894,ASHLEE MAILLETT,(603) 630-8096,06/01/21,05/31/22,,Carroll
04150,Home Care Service Provider,,"YOUR COMFORT ZONE, INC",8 BATCHELDER AVE,West Lebanon,NH,03784,ROSALIND GODFREY,(603) 381-1321,04/01/21,03/31/22,,Grafton
04306,Home Health Agency Hospice,,"ACCENTCARE OF MASSACHUSETTS, INC",30 PERWAL ST,WESTWOOD,MA,02090,MELISSA A SOUSA,(781) 551-5600,01/01/21,12/31/21,,Norfolk
03644,Home Health Agency Hospice,,AMEDISYS HOSPICE,"7 ROCKINGHAM RD, SUITE 200",WINDHAM,NH,03087,KARA M SWEATT,(603) 421-9887,10/01/21,09/30/22,,Rockingham
03315,Home Health Agency Hospice,,AMEDISYS HOSPICE CARE,"8 COMMERCE DR, STE 101",BEDFORD,NH,03110,"KARA SWEATT, RN",(603) 421-0414,08/01/21,07/31/22,,Hillsborough
04313,Home Health Agency Hospice,,BAYADA HOSPICE,194 PLEASANT STREET STE 9,CONCORD,NH,03301,JESSICA DEGRECHIE,(603) 724-6689,12/01/20,11/30/21,,Merrimack
04314,Home Health Agency Hospice,,BAYADA HOSPICE,316 MAIN STREET UNIT EH-6,NORWICH,VT,05055,JESSICA L DEGRECHIE,(802) 526-2380,12/01/20,11/30/21,,Windsor
03277,Home Health Agency Hospice,,"BEACON HOSPICE, AN AMEDISYS COMPANY",25 NEW HAMPSHIRE AVE STE 272,PORTSMOUTH,NH,03801,DIANE BILODEAU,(603) 433-2480,06/01/21,05/31/22,,Rockingham
04464,Home Health Agency Hospice,,BROOKHAVEN HOSPICE OF NEW HAMPSHIRE LLC,2 BEDFORD FARMS DR,Bedford,NH,03110,ANGELA N KATIS,(603) 782-7152,12/09/20,11/30/21,,Hillsborough
03888,Home Health Agency Hospice,,COMPASSUS-GREATER HAMPTON,ONE HAMPTON RD STE 210,EXETER,NH,03833,RUTH FRASCA,(603) 964-5183,05/01/21,04/30/22,,Rockingham
03887,Home Health Agency Hospice,,COMPASSUS-GREATER MANCHESTER,170 SO RIVER ROAD UNIT 2,BEDFORD,NH,31106941,JOSEPH A PETERSON,(603) 606-7974,04/01/21,03/31/22,,Belknap
04104,Home Health Agency Hospice,,CONSTELLATION HOSPICE,180 LOW STREET,NEWBURYPORT,MA,01950,ROBERT JELLEY,(978) 904-3059,08/01/21,07/31/22,,Essex
03670,Home Health Agency Hospice,,CORNERSTONE VNA,178 FARMINGTON ROAD,ROCHESTER,NH,03867,TAMARA J CROOKS-FAULKINGHAM,(603) 332-1133,01/01/21,12/31/21,,STRAFFORD
03914,Home Health Agency Hospice,,FRANKLIN VNA & HOSPICE,75 CHESTNUT STREET,FRANKLIN,NH,03235,KRYSTIN L ALBERT,(603) 934-3454,07/01/21,06/30/22,,MERRIMACK
03501,Home Health Agency Hospice,,GRANITE VNA,30 PILLSBURY STREET,CONCORD,NH,03301,CARISSA C DRAPER,(603) 224-2093,09/01/21,08/31/22,,MERRIMACK
04185,Home Health Agency Hospice,,HARBORSIDE HOSPICE LLC,"23 ATKINSON DEPOT RD, SUITE 105",PLAISTOW,NH,03865,TIMOTHY G BARRY,(800) 331-1044,10/01/21,09/30/22,,Rockingham
03676,Home Health Agency Hospice,,HOME HEALTH & HOSPICE CARE,7 EXECUTIVE PARK DRIVE,MERRIMACK,NH,03054,"BARBARA LAFRANCE,RN",(603) 882-2941,10/01/21,09/30/22,,HILLSBOROUGH
03917,Home Health Agency Hospice,,LAKE SUNAPEE HOME CARE AND HOSPICE,107 NEWPORT ROAD,NEW LONDON,NH,03257,JENNIFER LaCHANCE TAYLOR,(603) 526-4077,03/01/21,02/28/22,,MERRIMACK
04216,Home Health Agency Hospice,,LAKES REGION VISITING NURSES ASSOCIATION,186 WAUKEWAN ST,MEREDITH,NH,03253,TANAYA J CALL,(603) 279-6611,06/01/21,05/31/22,,Belknap
02664,Home Health Agency Hospice,,MERRIMACK VALLEY HOSPICE INC,360 MERRIMACK STREET #9,LAWRENCE,MA,01843,DIANE FARRAHER-SMITH,(978) 552-4000,12/01/20,11/30/21,,ESSEX
03935,Home Health Agency Hospice,,NEWFOUND AREA NURSING ASSOCIATION,214 LAKE STREET,BRISTOL,NH,03222,"AMANDA DRAKE, RN",(603) 774-2733,05/01/21,04/30/22,,GRAFTON
03918,Home Health Agency Hospice,,NO COUNTRY HM HEALTH & HOSPICE AGENCY IN,536 COTTAGE STREET,LITTLETON,NH,03561,"TIFFANY HAYNES, RN",(603) 444-5317,09/01/21,08/31/22,,GRAFTON
03322,Home Health Agency Hospice,,PEMI-BAKER COMMUNITY HEALTH,101-3 BOULDER POINT ROAD SUITE 3,PLYMOUTH,NH,03264,DANIELLE PAQUETTE-HORNE,(603) 536-2232,04/01/21,03/31/22,,GRAFTON
03913,Home Health Agency Hospice,,ROCKINGHAM VNA AND HOSPICE,4 ALUMNI DR,EXETER,NH,03833,KAREN MICHEL,(603) 772-2981,08/01/21,07/31/22,,ROCKINGHAM
03610,Home Health Agency Hospice,,VISITING NURSE ASSOC. & HOSPICE OF VT/NH,88 PROSPECT ST,White River Junction,VT,05001,JOHANNA BELIVEAU,(888) 300-8853,05/01/21,04/30/22,,Windsor
03878,Home Health Agency Hospice,,VN HOME CARE & HOSPICE OF CARROLL CNTY,1529 WHITE MOUNTAIN HIGHWAY,NORTH CONWAY,NH,03860,JULIE K LIMMER,(603) 356-7006,11/01/21,10/31/22,,CARROLL
03916,Home Health Agency Hospice,,"VNA AT HCS, INC.",312 MARLBORO STREET,KEENE,NH,03431,MAURA MCQUEENEY,(603) 352-2253,09/01/21,08/31/22,,CHESHIRE
03813,Home Health Agency Hospice,,"VNA HOME HEALTH & HOSPICE SERVICES, INC",1070 HOLT AVENUE SUITE 1400,MANCHESTER,NH,03109,"DONNA FRIZZEL, RN",(603) 622-3781,03/01/21,02/28/22,,HILLSBOROUGH
03717,Home Health Agency Hospice,,WENTWORTH HOME CARE & HOSPICE AN AMEDISI,9 ANDREWS RD,SOMERSWORTH,NH,03878,EMILY O RUNYAN,(603) 692-0220,08/01/21,07/31/22,,Strafford
03859,Home Health Care Provider,,360 SHS,"360 RT 101, STE 3B",BEDFORD,NH,03110,JUDITH LOUBIER,(603) 801-1936,09/01/21,08/31/22,,Hillsborough
04432,Home Health Care Provider,,AAA HOME HEALTH LLC,30 GREENVIEW DR APT 33,MANCHESTER,NH,03103,TETIANA ATAMANCHUK,(888) 974-3699,08/01/21,07/31/22,,Hillsborough
04174,Home Health Care Provider,,ABILITY ANGELS,324 CENTRAL ST,MANCHESTER,NH,03105,EVELYN HILL,(603) 944-9500,08/01/21,07/31/22,,Hillsborough
04307,Home Health Care Provider,,ACCENTCARE HOME HEALTH OF MASSACHUSETTS,30 PERWAL ST,WESTWOOD,MA,02090,JOANNE SMITH,(781) 551-5600,01/01/21,12/31/21,,Norfolk
04227,Home Health Care Provider,,ACCREDO HEALTH GROUP INC,83 LAFAYETTE RD STE 13,HAMPTON FALLS,NH,03844,"ROBIN C CAMERON, RN",(877) 315-6140,08/01/21,07/31/22,,Rockingham
04364,Home Health Care Provider,,AFFECTIONATE HOME HEALTH CARE AGENCY,1 CHESTNUT ST STE 201,Nashua,NH,03060,MUSYOKI KISINA,(603) 377-0019,10/01/20,09/30/21,,Hillsborough
02887,Home Health Care Provider,,"ALL CARE RESOURCES, INC.",200 SUTTON STREET,NORTH ANDOVER,MA,01845,"JO-MARY KOOPMAN, RN",(978) 794-1138,10/01/21,09/30/22,,ESSEX
02886,Home Health Care Provider,,ALL CARE VISITING NURSE ASSOCIATION,200 SUTTON STREET,NORTH ANDOVER,MA,01845,"JO-MARY KOOPMAN, RN",(978) 794-1138,10/01/21,09/30/22,,ESSEX
03688,Home Health Care Provider,,ALLIANCE HOME HEALTH CARE,6 MARY E CLARK DR SUITE 11,HAMPSTEAD,NH,03841,MARK SWEENEY,(603) 329-8288,06/01/21,05/31/22,,ROCKINGHAM
04147,Home Health Care Provider,,ALTERNATIVE HOME HEALTH CARE LLC,160 MERRIMACK ST,METHUEN,MA,01844,ANDREA SURETTE,(978) 657-7444,04/01/21,03/31/22,,Essex
03723,Home Health Care Provider,,ALWAYS TLC HOME CARE,1550 WILLISTON RD,SOUTH BURLINGTON,VT,05403,"MOHAMED BASHA, RN",(603) 678-9504,05/01/21,04/30/22,,Chittenden
03314,Home Health Care Provider,,AMEDISYS HOME HEALTH,25 NEW HAMPSHIRE AVE STE 270,PORTSMOUTH,NH,38014983,"MICHAEL MALARK, PT",(603) 436-0815,08/01/21,07/31/22,,ROCKINGHAM
04083,Home Health Care Provider,,"AMERICA AT HOME HEALTHCARE AND NURSING SERVICES, LTD DBA ELARA CARING",12 KENT WAY STE 210,Byfield,MA,01922,"NANCY ERIKSON, RN",(978) 462-0209,03/01/21,02/28/22,,Essex
01938,Home Health Care Provider,,ANDROSCOGGIN VALLEY HOME CARE SERV,795 MAIN STREET,BERLIN,NH,03570,TARA MACKILLOP,(603) 752-7505,05/01/21,04/30/22,,COOS
04296,Home Health Care Provider,,ARMISTEAD SENIOR CARE,10 NORTHERN BLVD #18,AMHERST,NH,03031,KAREN M OSGOOD,(603) 546-6060,09/01/21,08/31/22,,Hillsborough
03697,Home Health Care Provider,,ATLANTIC HOMELIFE SENIOR CARE LLC,34 DOVER POINT RD STE 201,DOVER,NH,03820,MARTHA L BERK,(603) 343-4434,04/01/21,03/31/22,,Belknap
04238,Home Health Care Provider,,"AWARE RECOVERY CARE OF NEW HAMPSHIRE, LLC","15 CONSTITUTION BLVD, STE 2N",BEDFORD,NH,03110,LORI R SCHWARTZ,(603) 768-8462,10/01/20,09/30/21,,Hillsborough
04312,Home Health Care Provider,,BAYADA HOME HEALTH CARE INC,1 SUNDIAL AVE STE 208N,MANCHESTER,NH,03103,CATHLEEN SLACK,(603) 413-7100,12/01/20,11/30/21,,Hillsborough
04315,Home Health Care Provider,,BAYADA HOME HEALTH CARE INC,2 SOUTH MAIN ST SUITE 2 & 4,RUTLAND,VT,05701,COURTNEY D HAWKINS,(802) 655-7111,12/01/20,11/30/21,,Rutland
04094,Home Health Care Provider,,BELL TOWER HOME HEALTH CARE,400 AMHERST ST STE 403,NASHUA,NH,03063,YOKASTA CAMPANA,(603) 821-7421,06/01/21,05/31/22,,Hillsborough
03243,Home Health Care Provider,,BIOSCRIP INFUSION SERVICES NEW HAMPSHIRE,8 TECHNOLOGY DRIVE,BEDFORD,NH,03110,SHEILA IACONO,(603) 626-6200,01/01/21,12/31/21,,HILLSBOROUGH
04114,Home Health Care Provider,,BRIGHTSTAR CARE OF BEDFORD/MANCHESTER,601 RIVERWAY PL BLDG 6 STE B,Bedford,NH,03110,MELISSA JANICKE,(603) 637-4646,10/01/21,09/30/22,,Hillsborough
04437,Home Health Care Provider,,"BUSINESS OFFICE OF ASPIRE 365, LLC",1950 LAFAYETTE RD STE 204,Portsmouth,NH,03801,CHARLES T MITCHELL,(661) 373-3570,08/01/21,07/31/22,,Rockingham
03827,Home Health Care Provider,,CAREPRO LLC,"86 BARRISTER DR, UNIT G",WHITE RIVER JUNCTION,VT,05001,JOHN  & VICKIE  KREIDER,(603) 643-8010,07/01/20,06/30/21,,Windsor
04217,Home Health Care Provider,,CARETENDERS,"285 CALEF HWY, STE 106 & 107",EPPING,NH,03042,LAURA HARWOOD,(603) 952-3500,07/01/21,06/30/22,,Belknap
03897,Home Health Care Provider,,CARING NURSES STAFFING AGENCY LLC,117 BEDFORD ROAD,NEW BOSTON,NH,03070,"KAREN O'DONNELL, RN",(603) 305-0841,02/01/21,01/31/22,,HILLSBOROUGH
02644,Home Health Care Provider,,CIRCLE HOME INC,847 ROGERS ST STE 201,LOWELL,MA,01852,"DIANE FARRAHER-SMITH, RN",(978) 459-9343,11/01/21,10/31/22,,Barnstable
04205,Home Health Care Provider,,COMFORT ANGELS HOME HEALTH OF NH LLC,1 CHESTNUT ST STE 337,NASHUA,NH,03060,"EUNICE MUIRURI, RN",(603) 320-9858,04/01/21,03/31/22,,Hillsborough
04213,Home Health Care Provider,,"COMFORT HOME CARE, LLC",80 TOWN FARM RD,SALEM,NH,03079,BRANDON E HOWES,(978) 685-4700,05/01/21,04/30/22,,Rockingham
03867,Home Health Care Provider,,COMFORT KEEPERS-PLYMOUTH,12 YEATON RD STE B6 AND B7,PLYMOUTH,NH,03264,MARTHA SWATS,(603) 536-6060,10/01/21,09/30/22,,GRAFTON
04157,Home Health Care Provider,,CONSTELLATION HOME CARE,180 LOW ST,NEWBURYPORT,MA,01950,ROBERT JELLEY,(978) 904-3059,05/01/21,04/30/22,,Essex
03395,Home Health Care Provider,,CORAM CVS/SPECIALTY INFUSION SERVICES,575 UNIVERSITY AVE SUITE 2,NORWOOD,MA,02062,"DEBORAH O'SULLIVAN, RN",(781) 255-0956,01/01/21,12/31/21,,NORFOLK
02814,Home Health Care Provider,,CORNERSTONE VNA,178 FARMINGTON ROAD,ROCHESTER,NH,03867,"JULIE REYNOLDS, RN",(603) 332-1133,08/01/21,07/31/22,,STRAFFORD
04445,Home Health Care Provider,,CPTE NASHUA INC,"522 AMHERST ST, STE 23",Nashua,NH,03063,PATRICIA E WOLBER,(603) 880-0448,10/19/20,09/30/21,,Hillsborough
04103,Home Health Care Provider,,CUSTOM HELPERS HOME HEALTH CARE LLC,428 MAIN ST STE 2,KEENE,NH,03431,SAMANTHA O'NEIL,(603) 331-4157,08/01/21,07/31/22,,Cheshire
03607,Home Health Care Provider,,EASTER SEALS NEW HAMPSHIRE,435 SOUTH MAIN ST,MANCHESTER,NH,03102,HEATHER E HEROD,(603) 623-8863,01/01/21,12/31/21,,Hillsborough
03463,Home Health Care Provider,,ENCOMPASS HEALTH HOME HEALTH,35 NEW ENGLAND BUSINESS CENTER DR STE. 207,ANDOVER,MA,01810,"JANET GALLUGI, RN",(978) 388-4500,11/01/20,10/31/21,,Essex
04384,Home Health Care Provider,,EXTENDED FAMILY,1 GREENLEAF WOODS DR UNIT 301,Portsmouth,NH,03801,MARY F SPAULDING,(603) 430-6863,12/01/20,11/30/21,,Rockingham
02569,Home Health Care Provider,,FAMILY CENTER HOME VISIT PROG AT EXETER,5 ALUMNI DRIVE,EXETER,NH,03833,"MICHELE SAVOIE, RN",(603) 580-6365,06/01/21,05/31/22,,ROCKINGHAM
04146,Home Health Care Provider,,FOX REHAB-NH LLC,15 CONSTITUTION DR STE 144,BEDFORD,NH,03110,"ROBYN KURILKO PT, DPT, CCI",(877) 407-3422,04/01/21,03/31/22,,Hillsborough
01310,Home Health Care Provider,,FRANKLIN VNA & HOSPICE,75 CHESTNUT STREET,FRANKLIN,NH,03235,KRYSTIN L ALBERT,(603) 934-3454,07/01/21,06/30/22,,MERRIMACK
02485,Home Health Care Provider,,GATEWAYS COMMUNITY SERVICES,144 CANAL STREET,NASHUA,NH,03064,NZENALU OBINELO,(603) 882-6333,07/01/21,06/30/22,,HILLSBOROUGH
03362,Home Health Care Provider,,GENESIS REHABILITATION SERVICES,319 E DUNSTABLE RD,Nashua,NH,03062,WILLIAM OLSZEWSKI,(603) 888-7878,05/01/21,04/30/22,,Hillsborough
03500,Home Health Care Provider,,GRANITE VNA,30 PILLSBURY STREET,CONCORD,NH,03301,"LISA DUPUIS, MBA, OTR/L",(603) 224-4093,09/01/21,08/31/22,,MERRIMACK
03347,Home Health Care Provider,,HAMPSTEAD HOME HEALTH CARE INC,10 BRICKETTS MILL #2,HAMPSTEAD,NH,03841,"JUDITH A PERRY, RN",(603) 329-0292,03/01/21,02/28/22,,ROCKINGHAM
01727,Home Health Care Provider,,HAVENWOOD HERITAGE HEIGHTS,33 CHRISTIAN AVENUE,CONCORD,NH,03301,"PATRICIA BLACKBURN, RN",(603) 224-5363,12/01/20,11/30/21,,MERRIMACK
03110,Home Health Care Provider,,"HEALTHY AT HOME, INC.",77 NORTHEASTERN BLVD,NASHUA,NH,03062,"PETER KELLEHER, MSW",(603) 595-4243,04/01/21,03/31/22,,Hillsborough
04141,Home Health Care Provider,,"HEAVEN SENT HOME CARE, LLC",14 SPRING ST,NASHUA,NH,03060,LISA DUMONT,(603) 459-8358,03/01/21,02/28/22,,Hillsborough
03193,Home Health Care Provider,,HEAVENS CARING LLC,55 RAYMOND ROAD,DEERFIELD,NH,03037,LYUBOMIRA PILIPCHUK,(603) 340-6031,08/01/21,07/31/22,,ROCKINGHAM
04441,Home Health Care Provider,,HOME CARE OF NEW ENGLAND LLC,155 FLEET ST,Portsmouth,NH,03801,TROY LITSINBERGER,(603) 766-4950,09/01/21,08/31/22,,Rockingham
03675,Home Health Care Provider,,HOME HEALTH & HOSPICE CARE,7 EXECUTIVE PARK DRIVE,MERRIMACK,NH,03054,LUCILLE SAIA,(603) 882-2941,10/01/21,09/30/22,,HILLSBOROUGH
02645,Home Health Care Provider,,HOME HEALTH VNA OF HAVERHILL,360 MERRIMACK ST BLDG. 9,LAWRENCE,MA,01843,"KAREN GOMES, RN",(978) 552-4000,12/01/20,11/30/21,,Essex
04347,Home Health Care Provider,,HOME HEALTH VNA OF NH,"10 CORPORATE DR, STE 2203",BEDFORD,NH,03110,KAREN GOMES,(603) 854-5657,07/01/21,06/30/22,,Hillsborough
03237,Home Health Care Provider,,HOME INSTEAD SENIOR CARE,"10 VAUGHAN MALL, STE #209",PORTSMOUTH,NH,03801,LISA GANEM,(603) 433-5959,02/01/21,01/31/22,,ROCKINGHAM
02648,Home Health Care Provider,,HOMECARE INC,360 MERRIMACK STREET  #9,LAWRENCE,MA,01843,DONNA BEAUDIN,(978) 552-4000,12/01/18,11/30/19,,ESSEX
01721,Home Health Care Provider,,HUNT COMMUNITY,10 ALLDS STREET,NASHUA,NH,03060,JESSICA M FEDELE,(603) 882-6511,07/01/21,06/30/22,,HILLSBOROUGH
04523,Home Health Care Provider,,HYGIEA HEALTH & WELLNESS LLC,46 ROCKY LN,Greenfield,NH,03047,CATHY L SHARPE,(603) 547-2446,07/20/21,06/30/22,,Hillsborough
04045,Home Health Care Provider,,"INFUSION VENTURES, INC",10 TOWER OFFICE PK ST 606,WOBURN,MA,01801,JOSEPH FLEMING,(781) 938-7070,11/01/21,10/31/22,,Middlesex
01973,Home Health Care Provider,,INTERIM HEALTHCARE,608 CHESTNUT STREET,MANCHESTER,NH,03104,RICHARD A PETERSEN,(603) 668-6956,10/01/21,09/30/22,,Hillsborough
01974,Home Health Care Provider,,INTERIM HEALTHCARE,608 CHESTNUT STREET,MANCHESTER,NH,03105,LISA D ADAMS,(603) 668-6956,10/01/21,09/30/22,,HILLSBOROUGH
02855,Home Health Care Provider,,J & K HOME CARE,85 STILES ROAD STE 202,SALEM,NH,03079,"MARY ANN IDA, RN",(603) 893-9214,01/01/21,12/31/21,,ROCKINGHAM
01778,Home Health Care Provider,,KENDAL AT HANOVER,67 CUMMINGS RD,HANOVER,NH,03755,BETH ROSTRON,(603) 643-8900,07/01/21,06/30/22,,GRAFTON
02865,Home Health Care Provider,,LACONIA HOUSING & REDEV AUTHORITY,25 UNION AVENUE,LACONIA,NH,03246,CATHERINE BOWLER,(603) 737-2218,04/01/21,03/31/22,,BELKNAP
03030,Home Health Care Provider,,LAKE SUNAPEE COMMUNITY HEALTH SERVICES,107 NEWPORT ROAD,NEW LONDON,NH,03257,"CATHERINE WELLS, RN",(603) 526-4077,03/01/21,02/28/22,,MERRIMACK
03031,Home Health Care Provider,,LAKE SUNAPEE HOME CARE & HOSPICE,107 NEWPORT ROAD,NEW LONDON,NH,03257,CAITLIN BARDEN,(603) 526-4077,03/01/21,02/28/22,,MERRIMACK
03714,Home Health Care Provider,,LAKES REGION VISITING NURSES ASSOCIATION,186 WAUKEWAN STREET,MEREDITH,NH,03253,"DEBRA PEASLEE, RN",(603) 279-6611,10/01/21,09/30/22,,BELKNAP
04126,Home Health Care Provider,,LIVE FREE HOME HEALTHCARE,438 NH ROUTE 104,NEW HAMPTON,NH,03256,TAMMY NILES,(603) 217-0149,07/01/21,06/30/22,,Belknap
04298,Home Health Care Provider,,MANCHESTER HOME HEALTH CARE LLC,27 LOWELL ST 2ND FL #204,MANCHESTER,NH,03101,SHIKKDON WARSAME,(603) 935-7824,10/01/20,09/30/21,,Hillsborough
04298,Home Health Care Provider,,MANCHESTER HOME HEALTH CARE LLC,27 LOWELL ST 2ND FL #204,MANCHESTER,NH,03101,HASSAN NOOR,(603) 935-7824,10/01/20,09/30/21,,Hillsborough
04516,Home Health Care Provider,,MAS HOME CARE OF NEW HAMPSHIRE,500 HARVEY RD #304,Manchester,NH,03103,KENNETH JOHNSON,(603) 296-0960,05/27/21,04/30/22,,Hillsborough
03687,Home Health Care Provider,,"MAXIM HEALTH CARE SERVICES, INC",1750 ELM STREET SUITE 602,MANCHESTER,NH,03101,"EILEEN M MITCHELL, RN",(603) 644-5003,07/01/21,06/30/22,,HILLSBOROUGH
02113,Home Health Care Provider,,NEW ENGLAND LIFE CARE,41C TERRILL PARK DRIVE,CONCORD,NH,03301,ROBERT CALWAY,(603) 224-3100,10/01/21,09/30/22,,MERRIMACK
04356,Home Health Care Provider,,NEW ENGLAND PEDIATRIC SERVICES LLC,30 HARVEY RD,BEDFORD,NH,03110,CASSANDRA CHAPMAN,(603) 296-5241,08/01/21,07/31/22,,Hillsborough
04309,Home Health Care Provider,,NEW HOPE HEALTH SOLUTIONS LLC,169 DW HIGHWAY #104,Nashua,NH,03060,ONESMUS MACHARIA,(617) 947-0097,01/01/21,12/31/21,,Hillsborough
01281,Home Health Care Provider,,NEWFOUND AREA NURSING ASSOCIATION,214 LAKE ST,BRISTOL,NH,03222,VIRGINIA P HOWLETT,(603) 744-2733,09/01/20,08/31/21,,GRAFTON
02236,Home Health Care Provider,,NO COUNTRY HM HEALTH & HOSPICE AGENCY IN,536 COTTAGE STREET,LITTLETON,NH,03561,"MICHAEL COUNTER, MBA",(603) 444-5317,09/01/21,08/31/22,,GRAFTON
04498,Home Health Care Provider,,NO PLACE LIKE HOME LLC,76 SOUTH STATE ST,Concord,NH,03301,HARLAN HUTCHINSON,(603) 218-2033,04/29/21,03/31/22,,Merrimack
03604,Home Health Care Provider,,NORTH COUNTRY INDEPENDENT LIVING,2541 WHITE MNT HWY BLDG 3,NORTH CONWAY,NH,03860,FREDDI GALE,(603) 356-0282,09/01/21,08/31/22,,CARROLL
03284,Home Health Care Provider,,NORTHEAST REHAB. HOSPITAL HOME CARE SRVS,70 BUTLER ST,SALEM,NH,03079,JOHN PROCHILO,(603) 681-3500,06/01/21,05/31/22,,Belknap
04226,Home Health Care Provider,,OFEMZ HOME HEALTH CARE AGENCY LLC,904 HANOVER ST STE 4,Manchester,NH,03104,ODUN E OWOLABI,(603) 820-0908,08/01/21,07/31/22,,Hillsborough
04218,Home Health Care Provider,,"PATHWAYS HEALTHCARE, LLC",87 STILES RD STE 205,SALEM,NH,03079,JOHN TALBOT,(617) 481-9077,07/01/21,06/30/22,,Rockingham
03323,Home Health Care Provider,,PEMI-BAKER COMMUNITY HEALTH,101 BOULDER POINT RD SUITE 3,PLYMOUTH,NH,03264,KARA HAMILL,(603) 536-2232,04/01/21,03/31/22,,GRAFTON
03941,Home Health Care Provider,,PENTEC HEALTH INC,"4 CREEK PARKWAY, STE A",BOOTHWYN,PA,19061,"DONNIE KELLEY, RN",(800) 223-4376,06/01/21,05/31/22,,DELAWARE
04138,Home Health Care Provider,,PRESIDENTIAL OAKS HOME HEALTH CARE,200 PLEASANT ST,CONCORD,NH,03301,ANNE PURINGTON,(603) 225-6644,02/01/21,01/31/22,,Merrimack
04343,Home Health Care Provider,,QUALITY HOME HEALTH SERVICES,73 SEARLES RD,WINDHAM,NH,03087,"ISATOU JAITEH, RN",(603) 552-5300,06/01/21,05/31/22,,Rockingham
03169,Home Health Care Provider,,"REGENCY HOME HEALTH, LLC",213 ROCKINGHAM RD,Londonderry,NH,03053,STEPHANIE T ELLSEY,(603) 665-9800,11/01/21,10/31/22,,Rockingham
02359,Home Health Care Provider,,RIVERMEAD,150 RIVERMEAD  RD,PETERBOROUGH,NH,03458,JAN  DALY EATON,(603) 924-0062,07/01/21,06/30/22,,HILLSBOROUGH
04414,Home Health Care Provider,,RIVERWOODS DURHAM,14 STONE QUARRY DR,Durham,NH,03824,CAROLYN O'DRISCOLL,(603) 590-4000,03/01/21,02/28/22,,Strafford
03094,Home Health Care Provider,,RIVERWOODS MANCHESTER,100 ALLIANCE WAY,Manchester,NH,03102,"AMY REYNOLDS, LPN",(603) 645-6500,12/01/20,11/30/21,,HILLSBOROUGH
02339,Home Health Care Provider,,ROCKINGHAM VNA AND HOSPICE,137 EPPING ROAD,EXETER,NH,03833,KAREN E MICHEL,(603) 772-2981,08/01/21,07/31/22,,ROCKINGHAM
03686,Home Health Care Provider,,"SB NURSING CARE MANAGEMENT SERVICES, LLC",35 CENTER STREET OFFICE #14 & 15,WOLFEBORO FALLS,NH,03896,"SANDRA BABALIS, RN",(603) 569-0145,07/01/21,06/30/22,,Belknap
03929,Home Health Care Provider,,SENIOR CLASS HOME HEALTH SERVICES,201 ROUTE 111,HAMPSTEAD,NH,03841,LINDA J STEIR,(603) 329-4401,04/01/21,03/31/22,,ROCKINGHAM
04396,Home Health Care Provider,,SILVER TOUCH HOME HEALTH CARE,451 AMHERST ST UNIT 104,Nashua,NH,03060,HULAY KAMARA,(603) 424-9479,02/01/21,01/31/22,,Hillsborough
02939,Home Health Care Provider,,TAMWORTH COMM NURSE ASSOC,84 MAIN STREET,TAMWORTH,NH,03886,"JO ANNE M. RAINVILLE, RN",(603) 323-8511,11/01/20,10/31/21,,CARROLL
04209,Home Health Care Provider,,TAYLORCARE,435 UNION AVENUE,LACONIA,NH,03246,HARRY R OFFINGER,(603) 366-1207,05/01/21,04/30/22,,Belknap
04208,Home Health Care Provider,,TENDER CARE INC.,4 BIRCH ST,Derry,NH,03038,ALBERT T SENESIE,(603) 434-2535,07/01/21,06/30/22,,Rockingham
03499,Home Health Care Provider,,"TRUE CARE PROFESSIONALS, LLC","39.5 BIRCH ST. 3D., STE B",DERRY,NH,03038,JEAN-CLAUDE ALCIME,(603) 537-9975,01/01/21,12/31/21,,ROCKINGHAM
03611,Home Health Care Provider,,VISITING NURSE ASSOC. & HOSPICE OF VT/NH,88 PROSPECT ST,White River Junction,VT,05001,JOHANNA BELIVEAU,(888) 300-8853,05/01/21,04/30/22,,Windsor
03879,Home Health Care Provider,,VN HOME CARE & HOSPICE OF CARROLL CNTY,1529 WHITE MOUNTAIN HIGHWAY,NORTH CONWAY,NH,03860,"SANDRA L RUKA, MSRN",(603) 356-7006,11/01/21,10/31/22,,CARROLL
02915,Home Health Care Provider,,"VNA AT HCS, INC.",312 MARLBORO STREET,KEENE,NH,03431,MAURA MCQUEENEY,(603) 352-2253,09/01/21,08/31/22,,CHESHIRE
03812,Home Health Care Provider,,"VNA HOME HEALTH & HOSPICE SERVICES, INC",1070 HOLT AVENUE SUITE 1400,MANCHESTER,NH,03109,"DONNA FRIZZEL, RN",(603) 622-3781,03/01/21,02/28/22,,HILLSBOROUGH
03814,Home Health Care Provider,,"VNA PERSONAL SERVICES, INC",1070 HOLT AVENUE,MANCHESTER,NH,03109,JENNIFER FINN,(603) 622-3781,09/01/21,08/31/22,,HILLSBOROUGH
03388,Home Health Care Provider,,WAYPOINT,464 CHESTNUT STREET,MANCHESTER,NH,03101,COLLEEN M IVES,(603) 518-4000,05/01/21,04/30/22,,HILLSBOROUGH
03718,Home Health Care Provider,,"WENTWORTH HOME CARE & HOSPICE, AN AMEDIS",9 ANDREWS RD,SOMERSWORTH,NH,03878,"JOANNE SAUNDERS, RN",(603) 692-0200,08/01/20,07/31/21,,Strafford
03397,Home Health Care Provider,,WHITTIER HOME HEALTH CARE AGENCY,145 WARD HILL AVENUE,BRADFORD,MA,01835,MICHAEL ARCIDI,(978) 374-6300,10/01/21,09/30/22,,ESSEX
03869,Home Health Care Provider,,YORK HOSPITAL,127 LONG SANDS ROAD SUITE 12,YORK,ME,03909,"SYLVIA FOURNIER, RN",(207) 337-7300,12/01/20,11/30/21,,YORK
02779,Hospice House / Support Res Care,,COMMUNITY HOSPICE HOUSE,210 NATICOOK ROAD,MERRIMACK,NH,03054,"BARBARA LAFRANCE, RN,FACHE",(603) 595-5688,12/01/20,11/30/21,10,HILLSBOROUGH
02046,Hospice House / Support Res Care,,GRANITE VNA - HOSPICE HOUSE,250 PLEASANT STREET,CONCORD,NH,03301,CARISSA C DRAPER,(603) 224-4093,04/01/21,03/31/22,10,MERRIMACK
00016,Hospital,Critical Access,ALICE PECK DAY MEMORIAL HOSPITAL,10 ALICE PECK DAY DRIVE,LEBANON,NH,03766,"SUSAN MOONEY, MD",(603) 448-7440,04/01/21,03/31/22,25,GRAFTON
00050,Hospital,Critical Access,ANDROSCOGGIN VALLEY HOSPITAL,59 PAGE HILL RD,BERLIN,NH,03570,MICHAEL PETERSON,(603) 752-2200,04/01/21,03/31/22,25,COOS
00646,Hospital,General,CATHOLIC MEDICAL CENTER,100 MCGREGOR STREET,MANCHESTER,NH,03102,"ALEXANDER WALKER, JR",(603) 663-6552,01/01/21,12/31/21,330,HILLSBOROUGH
00014,Hospital,General,CHESHIRE MEDICAL CENTER (THE),580 COURT STREET,KEENE,NH,03431,"DON CARUSO, MD",(603) 354-5400,01/01/21,12/31/21,169,CHESHIRE
01098,Hospital,General,CONCORD HOSPITAL,250 PLEASANT STREET,CONCORD,NH,03301,ROBERT STEIGMEYER,(603) 225-2711,01/01/21,12/31/21,295,MERRIMACK
04500,Hospital,General,CONCORD HOSPITAL - LACONIA,80 HIGHLAND STREET,Laconia,NH,03246,KEVIN W DONOVAN,(603) 524-3211,05/01/21,04/30/22,137,Belknap
04499,Hospital,,CONCORD HOSPITAL-FRANKLIN,15 AIKEN AVENUE,Franklin,NH,03235,KEVIN W DONOVAN,(603) 934-2060,05/01/21,04/30/22,35,Merrimack
01770,Hospital,Critical Access,COTTAGE HOSPITAL,90 SWIFTWATER ROAD,WOODSVILLE,NH,03785,HOLLY MCCORMACK,(603) 747-9000,06/01/21,05/31/22,35,GRAFTON
04328,Hospital,Free-Standing Emergency Room,DOVER EMERGENCY ROOM,10 CENTRAL AVENUE,DOVER,NH,03820,DEAN CARUCCI,(603) 740-1500,04/01/21,03/31/22,,Strafford
00018,Hospital,General,ELLIOT HOSPITAL CITY OF MANCHESTER,ONE ELLIOT WAY,MANCHESTER,NH,03103,"W GREGORY BAXTER, MD",(603) 669-5300,04/01/21,03/31/22,296,HILLSBOROUGH
01985,Hospital,Special Hospital Rehab.,"ENCOMPASS HEALTH REHABILITATION HOSPITAL OF CONCORD, INC",254 PLEASANT STREET,CONCORD,NH,03301,SHARON HARTL,(603) 226-9800,10/01/21,09/30/22,50,MERRIMACK
01761,Hospital,General,EXETER HOSPITAL INC,5 ALUMNI DRIVE,EXETER,NH,03833,KEVIN J CALLAHAN,(603) 580-6691,06/01/21,05/31/22,100,ROCKINGHAM
04404,Hospital,General,FRISBIE MEMORIAL HOSPITAL,11 WHITEHALL RD,Rochester,NH,03867,JEFFREY J SCIONTI,(603) 332-5211,01/01/21,12/31/21,112,Strafford
01078,Hospital,Psychiatric,HAMPSTEAD HOSPITAL,218 EAST ROAD,HAMPSTEAD,NH,03841,PHILLIP J KUBIAK,(603) 329-5311,10/01/21,09/30/22,111,ROCKINGHAM
00029,Hospital,Critical Access,HUGGINS HOSPITAL,240 SOUTH MAIN STREET,WOLFEBORO,NH,03894,JEREMY ROBERGE,(603) 569-7500,07/01/21,06/30/22,25,CARROLL
02790,Hospital,Critical Access,LITTLETON REGIONAL HEALTHCARE,600 ST. JOHNSBURY ROAD,LITTLETON,NH,03561,ROBERT NUTTER,(603) 444-9000,01/01/21,12/31/21,25,GRAFTON
01799,Hospital,General,MARY HITCHCOCK MEMORIAL HOSPITAL,ONE MEDICAL CENTER DRIVE,LEBANON,NH,03756,"JOANNE CONROY, MD",(603) 650-5000,10/01/21,09/30/22,396,GRAFTON
00009,Hospital,Critical Access,MEMORIAL HOSPITAL,3073 WHITE MOUNTAIN HIGHWAY,NORTH CONWAY,NH,03860,ARTHUR MATHISEN,(603) 356-5461,09/01/21,08/31/22,25,CARROLL
02507,Hospital,Critical Access,MONADNOCK COMMUNITY HOSPITAL,452 OLD STREET ROAD,PETERBOROUGH,NH,03458,CYNTHIA MCGUIRE,(603) 924-7191,10/01/21,09/30/22,25,HILLSBOROUGH
02407,Hospital,Critical Access,NEW LONDON HOSPITAL,273 COUNTY ROAD,NEW LONDON,NH,03257,M THOMAS MANION,(603) 526-2911,01/01/21,12/31/21,25,MERRIMACK
03733,Hospital,Special Hospital Rehab.,NORTHEAST REHAB HOSPITAL @ PEASE,105 CORPORATE DRIVE,PORTSMOUTH,NH,03801,JOHN PROCHILO,(603) 501-5500,07/01/21,06/30/22,33,ROCKINGHAM
03102,Hospital,Special Hospital Rehab.,"NORTHEAST REHAB. HOSP. @ SNHMC, WEST",29 NORTHWEST BLVD,NASHUA,NH,03062,JOHN F PROCHILO,(603) 689-2400,12/01/21,11/30/22,20,HILLSBOROUGH
02362,Hospital,Special Hospital Rehab.,NORTHEAST REHABILITATION HOSPITAL,70 BUTLER STREET,SALEM,NH,03079,JOHN PROCHILO,(603) 893-2900,06/01/21,05/31/22,67,ROCKINGHAM
04079,Hospital,Special Hospital Rehab.,NORTHEAST REHABILITATION HOSPITAL@ELLIOT HOSPITAL,1 ELLIOT WY,MANCHESTER,NH,03103,JOHN F PROCHILO,(603) 893-2900,02/01/21,01/31/22,15,Hillsborough
00902,Hospital,General,PARKLAND MEDICAL CENTER,ONE PARKLAND DRIVE,DERRY,NH,03038,"JOHN A SKEVINGTON, II",(603) 421-2100,01/01/21,12/31/21,86,ROCKINGHAM
01349,Hospital,General,PORTSMOUTH REGIONAL HOSPITAL,333 BORTHWICK AVE,PORTSMOUTH,NH,03801,DEAN CARUCCI,(603) 436-5110,02/01/21,01/31/22,220,ROCKINGHAM
04214,Hospital,Free-Standing Emergency Room,SEABROOK EMERGENCY ROOM,603 LAFAYETTE RD,SEABROOK,NH,03874,DEAN CARUCCI,(603) 474-6400,05/01/21,04/30/22,,Belknap
02496,Hospital,General,SOUTHERN NEW HAMPSHIRE MEDICAL CENTER,8 PROSPECT STREET,NASHUA,NH,03061,SCOTT A WOLF,(603) 577-2000,04/01/21,03/31/22,188,Hillsborough
01300,Hospital,Critical Access,SPEARE MEMORIAL HOSPITAL,16 HOSPITAL ROAD,PLYMOUTH,NH,03264,MICHELLE MCEWEN,(603) 536-1120,10/01/21,09/30/22,25,GRAFTON
00023,Hospital,General,ST JOSEPH HOSPITAL,172 KINSLEY ST,NASHUA,NH,03060,JOHN JURCZYK,(603) 882-3000,04/01/21,03/31/22,208,Hillsborough
00592,Hospital,Critical Access,UPPER CT VALLEY HOSPITAL,181 CORLISS LANE,COLEBROOK,NH,03576,SCOTT COLBY,(603) 388-4299,09/01/21,08/31/22,16,COOS
00007,Hospital,Critical Access,"VALLEY REGIONAL HOSPITAL, INC",243 ELM STREET,CLAREMONT,NH,03743,JOCELYN F CAPLE,(603) 542-7771,01/01/21,12/31/21,25,SULLIVAN
00015,Hospital,Critical Access,WEEKS MEDICAL CENTER,173 MIDDLE STREET,LANCASTER,NH,03584,MICHAEL LEE,(603) 788-4911,01/01/21,12/31/21,25,COOS
00010,Hospital,General,WENTWORTH-DOUGLASS HOSPITAL,789 CENTRAL AVENUE,DOVER,NH,03820,JEFFREY B HUGHES,(603) 742-5252,04/01/21,03/31/22,178,STRAFFORD
01709,ICF/IID,,CEDARCREST INC,91 MAPLE AVENUE,KEENE,NH,03431,"CATHERINE GRAY, NHA",(603) 358-3384,08/01/21,07/31/22,26,CHESHIRE
I0063,Individual Home Care Service Provider,,ALICE EWALT,41 JERICHO ROAD,BERLIN,NH,03570,ALICE EWALT,(603) 348-2916,01/01/21,12/31/21,,Belknap
I0105,Individual Home Care Service Provider,,AMY E PARSLOW,446 COLBURN ROAD,TEMPLE,NH,03084,AMY E PARSLOW,(603) 291-0024,12/01/20,11/30/21,,HILLSBOROUGH
I0307,Individual Home Care Service Provider,,ANGELA V TUPICK,17 HEMLOCK LANE APT 1,BERLIN,NH,03570,ANGELA TUPICK,(603) 723-6082,03/01/21,02/28/22,,Coos
I0012,Individual Home Care Service Provider,,ANN MARIE PATRICK,9 CEDAR LANE,LEE,NH,03861,ANN MARIE PATRICK,(603) 915-1832,10/01/20,09/30/21,,Strafford
I0085,Individual Home Care Service Provider,,BEVERLY A CARPENTER,4648 RTE 113,THETFORD CTR,VT,05075,BEVERLY A CARPENTER,(802) 785-4960,10/01/20,09/30/21,,UNKNOWN
I0200,Individual Home Care Service Provider,,BEVERLY WESTON,60 FROST RD,DERRY,NH,03038,BEVERLY WESTON,(603) 475-4879,12/01/21,11/30/22,,Rockingham
I0309,Individual Home Care Service Provider,,BRANDIE GREELEY,136 TEMPLE RD,WILTON,NH,03086,BRANDIE GREELEY,(781) 584-2982,04/01/21,03/31/22,,Hillsborough
I0086,Individual Home Care Service Provider,,BRIDGET CUSSON,8 JODRIE LN,MILAN,NH,03588,BRIDGET CUSSON,(603) 723-0915,10/01/20,09/30/21,,Belknap
I0318,Individual Home Care Service Provider,,CANE & ABLE HOME HEALTH CARE SERVICES,726 VALLEY RD,Randolph,NH,03593,TANNA M FALL,(603) 915-9202,12/08/20,11/30/21,,Coos
I0305,Individual Home Care Service Provider,,CAROL A LAFLAMME,506 SWEDEN ST,Berlin,NH,03570,CAROL A LAFLAMME,(603) 723-6472,03/01/21,02/28/22,,Coos
I0292,Individual Home Care Service Provider,,CATHERINE TIBBITS,61 HELL HOLLOW RD,PLAINFIELD,NH,03781,CATHERINE TIBBITS,(603) 812-7881,05/01/21,04/30/22,,Sullivan
I0300,Individual Home Care Service Provider,,CHANTAL M BEDARD,30 WEST MILAN RD,Berlin,NH,03570,CHANTAL BEDARD,(603) 723-9993,01/01/21,12/31/21,,Coos
I0283,Individual Home Care Service Provider,,CHERYL ZINDULKA,86 US RT 4A,LEBANON,NH,03766,CHERYL ZINDULKA,(703) 850-1454,01/01/21,12/31/21,,Grafton
I0076,Individual Home Care Service Provider,,CINDY L STOCKTON,3240 PROVICE LAKE RD,East Wakefield,NH,03830,CINDY L STOCKTON,(603) 581-4791,10/01/20,09/30/21,,Carroll
I0083,Individual Home Care Service Provider,,CLAIRE FRENETTE,107 STRAFFORD ROAD,BERLIN,NH,03570,CLAIRE FRENETTE,(603) 752-0011,02/01/21,01/31/22,,COOS
I0279,Individual Home Care Service Provider,,CLAUDIA SIMARD,5 GILE DR UNIT TA,HANOVER,NH,03755,CLAUDIA SIMARD,(603) 663-1658,10/01/21,09/30/22,,Grafton
I0284,Individual Home Care Service Provider,,COLLINE COOK,56 HILLTOP DR,KEENE,NH,03431,COLLINE COOK,(603) 852-0710,01/01/21,12/31/21,,Cheshire
I0238,Individual Home Care Service Provider,,COMPASSIONATE COMPANIONS,14 RIVERSIDE FARM DR,LEE,NH,03861,BERNADETTE PARADIS,(603) 978-0211,03/01/21,02/28/22,,Strafford
I0330,Individual Home Care Service Provider,,CORRINA ARBOGAST,17 PINE TOP RD,Amherst,NH,03031,CORRINA ARBOGAST,(603) 345-0171,07/08/21,06/30/22,,Hillsborough
I0015,Individual Home Care Service Provider,,CRYSTAL ARSENAULT,163 NORWAY ST,BERLIN,NH,03570,CRYSTAL ARSENAULT,(603) 728-5845,10/01/21,09/30/22,,Coos
I0016,Individual Home Care Service Provider,,DEBORAH BACHAND,461 HILL ROAD,DUMMER,NH,03588,DEBORAH BACHAND,(603) 449-2000,10/01/21,09/30/22,,COOS
I0315,Individual Home Care Service Provider,,DEBRA A CHENEY,61 PICKEREL POND RD,Laconia,NH,03246,DEBRA CHENEY,(603) 387-1367,08/25/20,07/31/21,,Belknap
I0119,Individual Home Care Service Provider,,DENISE THIBODEAU,20 BRET STREET,BERLIN,NH,03570,DENISE THIBODEAU,(603) 752-4257,05/01/21,04/30/22,,COOS
I0139,Individual Home Care Service Provider,,FAE A MOORE,7 BASSETT ROAD,WOLFEBORO,NH,03894,FAE A MOORE,(603) 833-0644,07/01/21,06/30/22,,CARROLL
I0324,Individual Home Care Service Provider,,GABRIELLE ISABELLE,968 LACONIA RD,Tilton,NH,03276,GABRIELLE ISABELLE,(603) 533-1300,03/19/21,02/28/22,,Belknap
I0103,Individual Home Care Service Provider,,GAIL LAMONTAGNE,21 LIBBY ST,GORHAM,NH,03581,GAIL LAMONTAGNE,(603) 915-9135,04/01/21,03/31/22,,Coos
I0017,Individual Home Care Service Provider,,GAIL VILLNAVE,249 SWEDEN STREET,BERLIN,NH,03570,GAIL VILLNAVE,(603) 723-1497,10/01/20,09/30/21,,COOS
I0018,Individual Home Care Service Provider,,GUYLAINE DONOVAN,771 3RD AVENUE,BERLIN,NH,03570,GUYLAINE DONOVAN,(603) 915-6308,10/01/20,09/30/21,,COOS
I0304,Individual Home Care Service Provider,,HILARY A ALANDER,311 WILLARD ST,BERLIN,NH,03570,HILARY A ALANDER,(603) 991-8929,02/01/21,01/31/22,,Coos
I0310,Individual Home Care Service Provider,,HOPE SUPRY,312 COOS ST,BERLIN,NH,03570,HOPE SUPRY,(603) 915-0515,04/01/21,03/31/22,,Coos
I0175,Individual Home Care Service Provider,,JACQUELINE GRASSO,33 FIELDSTONE RD,WOLFEBORO,NH,03894,JACQUELINE GRASSO,(603) 986-1254,03/01/21,02/28/22,,Carroll
I0251,Individual Home Care Service Provider,,JAMES H FREDRICKSON,161 CANAAN ST,CANAAN,NH,03741,JAMES H FREDRICKSON,(603) 523-9960,01/01/21,12/31/21,,Grafton
I0265,Individual Home Care Service Provider,,JANET CHAMBERLAIN,36 WEBSTER AVE,CLAREMONT,NH,03743,JANET CHAMBERLAIN,(603) 542-9374,11/01/20,10/31/21,,Belknap
I0313,Individual Home Care Service Provider,,JENNA ARGUIN,40 HAVEN AVE,Berlin,NH,03570,JENNA ARGUIN,(603) 723-7118,05/22/20,04/30/21,,Coos
I0236,Individual Home Care Service Provider,,KAREN G PERKINS,128 MOUNTAIN RD,Center Tuftonboro,NH,03816,KAREN PERKINS,(603) 707-2034,12/01/20,11/30/21,,Carroll
I0125,Individual Home Care Service Provider,,KAREN SUPRY,312 COOS STREET,BERLIN,NH,03570,KAREN SUPRY,(603) 915-0704,05/01/21,04/30/22,,COOS
I0314,Individual Home Care Service Provider,,KENDRA DISILVA,29 FOX RUN RD,WEST OSSIPEE,NH,03890,KENDRA DISILVA,(603) 662-6436,08/01/21,07/31/22,,Carroll
I0172,Individual Home Care Service Provider,,KIMBERLY BARTENHAGEN,88 LYFORD RD,BROOKFIELD,NH,03872,KIMBERLY BARTENHAGEN,(603) 522-6558,02/01/21,01/31/22,,Carroll
I0323,Individual Home Care Service Provider,,KIMBERLY COLE,52 FRONT ST,Pembroke,NH,03275,KIMBERLY COLE,(603) 674-8258,03/19/21,02/28/22,,Merrimack
I0253,Individual Home Care Service Provider,,L. ELIZABETH WALLER,2245 CONNECTICUT RIVER RD,SPRINGFIELD,VT,05156,L. ELIZABETH WALLER,(802) 338-1383,04/01/21,03/31/22,,Windsor
I0047,Individual Home Care Service Provider,,LESLIE ANN ELLIOTT,5 JOHNSON ROAD,MIRROR LAKE,NH,03853,LESLIE A ELLIOTT,(603) 569-3412,06/01/21,05/31/22,,CARROLL
I0326,Individual Home Care Service Provider,,LILY CUMMINGS,660 KENT ST,Berlin,NH,03570,LILY CUMMINGS,(207) 924-4755,03/31/21,02/28/22,,Coos
I0064,Individual Home Care Service Provider,,LINDA A GUAY,776 CAPE MOONSHINE ROAD,PIERMONT,NH,03779,LINDA A GUAY,(603) 764-9210,09/01/21,08/31/22,,Belknap
I0102,Individual Home Care Service Provider,,LINDA A VAILLANCOURT,19 JASPER ST,BERLIN,NH,03570,LINDA VAILLANCOURT,(603) 215-6154,12/01/20,11/30/21,,Belknap
I0131,Individual Home Care Service Provider,,LINDA S POSNER,28 STARLING STREET,KEENE,NH,03431,LINDA S POSNER,(603) 209-1335,03/01/21,02/28/22,,CHESHIRE
I0302,Individual Home Care Service Provider,,LOUISE DION,100 JASPER ST,Berlin,NH,03570,LOUISE DION,(603) 752-4087,02/01/21,01/31/22,,Coos
I0174,Individual Home Care Service Provider,,MARCELLA A HOULE,774 HILLSIDE AVE,BERLIN,NH,03570,MARCELLA HOULE,(603) 752-5529,03/01/21,02/28/22,,Coos
I0048,Individual Home Care Service Provider,,MARGUERITE A SCANLON,136 SUMMITVIEW DRIVE,TAMWORTH,NH,03886,MARGUERITE A SCANLON,(603) 960-2231,06/01/21,05/31/22,,CARROLL
I0274,Individual Home Care Service Provider,,MARIA ARISTEGUI-BURKE,163 MADISON AVE,BERLIN,NH,03570,MARIA ARISTEGUI-BURKE,(603) 387-0583,05/01/21,04/30/22,,Belknap
I0049,Individual Home Care Service Provider,,MARLENE A FRENCH,141 DOOE ROAD,DUBLIN,NH,03444,MARLENE A FRENCH,(603) 563-8876,06/01/21,05/31/22,,CHESHIRE
I0120,Individual Home Care Service Provider,,MARY A ST. AUBIN,21 ACHORN HILL ROAD,DALTON,NH,03598,MARY A ST AUBIN,(603) 616-1709,05/01/21,04/30/22,,Coos
I0186,Individual Home Care Service Provider,,MAUREEN D ELDRIDGE,21 ELDRIDGE RD,Freedom,NH,03836,MAUREEN ELDRIDGE,(603) 539-9570,06/01/21,05/31/22,,Carroll
I0058,Individual Home Care Service Provider,,MAUREEN ROBICHAUD,63 DEAN FARM ROAD,JAFFREY,NH,03452,MAUREEN ROBICHAUD,(603) 532-4511,,08/31/13,,CHESHIRE
I0285,Individual Home Care Service Provider,,MICHELE HOGUE,5 ROWELL DR,STRAFFORD,NH,03884,MICHELE HOGUE,(603) 343-6839,01/01/21,12/31/21,,Strafford
I0024,Individual Home Care Service Provider,,MYSTIE PEARE,393 WESTERN AVENUE,BERLIN,NH,03570,MYSTIE PEARE,(603) 723-8523,10/01/21,09/30/22,,COOS
I0322,Individual Home Care Service Provider,,NORMA HERNANDEZ,19 CHURCH  ST #3,Belmont,NH,03220,NORMA HERNANDEZ,(603) 832-1711,03/19/21,02/28/22,,Belknap
I0293,Individual Home Care Service Provider,,PAMELA J LURVEY,159 PRESIDENTIAL HWY,Jefferson,NH,03583,PAMELA J LURVEY,(603) 631-6479,10/01/20,09/30/21,,Coos
I0327,Individual Home Care Service Provider,,PAMELA MICHAUD,114 N VILLAGE RD,Loudon,NH,03307,PAMELA MICHAUD,(603) 229-7036,04/29/21,03/31/22,,Merrimack
I0135,Individual Home Care Service Provider,,PAMELA VILLENEUVE,2 MASON DRIVE,MILAN,NH,03588,PAMELA VILLENEUVE,(603) 723-7566,06/01/21,05/31/22,,COOS
I0115,Individual Home Care Service Provider,,PATRICIA A GOOD,2702 CHINOOK TRAIL,WONALANCET,NH,03897,PATRICIA A GOOD,(603) 986-3328,01/01/21,12/31/21,,CARROLL
I0124,Individual Home Care Service Provider,,PAULA LITTLETON,3 MARISUE TERRACE,MELVIN VILLAGE,NH,03850,PAULA LITTLETON,(603) 544-2059,05/01/21,04/30/22,,Carroll
I0258,Individual Home Care Service Provider,,PRISCILLA BREAULT,112 STATE ST,BERLIN,NH,03570,PRISCILLA BREAULT,(603) 752-5137,06/01/21,05/31/22,,Coos
I0050,Individual Home Care Service Provider,,RACHEL A DONNELLY,59 MAPLE AVENUE APT. 20,KEENE,NH,03431,RACHEL A DONNELLY,(603) 376-9614,06/01/21,05/31/22,,CHESHIRE
I0329,Individual Home Care Service Provider,,RACHEL A YAEGER,290 RTE 10,Piermont,NH,03779,RACHEL YAEGER,(603) 272-9444,05/25/21,04/30/22,,Grafton
I0056,Individual Home Care Service Provider,,REBECCA CIARDELLI,8 CURRIER AVENUE,PETERBOROUGH,NH,03458,REBECCA CIARDELLI,(603) 924-7385,,07/31/13,,HILLSBOROUGH
I0308,Individual Home Care Service Provider,,REBECCA R TRAFFIE,5 HUNTEE LOOP,NEW IPSWICH,NH,03071,REBECCA R TRAFFIE,(603) 562-6642,04/01/21,03/31/22,,Hillsborough
I0317,Individual Home Care Service Provider,,RESILIENT HEALTHCARE LLC,63 LITTLE RIVER RD,Hampton,NH,03842,MARTHA M CHICHESTER,(603) 474-7601,10/26/20,09/30/21,,Rockingham
I0062,Individual Home Care Service Provider,,RIDGE SATTERTHWAITE,287 W FAIRLEE ROAD,FAIRLEE,VT,05045,RIDGE SATTERTHWAITE,(802) 333-3629,09/01/21,08/31/22,,Addison
I0026,Individual Home Care Service Provider,,ROXANNE BOUCHER,32 HAVEN AVENUE,BERLIN,NH,03570,ROXANNE C BOUCHER,(603) 752-2498,10/01/21,09/30/22,,COOS
I0319,Individual Home Care Service Provider,,"SAFE AT HOME, HOME CARE SERVICE",208 2ND NH TPKE SO,Francestown,NH,03043,SHERYL RICHARDSON,(603) 548-3856,01/22/21,12/31/21,,Hillsborough
I0321,Individual Home Care Service Provider,,SARAH DICKINSON,249 BAPTIST RD,Canterbury,NH,03224,SARAH DICKINSON,(603) 520-7905,03/17/21,02/28/22,,Merrimack
I0325,Individual Home Care Service Provider,,SARAH FLYNN,40 TIOGA DR,Belmont,NH,03220,SARAH FLYNN,(603) 393-5866,03/23/21,02/28/22,,Belknap
I0027,Individual Home Care Service Provider,,SHIRLEY DUPONT,745 LANCASTER STREET,BERLIN,NH,03570,SHIRLEY DUPONT,(603) 752-2335,10/01/20,09/30/21,,COOS
I0156,Individual Home Care Service Provider,,SIMPLY SENIORS,130 OAK HILL RD,CONCORD,NH,03301,LISA MARIE CRISAFULLI,(603) 224-5716,12/01/20,11/30/21,,MERRIMACK
I0286,Individual Home Care Service Provider,,SOLACE MAREK,8 CONTOOCOOK AVE,JAFFREY,NH,03452,SOLACE MAREK,(603) 703-7353,02/01/21,01/31/22,,Cheshire
I0122,Individual Home Care Service Provider,,SUNNY CARE BY BETH LLC,44 WARFIELD ROAD,CHESTER,NH,03036,BETH KEDDY,(603) 490-5741,02/01/21,01/31/22,,ROCKINGHAM
I0028,Individual Home Care Service Provider,,SUSAN BISSON,800 SECOND AVENUE,BERLIN,NH,03570,SUSAN BISSON,(603) 723-0126,10/01/21,09/30/22,,COOS
I0030,Individual Home Care Service Provider,,SUSAN C FRENETTE,104 PINE ISLAND AVENUE,BERLIN,NH,03570,SUSAN C FRENETTE,(603) 723-4070,10/01/20,09/30/21,,COOS
I0033,Individual Home Care Service Provider,,SUSAN FLANDERS,10 FLANDERS ROAD,MEREDITH,NH,03253,SUSAN FLANDERS,(603) 279-4913,08/01/21,07/31/22,,BELKNAP
I0328,Individual Home Care Service Provider,,TAMMY ST AMANT,5 BRUNSWICK ST,Berlin,NH,03570,TAMMY ST AMANT,(603) 723-1642,05/05/21,04/30/22,,Coos
I0331,Individual Home Care Service Provider,,THRIVE AT HOME LLC,10 PINEWOOD DR,Stratham,NH,03885,CHRISTINE EATON,,07/19/21,06/30/22,,Rockingham
I0320,Individual Home Care Service Provider,,VALERIE MORIN,500 MAIN ST TRLR 4,Gorham,NH,03581,VALERIE MORIN,(603) 315-7858,01/29/21,12/31/21,,Coos
I0316,Individual Home Care Service Provider,,VERONICA JEAN SAY,22 STRAFFORD ST #30C,Laconia,NH,03246,VERONICA JEAN SAY,(603) 892-5175,10/19/20,09/30/21,,Belknap
I0080,Individual Home Care Service Provider,,WENDY THORNTON,159 CROSIER LANE,LYNDONVILLE,VT,05851,WENDY THORNTON,(603) 359-0697,10/01/20,09/30/21,,Caledonia
I0075,Individual Home Care Service Provider,,YVETTE MERCIER,11 COTTAGE STREET,GORHAM,NH,03581,YVETTE MERCIER,(603) 723-0556,10/01/21,09/30/22,,COOS
04084,Laboratory,,21 HAMPTON ROAD LAB,21 HAMPTON RD BLD 3,EXETER,NH,03833,CANDY GARDNER,(603) 580-8446,03/01/21,02/28/22,,Rockingham
04003,Laboratory,,AMERICAN PAIN INSTITUTE LLC,14 MANCHESTER SQ STE 290,PORTSMOUTH,NH,03801,JOSHUA GREENSPAN MD,(603) 766-8500,03/01/21,02/28/22,,Rockingham
02747,Laboratory,,AVH LABORATORY-GORHAM,2 BROADWAY ST,GORHAM,NH,03581,RUTH GALLAGHER,(603) 466-2615,06/01/21,05/31/22,,COOS
03276,Laboratory,,AVH LABORATORY-PLEASANT STREET,133 PLEASANT STREET,BERLIN,NH,03570,"RUTH GALLAGHER MS,MT (ASCP)",(603) 752-4861,07/01/21,06/30/22,,COOS
04134,Laboratory,,CARRIAGE HILL ASSISTED LIVING,306 KNOX MARSH ROAD,MADBURY,NH,03823,SARA NADEAU,(603) 343-4475,02/01/21,01/31/22,,Strafford
04451,Laboratory,,CEDX LABS INC,"200 INNOVATIVE WY, STE 1305",Nashua,NH,03062,KEVEN ARNOLD,(978) 712-0843,11/03/20,10/31/21,,Hillsborough
04007,Laboratory,,CH ANTICOAGULATION CLINIC @ CFM,18 FOUNDRY ST,CONCORD,NH,03301,"WENDY TAYLOR, RN",(603) 228-0071,04/01/21,03/31/22,,Merrimack
04436,Laboratory,,CH ANTICOAGULATION CLINIC AT MEMORIAL WEST,"MEMORIAL BLDG WEST, FL 2 246 PLEASANT ST",Concord,NH,03301,LISA M TREMBLAY,(603) 224-4003,08/20/20,07/31/21,,Merrimack
04262,Laboratory,,CMC VEIN AND VASCULAR SPECIALIST,160 SOUTH RIVER RD STE 100,BEDFORD,NH,03110,LORRIE WOODWARD,(603) 655-5150,04/01/21,03/31/22,,Hillsborough
04501,Laboratory,,CONCORD HOSPITAL - LACONIA LABORATORY COLLECTING STATION,724 MAIN STREET,Laconia,NH,03246,JAN KIMBALL,(603) 524-5151,05/01/21,04/30/22,,Belknap
04502,Laboratory,,CONCORD HOSPITAL - MEREDITH PRIMARY CARE LABORATORY COLLECTION STATION,238 DANIEL WEBSTER HIGHWAY,Meredith,NH,03253,JAN KIMBALL,(603) 279-7464,05/01/21,04/30/22,,Belknap
04378,Laboratory,,CONVENIENT MD URGENT CARE - BELMONT,73 DANIEL WEBSTER HIGHWAY,Belmont,NH,03220,ALLURA NOYES,(603) 737-0550,12/01/20,11/30/21,,Belknap
04376,Laboratory,,CONVENIENTMD URGENT CARE - LITTLETON,551 MEADOW STREET,Littleton,NH,03561,JOANNA M ALDRICH,(603) 761-3660,12/01/20,11/30/21,,Grafton
03973,Laboratory,,CONVENIENTMD URGENT CARE LAB,8 LOUDON ROAD,CONCORD,NH,03301,SOLANYI A RODRIGUEZ,(603) 226-9000,11/01/21,10/31/22,,MERRIMACK
03974,Laboratory,,CONVENIENTMD URGENT CARE LAB WINDHAM,125 INDIAN ROCK ROAD,WINDHAM,NH,03087,JILL E ROBERTSON,(603) 890-6330,11/01/21,10/31/22,,ROCKINGHAM
04051,Laboratory,,CONVENIENTMD URGENT CARE-BEDFORD LAB,3 NASHUA RD,BEDFORD,NH,03110,MICHELLE H MACDONALD,(603) 472-6700,11/01/21,10/31/22,,Hillsborough
04035,Laboratory,,CONVENIENTMD URGENT CARE-EXETER,1 PORTSMOUTH AVE,STRATHAM,NH,03885,ALEXANDRIA N BOUCHER,(603) 942-7900,09/01/21,08/31/22,,Rockingham
04124,Laboratory,,CONVENIENTMD URGENT CARE-KEENE,351 WINCHESTER ST,KEENE,NH,03431,LAURIE M SZOGEDI,(603) 605-0654,12/01/20,11/30/21,,Cheshire
04483,Laboratory,,CONVENIENTMD URGENT CARE-LONDONDERRY LAB,42 NASHUA RD,Londonderry,NH,03053,DANIEL SHEA,(603) 413-6800,02/04/21,01/31/22,,Rockingham
04201,Laboratory,,CONVENIENTMD URGENT CARE-MERRIMACK,2 DOBSON WY,MERRIMACK,NH,03054,HALEY MOORE,(603) 471-6068,01/01/21,12/31/21,,Hillsborough
04127,Laboratory,,CONVENIENTMD URGENT CARE-NASHUA,565 AMHERST ST,NASHUA,NH,03063,TANIA ROSADO,(603) 578-3347,12/01/20,11/30/21,,Hillsborough
04167,Laboratory,,CONVENIENTMD URGENT CARE-PORTSMOUTH,599 LAFAYETTE RD,PORTSMOUTH,NH,03801,NORA CLARK,(603) 942-7900,08/01/21,07/31/22,,Belknap
04069,Laboratory,,CONVENIENTMD-DOVER,14 WEBB PLACE,DOVER,NH,03820,ANGELLA PUCILLO-DRISCOLL,(603) 742-7900,01/01/21,12/31/21,,Strafford
04430,Laboratory,,CORE OBSTETRICS AND GYNECOLOGY,3 ALUMNI DR STE 401,Exeter,NH,03833,CANDY GARDNER,(603) 580-8446,07/01/21,06/30/22,,Rockingham
03531,Laboratory,,CORE PHYSICIANS LAB SERVICES,"1 HAMPTON RD, BLDG B STE 108",EXETER,NH,03833,CANDICE GARDNER,(603) 580-8446,08/01/21,07/31/22,,ROCKINGHAM
04386,Laboratory,,CORE PRIMARY CARE OF PORTSMOUTH,605 LAFAYETTE RD,PORTSMOUTH,NH,03801,CANDICE GARDNER,(603) 580-8446,01/01/21,12/31/21,,Rockingham
04275,Laboratory,,"CROSSROADS RECOVERY CENTER, LLC",155 MAIN ST,SALEM,NH,03079,BARRY PIETRANTONIO,(603) 912-4490,06/01/21,05/31/22,,Rockingham
04332,Laboratory,,DARTMOUTH-HITCHCOCK CONCORD LAB,253 PLEASANT STREET,CONCORD,NH,03301,DAVEY PILCHER,(603) 226-2200,05/01/21,04/30/22,,Merrimack
03591,Laboratory,,DARTMOUTH-HITCHCOCK MANCHESTER LAB,100 HITCHCOCK WAY,MANCHESTER,NH,03104,DAVEY PILCHER,(603) 629-8074,04/01/21,03/31/22,,HILLSBOROUGH
03790,Laboratory,,DARTMOUTH-HITCHCOCK NASHUA LAB,2300 SOUTHWOOD DRIVE,NASHUA,NH,03063,DAVEY PILCHER,(603) 577-4338,01/01/21,12/31/21,,HILLSBOROUGH
04263,Laboratory,,DICK HALL'S HOUSE,5-7 ROPE FERRY RD,HANOVER,NH,03755,"MARK H REED, MD",(603) 646-9423,03/01/21,02/28/22,,Grafton
03053,Laboratory,,DIVISION OF PH AND CS - CITY OF NASHUA,18 MULBERRY STREET,NASHUA,NH,03060,KIMBERLY A BERNARD,(603) 589-4500,11/01/20,10/31/21,,HILLSBOROUGH
04325,Laboratory,,DIVISION OF PUBLIC HEALTH & COMMUNITY SERVICES-CITY OF NASHUA VAN,18 MULBERRY ST,Nashua,NH,03060,BOBBIE BAGLEY,(603) 589-4500,04/01/21,03/31/22,,Hillsborough
03720,Laboratory,,ELLIOT COUMADIN CLINIC @ 138 WEBSTER ST,138 WEBSTER STREET,MANCHESTER,NH,03104,ALEXANDRA MOREAU,(603) 663-2557,05/01/21,04/30/22,,HILLSBOROUGH
04252,Laboratory,,ELLIOT COUMADIN CLINIC @ 15 FREETOWN RD,15 FREETOWN RD #8,RAYMOND,NH,03077,ALEXANDRA MOREAU,(603) 663-2557,02/01/21,01/31/22,,Rockingham
03724,Laboratory,,ELLIOT COUMADIN CLINIC @ 40 BUTTRICK RD,40 BUTTRICK ROAD,LONDONDERRY,NH,03053,ALEXANDRA MOREAU,(603) 663-2557,05/01/21,04/30/22,,ROCKINGHAM
03691,Laboratory,,ELLIOT ONE DAY SURGERY CENTER @ 185 QUEEN CITY AVE,185 QUEEN CITY AVE,MANCHESTER,NH,03101,"BEVERLY PRIMEAU, RN",(603) 663-2557,04/01/21,03/31/22,,HILLSBOROUGH
03392,Laboratory,,ELLIOT POC LAB/COLLECTION STATION @ 145 HOLLIS ST,145 HOLLIS STREET,MANCHESTER,NH,03101,ALEXANDRA MOREAU,(603) 663-2557,08/01/21,07/31/22,,HILLSBOROUGH
03475,Laboratory,,ELLIOT STAT LAB/COLLECTION STATION @ 40 BUTTRICK RD,40 BUTTRICK ROAD,LONDONDERRY,NH,03053,ALEXANDRA MOREAU,(603) 663-2557,12/01/20,11/30/21,,Rockingham
03692,Laboratory,,ELLIOT URGENT CARE LAB @ 185 QUEEN CITY AVE,185 QUEEN CITY AVENUE,MANCHESTER,NH,03101,ALEXANDRA MOREAU,(603) 663-2557,04/01/21,03/31/22,,HILLSBOROUGH
03304,Laboratory,,ELLIOT URGENT CARE LAB @ 40 BUTTRICK RD,40 BUTTRICK ROAD,LONDONDERRY,NH,03053,ALEXANDRA MOREAU,(603) 663-2557,11/01/21,10/31/22,,ROCKINGHAM
04277,Laboratory,,ELLIOT URGENT CARE LAB @ BEDFORD,25 LEAVY DR,BEDFORD,NH,03110,ALEXANDRA MOREAU,(603) 663-2557,07/01/21,06/30/22,,Hillsborough
03927,Laboratory,,EPPING FAMILY PRACTICE LAB,212 CALEF HIGHWAY,EPPING,NH,03042,CANDICE GARDNER,(603) 580-8446,04/01/21,03/31/22,,ROCKINGHAM
03288,Laboratory,,EQUALITY HEALTH CENTER,38 SOUTH MAIN STREET,CONCORD,NH,03301,SARAH ANDERSON,(603) 225-2739,07/01/21,06/30/22,,MERRIMACK
04452,Laboratory,,FARNUM CENTER - LAB,140 QUEEN CITY AVE,MANCHESTER,NH,03103,DENNIS THERIAULT,(603) 622-3020,11/01/21,10/31/22,,Hillsborough
04424,Laboratory,,FRANKLIN PIERCE UNIVERSITY LAB,40 UNIVERSITY DR,Rindge,NH,03461,ERICA PEERY,(603) 899-4130,07/01/21,06/30/22,,Cheshire
03602,Laboratory,,HAMPTON HEALTH,879 LAFAYETTE ROAD,HAMPTON,NH,03842,CANDICE GARDNER,(603) 580-8446,05/01/21,04/30/22,,ROCKINGHAM
04491,Laboratory,,INTEGRATIVE HEALTH CARE CENTER LLC,155 MAIN DUNSTABLE RD STE 200,Nashua,NH,03060,"STEVE DEL MAURO, NCIP",(603) 821-0000,03/17/21,02/28/22,,Hillsborough
03205,Laboratory,,JOAN G LOVERING HEALTH CENTER,559 PORTSMOUTH AVENUE,GREENLAND,NH,03840,LISA LEACH,(603) 436-7588,11/01/20,10/31/21,,ROCKINGHAM
04295,Laboratory,,LABCORP-WINDHAM STAT LAB,183 ROCKINGHAM RD,WINDHAM,NH,03087,LAURA DUNN,(603) 430-4125,10/01/21,09/30/22,,Rockingham
04447,Laboratory,,LIGHT POINT LABS,56 STILES RD #204,Salem,NH,03079,MICHAEL RAY,(978) 473-4176,10/16/20,09/30/21,,Rockingham
03250,Laboratory,,MANCHESTER HEALTH DEPARTMENT,1528 ELM STREET,MANCHESTER,NH,03101,"ANNA THOMAS, MPH",(603) 624-6466,02/01/21,01/31/22,,HILLSBOROUGH
04493,Laboratory,,MANCHESTER HEALTH DEPARTMENTMOBILE LAB,1528 ELM ST,Manchester,NH,03103,"ANNA THOMAS, MPH",(603) 624-6466,03/25/21,02/28/22,,Hillsborough
02731,Laboratory,,METABOLIC SOLUTIONS,460 AMHERST STREET,NASHUA,NH,03063,DAVID A. WAGNER,(603) 598-6960,03/01/21,02/28/22,,Belknap
03729,Laboratory,,NASHUA EYE SURGERY CENTER - LAB,5 COLISEUM AVENUE,NASHUA,NH,03063,"THEODORE MOCHE, CRNA",(603) 689-9240,06/01/21,05/31/22,,Belknap
04145,Laboratory,,NELSON ANALYTICAL,490 EAST INDUSTRIAL PARK DR,MANCHESTER,NH,03109,ANDREW NELSON,(603) 622-0200,04/01/21,03/31/22,,Hillsborough
04065,Laboratory,,NEW HAMPSHIRE LABORATORY SPECTRUM MEDICAL GROUP PATHOLOGY,1 HAMPTON RD STE 307,EXETER,NH,03833,"Kaidi Mikhitarian, MD",(603) 580-5554,12/01/21,11/30/22,,Rockingham
04247,Laboratory,,NORDX-MEMORIAL CAMPUS,3073 WHITE MOUNTAIN HWY,NORTH CONWAY,NH,03860,DAVEY W PILCHER,(603) 356-0691,12/01/20,11/30/21,,Carroll
04473,Laboratory,,ON-SITE MEDICAL SERVICES LLC MOBILE VAN 040,71 BELKNAP AVE,Newport,NH,03773,JAMES KEADY,(603) 826-6500,12/29/20,11/30/21,,Sullivan
04474,Laboratory,,"ON-SITE MEDICAL SERVICES,  LLC MOBILE VAN 050",71 BELKNAP AVE,Newport,NH,03773,JAMES KEADY,(603) 826-6500,12/29/20,11/30/21,,Sullivan
04469,Laboratory,,"ON-SITE MEDICAL SERVICES, LLC",71 BELKNAP AVE,Newport,NH,03773,JAMES KEADY,(603) 826-6500,12/29/20,11/30/21,,Sullivan
04471,Laboratory,,"ON-SITE MEDICAL SERVICES, LLC 020",71 BELKNAP AVE,Newport,NH,03773,JAMES KEADY,(603) 826-6500,12/29/20,11/30/21,,Sullivan
04470,Laboratory,,"ON-SITE MEDICAL SERVICES, LLC MOBILE VAN 010",71 BELKNAP AVE,Newport,NH,03773,JAMES KEADY,(603) 826-6500,12/29/20,11/30/21,,Sullivan
04472,Laboratory,,"ON-SITE MEDICAL SERVICES, LLC MOBILE VAN 030",71 BELKNAP AVE,Newport,NH,03773,JAMES KEADY,(603) 826-6500,12/29/20,11/30/21,,Sullivan
03924,Laboratory,,PARKLAND LABORATORY @ STILES RD,31 STILES ROAD SUITE 2400,SALEM,NH,03079,JANA PETERSON,(603) 890-2785,04/01/21,03/31/22,,ROCKINGHAM
04137,Laboratory,,PINEWOOD MEDICAL LABORATORY,7 WORKS WAY,SOMERSWORTH,NH,03878,MICHAEL O'CONNELL,(603) 692-1835,02/01/21,01/31/22,,Strafford
04427,Laboratory,,PLAISTOW HEALTH LAB,127 PLAISTOW RD,Plaistow,NH,03865,CANDY GARDNER,(603) 580-8446,07/01/21,06/30/22,,Rockingham
03167,Laboratory,,PRH-LAB,155 BORTHWICK AVE SUITE 302,PORTSMOUTH,NH,03801,ALYSSA M CRAFTS,(603) 433-5282,07/01/21,06/30/22,,ROCKINGHAM
03877,Laboratory,,QUEST DIAGNOSTICS-TSIENNETO RD,14 TSIENNETO ROAD #201,DERRY,NH,03038,BERNADETTE ISMAIL,(603) 421-0527,11/01/20,10/31/21,,ROCKINGHAM
04454,Laboratory,,RAY HOUSE-FARNUM NORTH LAB,14 HOLY CROSS RD,FRANKLIN,NH,03235,DENNIS THERIAULT,(603) 622-3020,11/01/21,10/31/22,,Merrimack
04030,Laboratory,,SACO RIVER MEDICAL GROUP,7 GREENWOOD AVE,CONWAY,NH,03818,"ROSS EMERY, MD",(603) 447-3500,08/01/21,07/31/22,,Carroll
03603,Laboratory,,SALTONSTALL LAB,9 BUZZELL AVENUE,EXETER,NH,03833,CANDICE GARDNER,(603) 580-8446,05/01/21,04/30/22,,Rockingham
03236,Laboratory,,"SEACOAST PATHOLOGY, INC",ONE HAMPTON RD SUITE 307,EXETER,NH,38334849,JOSEPH RAIANO,(603) 778-8522,03/01/21,02/28/22,,ROCKINGHAM
04190,Laboratory,,SNHU WELLNESS CENTER LAB,2500 NORTH RIVER RD,HOOKSETT,NH,03106,FELIX F PIZZI,(603) 645-9679,11/01/20,10/31/21,,Merrimack
04385,Laboratory,,STRATHAM FAMILY PRACTICE,"118 PORTSMOUTH AVE, BLDG D",Stratham,NH,03885,CANDICE GARDNER,(603) 580-8446,01/01/21,12/31/21,,Rockingham
04308,Laboratory,,STRIVE HEALTH,"1750 ELM ST, STE 103",MANCHESTER,NH,03104,SHEENA BICE,(603) 865-1706,01/01/21,12/31/21,,Hillsborough
03741,Laboratory,,URGENT CARE LAB @ BEDFORD MEDICAL PARK,5 WASHINGTON PLACE STE 1B,BEDFORD,NH,03110,"WELDON W SANFORD, MD",(603) 314-4543,08/01/21,07/31/22,,HILLSBOROUGH
03099,Laboratory,,WALK-IN SERVICES/POINT OF CARE LAB,60 COMMERCIAL STREET,CONCORD,NH,03301,GEOFFREY M FITZGERALD,(603) 227-7000,11/01/20,10/31/21,,MERRIMACK
04455,Laboratory,,WEBSTER PLACE-FARNUM NORTH LAB,27 HOLY CROSS RD,FRANKLIN,NH,03235,DENNIS THERIAULT,(603) 622-3020,11/17/20,10/31/21,,Merrimack
04017,Laboratory,,WENTWORTH-DOUGLASS EXPRESS CARE DOVER,701 B CENTRAL AVE,DOVER,NH,03820,"SRINIVAS MAGANTI, PhD",(603) 609-6700,06/01/21,05/31/22,,Strafford
03496,Laboratory,,WENTWORTH-DOUGLASS PROF. CENTER @ LEE,65 CALEF HIGHWAY,LEE,NH,03861,"SRINIVAS MAGANTI, PhD",(603) 868-8550,04/01/21,03/31/22,,STRAFFORD
04342,Laboratory,,WENTWORTH-DOUGLASS SEACOAST CANCER CENTER PORTSMOUTH,121 CORPORATE DR,PORTSMOUTH,NH,03801,"SRINIVAS MAGANTI, PhD",(603) 742-5252,06/01/21,05/31/22,,Rockingham
03769,Non-Emergency Walk-In Care Center,,ACCESS SPORTS MEDICINE AND ORTHOPAEDICS,"1 HAMPTON RD, STE 200",EXETER,NH,03833,"JOSHUA SIEGEL, MD",(603) 775-7575,12/01/20,11/30/21,,ROCKINGHAM
04179,Non-Emergency Walk-In Care Center,,ACCESS WALK-IN INJURY CLINIC,"155 BORTHWICK AVE, STE 102",PORTSMOUTH,NH,03801,"JOSHUA SIEGEL, MD",(603) 431-3575,10/01/21,09/30/22,,Rockingham
04394,Non-Emergency Walk-In Care Center,,ACCESS WALK-IN INJURY CLINIC,120 WASHINGTON ST,ROCHESTER,NH,03839,"JOSHUA SIEGEL, MD",(603) 330-3888,02/01/21,01/31/22,,Strafford
04316,Non-Emergency Walk-In Care Center,,CHARLESTOWN HEALTH CENTER,250 CEDA ROAD,CHARLESTOWN,NH,03603,JOSHUA R DUFRESNE,(603) 826-5711,01/01/21,12/31/21,,Sullivan
04320,Non-Emergency Walk-In Care Center,,CLEARCHOICE MD-CMC URGENT CARE,558 MAST ROAD,GOFFSTOWN,NH,03045,"MARCUS HAMPERS, MD",(603) 232-1790,02/01/21,01/31/22,,Hillsborough
04326,Non-Emergency Walk-In Care Center,,CLEARCHOICE MD-CMC URGENT CARE-HOOKSETT,7 CINEMAGIC WAY,HOOKSETT,NH,03106,"MARCUS HAMPERS, MD",(603) 782-5112,04/01/21,03/31/22,,Merrimack
04507,Non-Emergency Walk-In Care Center,,CLEARCHOICEMD URGENT CARE - ALTON,24 HOMESTEAD PLACE,Alton,NH,03809,"MARCUS J HAMPERS, MD",(603) 822-4713,05/28/21,04/30/22,,Belknap
04508,Non-Emergency Walk-In Care Center,,CLEARCHOICEMD URGENT CARE - BELMONT,96 DANIEL WEBSTER HWY,Belmont,NH,03220,"MARCUS J HAMPERS, MD",(603) 267-0656,05/28/21,04/30/22,,Belknap
04509,Non-Emergency Walk-In Care Center,,CLEARCHOICEMD URGENT CARE-EPPING,1 BEEHIVE DRIVE,Epping,NH,03042,"MARCUS J HAMPERS, MD",(603) 734-9292,05/28/21,04/30/22,,Rockingham
04510,Non-Emergency Walk-In Care Center,,CLEARCHOICEMD URGENT CARE-LEBANON,410 MIRACLE MILE,Lebanon,NH,03766,"MARCUS J HAMPERS, MD",(603) 267-3260,05/28/21,04/30/22,,Grafton
04511,Non-Emergency Walk-In Care Center,,CLEARCHOICEMD URGENT CARE-PLAISTOW,127 PLAISTOW ROAD,Plaistow,NH,03865,"MARCUS J HAMPERS, MD",(603) 797-9289,05/28/21,04/30/22,,Rockingham
04512,Non-Emergency Walk-In Care Center,,CLEARCHOICEMD URGENT CARE-PORTSMOUTH,750 LAFAYETTE ROAD,Portsmouth,NH,03801,"MARCUS J HAMPERS, MD",(603) 427-8539,05/28/21,04/30/22,,Rockingham
04513,Non-Emergency Walk-In Care Center,,CLEARCHOICEMD URGENT CARE-TILTON,75 LACONIA ROAD,Tilton,NH,03276,"MARCUS J HAMPERS, MD",(603) 729-0050,05/28/21,04/30/22,,Belknap
03561,Non-Emergency Walk-In Care Center,,CONCENTRA URGENT CARE - CONCORD,1 PILLSBURY STREET,CONCORD,NH,03301,CHRISTINE A BENSON,(603) 223-2300,01/01/21,12/31/21,,MERRIMACK
03560,Non-Emergency Walk-In Care Center,,CONCENTRA URGENT CARE - NASHUA,14 A BROAD STREET,NASHUA,NH,03064,SHEILA MORIN,(603) 889-2354,01/01/21,12/31/21,,HILLSBOROUGH
04000,Non-Emergency Walk-In Care Center,,CONCENTRA URGENT CARE-MANCHESTER,1279 S WILLOW ST,MANCHESTER,NH,03103,MEGAN COMEAU,(603) 644-3330,02/01/21,01/31/22,,Hillsborough
03889,Non-Emergency Walk-In Care Center,,CONVENIENTMD URGENT CARE,125 INDIAN ROCK RD UNIT 1,WINDHAM,NH,03087,JILL E ROBERTSON,(603) 890-6330,12/01/20,11/30/21,,ROCKINGHAM
04377,Non-Emergency Walk-In Care Center,,CONVENIENTMD URGENT CARE - BELMONT,73 DANIEL WEBSTER HIGHWAY,Belmont,NH,03220,"ALLURA NOYES, RT",(603) 737-0550,12/01/20,11/30/21,,Belknap
03970,Non-Emergency Walk-In Care Center,,CONVENIENTMD URGENT CARE - CONCORD,8 LOUDON ROAD,CONCORD,NH,03301,SOLANYI A RODRIGUEZ,(603) 226-9000,10/01/21,09/30/22,,MERRIMACK
04375,Non-Emergency Walk-In Care Center,,CONVENIENTMD URGENT CARE - LITTLETON,551 MEADOW STREET,Littleton,NH,03561,JOANNA ALDRICH,(603) 761-3660,12/01/20,11/30/21,,Grafton
04077,Non-Emergency Walk-In Care Center,,CONVENIENTMD URGENT CARE - MERRIMACK,2 DOBSON WAY,MERRIMACK,NH,03054,HALEY A MOORE,(603) 471-6069,02/01/21,01/31/22,,Hillsborough
04049,Non-Emergency Walk-In Care Center,,CONVENIENTMD URGENT CARE-BEDFORD,3 NASHUA RD,BEDFORD,NH,03110,MICHELLE H MACDONALD,(603) 472-6700,11/01/21,10/31/22,,Hillsborough
04070,Non-Emergency Walk-In Care Center,,CONVENIENTMD URGENT CARE-DOVER,14 WEBB PL,DOVER,NH,03820,ANGELLA PUCILLO-DRISCOLL,(603) 742-7900,01/01/21,12/31/21,,Strafford
04036,Non-Emergency Walk-In Care Center,,CONVENIENTMD URGENT CARE-EXETER,1 PORTSMOUTH AVE,STRATHAM,NH,03885,ALEXANDRIA N BOUCHER,(603) 772-3600,09/01/21,08/31/22,,Rockingham
04125,Non-Emergency Walk-In Care Center,,CONVENIENTMD URGENT CARE-KEENE,351 WINCHESTER ST,KEENE,NH,03431,LAURIE SZOGEDI,(603) 605-0654,12/01/20,11/30/21,,Cheshire
04482,Non-Emergency Walk-In Care Center,,CONVENIENTMD URGENT CARE-LONDONDERRY,42 NASHUA RD,Londonderry,NH,03053,DANIEL SHEA,(603) 413-6800,02/04/21,01/31/22,,Rockingham
04129,Non-Emergency Walk-In Care Center,,CONVENIENTMD URGENT CARE-NASHUA,565 AMHERST ST,NASHUA,NH,03063,TANIA ROSADO,(603) 578-3347,12/01/20,11/30/21,,Hillsborough
04171,Non-Emergency Walk-In Care Center,,CONVENIENTMD URGENT CARE-PORTSMOUTH,599 LAFAYETTE RD,PORTSMOUTH,NH,03801,NORA CLARK,(603) 942-7900,08/01/21,07/31/22,,Rockingham
02702,Non-Emergency Walk-In Care Center,,CONWAY WALK-IN CARE,7 GREENWOOD AVENUE,CONWAY,NH,03818,"ROSS EMERY, MD",(603) 447-3500,02/01/21,01/31/22,,CARROLL
03307,Non-Emergency Walk-In Care Center,,ELLIOT URGENT CARE @ LONDONDERRY,40 BUTTRICK ROAD,LONDONDERRY,NH,03053,JOHN LEARY,(603) 552-1550,11/01/21,10/31/22,,ROCKINGHAM
04276,Non-Emergency Walk-In Care Center,,ELLIOT URGENT CARE AT BEDFORD,25 LEAVY DR,BEDFORD,NH,03110,JOHN LEARY,(603) 472-1772,07/01/21,06/30/22,,Hillsborough
03713,Non-Emergency Walk-In Care Center,,ELLIOT URGENT CARE AT RIVER'S EDGE,185 QUEEN CITY AVENUE,MANCHESTER,NH,03101,JOHN LEARY,(603) 663-4211,04/01/21,03/31/22,,HILLSBOROUGH
04037,Non-Emergency Walk-In Care Center,,EXPRESS MED AT SALEM LLC,159 NORTH BROADWAY,SALEM,NH,03079,KELLY ST. LOUIS,(603) 898-0961,09/01/21,08/31/22,,Rockingham
04212,Non-Emergency Walk-In Care Center,,EXPRESSMED LLC,39 KOSCIUZKO ST,MANCHESTER,NH,03101,DANIELLE FORD,(603) 627-8053,05/01/21,04/30/22,,Hillsborough
03866,Non-Emergency Walk-In Care Center,,EXPRESSMED-MANCHESTER,1 HIGHLANDER WAY,MANCHESTER,NH,03103,DANIELLE FORD,(603) 625-2622,09/01/20,08/31/21,,HILLSBOROUGH
03270,Non-Emergency Walk-In Care Center,,"HEALTH STOP, INC",228 DANIEL WEBSTER HWY,NASHUA,NH,03060,"RALPH WOLF, MD",(603) 888-9200,05/01/21,04/30/22,,HILLSBOROUGH
03853,Non-Emergency Walk-In Care Center,,IMMEDIATE CARE OF SO NH @ PELHAM,33 WINDHAM ROAD,PELHAM,NH,03076,WENDY RICHARDSON,(603) 577-2273,07/01/21,06/30/22,,HILLSBOROUGH
03955,Non-Emergency Walk-In Care Center,,IMMEDIATE CARE OF SO NH-NASHUA,112 SPIT BROOK ROAD,NASHUA,NH,03062,BRENDA LAROCQUE,(603) 577-2273,08/01/21,07/31/22,,HILLSBOROUGH
03519,Non-Emergency Walk-In Care Center,,IMMEDIATE CARE OF SOUTHERN NH,29 NORTHWEST BLVD,NASHUA,NH,03063,BRENDA LAROCQUE,(603) 577-2273,06/01/21,05/31/22,,Hillsborough
03764,Non-Emergency Walk-In Care Center,,IMMEDIATE CARE OF SOUTHERN NH-HUDSON,300 DERRY ROAD,HUDSON,NH,03051,MICHELLE CLEARY,(603) 577-2273,12/01/20,11/30/21,,HILLSBOROUGH
04345,Non-Emergency Walk-In Care Center,,LITTLETON URGENT CARE,600 ST JOHNSBURY RD,LITTLETON,NH,03561,ROBERT NUTTER,(603) 444-9294,06/01/21,05/31/22,,Grafton
04223,Non-Emergency Walk-In Care Center,,MED CHECK URGENT CARE,389 TENNEY MTN. HWY HATCH PLAZA,PLYMOUTH,NH,03264,MICHELLE MCEWEN,(603) 536-1120,08/01/21,07/31/22,,Grafton
03991,Non-Emergency Walk-In Care Center,,MINUTECLINIC DIAGNOSTIC OF NEW HAMPSHIRE LLC #6596,321A LAFAYETTE RD,Hampton,NH,03842,KERRIE LASELL,(866) 389-2727,01/01/21,12/31/21,,Rockingham
03997,Non-Emergency Walk-In Care Center,,"MINUTECLINIC DIAGNOSTIC OF NEW HAMPSHIRE, LLC #2257",271 MAMMOTH RD,MANCHESTER,NH,03109,KERRIE LASELL,(866) 389-2727,01/01/21,12/31/21,,Hillsborough
03982,Non-Emergency Walk-In Care Center,,MINUTECLINIC DIAGNOSTIC OF NH LLC #1004,512 SOUTH BROADWAY,SALEM,NH,03079,KERRIE LASELL,(866) 389-2727,12/01/20,11/30/21,,ROCKINGHAM
03986,Non-Emergency Walk-In Care Center,,MINUTECLINIC DIAGNOSTIC OF NH LLC (#1003),214 DANIEL WEBSTER HIGHWAY,NASHUA,NH,03060,KERRIE LASELL,(866) 389-2727,12/01/20,11/30/21,,Hillsborough
03978,Non-Emergency Walk-In Care Center,,MINUTECLINIC DIAGNSOTIC OF NH LLC #0841,4 HALL STREET,CONCORD,NH,03301,KERRIE LASELL,(603) 389-2727,12/01/20,11/30/21,,MERRIMACK
04411,Non-Emergency Walk-In Care Center,,MOBILE HEALTH CLINIC,172 KINSLEY ST,Nashua,NH,03060,"JEANNIE GONYER, MSN, RN",(603) 579-5665,03/01/21,02/28/22,,Hillsborough
02132,Non-Emergency Walk-In Care Center,,NEWPORT HEALTH CENTER,11 JOHN STARK HIGHWAY,NEWPORT,NH,03773,LESLIE HUTCHINS,(603) 863-4100,01/01/21,12/31/21,,SULLIVAN
03926,Non-Emergency Walk-In Care Center,,PARKLAND URGENT CARE AT STILES RD,31 STILES ROAD STE 1100,SALEM,NH,03079,STEPHANIE R LISENO,(603) 421-2100,04/01/21,03/31/22,,ROCKINGHAM
03953,Non-Emergency Walk-In Care Center,,SACO RIVER MEDICAL GROUP-GLEN,15 US RTE 302 STE 1,GLEN,NH,03838,"ROSS EMERY, MD",(603) 383-3005,07/01/21,06/30/22,,CARROLL
03992,Non-Emergency Walk-In Care Center,,ST JOSEPH HOSPITAL MILFORD MEDICAL CENTER,442 NASHUA ST,MILFORD,NH,03055,JOHN JURCZYK,(603) 673-5623,12/01/20,11/30/21,,Hillsborough
03739,Non-Emergency Walk-In Care Center,,URGENT CARE AT BEDFORD MEDICAL PARK,5 WASHINGTON PLACE,BEDFORD,NH,03110,LAUREN GOTT,(603) 314-4567,08/01/21,07/31/22,,HILLSBOROUGH
04092,Non-Emergency Walk-In Care Center,,URGENT CARE AT VALLEY REGIONAL,243 ELM ST,CLAREMONT,NH,03743,"BEVERLEY A RANKIN, RN",(603) 542-7771,06/01/21,05/31/22,,Sullivan
03197,Non-Emergency Walk-In Care Center,,WALK - IN CARE AT MEMORIAL HOSPITAL,3073 WHITE MOUNTAIN HIGHWAY,NORTH CONWAY,NH,03860,MATHEW G DUNN,(603) 356-5461,10/01/21,09/30/22,,CARROLL
03056,Non-Emergency Walk-In Care Center,,WALK-IN SERVICES,60 COMMERCIAL STREET,CONCORD,NH,03301,MARY E ADAM,(603) 230-1200,11/01/20,10/31/21,,MERRIMACK
04487,Non-Emergency Walk-In Care Center,,WENTWORTH DOUGLASS WENTWORTH HEALTH PARTNERS,67 CORPORTATE DR BLDG A,Portsmouth,NH,03801,LISA WHEELER,(603) 610-8051,02/23/21,01/31/22,,Rockingham
03497,Non-Emergency Walk-In Care Center,,WENTWORTH-DOUGLASS EXPRESS CARE,65 CALEF HIGHWAY,LEE,NH,03861,"SHEILA WOOLLEY, RN",(603) 868-8500,04/01/21,03/31/22,,Belknap
04018,Non-Emergency Walk-In Care Center,,WENTWORTH-DOUGLASS EXPRESS CARE,701 B CENTRAL AVE,DOVER,NH,03820,"SHEILA WOOLLEY, RN",(603) 609-6700,06/01/21,05/31/22,,Strafford
04458,Nursing Home,,ALPINE HEALTHCARE CENTER,298 MAIN ST,KEENE,NH,03431,NICHOLAS LAUSIER,(603) 352-7311,10/01/21,09/30/22,85,Cheshire
02282,Nursing Home,,APPLEWOOD CENTER,8 SNOW RD,WINCHESTER,NH,03470,"GAIL CUSHING, NHA",(603) 239-6355,09/01/20,08/31/21,72,CHESHIRE
02285,Nursing Home,,BEDFORD HILLS CENTER,30 COLBY COURT,BEDFORD,NH,03110,"MEGHAN TARR, NHA",(603) 625-6462,08/01/21,07/31/22,147,HILLSBOROUGH
04029,Nursing Home,,BEDFORD NURSING AND REHABILITATION CENTER,480 DONALD ST,BEDFORD,NH,03110,JEFFREY S MILLER,(603) 627-4147,02/01/21,01/31/22,102,Hillsborough
03989,Nursing Home,,BEL-AIR NURSING & REHAB CENTER,29 CENTER ST,GOFFSTOWN,NH,03045,"ROBERT LENOX, NHA",(603) 497-4871,07/01/21,06/30/22,35,Hillsborough
00089,Nursing Home,,BELKNAP COUNTY NURSING HOME,30 COUNTY DRIVE,LACONIA,NH,03246,"SHELLEY RICHARDSON, RN",(603) 527-5410,01/01/21,12/31/21,94,BELKNAP
04459,Nursing Home,,BIRCH HEALTHCARE CENTER,62 ROCHESTER HILL RD,ROCHESTER,NH,03867,TERRY-ANN GAINER,(603) 335-3955,04/01/21,03/31/22,79,Strafford
04457,Nursing Home,,CEDAR HEALTHCARE CENTER,188 JONES AVE,PORTSMOUTH,NH,03801,NATHANIEL A ST PIERRE,(603) 431-2530,11/19/20,11/30/21,102,Rockingham
00084,Nursing Home,,CHESHIRE COUNTY HOME,201 RIVER ROAD,WESTMORELAND,NH,03467,"KATHRYN KINDOPP, NHA",(603) 399-4912,01/01/21,12/31/21,150,CHESHIRE
02458,Nursing Home,,COLONIAL HILL CENTER,62 ROCHESTER HILL RD,ROCHESTER,NH,03867,ANGELA M POWELL,(603) 335-3955,04/01/20,03/31/21,79,STRAFFORD
02393,Nursing Home,,COLONIAL POPLIN NURSING HOME,442 MAIN ST,FREMONT,NH,03044,"GINA QUEIROS, NHA",(603) 895-3126,08/01/21,07/31/22,50,ROCKINGHAM
00636,Nursing Home,,COOS COUNTY NURSING HOME (BERLIN),364 CATES HILL ROAD,BERLIN,NH,03570,"LYNN MARIE BEEDE, RN",(603) 752-2343,06/01/21,05/31/22,100,COOS
00049,Nursing Home,,COOS COUNTY NURSING HOSPITAL,136 COUNTY FARM ROAD,WEST STEWARTSTOWN,NH,03597,"LAURA A MILLS, NHA",(603) 246-3321,04/01/21,03/31/22,97,COOS
03707,Nursing Home,,COUNTRY VILLAGE CENTER GENESIS HEALTHCAR,91 COUNTRY VILLAGE ROAD,LANCASTER,NH,03584,JOANNA LYNN STEVENS,(603) 788-4735,04/01/21,03/31/22,86,Belknap
02263,Nursing Home,,COURVILLE AT MANCHESTER (THE),44 WEST WEBSTER STREET,MANCHESTER,NH,03104,RICHARD LEBOEUF,(603) 647-5900,04/01/21,03/31/22,76,HILLSBOROUGH
00651,Nursing Home,,COURVILLE AT NASHUA,22 HUNT ST,NASHUA,NH,03060,"ALYSSA F RIFKIN, NHA",(603) 889-5450,04/01/21,03/31/22,94,Hillsborough
02283,Nursing Home,,CRESTWOOD CENTER,40 CROSBY STREET,MILFORD,NH,03055,HEATHER M MACNEIL,(603) 673-7061,06/01/21,05/31/22,82,HILLSBOROUGH
04367,Nursing Home,,DERRY CENTER FOR REHABILITATION AND HEALTHCARE,20 CHESTER RD,Derry,NH,03038,DANIEL ESTEE,(603) 432-3801,11/01/20,10/31/21,62,Rockingham
03933,Nursing Home,,DOVER CENTER FOR HEALTH & REHABILITATION,307 PLAZA DRIVE,DOVER,NH,03820,"TARA VERGE, NHA",(603) 742-2676,10/01/21,09/30/22,112,STRAFFORD
02913,Nursing Home,,EDGEWOOD MANOR DBA EDGEWOOD CENTRE (THE),928 SOUTH STREET,PORTSMOUTH,NH,03801,"PATRICIA CUMMINGS-ROBILLARD, NHA",(603) 436-0099,12/01/20,11/30/21,156,ROCKINGHAM
03404,Nursing Home,,ELM WOOD CENTER AT CLAREMONT,290 HANOVER STREET,CLAREMONT,NH,03743,MICHELLE PIPPA,(603) 542-2606,07/01/20,06/30/21,68,SULLIVAN
03963,Nursing Home,,EPSOM HEALTHCARE CENTER,901 SUNCOOK VALLEY HIGHWAY,EPSOM,NH,03234,"MALCOLM DEAN, NHA",(603) 736-4772,02/01/21,01/31/22,108,MERRIMACK
02448,Nursing Home,,EXETER REHABILITATION CENTER,8 HAMPTON ROAD,EXETER,NH,03833,EDWIN ROJAS,(603) 778-0531,08/01/21,07/31/22,81,ROCKINGHAM
03264,Nursing Home,,FAIRVIEW NURSING HOME,203 LOWELL ROAD,HUDSON,NH,03051,STEPHAN PAZULSKI,(603) 882-5261,07/01/21,06/30/22,101,HILLSBOROUGH
02632,Nursing Home,,GOLDEN VIEW HEALTH CARE CENTER,19 NH ROUTE 104,MEREDITH,NH,03253,"ROSEMARY SIMINO, NHA",(603) 279-8111,09/01/21,08/31/22,105,BELKNAP
00214,Nursing Home,,GRAFTON COUNTY NURSING HOME,3855 DARTMOUTH COLLEGE HIGHWAY,NORTH HAVERHILL,NH,03774,"CRAIG J LABORE, NHA",(603) 787-6971,01/01/21,12/31/21,135,GRAFTON
04450,Nursing Home,,GREENBRIAR REHAB AND HEALTHCARE,55 HARRIS RD,Nashua,NH,30622145,KATRINA L GREENHALGH,(603) 888-1573,08/01/21,07/31/22,290,Hillsborough
04048,Nursing Home,,HACKETT HILL CENTER,191 HACKETT HILL RD,MANCHESTER,NH,03102,"Heidi M Forrence, NHA",(603) 668-8161,03/01/21,02/28/22,70,Hillsborough
03562,Nursing Home,,HANOVER HILL HEALTH CARE CENTER,700 HANOVER STREET,MANCHESTER,NH,03104,"LORI J MC INTIRE, NHA",(603) 627-3826,05/01/21,04/30/22,124,HILLSBOROUGH
04366,Nursing Home,,HANOVER TERRACE HEALTH AND REHABILITATION CENTER,49 LYME RD,HANOVER,NH,03755,MARTHA ILSLEY,(603) 643-2854,06/01/21,05/31/22,100,Grafton
03708,Nursing Home,,HARRIS HILL CENTER GENESIS HEALTHCARE,20 MAITLAND STREET,CONCORD,NH,03301,LYNDA P GOLDTHWAITE,(603) 224-1319,04/01/21,03/31/22,85,MERRIMACK
00577,Nursing Home,,HAVENWOOD HERITAGE HEIGHTS,33 CHRISTIAN AVENUE,CONCORD,NH,03301,SUZANNE L WEAVER,(603) 224-5363,12/01/20,11/30/21,115,MERRIMACK
00534,Nursing Home,,HILLSBORO HOUSE NURSING HOME,67 SCHOOL STREET,HILLSBORO,NH,03244,ANDREW IRWIN,(603) 464-5561,06/01/21,05/31/22,33,HILLSBOROUGH
00640,Nursing Home,,HILLSBOROUGH COUNTY NURSING HOME,400 MAST ROAD,GOFFSTOWN,NH,03045,"DAVID ROSS, NHA",(603) 627-5540,01/01/21,12/31/21,300,HILLSBOROUGH
04350,Nursing Home,,HILLSIDE VILLAGE,100 WYMAN RD,KEENE,NH,03431,JOLYNN K WHITTEN,(603) 283-5150,07/01/21,06/30/22,20,Cheshire
02324,Nursing Home,,HOLY CROSS HEALTH CENTER,357 ISLAND POND RD,MANCHESTER,NH,03109,STEFANIE M OSIEK,(603) 628-3550,03/01/21,02/28/22,40,HILLSBOROUGH
01689,Nursing Home,,HUNT COMMUNITY,10 ALLDS STREET,NASHUA,NH,03060,GARY ZABIEREK,(603) 882-6511,07/01/21,06/30/22,40,HILLSBOROUGH
04335,Nursing Home,,JAFFREY REHABILITATION AND NURSING CENTER,20 PLANTATION DR,JAFFREY,NH,03452,PATRICK LYONS,(603) 532-8762,01/01/21,12/31/21,83,Cheshire
03706,Nursing Home,,KEENE CENTER GENESIS HEALTHCARE,677 COURT STREET,KEENE,NH,03431,JESSICA A DRAGON,(603) 357-3800,06/01/21,05/31/22,106,CHESHIRE
03705,Nursing Home,,LACONIA REHABILITATION CENTER,175 BLUEBERRY LANE,LACONIA,NH,03246,LAUREN R WHITE,(603) 524-3340,01/01/21,12/31/21,120,BELKNAP
04521,Nursing Home,,LAFAYETTE CENTER,93 MAIN STREET,Franconia,NH,03580,LINDA M RODGER,(603) 823-5502,07/01/21,05/31/22,72,Grafton
02695,Nursing Home,,"LANGDON PLACE OF DOVER, A SR LIVING COMM",60 MIDDLE ROAD,DOVER,NH,03820,ASHLEY M LEBLANC,(603) 743-4110,01/01/21,12/31/21,30,STRAFFORD
02693,Nursing Home,,LANGDON PLACE OF KEENE,136A ARCH STREET,KEENE,NH,03431,"KATHLEEN NICHOLS, NHA",(603) 357-3902,04/01/21,03/31/22,25,CHESHIRE
03702,Nursing Home,,LEBANON CENTER GENESIS HEALTHCARE,24 OLD ETNA ROAD,LEBANON,NH,03766,RITZA RAMIREZ-GULLO,(603) 448-2234,01/01/21,12/31/21,110,Grafton
02122,Nursing Home,,LEDGEVIEW,21 LEDGES DRIVE,LACONIA,NH,03246,MARK LATHAM,(603) 366-1275,11/01/20,10/31/21,49,BELKNAP
03964,Nursing Home,,MAPLE LEAF HEALTHCARE CENTER,198 PEARL STREET,MANCHESTER,NH,03104,"BETH SKAFAS, NHA",(603) 669-1660,04/01/21,03/31/22,114,HILLSBOROUGH
03351,Nursing Home,,MERRIMACK COUNTY NURSING HOME,325 DANIEL  WEBSTER HIGHWAY,BOSCAWEN,NH,03303,"MATTHEW LAGOS, NHA",(603) 796-2165,03/01/21,02/28/22,290,MERRIMACK
0009A,Nursing Home,,MERRIMAN HOUSE (MEMORIAL ELDER HEALTH SERVICES),3073 WHITE MOUNTAIN HIGHWAY,NORTH CONWAY,NH,03860,KIMBERLY A DEMERS,(603) 356-5461,09/01/21,08/31/22,45,CARROLL
02454,Nursing Home,,MINERAL SPRINGS,1251 WHITE MOUNTAIN HIGHWAY,NORTH CONWAY,NH,03860,TIMOTHY A WHITMAN,(603) 356-7294,03/01/21,02/28/22,87,Belknap
00040,Nursing Home,,MORRISON NURSING HOME,6 TERRACE STREET,WHITEFIELD,NH,03598,PATTI L ROY,(603) 837-2541,01/01/21,12/31/21,57,COOS
00580,Nursing Home,,MOUNT CARMEL REHAB AND NURSING CENTER,235 MYRTLE ST,MANCHESTER,NH,03104,"JOSEPH W BOHUNICKY, NHA",(603) 627-3811,05/01/21,04/30/22,120,HILLSBOROUGH
03701,Nursing Home,,MOUNTAIN RIDGE CENTER GENESIS HEALTHCARE,7 BALDWIN STREET,FRANKLIN,NH,03235,AMY T AULETTO,(603) 934-2541,12/01/20,11/30/21,86,MERRIMACK
03752,Nursing Home,,MOUNTAIN VIEW COMMUNITY,93 WATER VILLAGE ROAD,OSSIPEE,NH,03864,RAYMOND F BOWER,(603) 539-7511,01/01/21,12/31/21,103,Carroll
03405,Nursing Home,,OCEANSIDE SKILLED NURSING & REHABILITATION,22 TUCK ROAD,HAMPTON,NH,03842,"SHAUN QUALTER, NHA",(603) 926-4551,08/01/21,07/31/22,117,ROCKINGHAM
00363,Nursing Home,,PEABODY HOME,24 PEABODY PLACE,FRANKLIN,NH,03235,HOWARD L CHANDLER,(603) 934-3718,03/01/21,02/28/22,13,MERRIMACK
02287,Nursing Home,,PHEASANT WOOD CENTER,50 PHEASANT ROAD,PETERBOROUGH,NH,03458,NICHOLAS P LABRIE,(603) 924-7267,06/01/21,05/31/22,99,HILLSBOROUGH
03990,Nursing Home,,PLEASANT VALLEY NURSING CENTER,8 PEABODY RD,DERRY,NH,03038,PATRICK G AIRSON,(603) 434-1566,09/01/21,08/31/22,112,Rockingham
04520,Nursing Home,,PLEASANT VIEW CENTER,239 PLEASANT ST,Concord,NH,03301,CATHERINE M STURK,(603) 224-6561,07/01/21,02/28/22,174,Merrimack
01817,Nursing Home,,PRESIDENTIAL OAKS,200 PLEASANT STREET,CONCORD,NH,03301,GARY L PLASSCHAERT,(603) 225-6644,09/01/21,08/31/22,85,MERRIMACK
03700,Nursing Home,,RIDGEWOOD CENTER GENESIS HEALTHCARE,25 RIDGEWOOD ROAD,BEDFORD,NH,03110,CHANTAL M DJA KONAN,(603) 623-8805,07/01/21,06/30/22,148,HILLSBOROUGH
02275,Nursing Home,,RIVERMEAD,300 RIVERMEAD RD,PETERBOROUGH,NH,03458,"ANN NUNN, NHA",(603) 924-0062,07/01/21,06/30/22,12,Belknap
00185,Nursing Home,,RIVERSIDE REST HOME,276 COUNTY FARM ROAD,DOVER,NH,03820,"RAYMOND F BOWER, NHA",(603) 742-1348,01/01/21,12/31/21,215,Belknap
04098,Nursing Home,,RIVERSIDE REST HOME-HYDER HOSPICE UNIT,285 COUNTY FARM RD,DOVER,NH,03820,"RAYMOND F BOWER, NHA",(603) 742-1348,07/01/21,06/30/22,14,Strafford
02112,Nursing Home,,RIVERWOODS AT EXETER,15 RIVERWOODS DRIVE,EXETER,NH,03833,"CHRISTINE HEGARTY, NHA",(603) 772-4700,10/01/21,09/30/22,39,ROCKINGHAM
04434,Nursing Home,,RIVERWOODS DURHAM,20 STONE QUARRY DR,Durham,NH,03824,KIMBERLY O'KEEFE,(603) 590-4073,08/01/21,07/31/22,12,Strafford
03093,Nursing Home,,RIVERWOODS MANCHESTER,100 ALLIANCE WAY,MANCHESTER,NH,03102,"DAWN BARKER, NHA",(603) 645-6500,12/01/20,11/30/21,9,HILLSBOROUGH
04123,Nursing Home,,ROCHESTER MANOR,40 WHITEHALL RD,ROCHESTER,NH,03867,TEALE E HOWE,(603) 332-7711,02/01/21,01/31/22,108,Strafford
00105,Nursing Home,,ROCKINGHAM COUNTY NURSING HOME,117 NORTH ROAD,BRENTWOOD,NH,03833,JASON W SMITH,(603) 679-5335,01/01/21,12/31/21,226,ROCKINGHAM
02630,Nursing Home,,SALEMHAVEN NURSING HOME,23 GEREMONTY DRIVE,SALEM,NH,03079,"RAYMOND MILLIARD, NHA",(603) 893-5586,01/01/21,12/31/21,110,ROCKINGHAM
00403,Nursing Home,,ST ANN REHABILITATION AND NURSING CENTER,195 DOVER POINT ROAD,DOVER,NH,03820,KATHLEEN L MCCRACKEN,(603) 742-2612,10/01/21,09/30/22,54,STRAFFORD
00223,Nursing Home,,ST FRANCIS REHAB AND NURSING CENTER,406 COURT ST,LACONIA,NH,03246,"BRENDA L. BUTTRICK, NHA",(603) 524-0466,03/01/21,02/28/22,51,BELKNAP
02470,Nursing Home,,ST JOSEPH RESIDENCE,495 MAMMOTH ROAD,MANCHESTER,NH,03104,MARLENE MAKOWSKI,(603) 668-6011,07/01/21,06/30/22,22,HILLSBOROUGH
00581,Nursing Home,,ST TERESA REHAB AND NURSING CENTER,519 BRIDGE ST,MANCHESTER,NH,03104,"LUANNE ROGERS, NHA",(603) 668-2373,05/01/21,04/30/22,51,HILLSBOROUGH
00503,Nursing Home,,ST VINCENT DE PAUL REHAB & NURSING CTR,29 PROVIDENCE AVENUE,BERLIN,NH,03570,"JEFFREY LACROIX, NHA",(603) 752-1820,06/01/21,05/31/22,80,COOS
00088,Nursing Home,,SULLIVAN COUNTY HEALTH CARE,5 NURSING HOME DRIVE,UNITY,NH,03743,"TED J PURDY, NHA",(603) 542-9511,01/01/21,12/31/21,156,Sullivan
03620,Nursing Home,,THE BOULDERS AT RIVERWOODS,6 TIMBER LANE,EXETER,NH,03833,"LUANNE MCLANE, NHA",(603) 772-4700,06/01/21,05/31/22,16,ROCKINGHAM
02284,Nursing Home,,THE ELMS CENTER,71 ELM STREET,MILFORD,NH,03055,MATTHEW C SIMONEAU,(603) 673-2907,06/01/21,05/31/22,52,HILLSBOROUGH
03045,Nursing Home,,THE HUNTINGTON AT NASHUA,55 KENT LANE,NASHUA,NH,03062,BRIAN J NEWMAN,(603) 598-1440,02/01/21,01/31/22,24,HILLSBOROUGH
03054,Nursing Home,,THE RIDGE AT RIVERWOODS,6 WHITE OAK DRIVE,EXETER,NH,03833,"PENNY TEODORCZYK, NHA",(603) 772-4700,02/01/21,01/31/22,23,ROCKINGHAM
03965,Nursing Home,,VILLA CREST NURSING & RETIREMENT,1276 HANOVER STREET,MANCHESTER,NH,03104,"KARYN MINER, NHA",(603) 622-3262,01/01/21,12/31/21,126,HILLSBOROUGH
04086,Nursing Home,,WARDE HEALTH CENTER,21 SEARLES RD,WINDHAM,NH,03087,"BRET POMEROY, NHA",(603) 890-1290,07/01/21,06/30/22,32,Rockingham
01237,Nursing Home,,WEBSTER AT RYE,795 WASHINGTON RD,RYE,NH,03870,TODD N FERNALD,(603) 964-8144,05/01/21,04/30/22,61,ROCKINGHAM
02451,Nursing Home,,WOLFEBORO BAY CENTER,39 CLIPPER DRIVE,WOLFEBORO,NH,03894,MEGHAN C LINEHAN,(603) 569-3950,01/01/21,12/31/21,104,CARROLL
00699,Nursing Home,,WOODLAWN CARE CENTER,84 PINE STREET,NEWPORT,NH,03773,CHRISTOPHER MARTIN,(603) 863-1020,07/01/21,06/30/22,53,SULLIVAN
03194,Residential Treatment and Rehab,,PETERBOROUGH PROGRAM,52 SUMMER STREET,PETERBOROUGH,NH,03458,LISA CLARK,(603) 464-3841,09/01/21,08/31/22,10,Hillsborough
02119,Residential Treatment and Rehab,,ROBIN HILL FARM INC - MEREDITH HOUSE,93 PRESTON STREET,HILLSBOROUGH,NH,03244,MICHELE L ROY,(603) 464-5084,11/01/20,10/31/21,5,HILLSBOROUGH
01226,Residential Treatment and Rehab,,ROBIN HILL FARM-BLUE HOUSE,55 DONOVAN ROAD,WEST DEERING,NH,03244,ALEXIS WAYLAND,(603) 464-3841,04/01/21,03/31/22,14,Hillsborough
01226,Residential Treatment and Rehab,,ROBIN HILL FARM-BLUE HOUSE,55 DONOVAN ROAD,WEST DEERING,NH,03244,BRITTANY WHALEY,(603) 464-3841,04/01/21,03/31/22,14,Hillsborough
03076,Residential Treatment and Rehab,,WESTBRIDGE COMMONS,517 PINE STREET,MANCHESTER,NH,03104,STACIE L LUCIUS,(603) 606-3791,07/01/21,06/30/22,12,HILLSBOROUGH
02658,Residential Treatment and Rehab,,WHITE HOUSE,63 DONOVAN ROAD,DEERING,NH,03244,MEAGEN SHERWIN,(603) 464-3725,04/01/21,03/31/22,8,HILLSBOROUGH
03788,Residential Treatment and Rehab,,WILTON HILL PROGRAM,165 WILTON ROAD,PETERBOROUGH,NH,03458,DEBORAH YOUNG,(603) 464-3841,01/01/21,12/31/21,5,HILLSBOROUGH
04497,Substance Use Disorder Res Treatment,,BONFIRE BEHAVIORAL HEALTH,2957 MAIN STREET,Bethlehem,NH,03574,CASEY BRIGHT,(833) 497-4457,04/26/21,03/31/22,,Grafton
04246,Substance Use Disorder Res Treatment,,DISMAS HOME,102 FOURTH ST,MANCHESTER,NH,03102,SARA LUTAT,(603) 782-3004,12/01/20,11/30/21,6,Hillsborough
03932,Substance Use Disorder Res Treatment,,FARNUM CENTER,140 QUEEN CITY AVENUE,MANCHESTER,NH,03101,DENNIS THERIAULT,(603) 622-3020,05/01/21,04/30/22,80,HILLSBOROUGH
04133,Substance Use Disorder Res Treatment,,GREEN MOUNTAIN TREATMENT CENTER,244 HIGHWATCH RD,EFFINGHAM,NH,03882,MORGAN E MADDOX,(603) 230-2448,01/01/21,12/31/21,83,Carroll
04113,Substance Use Disorder Res Treatment,,HEADREST INC,14 CHURCH ST,LEBANON,NH,03766,CAMERON FORD,(603) 448-4872,10/01/20,09/30/21,14,Grafton
04260,Substance Use Disorder Res Treatment,,HOPE ON HAVEN HILL,326 ROCHESTER HILL RD,ROCHESTER,NH,03867,MARY ELLEN JACKSON,(603) 841-5353,12/01/20,11/30/21,8,Strafford
04260,Substance Use Disorder Res Treatment,,HOPE ON HAVEN HILL,326 ROCHESTER HILL RD,ROCHESTER,NH,03867,KERRYLEE P NORTON,(603) 841-5353,12/01/20,11/30/21,8,Strafford
03815,Substance Use Disorder Res Treatment,,KEYSTONE HALL,615 AMHERST STREET,NASHUA,NH,03060,CHRISTINA M LODER,(603) 881-4848,03/01/21,02/28/22,54,HILLSBOROUGH
04517,Substance Use Disorder Res Treatment,,LIBERTY HEALTH SERVICES,29 ASHLEIGH DR,Derry,NH,03038,BRIAN TEAGUE,(603) 216-0277,06/23/21,05/31/22,,Rockingham
04524,Substance Use Disorder Res Treatment,,LIVE FREE RECOVERY SERVICES,881 MARLBORO RD,Keene,NH,03431,JENNIFER HOUSTON,(603) 438-3276,07/20/21,06/30/22,,Cheshire
04102,Substance Use Disorder Res Treatment,,NEW FREEDOM ACADEMY,367 SHAKER RD,CANTERBURY,NH,03224,KELLY M SCHOONOVER,(603) 505-4364,08/01/21,07/31/22,20,Merrimack
02724,Substance Use Disorder Res Treatment,,PHOENIX HOUSE-DUBLIN,3 PIERCE ROAD,DUBLIN,NH,03444,JAMES HENZEL,(603) 563-8501,08/01/20,07/31/21,49,CHESHIRE
04139,Substance Use Disorder Res Treatment,,RAY HOUSE,14 HOLY CROSS RD,FRANKLIN,NH,03235,RUMYANA RADZHOVA,(603) 622-3020,03/01/21,02/28/22,21,Merrimack
04192,Substance Use Disorder Res Treatment,,SOBRIETY CENTERS OF NEW HAMPSHIRE,55 MAIN STREET,ANTRIM,NH,03440,KATHLEEN A MURPHY,(603) 808-0185,12/01/20,11/30/21,21,Hillsborough
04200,Substance Use Disorder Res Treatment,,SOUTHEASTERN NH ALCOHOL AND DRUG ABUSE SERVICES,272 COUNTY FARM RD,DOVER,NH,03820,DENISE M ELWART,(603) 516-8160,01/01/21,12/31/21,28,Strafford
04504,Substance Use Disorder Res Treatment,,THE GRANITE HOUSE 37 WEST BROADWAY,37 W BROADWAY,Derry,NH,03038,KRISTINA H SAMAR,(866) 637-5288,05/11/21,04/30/22,,Rockingham
04413,Substance Use Disorder Res Treatment,,THE GRANITE HOUSE SOBER LIVING LLC,35 W BROADWAY,Derry,NH,03038,KRISTINA H SAMAR,(866) 453-5927,03/01/21,02/28/22,,Rockingham
04489,Substance Use Disorder Res Treatment,,THE PLYMOUTH HOUSE,446 MAIN ST,PLYMOUTH,NH,03264,JASON CUTHBERT,(603) 536-5500,03/09/21,02/28/22,,Grafton
04164,Substance Use Disorder Res Treatment,,WEBSTER PLACE,27 HOLY CROSS RD,FRANKLIN,NH,03235,DENNIS THERIAULT,(603) 622-3020,07/01/21,06/30/22,42,Merrimack
04429,Substance Use Disorder Res Treatment,,WESTBRIDGE COMMONS,517 PINE ST,Manchester,NH,03104,STACIE L LUCIUS,(603) 606-3791,07/01/21,06/30/22,,Hillsborough
04281,Substance Use Disorder Res Treatment,,WILLOWS TRANSITIONAL LIVING PROGRAM,293 WILSON STREET 3RD FL,MANCHESTER,NH,03103,KRISTEN MCGUIGAN,(603) 681-9441,08/01/21,07/31/22,25,Hillsborough
04282,Substance Use Disorder Res Treatment,,WILLOWS TRANSITIONAL LIVING PROGRAM,15 BROOK ST,Manchester,NH,03104,KRISTEN MCGUIGAN,(603) 641-9441,08/01/21,07/31/22,14,Hillsborough
04365,Supported Residential Care Facility,,ALL AMERICAN ASSISTED LIVING AT KINGSTON,193 MAIN ST,KINGSTON,NH,03848,ANDREA SHERWIN,(603) 347-5522,10/01/21,09/30/22,112,Rockingham
04160,Supported Residential Care Facility,,ALL AMERICAN ASSISTED LIVING AT LONDONDERRY,1 BUTTON DR,LONDONDERRY,NH,03053,SHANNON M BERNIER,(603) 537-9898,06/01/21,05/31/22,112,Rockingham
04484,Supported Residential Care Facility,,ASSISTED LIVING@SUGARHILL,83 ROLLING WOOD DR,Wolfeboro,NH,03894,"ANNE ULMAN, RN",(603) 569-8485,11/01/21,10/31/22,25,Carroll
01526,Supported Residential Care Facility,,AYNSLEY PLACE,80 LAKE STREET,NASHUA,NH,03060,CORRIN P FOLEY,(603) 881-4190,10/01/20,09/30/21,46,HILLSBOROUGH
04353,Supported Residential Care Facility,,BEDFORD FALLS,5 CORPORATE DRIVE,BEDFORD,NH,03110,ROBERT MEMMOLO,(603) 471-2555,10/01/20,09/30/21,114,Hillsborough
04354,Supported Residential Care Facility,,BENCHMARK SENIOR LIVING AT NASHUA CROSSINGS,674 WEST HOLLIS ST,Nashua,NH,03062,BRIAN BEAUSOLEIL,(603) 882-2898,01/01/21,12/31/21,103,Hillsborough
04490,Supported Residential Care Facility,,BOWMAN PLACE OF OLDE BEDFORD,24 OLD BEDFORD RD,Bedford,NH,03110,RENEE C MCALLISTER,(603) 714-7003,03/10/21,02/28/22,150,Hillsborough
04175,Supported Residential Care Facility,,BRIDGES BY EPOCH AT NASHUA,575 AMHERST ST,NASHUA,NH,03063,MICHELLE A PELHAM,(603) 594-0581,08/01/21,07/31/22,54,Belknap
03728,Supported Residential Care Facility,,BROOKDALE SPRUCE WOOD,25 WORTHEN ROAD,DURHAM,NH,03824,MICHAEL A BERARDO,(603) 659-1100,03/01/21,02/28/22,80,STRAFFORD
01548,Supported Residential Care Facility,,CARLYLE PLACE,40 ROUTE 101,BEDFORD,NH,03110,"JENNIFER PINARD, RN",(603) 472-2000,02/01/21,01/31/22,46,HILLSBOROUGH
04128,Supported Residential Care Facility,,CARRIAGE HILL ASSISTED LIVING,306 KNOX MARSH RD,MADBURY,NH,03823,SARA NADEAU,(603) 343-4475,12/01/20,11/30/21,24,Strafford
04456,Supported Residential Care Facility,,CEDAR HEALTHCARE CENTER,188 JONES AVE,PORTSMOUTH,NH,03801,NATHANIEL A ST PIERRE,(603) 431-2530,03/01/21,02/28/22,30,Rockingham
04165,Supported Residential Care Facility,,COMMUNITY LIVING FOR ELDERLY TAMWORTH,22 MAY'S WY,WEST OSSIPEE,NH,03890,TIMOTHY HENDERSON,(603) 323-8717,10/01/20,09/30/21,15,Belknap
04525,Supported Residential Care Facility,,CORNERSTONE AT HAMPTON,298 EXETER ROAD,Hampton,NH,03842,KATRINA JUNE,(603) 929-6300,07/22/21,06/30/22,212,Rockingham
02934,Supported Residential Care Facility,,ERNEST P. BARKA ASSISTED LIVING,117 NORTH ROAD,BRENTWOOD,NH,03833,KRISTIN ANDREOZZI,(603) 679-9359,04/01/21,03/31/22,49,ROCKINGHAM
03170,Supported Residential Care Facility,,EVERGREEN PLACE,813 BEECH STREET,MANCHESTER,NH,03104,LINETTE D HANDSCHUMAKER,(603) 669-7361,07/01/21,06/30/22,52,HILLSBOROUGH
04453,Supported Residential Care Facility,,EVOLVE AT RYE,295 LAFAYETTE RD,Rye,NH,03870,LINDA BRESNAHAN,(603) 379-1898,11/13/20,11/30/21,64,Rockingham
03677,Supported Residential Care Facility,,FORESTVIEW MANOR 1,153 PARADE ROAD,MEREDITH,NH,03253,CHRISTY TAYLOR,(603) 279-3121,01/01/21,12/31/21,26,BELKNAP
03678,Supported Residential Care Facility,,FORESTVIEW MANOR 2,153 PARADE ROAD,MEREDITH,NH,03253,CHRISTY TAYLOR,(603) 279-3121,01/01/21,12/31/21,30,BELKNAP
03679,Supported Residential Care Facility,,FORESTVIEW MANOR 3,153 PARADE ROAD,MEREDITH,NH,03253,CHRISTY TAYLOR,(603) 279-3121,01/01/21,12/31/21,20,BELKNAP
02738,Supported Residential Care Facility,,GERRISH MANOR,325 DANIEL WEBSTER HIGHWAY BLDG 2,BOSCAWEN,NH,03303,AMANDA G GALLAGHER,(603) 796-3241,05/01/21,04/30/22,29,MERRIMACK
03498,Supported Residential Care Facility,,GRACE HOUSE OF WINDHAM,23 MAMMOTH RD,WINDHAM,NH,03087,"SUSAN A PIKE, LPN",(603) 889-1800,04/01/21,03/31/22,17,ROCKINGHAM
02698,Supported Residential Care Facility,,GRANITE LEDGES OF CONCORD,151 LANGLEY PARKWAY,CONCORD,NH,03301,"DEBORAH BURNS, RN",(603) 224-0777,07/01/21,06/30/22,90,MERRIMACK
04355,Supported Residential Care Facility,,GREYSTONE FARM AT SALEM,242 MAIN ST,Salem,NH,03079,MARIE SULLIVAN,(603) 898-5393,12/01/20,11/30/21,82,Rockingham
04228,Supported Residential Care Facility,,HARMONY HOMES BY THE BAY,40 BRIGGS WY,DURHAM,NH,03824,SARAH MORAZZINI,(603) 292-5175,08/01/21,07/31/22,60,Strafford
02420,Supported Residential Care Facility,,HARVEST HILL,23 ALICE PECK DAY DRIVE,LEBANON,NH,03766,"AMY RAUERT, RN",(603) 448-7458,12/01/20,11/30/21,154,Grafton
03904,Supported Residential Care Facility,,HAVENWOOD HERITAGE HEIGHTS,33 CHRISTIAN AVENUE,CONCORD,NH,03301,CHRISTINA C DUNLOP,(603) 224-5363,12/01/20,11/30/21,29,MERRIMACK
02431,Supported Residential Care Facility,,HAVENWOOD-HERITAGE HEIGHTS,33 CHRISTIAN AVENUE,CONCORD,NH,03301,"PATRICIA A GRAY, RN",(603) 224-5363,12/01/20,11/30/21,34,MERRIMACK
04351,Supported Residential Care Facility,,HILLSIDE VILLAGE (ASSISTED LIVING AND MEMORY CARE),100 WYMAN ROAD,KEENE,NH,03431,ROBERT M FALLON,(603) 283-5150,07/01/21,06/30/22,61,Cheshire
03919,Supported Residential Care Facility,,HUNT COMMUNITY,10 ALLDS STREET,NASHUA,NH,03060,MARIE E TENNEY,(603) 882-6511,07/01/21,06/30/22,25,HILLSBOROUGH
02784,Supported Residential Care Facility,,INN AT DEERFIELD INC. (THE),34 RIDGE ROAD,DEERFIELD,NH,03037,JENNY M BROWN,(603) 463-7002,10/01/21,09/30/22,32,ROCKINGHAM
02734,Supported Residential Care Facility,,INN AT GOLDEN VIEW (THE),19 NH ROUTE 104,MEREDITH,NH,03253,HEIDI MURRAY,(603) 279-8111,09/01/21,08/31/22,48,BELKNAP
02612,Supported Residential Care Facility,,INN AT PARKER STATION,46 PARKER STATION ROAD,GOFFSTOWN,NH,03045,"LYNN BURTON, SUSANNE MULLER, ALEX AMANN",(603) 497-5300,06/01/21,05/31/22,15,HILLSBOROUGH
01954,Supported Residential Care Facility,,KENDAL AT HANOVER,67 CUMMINGS RD,HANOVER,NH,03755,REBECCA DANIELS,(603) 643-8900,07/01/21,06/30/22,107,GRAFTON
04407,Supported Residential Care Facility,,KIRKWOOD CORNERS,206 NORTH RIVER RD,LEE,NH,03861,ALLEN BEATTIE,(603) 659-6586,02/01/21,01/31/22,32,Strafford
03906,Supported Residential Care Facility,,"LANGDON PLACE OF DOVER, A SR LIVING COMM",60 MIDDLE ROAD,DOVER,NH,03820,SUSAN PUTNEY,(603) 743-4110,01/01/21,12/31/21,126,Belknap
02694,Supported Residential Care Facility,,"LANGDON PLACE OF EXETER, A SR LIVING COM",17 HAMPTON RD,EXETER,NH,03833,KIMBERLY A CUMMINGS,(603) 772-5251,11/01/20,10/31/21,114,ROCKINGHAM
03921,Supported Residential Care Facility,,LANGDON PLACE OF KEENE,136A ARCH STREET,KEENE,NH,03431,"JENNIFER ROUSSEAU, NHA",(603) 357-3902,04/01/21,03/31/22,156,CHESHIRE
02692,Supported Residential Care Facility,,"LANGDON PLACE OF NASHUA, A SR LIVING COM",319 EAST DUNSTABLE ROAD,NASHUA,NH,03062,JUDITH HAYWARD,(603) 888-7878,02/01/21,01/31/22,105,HILLSBOROUGH
03263,Supported Residential Care Facility,,LAUREL PLACE ASSISTED LIVING,203 LOWELL ROAD,HUDSON,NH,03051,SYLVIE COTNOIR,(603) 883-2419,04/01/21,03/31/22,47,HILLSBOROUGH
03907,Supported Residential Care Facility,,LEDGEVIEW,21 LEDGES DRIVE,LACONIA,NH,03246,MARK LATHAM,(603) 366-1275,11/01/20,10/31/21,40,BELKNAP
04323,Supported Residential Care Facility,,LEDGEWOOD BAY ASSISTED IVING AND MEMORY CARE,43 LEDGEWOOD DRIVE,MILFORD,NH,03055,MELANIE F DUNN,(603) 672-5037,10/01/21,09/30/22,44,Hillsborough
02670,Supported Residential Care Facility,,MAPLEWOOD ASSISTED LIVING,201 RIVER ROAD,WESTMORELAND,NH,03467,"CHRISTINE GOWEN, RN",(603) 399-7348,05/01/21,04/30/22,40,CHESHIRE
04301,Supported Residential Care Facility,,MCCOY HOME FOR THE ELDERLY,1016 JOHN STARK HWY,NEWPORT,NH,03773,TAMMY DESILETS,(603) 543-1255,09/01/21,08/31/22,16,Sullivan
03908,Supported Residential Care Facility,,MINERAL SPRINGS,1251 WHITE MOUNTAIN HIGHWAY,NORTH CONWAY,NH,03860,TIMOTHY A WHITMAN,(603) 356-7294,03/01/21,02/28/22,16,Carroll
03400,Supported Residential Care Facility,,PARTRIDGE HOUSE,777 LAFAYETTE ROAD,HAMPTON,NH,03842,SARAH KEARNEY,(603) 929-3032,05/01/21,04/30/22,80,ROCKINGHAM
02460,Supported Residential Care Facility,,PEABODY HOME ASSISTED LIVING UNIT,24  PEABODY PLACE,FRANKLIN,NH,03235,HOWARD L CHANDLER,(603) 934-3718,03/01/21,02/28/22,36,MERRIMACK
02624,Supported Residential Care Facility,,PEACEFUL HARVEST HOMES LLC,144 PARIS AVE,CHARLESTOWN,NH,03603,JENNIFER A MASSICOTTE,(603) 826-4770,12/01/20,11/30/21,14,SULLIVAN
04409,Supported Residential Care Facility,,PINE ROCK MANOR,3 DENNY HILL ROAD,WARNER,NH,03278,AMANDA L MANZELLA,(603) 456-3181,02/01/21,01/31/22,70,Merrimack
02883,Supported Residential Care Facility,,POPLIN WAY,442 MAIN STREET UNIT 2,FREMONT,NH,03044,JEFFREY PHILBRICK,(603) 895-3126,07/01/21,06/30/22,36,ROCKINGHAM
01717,Supported Residential Care Facility,,PRESIDENTIAL OAKS,200 PLEASANT STREET,CONCORD,NH,03301,SHARON J CARON,(603) 225-6644,06/01/21,05/31/22,24,MERRIMACK
02772,Supported Residential Care Facility,,PYAREO HOME,333  BROOK ROAD,SANBORNTON,NH,03269,SARAH J ANDERSON,(603) 934-2300,12/01/20,11/30/21,7,BELKNAP
04406,Supported Residential Care Facility,,RIVERGLEN HOUSE,55 RIVERGLEN LN,Littleton,NH,03561,JOSEPH DEVEAU,(603) 991-7307,04/01/21,03/31/22,60,Grafton
03910,Supported Residential Care Facility,,RIVERMEAD,150 RIVERMEAD ROAD,PETERBOROUGH,NH,03458,KRISTEN R O'BRIEN,(603) 924-0062,07/01/21,06/30/22,78,HILLSBOROUGH
03920,Supported Residential Care Facility,,RIVERWOODS AT EXETER,7 RIVERWOODS DRIVE,EXETER,NH,03833,DANIELLE OBEY,(603) 772-4700,10/01/21,09/30/22,27,ROCKINGHAM
04435,Supported Residential Care Facility,,RIVERWOODS DURHAM,20 STONE QUARRY DR,Durham,NH,03824,"ALLEN REICHART, BSN, RN",(603) 590-4073,08/01/21,07/31/22,60,Strafford
03095,Supported Residential Care Facility,,RIVERWOODS MANCHESTER,100 ALLIANCE WAY,Manchester,NH,03102,"AMY REYNOLDS, LPN",(603) 645-6500,12/01/20,11/30/21,70,HILLSBOROUGH
04107,Supported Residential Care Facility,,ROSE MEADOW ACRES,539 OLD COACH RD,NEW BOSTON,NH,03070,JAMIE L SKINNER,(603) 487-1568,09/01/20,08/31/21,16,Hillsborough
02182,Supported Residential Care Facility,,ROSE MEADOW FARM,37 BRIAR HILL ROAD,NEW BOSTON,NH,03070,NANCY QUINN,(603) 487-3600,03/01/21,02/28/22,11,HILLSBOROUGH
03289,Supported Residential Care Facility,,ROSE MEADOW GARDEN,336 BEDFORD ROAD,NEW BOSTON,NH,03070,KATHY FASULO,(603) 487-3590,08/01/21,07/31/22,16,HILLSBOROUGH
04178,Supported Residential Care Facility,,SCOTT-FARRAR AT PETERBOROURGH,11 ELM STREET,PETERBOROUGH,NH,03458,ANGELA M PELLETIER,(603) 924-3691,10/01/20,09/30/21,76,Hillsborough
04410,Supported Residential Care Facility,,SPRING VILLAGE AT DOVER,35 POINTE PL,DOVER,NH,03820,SUZANNE N RAPOZA,(603) 842-4908,03/01/21,02/28/22,62,Strafford
02652,Supported Residential Care Facility,,STUDLEY HOME INC,34 EASTERN AVENUE,ROCHESTER,NH,03867,KATE E BUCKOVITCH,(603) 332-1738,01/01/21,12/31/21,25,STRAFFORD
03377,Supported Residential Care Facility,,"SUMMERCREST ASSISTED LIVING, LLC",169 SUMMER STREET,NEWPORT,NH,03773,HAILEY WETHERBEE,(603) 863-8181,06/01/21,05/31/22,18,SULLIVAN
03199,Supported Residential Care Facility,,SUMMERHILL ASSISTED LIVING,183 OLD DUBLIN ROAD,PETERBOROUGH,NH,03458,MARYANNE B FERGUSON,(603) 924-6238,09/01/20,08/31/21,75,HILLSBOROUGH
04274,Supported Residential Care Facility,,SUMMIT BY MORRISON,56 SUMMIT DR,WHITEFIELD,NH,03598,SHANNON LYNCH,(603) 837-3500,06/01/21,05/31/22,62,Coos
04005,Supported Residential Care Facility,,SUNAPEE COVE ASSISTED LIVING,1250 ROUTE 11,SUNAPEE,NH,03782,CATHERINE A COURNOYER,(603) 763-0566,04/01/21,03/31/22,31,Sullivan
00062,Supported Residential Care Facility,,TAYLOR HOME (THE),435 UNION AVENUE,LACONIA,NH,03246,MARK LATHAM,(603) 366-1275,11/01/20,10/31/21,53,BELKNAP
03922,Supported Residential Care Facility,,THE ARBORS OF BEDFORD,70 HAWTHORNE DRIVE,BEDFORD,NH,03110,PETER TOUBORG,(603) 647-9300,10/01/20,09/30/21,89,Belknap
04352,Supported Residential Care Facility,,THE BIRCHES AT CONCORD,300 PLEASANT ST,CONCORD,NH,03301,PAUL BOTANA-GUMBS,(603) 224-9111,02/01/21,01/31/22,60,Merrimack
03619,Supported Residential Care Facility,,THE BOULDERS AT RIVERWOODS,6 TIMBER LANE,EXETER,NH,03833,SUZANNE M CIUFFETTI,(603) 772-4700,06/01/21,05/31/22,48,ROCKINGHAM
04191,Supported Residential Care Facility,,THE GOLDEN CREST,29 BALDWIN ST,FRANKLIN,NH,03235,KELLY SHUFELT,(603) 934-6742,07/01/21,06/30/22,100,Merrimack
03905,Supported Residential Care Facility,,THE HUNTINGTON AT NASHUA,55 KENT LANE,NASHUA,NH,03062,LISA VALCOURT,(603) 598-1440,02/01/21,01/31/22,24,HILLSBOROUGH
04015,Supported Residential Care Facility,,THE INN AT FAIRVIEW,203 LOWELL RD,HUDSON,NH,03051,GREGORY BATCHELDER,(603) 816-0070,06/01/21,05/31/22,45,Hillsborough
04408,Supported Residential Care Facility,,THE PINES OF NEWMARKET,9 GRANT ROAD,NEWMARKET,NH,03857,ALLEN BEATTIE,(603) 659-6000,02/01/21,01/31/22,81,Rockingham
04371,Supported Residential Care Facility,,THE RESIDENCE AT SALEM WOODS,6 SALLY SWEET'S WAY,SALEM,NH,03079,SHARI LAROCHE,(603) 890-0581,04/01/21,03/31/22,100,Rockingham
04250,Supported Residential Care Facility,,THE RESIDENCE AT SILVER SQUARE,100 STERLING WAY,DOVER,NH,03820,APRIL J LYONS,(603) 570-9390,01/01/21,12/31/21,81,Strafford
03909,Supported Residential Care Facility,,THE RIDGE AT RIVERWOODS,6 WHITE OAK DRIVE,EXETER,NH,03833,DENIS DONOVAN,(603) 772-4700,02/01/21,01/31/22,54,ROCKINGHAM
03966,Supported Residential Care Facility,,VILLA CREST NURSING & RETIREMENT,1276 HANOVER STREET,MANCHESTER,NH,03104,DONNA HANNON,(603) 622-3262,01/01/21,12/31/21,39,HILLSBOROUGH
03954,Supported Residential Care Facility,,VILLAGE AT RIVERMEAD,50 TIMBERPOND RD,PETERBOROUGH,NH,03458,KRISTEN R O'BRIEN,(603) 924-0062,08/01/21,07/31/22,40,HILLSBOROUGH
04448,Supported Residential Care Facility,,WADLEIGH HOUSE,10 SUMMER ST,DOVER,NH,03820,ALLISON J SULLIVAN-SMITH,(603) 743-4103,05/01/21,04/30/22,16,Strafford
04087,Supported Residential Care Facility,,WARDE HEALTH CENTER SUPPORTED RESIDENTIAL CARE FACILITY,21 SEARLES RD,WINDHAM,NH,03087,JESSIANNE T CHARETTE,(603) 890-1290,04/01/21,03/31/22,39,Rockingham
03528,Supported Residential Care Facility,,WATSON FIELDS,201 WATSON RD,DOVER,NH,03820,WENDY SWITZER,(603) 516-8810,07/01/21,06/30/22,54,STRAFFORD
03817,Supported Residential Care Facility,,WEBSTER AT RYE ASSISTED LIVING COMMUNITY,795 WASHINGTON ROAD,RYE,NH,03870,TODD N FERNALD,(603) 964-8144,03/01/21,02/28/22,86,ROCKINGHAM
01532,Supported Residential Care Facility,,WENTWORTH HOME FOR THE AGED,795 CENTRAL AVENUE,DOVER,NH,03820,KIRSTIN SWANSON,(603) 742-7406,11/01/20,10/31/21,42,STRAFFORD
00147,Supported Residential Care Facility,,WENTWORTH SENIOR LIVING,346 PLEASANT ST,PORTSMOUTH,NH,03801,LAURENCE R CUTLIFFE,(603) 436-0169,07/01/21,06/30/22,101,ROCKINGHAM
02767,Supported Residential Care Facility,,WHEELOCK TERRACE,32 BUCK ROAD,HANOVER,NH,03755,MELISSA SUCKLING,(603) 643-7290,11/01/20,10/31/21,87,GRAFTON
02783,Supported Residential Care Facility,,WINDHAM TERRACE,3 CHURCH ROAD,WINDHAM,NH,03087,"LYNDA BRISLIN, RN",(603) 437-4600,01/01/21,12/31/21,82,ROCKINGHAM
02614,Supported Residential Care Facility,,"WOODCREST VILLAGE, LLC",356 MAIN STREET,NEW LONDON,NH,03257,BETHANY L. BRENNER,(603) 526-2300,09/01/21,08/31/22,50,MERRIMACK