License Number,TYPE,Facility Name,Address,City,State,Zip Code,Phone Number,Capacity,County
2437,Acute Psychiatric Res Treatment,CYPRESS CENTER (THE),401 CYPRESS STREET,MANCHESTER,NH,3103,(603) 206-8562,16,HILLSBOROUGH
4391,Adult Day Care,ADULT DAY CARE OF NASHUA,12 MURPHY DR UNIT 2A,NASHUA,NH,3062,(603) 589-9570,,Hillsborough
2914,Adult Day Care,CASTLE CENTER FOR ADULT GROUP DAY CARE,312 MARLBORO STREET,KEENE,NH,3431,(603) 355-8281,,CHESHIRE
1779,Adult Day Care,EASTER SEAL SOCIETY NEW HAMPSHIRE INC,555 AUBURN STREET,MANCHESTER,NH,3103,(603) 623-8863,,HILLSBOROUGH
4288,Adult Day Care,"EASTER SEALS NH, INC",215 ROCHESTER HILL RD,ROCHESTER,NH,3867,(603) 335-1770,,Strafford
2752,Adult Day Care,GATEWAYS ADULT DAY SERVICE PROGRAM,200 DERRY ROAD,HUDSON,NH,3051,(603) 882-6333,,HILLSBOROUGH
4194,Adult Day Care,GLOBAL ADULT DAY CARE HEALTH CENTER,472 AMHERST ST UNIT 19 & 20,NASHUA,NH,3062,(603) 233-0709,,Hillsborough
3477,Adult Day Care,KEARSARGE GOOD DAY RESPITE PROGRAM,82 KING HILL RD,NEW LONDON,NH,3257,(603) 526-4077,,MERRIMACK
4279,Adult Day Care,MAINTAINING INDEPENDENCE ADULT DAY SERVICES,"11 KIMBALL DR, UNIT 110-113",HOOKSETT,NH,3106,(603) 782-5622,,Merrimack
3299,Adult Day Care,MONADNOCK ADULT CARE CENTER,22 NORTH STREET,JAFFREY,NH,3452,(603) 532-2427,,CHESHIRE
4446,Adult Day Care,MOUNT WASHINGTON VALLEY ADULT DAY CENTER,987 EAST MAIN ST,Center Conway,NH,3813,(603) 356-4980,,Carroll
4333,Adult Day Care,NASHUA ADULT DAY HEALTH,32 DANIEL WEBSTER HIGHWAY,Merrimack,NH,3054,(603) 568-9237,,Hillsborough
3209,Adult Day Care,SENIOR CLASS ADULT DAY SERVICES,201 STATE ROUTE 111,HAMPSTEAD,NH,3841,(603) 329-4401,,ROCKINGHAM
2616,Adult Day Care,SILVERTHORNE ADULT DAY CARE CENTER,23 GEREMONTY DRIVE,SALEM,NH,3079,(603) 893-4799,,ROCKINGHAM
4176,Adult Day Care,"THAT PLACE YOU KNOW, LLC",28 RIDGE RD,HOLLIS,NH,3049,(603) 465-3400,,Hillsborough
3802,Adult Day Care,UPPER VALLEY GOOD DAY RESPITE PROGRAM,18 SCHOOL STREET,LEBANON,NH,3766,(603) 526-4077,,Grafton
AF006,Adult Family Care,NORTH BARNSTEAD RD (853),853 NORTH BARNSTEAD RD,Center Barnstead,NH,3225,(603) 776-0001,1,Belknap
AF013,Adult Family Care,WATER ST (55),55 WATER ST,Boscawen,NH,3303,(603) 796-2496,1,Merrimack
4249,Ambulatory Surgical Center,ACCESS AMBULATORY SURGERY CENTER,45 DARTMOUTH DR,AUBURN,NH,3032,(603) 518-7190,,Rockingham
2552,Ambulatory Surgical Center,AMBULATORY SURGERY CENTER (MANCHESTER),100 HITCHCOCK WAY,MANCHESTER,NH,3104,(603) 629-1800,,HILLSBOROUGH
2579,Ambulatory Surgical Center,ATLANTIC PLASTIC SURGERY,"100 GRIFFIN ROAD., STE B",PORTSMOUTH,NH,3801,(603) 431-8819,,ROCKINGHAM
3537,Ambulatory Surgical Center,"BARRINGTON SURGICAL CARE, LLC",944 CALEF HIGHWAY,BARRINGTON,NH,3825,(603) 664-0100,,STRAFFORD
2756,Ambulatory Surgical Center,BEDFORD AMBULATORY SURGICAL CENTER,11 WASHINGTON PLACE,BEDFORD,NH,3110,(603) 622-3670,,HILLSBOROUGH
2943,Ambulatory Surgical Center,CENTER FOR OUTPATIENT CARE,5 ALUMNI DRIVE,EXETER,NH,3833,(603) 778-7311,,ROCKINGHAM
2841,Ambulatory Surgical Center,CENTERS FOR PAIN SOLUTIONS,"280 MAIN STREET, SUITE 420",NASHUA,NH,3060,(603) 577-3003,,HILLSBOROUGH
4278,Ambulatory Surgical Center,CONCORD AMBULATORY SURGERY CENTER,1 COMMERCIAL CENTER@HORSESHOE POND 60 COMMERCIAL ST STE 301,CONCORD,NH,3301,(603) 415-9460,,Belknap
4494,Ambulatory Surgical Center,CONCORD ENDOSCOPY CENTER,60 COMMERCIAL ST,Concord,NH,3301,(603) 415-9450,,Merrimack
2786,Ambulatory Surgical Center,CONCORD EYE SURGERY LLC,"246 PLEASANT STREET, STE 105B",CONCORD,NH,3301,(603) 224-6503,,MERRIMACK
3823,Ambulatory Surgical Center,DARTMOUTH-HITCHCOCK NASHUA ENDOSCOPY CTR,2300 SOUTHWOOD DRIVE,NASHUA,NH,3063,(603) 577-4180,,HILLSBOROUGH
3693,Ambulatory Surgical Center,ELLIOT 1-DAY SURGERY CENTER@ RIVERS EDGE,185 QUEEN CITY AVENUE,MANCHESTER,NH,3103,(603) 669-5900,,Hillsborough
4135,Ambulatory Surgical Center,GRANITE STATE SURGICENTER,255 ROUTE 108,SOMERSWORTH,NH,3878,(603) 692-3166,,Strafford
4136,Ambulatory Surgical Center,GRANITE STATE SURGICENTER-MERRIMACK,1 MOUND CT,MERRIMACK,NH,3054,(603) 424-8866,,Hillsborough
4495,Ambulatory Surgical Center,"LIGHTHOUSE SURGICAL SUITES, LLC","2 MARKET PL, STE #100",Hollis,NH,3049,(603) 600-6175,,Hillsborough
4255,Ambulatory Surgical Center,MINIMALLY INVASIVE SURGERY OF N.E.,4 HAWTHORNE DR,BEDFORD,NH,3110,(603) 218-1912,,Hillsborough
3848,Ambulatory Surgical Center,NASHUA AMBULATORY SURGICAL CENTER LLC,15 RIVERSIDE DRIVE,NASHUA,NH,3062,(603) 882-0950,,HILLSBOROUGH
3000,Ambulatory Surgical Center,NASHUA EYE SURGERY CENTER,5 COLISEUM AVENUE SUITE 7,NASHUA,NH,3063,(603) 689-9242,,HILLSBOROUGH
4477,Ambulatory Surgical Center,"NORTH ATLANTIC SURGICAL SUITES,  LLC","23 KEEWAYDIN DR, STE 100",Salem,NH,3079,(603) 386-0272,,Rockingham
4486,Ambulatory Surgical Center,NORTH COUNTRY ENDOSCOPY,220 COTTAGE  STREET,Littleton,NH,3561,(603) 444-0272,,Grafton
4387,Ambulatory Surgical Center,NORTHRIDGE SURGICAL SUITES LLC,41 INNOVATIVE WY,NASHUA,NH,3062,(603) 484-7710,,Hillsborough
4080,Ambulatory Surgical Center,ORCHARD SURGICAL CENTER,16 KEEWAYDIN DR,SALEM,NH,3079,(603) 401-6466,,Rockingham
4475,Ambulatory Surgical Center,ORTHOPAEDIC SURGERY CENTER,116 LANGLEY PARKWAY,CONCORD,NH,3301,(603) 228-7211,,Merrimack
4361,Ambulatory Surgical Center,ORTHOPAEDIC SURGERY CENTER DERRY,14 TSIENNETO RD,DERRY,NH,3038,(603) 425-6966,,Rockingham
3248,Ambulatory Surgical Center,PARKLAND ENDOSCOPY CENTER,44 BIRCH STREET STE 103,DERRY,NH,3038,(603) 432-3639,,ROCKINGHAM
2899,Ambulatory Surgical Center,PORTSMOUTH REGIONAL ASC,333 BORTHWICK AVE SUITE 200,PORTSMOUTH,NH,3801,(603) 433-0941,,ROCKINGHAM
4020,Ambulatory Surgical Center,RYE SURGICAL CENTER,270 LAFAYETTE RD,RYE,NH,3870,(603) 319-1581,,Rockingham
3504,Ambulatory Surgical Center,STRATHAM AMBULATORY SURGERY CENTER,4 WEST ROAD,STRATHAM,NH,3885,(603) 772-2076,,ROCKINGHAM
4428,Ambulatory Surgical Center,SURGICAL CENTER OF NEW HAMPSHIRE AT DERRY,15 TSIENNETO RD,DERRY,NH,3038,(603) 460-4955,,Rockingham
3946,Ambulatory Surgical Center,THE SURGERY CENTER OF GREATER NASHUA,10 PROSPECT STREET SUITE 101,NASHUA,NH,3060,(603) 578-5108,,HILLSBOROUGH
3999,Ambulatory Surgical Center,"WENTWORTH SURGERY CENTER, LLC",6 WORKS WAY,SOMERSWORTH,NH,3878,(603) 285-9288,,Strafford
4305,Assist Living/Residential Care Facility,AMERICAN HOUSE KEENE,197 WATER ST,KEENE,NH,3431,(603) 352-1282,144,Cheshire
3111,Assist Living/Residential Care Facility,ARTABAN HOUSE,40 PLOWSHARE LANE,GREENFIELD,NH,3047,(603) 547-3717,6,HILLSBOROUGH
4480,Assist Living/Residential Care Facility,ASSISTED LIVING AT PINE HILL,35 NORTH LOWELL RD,Windham,NH,3087,(603) 506-6626,16,Rockingham
2923,Assist Living/Residential Care Facility,AUSTIN HOME,532 WHITE PLAINS ROAD,WEBSTER,NH,3303,(603) 456-3525,15,MERRIMACK
4481,Assist Living/Residential Care Facility,BEAVER LAKE LODGE,38 NORTH SHORE ROAD,DERRY,NH,3038,(603) 434-5683,16,Rockingham
3096,Assist Living/Residential Care Facility,BELLAMY FIELDS,150 GARRISON ROAD,DOVER,NH,3820,(603) 516-8888,52,STRAFFORD
3348,Assist Living/Residential Care Facility,BENTLEY COMMONS AT BEDFORD,66 HAWTHORNE DRIVE,BEDFORD,NH,3110,(603) 644-2200,100,HILLSBOROUGH
3118,Assist Living/Residential Care Facility,BIRCH,61 LUKAS DRIVE,TEMPLE,NH,3084,(603) 878-4796,5,HILLSBOROUGH
3996,Assist Living/Residential Care Facility,"COLONIAL FOX DEN, LLC",208 NORTH ROAD,SANDOWN,NH,3873,(603) 887-6333,44,Rockingham
857,Assist Living/Residential Care Facility,CROSSROAD FARM,37 MEMORIAL DRIVE,TEMPLE,NH,3084,(603) 878-4322,5,HILLSBOROUGH
3495,Assist Living/Residential Care Facility,DESIREE'S PLACE,93 CHARLES STREET,ROCHESTER,NH,3867,(603) 332-6455,16,STRAFFORD
2422,Assist Living/Residential Care Facility,ECHO FARM,63 MEMORIAL HIGHWAY,TEMPLE,NH,3084,(603) 878-2761,5,HILLSBOROUGH
3147,Assist Living/Residential Care Facility,FOUR WINDS COMMUNITY-ST ORAN HOUSE,32 COLBURN ROAD,TEMPLE,NH,3084,(603) 878-2325,3,HILLSBOROUGH
2801,Assist Living/Residential Care Facility,FOX MEADOW RETIREMENT HOME,1151 SUMMER STREET,BRISTOL,NH,3222,(603) 744-5020,16,GRAFTON
1337,Assist Living/Residential Care Facility,FRIENDSHIP MANOR,151 MAIN STREET,NEW IPSWICH,NH,3071,(603) 878-2315,22,HILLSBOROUGH
3794,Assist Living/Residential Care Facility,HARMONY HOMES LLC,1 STAGECOACH RD,DURHAM,NH,3824,(603) 292-6087,24,STRAFFORD
3601,Assist Living/Residential Care Facility,JOVIS HOUSE,12 WHITNEY DRIVE,GREENFIELD,NH,3047,(603) 547-6803,6,HILLSBOROUGH
3061,Assist Living/Residential Care Facility,LEDGEWOOD,62 LUKAS DRIVE,TEMPLE,NH,3084,(603) 878-0090,5,HILLSBOROUGH
4322,Assist Living/Residential Care Facility,LEDGEWOOD BAY ASSISTED LIVING AND MEMORY CARE,43 LEDGEWOOD DRIVE,MILFORD,NH,3055,(603) 672-5037,150,Hillsborough
3871,Assist Living/Residential Care Facility,LILAC VIEW CORP,18 HEALTH CARE DRIVE,ROCHESTER,NH,3867,(603) 332-7004,40,STRAFFORD
4243,Assist Living/Residential Care Facility,LINCOLN TERRACE ASSISTED LIVING RESIDENCE LLC,11 LINCOLN ST,ROCHESTER,NH,3867,(603) 335-3966,16,Strafford
4245,Assist Living/Residential Care Facility,MAE'S PLACE,212 SUMMER ST,BRISTOL,NH,3222,(603) 744-8402,12,Grafton
1450,Assist Living/Residential Care Facility,MEADOW VIEW MANOR,749 SALMON FALLS ROAD,ROCHESTER,NH,3868,(603) 335-2288,5,STRAFFORD
2088,Assist Living/Residential Care Facility,MERRY MEADOW FARM - HANOVER HOUSE,1 PROSPECT STREET,HANOVER,NH,3755,(603) 643-3817,8,GRAFTON
2233,Assist Living/Residential Care Facility,MYRTLE MANOR II INC,83 MYRTLE STREET,MANCHESTER,NH,3104,(603) 641-6626,25,HILLSBOROUGH
835,Assist Living/Residential Care Facility,ON THE GREEN RESIDENTIAL CARE FACILITY,412 DARTMOUTH COLLEGE HIGHWAY,HAVERHILL,NH,3765,(603) 989-5545,11,GRAFTON
3311,Assist Living/Residential Care Facility,OUR PLACE INN TIME,31 TAPPAN STREET,FARMINGTON,NH,3835,(603) 755-2354,16,STRAFFORD
1607,Assist Living/Residential Care Facility,PILLSBURY HOME,95 HIGH ST,MILFORD,NH,3055,(603) 672-1232,14,Belknap
2330,Assist Living/Residential Care Facility,PINE VIEW HAVEN,85 FRANKLIN HIGHWAY,ANDOVER,NH,3216,(603) 735-5208,10,MERRIMACK
4346,Assist Living/Residential Care Facility,POND VIEW ACRES,923 FRANKLIN PIERCE HWY,BARRINGTON,NH,3825,(603) 664-9967,10,Strafford
3522,Assist Living/Residential Care Facility,PRESIDENTIAL OAKS,200 PLEASANT STREET,CONCORD,NH,3301,(603) 225-6644,103,MERRIMACK
3071,Assist Living/Residential Care Facility,RED FARM HOUSE,24 WHITNEY ROAD,GREENFIELD,NH,3047,(603) 547-2444,3,HILLSBOROUGH
4383,Assist Living/Residential Care Facility,RESIDENTIAL FACILITY II,413 LAFAYETTE RD,PORTSMOUTH,NH,3801,(603) 828-4093,12,Rockingham
4244,Assist Living/Residential Care Facility,"ROSEWOOD MANOR ASSISTED LIVING RESIDENCE, LLC",2 CHURCH ST,GONIC,NH,3839,(603) 355-3966,19,Strafford
1995,Assist Living/Residential Care Facility,SARTWELL PLACE,6 TERRACE STREET,WHITEFIELD,NH,3598,(603) 837-2541,24,COOS
4236,Assist Living/Residential Care Facility,SILVER MAPLES RESIDENTIAL CARE,5 WINTER STREET,CLAREMONT,NH,3743,(603) 543-3628,11,Sullivan
3787,Assist Living/Residential Care Facility,STUDLEY HOME,34 EASTERN AVENUE,ROCHESTER,NH,3867,(603) 332-1738,15,STRAFFORD
3874,Assist Living/Residential Care Facility,SUMMERCREST,169 SUMMER STREET,NEWPORT,NH,3773,(603) 863-8181,83,SULLIVAN
4004,Assist Living/Residential Care Facility,SUNAPEE COVE ASSISTED LIVING,1250 ROUTE 11,Sunapee,NH,3782,(603) 763-0566,25,Sullivan
3969,Assist Living/Residential Care Facility,THE CARRIAGE HOUSE OF NORTHFIELD,9 SUMMER STREET,NORTHFIELD,NH,3276,(603) 286-7890,35,BELKNAP
4130,Assist Living/Residential Care Facility,THE INN AT EDGEWOOD,936 SOUTH ST,PORTSMOUTH,NH,3801,(603) 431-5327,16,Rockingham
3544,Assist Living/Residential Care Facility,THE INN AT MEREDITH BAY,21 UPPER MILE POINT DRIVE,MEREDITH,NH,3253,(603) 279-1500,44,BELKNAP
4283,Assist Living/Residential Care Facility,THE WELLSTONE HOUSE,125 LANGFORD ST,RAYMOND,NH,3077,(603) 895-9303,12,Rockingham
3998,Assist Living/Residential Care Facility,TOBIAS HOUSE,75 BIRCH HILL ROAD,TEMPLE,NH,3084,(603) 878-9140,6,HILLSBOROUGH
2221,Assist Living/Residential Care Facility,VILLAGER RETIREMENT HOME,50 N. MAST STREET,GOFFSTOWN,NH,3045,(603) 497-4225,16,HILLSBOROUGH
3084,Assist Living/Residential Care Facility,"VINTAGE HILL, LLC",10 BERRY AVENUE,PITTSFIELD,NH,3263,(603) 435-5133,10,MERRIMACK
2912,Assist Living/Residential Care Facility,WASHINGTON MANOR,67 PROSPECT STREET,MANCHESTER,NH,3104,(603) 668-9111,16,HILLSBOROUGH
4390,Assist Living/Residential Care Facility,WAYNE'S PLACE,164 OLD SPRINGFIELD RD,Charlestown,NH,3603,(603) 826-0840,11,Sullivan
4046,Assist Living/Residential Care Facility,WESTBORO HOUSE,11 ELM ST WEST,WEST LEBANON,NH,3784,(603) 298-8326,12,Grafton
4055,Birthing Center,BIRTH COTTAGE OF MILFORD,4 PROSPECT STREET,MILFORD,NH,3055,(603) 673-6010,2,Hillsborough
4393,Birthing Center,"BIRTH COTTAGE OF SALEM, PLLC",141 MAIN ST UNIT 1,SALEM,NH,3079,(603) 458-2955,2,Rockingham
3712,Birthing Center,CONCORD BIRTH CENTER LLC,254 N STATE STREET UNIT D,CONCORD,NH,3301,(603) 228-8710,2,MERRIMACK
4478,Birthing Center,GENTLE LANDING BIRTH CENTER,2 BUCK RD STE C-2,Hanover,NH,3755,(802) 448-6940,,Grafton
3344,Birthing Center,"MONADNOCK BIRTH CENTER, LLC",907 ROUTE 10,West Swanzey,NH,3446,(603) 352-5860,2,Cheshire
3055,Case Management Agency,BRAIN INJURY ASSOCIATION OF NH,52 PLEASANT ST,CONCORD,NH,3301,(603) 225-8400,,Belknap
3759,Case Management Agency,COMMUNITY CROSSROADS,8 COMMERCE DRIVE STE 801,ATKINSON,NH,3811,(603) 893-1299,,ROCKINGHAM
4299,Case Management Agency,COMMUNITY PARTNERS,25 OLD DOVER RD,ROCHESTER,NH,3867,(603) 516-9300,,Strafford
3262,Case Management Agency,CROTCHED MOUNTAIN COMMUNITY CARE,"186 GRANITE ST, STE 3-C",MANCHESTER,NH,3101,(603) 668-7584,,Hillsborough
2806,Case Management Agency,GATEWAYS CASE MANAGEMENT SERVICES,144 CANAL STREET,NASHUA,NH,3064,(603) 882-6333,,HILLSBOROUGH
3221,Case Management Agency,GRANITE CASE MANAGEMENT LLC,288 BAPTIST HILL RD,CANTERBURY,NH,3224,(603) 856-3120,,Merrimack
2304,Case Management Agency,LIFE COPING INC,159 MAIN DUNSTABLE RD STE 207,NASHUA,NH,3060,(603) 888-3588,,Belknap
2867,Case Management Agency,MERRIMACK VALLEY ASSISTANCE PROGRAM,8 WALL STREET,CONCORD,NH,3301,(603) 226-0607,,MERRIMACK
4311,Case Management Agency,MONADNOCK COLLABORATIVE,105 CASTLE ST,KEENE,NH,3431,(603) 352-7707,,Cheshire
4132,Collecting Station,ALTON FAMILY MEDICINE,27 NEW DURHAM RD,ALTON,NH,3809,(603) 875-6151,,Belknap
3559,Collecting Station,CH CS @ EPSOM MEDICAL OFFICE BUILDING,1990 DOVER ROAD,EPSOM,NH,3234,(603) 736-6235,,MERRIMACK
3925,Collecting Station,CH LAB CS @ PENACOOK FAMILY PHYSICIANS,4 CRESCENT STREET,PENACOOK,NH,3303,(603) 565-1095,,MERRIMACK
2827,Collecting Station,CHESHIRE MEDICAL CENTER CS,17 NINETY-THIRD STREET,KEENE,NH,3431,(603) 354-5400,,CHESHIRE
4362,Collecting Station,CLAREMONT NH PSC,214 WASHINGTON ST,CLAREMONT,NH,3743,(603) 504-3750,,Sullivan
3558,Collecting Station,CMC LAB COLLECTION STATION @ BEDFORD,188 ROUTE 101,BEDFORD,NH,3110,(603) 663-6437,,HILLSBOROUGH
3350,Collecting Station,CMC LAB CS @ FAM PHYS OF MANCHESTER,57 WEBSTER STREET,MANCHESTER,NH,3104,(603) 663-8013,,HILLSBOROUGH
3337,Collecting Station,CMC LAB CS @ NOTRE DAME MEDICAL PAVILION,87 MCGREGOR STREET,MANCHESTER,NH,3102,(603) 663-8013,,HILLSBOROUGH
3285,Collecting Station,CMC LAB CS @ QUEEN CITY MEDICAL ASSOC.,775 SOUTH MAIN STREET,MANCHESTER,NH,3102,(603) 663-8013,,HILLSBOROUGH
3633,Collecting Station,CMC LAB CS@GOFFSTOWN PRIMARY CARE,17A TATRO DRIVE,GOFFSTOWN,NH,3045,(603) 625-0375,,HILLSBOROUGH
4031,Collecting Station,CMC LAB CS@HOOKSETT MEDICAL PARK,27 LONDONDERRY TURNPIKE,HOOKSETT,NH,3106,(603) 314-5990,,Merrimack
3566,Collecting Station,CONCENTRA URGENT CARE CS - CONCORD,1 PILLSBURY STREET,CONCORD,NH,3301,(603) 223-2300,,MERRIMACK
3568,Collecting Station,CONCENTRA URGENT CARE-CS NASHUA,14A BROAD ST,NASHUA,NH,3064,(603) 889-2354,,HILLSBOROUGH
3885,Collecting Station,CONCENTRA URGENT CARE-MANCHESTER CS,1279 SOUTH WILLOW STREET,MANCHESTER,NH,3103,(603) 644-3330,,HILLSBOROUGH
3028,Collecting Station,CONCORD HOS CS @ HORSESHOE POND,60 COMMERCIAL ST,CONCORD,NH,3301,(603) 230-1200,,MERRIMACK
2589,Collecting Station,CONCORD HOSP COLL STATION - MEMORIAL BLD,246 PLEASANT STREET,CONCORD,NH,3301,(603) 227-7180,,MERRIMACK
3026,Collecting Station,CONCORD HOSP CS AT HERITAGE HEIGHTS,149 EAST SIDE DRIVE,CONCORD,NH,3301,(603) 225-6999,,MERRIMACK
3113,Collecting Station,CONCORD HOSPITAL CS @ WARNER,2 EAST MAIN STREET,WARNER,NH,3278,(603) 456-6106,,MERRIMACK
4515,Collecting Station,CONCORD HOSPITAL LAB COLLECTION STATION @ RIVERBEND,10 WEST STREET,Concord,NH,3301,(603) 225-0123,,Merrimack
4468,Collecting Station,CONCORD HOSPITAL OCCUPATIONAL AND EMPLOYEE HEALTH,248 PLEASANT ST. STE 202,Concord,NH,3301,(603) 230-1220,,Merrimack
4344,Collecting Station,CONCORD METRO TREATMENT CENTER,100 HALL ST,CONCORD,NH,3301,(603) 229-4260,,Merrimack
4449,Collecting Station,CRANMORE HEALTH PARTNERS,1875 WHITE MOUNTAIN HWY,North Conway,NH,3860,(603) 730-5356,,Carroll
3589,Collecting Station,DARTMOUTH-HITCHCOCK BEDFORD CS,25 SOUTH RIVER ROAD,BEDFORD,NH,3110,(603) 695-2580,,HILLSBOROUGH
3881,Collecting Station,DARTMOUTH-HITCHCOCK HEATER ROAD,18 OLD ETNA ROAD,LEBANON,NH,3766,(603) 650-4025,,GRAFTON
3736,Collecting Station,DARTMOUTH-HITCHCOCK HUDSON CS,208 ROBINSON ROAD,HUDSON,NH,3051,(603) 577-3410,,HILLSBOROUGH
3586,Collecting Station,DARTMOUTH-HITCHCOCK MERRIMACK CS,294 DANIEL WEBSTER HIGHWAY,MERRIMACK,NH,3054,(603) 440-7808,,HILLSBOROUGH
3587,Collecting Station,DARTMOUTH-HITCHCOCK MILFORD CS,14 ARMORY ROAD,MILFORD,NH,3055,(603) 673-2515,,HILLSBOROUGH
4105,Collecting Station,DARTMOUTH-HITCHCOCK WASHINGTON PLACE COLLECTING STATION,5 WASHINGTON PLACE,BEDFORD,NH,3110,(603) 695-2900,,Hillsborough
3690,Collecting Station,ELLIOT COLLECTION STATION @ 185 QUEEN CITY,185 QUEEN CITY AVENUE,MANCHESTER,NH,3101,(603) 663-2557,,HILLSBOROUGH
3747,Collecting Station,ELLIOT COLLECTION STATION @ 190 TARRYTOWN RD,190 TARRYTOWN ROAD,MANCHESTER,NH,3103,(603) 663-2557,,HILLSBOROUGH
3525,Collecting Station,ELLIOT COLLECTION STATION @ 20 CHAMBERS RD,20 CHAMBERS ROAD,HOOKSETT,NH,3106,(603) 663-2557,,MERRIMACK
4321,Collecting Station,ELLIOT COLLECTION STATION @ 25 LEAVY DRIVE,25 LEAVY DRIVE,BEDFORD,NH,3110,(603) 663-2557,,Hillsborough
4189,Collecting Station,ELLIOT LAB @ NORTHEAST REHAB HOSPITAL-SALEM,70 BUTLER ST,SALEM,NH,3079,(603) 663-2557,,Rockingham
2945,Collecting Station,EXETER HOSPITAL-COLLECTING STATION,5 ALUMNI DRIVE,EXETER,NH,3833,(603) 580-7085,,ROCKINGHAM
4403,Collecting Station,GRANITE STATE LAB,"120 WASHINGTON ST, STE 103",ROCHESTER,NH,3839,(603) 330-7057,,Strafford
4338,Collecting Station,KEENE METRO TREATMENT CENTER,1076 WEST SWANZEY RD,SWANZEY,NH,3446,(603) 358-0500,,Cheshire
4381,Collecting Station,KING HEALTHCARE DBA INTEGRATE,26 EAST PEARL STREET,NASHUA,NH,3060,(781) 771-8199,,Hillsborough
4395,Collecting Station,LABCORP DMC,15 TSIENNETO RD,DERRY,NH,3038,(603) 845-5093,,Rockingham
3156,Collecting Station,LABCORP/BEDFORD COMMONS PSC,101 RIVERWAY PLACE,BEDFORD,NH,3110,(603) 622-2357,,HILLSBOROUGH
4177,Collecting Station,LABCORP/CENTRAL COMMONS,750 CENTRAL AVE,DOVER,NH,3820,(603) 749-4444,,Belknap
3142,Collecting Station,LABCORP/EXETER PCS-HAMPTON RD,19 HAMPTON ROAD #13,EXETER,NH,3833,(603) 772-9603,,ROCKINGHAM
3642,Collecting Station,LABCORP/GREENLAND RD PSC,875 GREENLAND ROAD,PORTSMOUTH,NH,3801,(603) 436-1760,,ROCKINGHAM
3148,Collecting Station,LABCORP/LAFAYETTE PROF. PARK,230 LAFAYETTE ROAD BLDG. D,PORTSMOUTH,NH,3801,(603) 436-5311,,ROCKINGHAM
3140,Collecting Station,LABCORP/ROCHESTER PSC,40 WINTER STREET STE 200,ROCHESTER,NH,3867,(603) 332-6181,,STRAFFORD
3971,Collecting Station,LABCORP-GREENHOUSE NATUROPATHIC,109 PONEMAH ROAD,AMHERST,NH,3031,(603) 430-4143,,Belknap
3757,Collecting Station,LABCORP-PELHAM RD,25 PELHAM ROAD 103A,SALEM,NH,3079,(603) 890-3708,,ROCKINGHAM
3967,Collecting Station,LABCORP-SOMERSWORTH,21 CLARK WAY,SOMERSWORTH,NH,3878,(603) 841-2588,,STRAFFORD
3873,Collecting Station,LABCORP-WINDHAM PSC,49 RANGE ROAD SUITE 101,WINDHAM,NH,3087,(603) 681-9194,,ROCKINGHAM
4340,Collecting Station,LANDMARK LABCORP,50 NASHUA RD #301,LONDONDERRY,NH,3053,(603) 828-3666,,Rockingham
4329,Collecting Station,LOWELL GENERAL PELHAM PATIENT SERVICE CENTER,49 ATWOOD RD STE 2,PELHAM,NH,3076,(978) 323-7051,,Hillsborough
3216,Collecting Station,MANCHESTER HEALTH DEPARTMENT CS,1528 ELM STREET,MANCHESTER,NH,3101,(603) 624-6466,,HILLSBOROUGH
4330,Collecting Station,MANCHESTER METRO TREATMENT CENTER,228 MAPLE ST,MANCHESTER,NH,3103,(603) 622-5005,,Hillsborough
3517,Collecting Station,MOULTONBORO FAMILY MEDICINE,984 WHITTIER HIGHWAY,MOULTONBOROUGH,NH,3254,(603) 476-2216,,CARROLL
4336,Collecting Station,NEW SEASONS FRANKLIN,880 CENTRAL ST STE 10,Franklin,NH,3235,(603) 671-7065,,Merrimack
2929,Collecting Station,NEWPORT HEALTH CENTER,11 JOHN STARK HIGHWAY,NEWPORT,NH,3773,(603) 863-4100,,SULLIVAN
2469,Collecting Station,NUTFIELD COLLECTION STATION,44 BIRCH STREET STE 300,DERRY,NH,3038,(603) 421-2266,,ROCKINGHAM
3513,Collecting Station,OSSIPEE FAMILY MEDICINE,3 WATER VILLAGE ROAD,OSSIPEE,NH,3864,(603) 539-6996,,CARROLL
4097,Collecting Station,PRH PATIENT SERVICE CENTER-PEASE,25 NEW HAMPSHIRE AVE STE 105,PORTSMOUTH,NH,3801,(603) 570-3130,,Rockingham
3239,Collecting Station,PRH-PATIENT SERVICE CENTER,330 BORTHWICK AVENUE SUITE 112,PORTSMOUTH,NH,3801,(603) 433-1331,,ROCKINGHAM
3646,Collecting Station,PRH-PATIENT SERVICE CENTER GRIFFIN RD,155 GRIFFIN ROAD,PORTSMOUTH,NH,3801,(603) 610-8825,,ROCKINGHAM
3283,Collecting Station,PRH-PATIENT SERVICES CENTER,55 HIGH STREET - SUITE 104,HAMPTON,NH,3842,(603) 433-5282,,ROCKINGHAM
4334,Collecting Station,QUEST - GOODWIN,311 NH-108,SOMERSWORTH,NH,3878,(603) 327-9217,,Strafford
3035,Collecting Station,QUEST DIAGNOSTICS,195 MCGREGOR ST,MANCHESTER,NH,3102,(772) 494-3973,,HILLSBOROUGH
4225,Collecting Station,QUEST DIAGNOSTICS,160 SOUTH RIVER RD,BEDFORD,NH,3110,(774) 369-3900,,Hillsborough
2817,Collecting Station,QUEST DIAGNOSTICS,160 SOUTH RIVER ROAD SUITE 100,BEDFORD,NH,3110,(603) 641-2613,,HILLSBOROUGH
3052,Collecting Station,QUEST DIAGNOSTICS,200 GRIFFIN RD UNIT 12,PORTSMOUTH,NH,3801,(603) 327-9217,,ROCKINGHAM
3083,Collecting Station,QUEST DIAGNOSTICS,128 STATE STREET ROUTE 27,RAYMOND,NH,3077,(603) 244-7365,,ROCKINGHAM
4337,Collecting Station,QUEST DIAGNOSTICS AT CLEARCHOICE MD LEBANON,410 MIRACLE MILE,Lebanon,NH,3766,(603) 443-9916,,Grafton
3214,Collecting Station,QUEST DIAGNOSTICS-300 MAIN STREET,300 MAIN STREET,NASHUA,NH,3060,(603) 578-0323,,HILLSBOROUGH
4072,Collecting Station,QUEST DIAGNOSTICS-AMHERST,282 STATE RTE 101,AMHERST,NH,3031,(603) 249-5306,,Hillsborough
4026,Collecting Station,QUEST DIAGNOSTICS-ATKINSON,58 ISLAND POND RD,ATKINSON,NH,3811,(603) 327-9217,,Rockingham
3458,Collecting Station,QUEST DIAGNOSTICS-BEDFORD,169 S RIVER RD,BEDFORD,NH,3110,(781) 942-7000,,HILLSBOROUGH
4025,Collecting Station,QUEST DIAGNOSTICS-CENTRAL AVE,770 CENTRAL AVE,DOVER,NH,3820,(603) 327-9217,,Strafford
4186,Collecting Station,QUEST DIAGNOSTICS-CLARK WY,5 CLARK WY,SOMERSWORTH,NH,3878,(774) 369-3900,,Strafford
4074,Collecting Station,QUEST DIAGNOSTICS-CONCORD,10 FERRY ST,CONCORD,NH,3301,(603) 715-5910,,Merrimack
3132,Collecting Station,QUEST DIAGNOSTICS-DERRY,6 TSIENNETO ROAD,DERRY,NH,3038,(603) 434-2741,,ROCKINGHAM
4169,Collecting Station,QUEST DIAGNOSTICS-FAMILY FIRST,100 CAMPUS DR #12,PORTSMOUTH,NH,3801,(603) 627-9217,,Rockingham
3671,Collecting Station,QUEST DIAGNOSTICS-GILFORD,14 COUNTRY CLUB ROAD,GILFORD,NH,3249,(603) 524-5946,,BELKNAP
3994,Collecting Station,QUEST DIAGNOSTICS-KEEYWAYDIN DR,22 KEEWAYDIN DR,Salem,NH,3079,(603) 685-6977,,Rockingham
2730,Collecting Station,QUEST DIAGNOSTICS-LONDONDERRY,6 BUTTERICK ROAD -  SUITE 302,LONDONDERRY,NH,3053,(603) 327-9217,,ROCKINGHAM
3130,Collecting Station,QUEST DIAGNOSTICS-NEWMARKET,207 SOUTH MAIN ST,NEWMARKET,NH,3857,(603) 659-0295,,ROCKINGHAM
3480,Collecting Station,QUEST DIAGNOSTICS-ORCHARD PARK,875 GREENLAND RD,PORTSMOUTH,NH,3801,(603) 327-9217,,ROCKINGHAM
3131,Collecting Station,QUEST DIAGNOSTICS-PLEASANT ST. CONCORD,280 PLEASANT STREET #1,CONCORD,NH,3301,(603) 223-0307,,Belknap
3756,Collecting Station,QUEST DIAGNOSTICS-PROSPECT ST,22 PROSPECT STREET,NASHUA,NH,3060,(603) 579-4789,,HILLSBOROUGH
3737,Collecting Station,QUEST DIAGNOSTICS-RIVERWAY PLACE,201 RIVERWAY PLACE,BEDFORD,NH,3110,(603) 624-8759,,HILLSBOROUGH
4289,Collecting Station,QUEST DIAGNOSTICS-SALEM NH PSC,8 STILES RD UNIT 111,SALEM,NH,3079,(603) 890-6053,,Rockingham
3995,Collecting Station,QUEST DIAGNOSTICS-STILES RD,23 STILES RD STE 213,SALEM,NH,3079,(774) 436-9390,,Rockingham
3762,Collecting Station,QUEST DIAGNOSTICS-TSIENNETO RD,14 TSIENNETO RD #201,DERRY,NH,3038,(603) 327-9217,,ROCKINGHAM
4024,Collecting Station,QUEST DIAGNOSTICS-WEST ST,391 WEST ST,KEENE,NH,3431,(603) 352-6631,,Cheshire
4476,Collecting Station,SACO RIVER MEDICAL GROUP,7 GREENWOOD AVE,Conway,NH,3818,(603) 447-3500,,Carroll
4412,Collecting Station,SJH LAB DRAWING STATION-SOUTH NASHUA,173 DANIEL WEBSTER HWY,Nashua,NH,3060,(603) 891-4483,,Hillsborough
3260,Collecting Station,SNH MEDICAL CENTER - DERRY RD,300 DERRY ROAD,HUDSON,NH,3051,(603) 577-2000,,HILLSBOROUGH
3891,Collecting Station,SNHMC - PROSPECT ST,17 PROSPECT STREET,NASHUA,NH,3060,(603) 577-2000,,HILLSBOROUGH
3213,Collecting Station,SNHMC-280 MAIN ST 1ST FLOOR,280 MAIN STREET 1ST FLOOR,NASHUA,NH,3060,(603) 577-2000,,HILLSBOROUGH
3645,Collecting Station,SNHMC-JONES RD,10 JONES ROAD,MILFORD,NH,3055,(603) 577-2000,,HILLSBOROUGH
4040,Collecting Station,SNHMC-MAIN ST,280 MAIN ST STE 321,NASHUA,NH,3061,(603) 577-2000,,Hillsborough
3849,Collecting Station,SO NH MEDICAL CENTER CS - PELHAM,33 WINDHAM ROAD,PELHAM,NH,3079,(603) 577-2000,,Rockingham
3952,Collecting Station,SO NH MEDICAL CENTER-SPIT BROOK RD,112 SPIT BROOK ROAD,NASHUA,NH,3062,(603) 577-2000,,HILLSBOROUGH
2681,Collecting Station,SOUTHERN NEW HAMPSHIRE MEDICAL CENTER,10 PROSPECT ST,NASHUA,NH,3060,(603) 577-2000,,HILLSBOROUGH
3483,Collecting Station,SOUTHERN NH MEDICAL CENTER - DW HIGHWAY,696 D W HIGHWAY,Merrimack,NH,3054,(603) 577-2000,,Hillsborough
4121,Collecting Station,SOUTHERN NH MEDICAL CENTER -LIMBO LN,8 LIMBO LANE,AMHERST,NH,3031,(603) 577-2000,,Hillsborough
3091,Collecting Station,SOUTHERN NH MEDICAL CENTER-NW BLVD,29 NORTHWEST BLVD,NASHUA,NH,3063,(603) 577-2000,,HILLSBOROUGH
3107,Collecting Station,ST JOSEPH HOSPITAL AMHERST STREET LAB DRAWING STATION,460 AMHERST STREET,NASHUA,NH,3063,(603) 595-3624,,Hillsborough
3571,Collecting Station,ST JOSEPH HOSPITAL HUDSON LAB DRAWING STATION,208 ROBINSON ROAD,HUDSON,NH,3051,(603) 598-2437,,HILLSBOROUGH
3988,Collecting Station,ST JOSEPH HOSPITAL MILFORD LAB DRAWING STATION,442 NASHUA ST,MILFORD,NH,3055,(603) 673-5625,,Hillsborough
3514,Collecting Station,TAMWORTH FAMILY MEDICINE,577 WHITE MOUNTAIN HWY,TAMWORTH,NH,3886,(603) 323-3311,,CARROLL
4122,Collecting Station,THE CENTER FOR ORTHOPEDICS AND MOVEMENT COLLECTING STATION,7 ALUMNI DR,EXETER,NH,3833,(603) 580-8446,,Rockingham
3508,Collecting Station,THE WD PROFESSIONAL CNTR @ DOVER CS,10 MEMBERS WAY,DOVER,NH,3820,(603) 742-1123,,STRAFFORD
4388,Collecting Station,WENTWORTH-DOUGLASS HOSPITAL LABORATORY SERVICES,67 CORPORATE DR,Portsmouth,NH,3801,(603) 868-8568,,Rockingham
4399,Collecting Station,WHITE MOUNTAIN MEDICAL CENTER,2531 WHITE MOUNTAIN HIGHWAY,SANBORNVILLE,NH,3872,(603) 522-0186,,Carroll
4006,Community Residence (4+ beds),128 B PASSACONAWAY RD,128 B PASSACONAWAY RD,Conway,NH,3818,(603) 447-1973,6,Carroll
3937,Community Residence (4+ beds),128 PASSACONAWAY RD,128 PASSACONAWAY RD,North Conway,NH,3860,(603) 356-0282,6,Carroll
705,Community Residence (4+ beds),AMOSKEAG RESIDENCE,34 BROWN AVENUE,MANCHESTER,NH,3101,(603) 628-7745,12,HILLSBOROUGH
2911,Community Residence (4+ beds),ARBOR VIEW INN,163 SUMMER STREET,NEWPORT,NH,3773,(603) 863-1785,16,SULLIVAN
4417,Community Residence (4+ beds),BARRINGTON RESIDENCE,909 STRAFFORD RD,Barrington,NH,3825,(603) 335-8696,6,Strafford
3783,Community Residence (4+ beds),BAYBERRY HOUSE,5 HOWARD ROAD,CONCORD,NH,3301,(603) 746-7550,6,MERRIMACK
3786,Community Residence (4+ beds),BRICK HOUSE,91 PLEASANT STREET,CONCORD,NH,3301,(603) 746-7550,7,MERRIMACK
2439,Community Residence (4+ beds),COLUMBIA HOUSE,18 STODDARD ROAD,Columbia,NH,3576,(603) 237-8537,6,Coos
4444,Community Residence (4+ beds),DEER RIDGE,87 HORNE RD,Belmont,NH,3220,(603) 573-6387,16,Belknap
1764,Community Residence (4+ beds),EMERALD HOUSE,32 EMERALD STREET,KEENE,NH,3431,(603) 352-6649,10,CHESHIRE
3486,Community Residence (4+ beds),FAIRVIEW RESIDENCE,16 FAIRVIEW STREET,LACONIA,NH,3246,(603) 527-1950,6,BELKNAP
1344,Community Residence (4+ beds),FAIRWEATHER LODGE,463 BREAKFAST HILL RD,GREENLAND,NH,3840,(603) 431-2250,8,Belknap
992,Community Residence (4+ beds),FELLOWSHIP HOUSE,11 CHESLEY STREET,CONCORD,NH,3301,(603) 225-0977,12,MERRIMACK
3960,Community Residence (4+ beds),FRANKLIN FALLS FARM,348 VICTORY DRIVE,FRANKLIN,NH,3235,(603) 934-6700,6,MERRIMACK
1687,Community Residence (4+ beds),GILPIN RESIDENCE,145 HIGH STREET,LITTLETON,NH,3561,(603) 444-3905,6,GRAFTON
3785,Community Residence (4+ beds),GREY HOUSE,93 PLEASANT STREET,CONCORD,NH,3301,(603) 746-7550,8,MERRIMACK
2487,Community Residence (4+ beds),HARBOR AVENUE RESIDENCE,62 HARBOR AVENUE,NASHUA,NH,3060,(603) 882-2042,5,HILLSBOROUGH
1464,Community Residence (4+ beds),HARBOR HOMES III INC,156 CHESTNUT ST,NASHUA,NH,3060,(603) 882-2355,10,HILLSBOROUGH
709,Community Residence (4+ beds),HARBOR HOMES INC,3 WINTER STREET,NASHUA,NH,3060,(603) 595-8601,9,HILLSBOROUGH
3961,Community Residence (4+ beds),HOPE AVE RESIDENCE,25 HOPE AVENUE,CONCORD,NH,3301,(603) 224-3562,6,MERRIMACK
722,Community Residence (4+ beds),HUDSON HOUSE,112 MUSQUASH RD,HUDSON,NH,3051,(603) 889-0652,4,HILLSBOROUGH
4419,Community Residence (4+ beds),IONA HOUSE,1172 GIBBONS HIGHWAY,Wilton,NH,3086,(603) 878-2325,6,Hillsborough
4460,Community Residence (4+ beds),ISAAC HOUSE,997 ISAAC FRYE HWY,Wilton,NH,3086,(603) 722-8428,4,Hillsborough
4392,Community Residence (4+ beds),KACIE LANE,16 KACIE LANE,Danville,NH,3819,(603) 382-0677,4,Rockingham
801,Community Residence (4+ beds),KEARSARGE COMMUNITY RESIDENCE,138 KEARSARGE RD,NORTH CONWAY,NH,3860,(603) 356-2032,11,CARROLL
3280,Community Residence (4+ beds),KEARSARGE ROAD (426),426 KEARSARGE ROAD,North Conway,NH,3860,(603) 356-8514,4,Carroll
2761,Community Residence (4+ beds),LACONIA DEVELOPMENTAL SERVICES/DRF,54 GREEN STREET,LACONIA,NH,3246,(603) 528-5986,6,BELKNAP
4052,Community Residence (4+ beds),MAPLE LODGE,787 MAPLE ST,Bethlehem,NH,3574,(603) 869-0027,8,Grafton
4514,Community Residence (4+ beds),MAURA COMMUNITY RESIDENCE,69 TAMWORTH ROAD,Tamworth,NH,3886,(603) 323-7107,4,Carroll
4231,Community Residence (4+ beds),MOBILE CRISIS RESPONSE TEAM,293 WILSON ST,Manchester,NH,3103,(800) 688-3544,4,Hillsborough
3573,Community Residence (4+ beds),NEURORESTORATIVE NEW HAMPSHIRE,6 KING ROAD,CHICHESTER,NH,3258,(603) 798-3376,8,Merrimack
4039,Community Residence (4+ beds),NEURORESTORATIVE NH NOTTINGHAM,98 NOTTINGHAM RD,DEERFIELD,NH,3037,(603) 463-1053,6,Rockingham
4060,Community Residence (4+ beds),NEURORESTORATIVE NH-FREEDOM HOUSE,269 VILLAGE RD,FREEDOM,NH,3836,(603) 539-1073,5,Carroll
4002,Community Residence (4+ beds),NEURORESTORATIVE NH-HEMLOCK HILL,45 HEMLOCK HILL DR,Loudon,NH,3307,(603) 961-0020,4,Merrimack
4061,Community Residence (4+ beds),NEURORESTORATIVE NH-THOMPSON HOUSE,266 EATON RD,Freedom,NH,3836,(603) 539-2699,4,Carroll
4063,Community Residence (4+ beds),NEURORESTORATIVE NH-WENTWORTH HOUSE,70 MOULTONVILLE RD,Center Ossipee,NH,3814,(603) 539-9083,8,Carroll
4101,Community Residence (4+ beds),NEXT STEPS COMMUNITY SERVICES LLC,2444 MAIN STREET,Bethlehem,NH,3574,(603) 530-2148,7,Grafton
4519,Community Residence (4+ beds),NEXT STEPS COMMUNITY SERVICES LLC,4266 PROVINCE LAKE RD,East Wakefield,NH,3830,(603) 871-8111,4,Carroll
2280,Community Residence (4+ beds),ORFORD ROAD RESIDENCE,16 ORFORD ROAD,LYME,NH,3768,(603) 795-4893,10,GRAFTON
1674,Community Residence (4+ beds),OSGOOD ROAD DUPLEX,482 OSGOOD ROAD,MILFORD,NH,3055,(603) 673-5829,4,HILLSBOROUGH
2937,Community Residence (4+ beds),PEASLEE ROAD,26 PEASLEE ROAD,MERRIMACK,NH,3054,(603) 595-9760,4,HILLSBOROUGH
4520,Community Residence (4+ beds),PILLAR HOUSE CRISIS APTS,40 PLEASANT ST,Concord,NH,3301,(603) 226-0817,4,Merrimack
3782,Community Residence (4+ beds),POND PLACE EAST,125 PLEASANT STREET,CONCORD,NH,3301,(603) 746-7550,4,MERRIMACK
3781,Community Residence (4+ beds),POND PLACE WEST,125 PLEASANT STREET,CONCORD,NH,3301,(603) 746-7550,6,MERRIMACK
4369,Community Residence (4+ beds),STAGE COACH,52 LOOP RD,CONCORD,NH,3301,(603) 573-6387,8,Merrimack
4028,Community Residence (4+ beds),START CENTER,46 CORN HILL RD,BOSCAWEN,NH,3303,(603) 225-4153,6,Merrimack
3865,Community Residence (4+ beds),SWETT ST (20),20 SWETT ST,North Conway,NH,3860,(603) 356-0282,4,Carroll
4382,Community Residence (4+ beds),THE EQUESTRIAN,50 MANCHESTER DR,WEBSTER,NH,3303,(603) 573-6387,8,Merrimack
4324,Community Residence (4+ beds),THS BRADFORD,2554 ROUTE 103 BLDG 2,Bradford,NH,3221,(603) 938-5014,4,Merrimack
4266,Community Residence (4+ beds),TRANSITIONAL HOUSING SERVICES BRADFORD,2554 ROUTE 103,Bradford,NH,3221,(603) 938-5014,8,Merrimack
2222,Community Residence (4+ beds),TWITCHELL HOUSE,111 PLEASANT STREET,CONCORD,NH,3301,(603) 226-7505,15,MERRIMACK
3369,Community Residence (4+ beds),VERDUN STREET COMMUNITY RESIDENCE,85 VERDUN STREET,BERLIN,NH,3570,(603) 752-2689,8,COOS
4240,Community Residence (4+ beds),WOODRIDGE LN (14),14 WOODRIDGE LN,North Hampton,NH,3862,(603) 379-2392,4,Rockingham
3784,Community Residence (4+ beds),YELLOW HOUSE,89 PLEASANT STREET,CONCORD,NH,3301,(603) 746-7550,9,MERRIMACK
2033,Educational Health Center,BAIRD HEALTH & COUNSELING CENTER,541 MAIN STREET,NEW LONDON,NH,3257,(603) 526-3621,,MERRIMACK
3164,Educational Health Center,BREWSTER ACADEMY HEALTH CENTER,205 SOUTH MAIN STREET,WOLFEBORO,NH,3894,(603) 569-7121,6,CARROLL
37,Educational Health Center,CLARK HOUSE,325 PLEASANT STREET,CONCORD,NH,3301,(603) 229-4850,14,MERRIMACK
251,Educational Health Center,DICK HALL'S HOUSE,5-7 ROPE FERRY ROAD,HANOVER,NH,3755,(603) 646-9423,10,GRAFTON
2003,Educational Health Center,FRANKLIN PIERCE UNIVERSITY HEALTH SVCS,40 UNIVERSITY  DRIVE,RINDGE,NH,3461,(603) 899-4132,,CHESHIRE
3242,Educational Health Center,HAMILTON FAMILY FOUNDATION,19 CRAWFORD HINMAN WAY,CANAAN,NH,3741,(603) 523-3520,4,GRAFTON
4466,Educational Health Center,HIGH MOWING SCHOOL,222 ISAAC FRYE HWY,Wilton,NH,3086,(603) 654-9408,,Hillsborough
2983,Educational Health Center,HOLDERNESS SCHOOL HEALTH CENTER,33 CHAPEL LANE,HOLDERNESS,NH,3245,(603) 779-5367,4,GRAFTON
39,Educational Health Center,LAMONT HEALTH AND WELLNESS CENTER,10 TAN LANE,EXETER,NH,3833,(603) 777-3420,14,ROCKINGHAM
2832,Educational Health Center,NEW ENGLAND COLLEGE,32 UNION STREET,HENNIKER,NH,3242,(603) 428-2253,,MERRIMACK
3870,Educational Health Center,NEW HAMPTON SCHOOL STUDENT HEALTH CENTER,5 ACADEMIC DR,NEW HAMPTON,NH,3256,(603) 677-3456,,BELKNAP
3165,Educational Health Center,NHTI HEALTH & COUNSELING SERVICES,4 INSTITUTE DRIVE,CONCORD,NH,3301,(603) 230-4043,,MERRIMACK
365,Educational Health Center,PROCTOR ACADEMY HEALTH CENTER,72 NORTH STREET,ANDOVER,NH,3216,(603) 735-6737,5,MERRIMACK
3454,Educational Health Center,QUIBIN STUDENT HEALTH SERVICES,420 MAIN STREET,NASHUA,NH,3060,(603) 897-8295,,HILLSBOROUGH
4300,Educational Health Center,SABRA HAMILTON HEALTH CENTER,30 SCHOOL ST,TILTON,NH,3276,(603) 286-1760,4,Belknap
1616,Educational Health Center,SAINT ANSELM COLLEGE-HEALTH SERVICE,100 ST ANSELM DRIVE,MANCHESTER,NH,3102,(603) 641-7028,,HILLSBOROUGH
4405,Educational Health Center,SHORTRIDGE ACADEMY LLC,619 GOVERNOR'S RD,Milton,NH,3851,(603) 775-3096,,Strafford
3639,Educational Health Center,SNHU HEALTH SERVICES,2500 NORTH RIVER ROAD,MANCHESTER,NH,3106,(603) 645-9679,,MERRIMACK
3403,Educational Health Center,TRACY HEALTH CENTER,51 MAIN STREET,MERIDEN,NH,3770,(603) 469-2055,4,SULLIVAN
3893,End-Stage Renal Dialysis,BEDFORD DIALYSIS,15 CONSTITUTION DRIVE SUITE 1C,BEDFORD,NH,3110,(603) 471-1904,,HILLSBOROUGH
1641,End-Stage Renal Dialysis,CENTRAL NEW HAMPSHIRE KIDNEY CENTER LLC,87 SPRING STREET,LACONIA,NH,3246,(603) 528-3738,,BELKNAP
3896,End-Stage Renal Dialysis,COCHECO RIVER DIALYSIS CENTER,343 SIXTH STREET,DOVER,NH,3820,(603) 742-9765,,STRAFFORD
3580,End-Stage Renal Dialysis,DERRY DIALYSIS,1 ACTION BLVD SUITE 2,LONDONDERRY,NH,3053,(603) 421-9724,,ROCKINGHAM
2748,End-Stage Renal Dialysis,FMC DIALYSIS SERVICES EXETER,"1 HAMPTON ROAD, SUITE 109",EXETER,NH,3833,(603) 777-9931,,ROCKINGHAM
3540,End-Stage Renal Dialysis,FMC STRAFFORD COUNTY,27 STERLING DRIVE,ROCHESTER,NH,3867,(603) 330-0483,,STRAFFORD
4242,End-Stage Renal Dialysis,FRESENIUS KIDNEY CARE OF NASHUA,20 COTTON RD SUITE 101,NASHUA,NH,3063,(603) 577-4547,,Hillsborough
3328,End-Stage Renal Dialysis,FRESENIUS MEDICAL CARE LEBANON,56 ETNA ROAD,LEBANON,NH,3766,(603) 448-5550,,Grafton
3089,End-Stage Renal Dialysis,FRESENIUS MEDICAL CARE OF LANCASTER,173 MIDDLE STREET,LANCASTER,NH,3584,(603) 788-5222,,COOS
3510,End-Stage Renal Dialysis,FRESENIUS MEDICAL CARE OF LONDONDERRY,1F COMMONS DRIVE,LONDONDERRY,NH,3053,(603) 434-4517,,ROCKINGHAM
3902,End-Stage Renal Dialysis,FRESENIUS MEDICAL CARE OF SOUTHERN NH,586 NASHUA STREET UNIT 20 B,MILFORD,NH,3055,(603) 672-6678,,HILLSBOROUGH
3987,End-Stage Renal Dialysis,FRESENIUS MEDICAL CARE ROCKINGHAM COUNTY,19 KEEYWADIN DRIVE,SALEM,NH,3079,(603) 870-0969,,Rockingham
4248,End-Stage Renal Dialysis,MANCHESTER DIALYSIS,903 HANOVER ST,MANCHESTER,NH,3104,(603) 621-4903,,Hillsborough
3875,End-Stage Renal Dialysis,MANCHESTER KIDNEY CENTER,1750 ELM STREET,MANCHESTER,NH,3104,(603) 647-4042,,HILLSBOROUGH
2619,End-Stage Renal Dialysis,MONADNOCK DIALYSIS CENTER,426 B WINCHESTER STREET,KEENE,NH,3431,(603) 357-3600,,CHESHIRE
3862,End-Stage Renal Dialysis,MT WASHINGTON VALLEY DIALYSIS CENTER,21 B POLIQUIN DRIVE,CONWAY,NH,3818,(603) 447-3976,,CARROLL
3097,End-Stage Renal Dialysis,NASHUA DIALYSIS,"38 TYLER ST., SUITE 100",NASHUA,NH,3060,(603) 598-1665,,HILLSBOROUGH
2414,End-Stage Renal Dialysis,NEW HAMPSHIRE KIDNEY CENTER,248 PLEASANT STREET PILLSBURY BLDG,CONCORD,NH,3301,(603) 224-9996,,MERRIMACK
4023,End-Stage Renal Dialysis,ROCKINGHAM COUNTY DIALYSIS,18 PELHAM RD STE 1,SALEM,NH,3079,(603) 870-9487,,Rockingham
3305,End-Stage Renal Dialysis,SEACOAST DIALYSIS CENTER,155 BORTHWICK AVE. SUITE 100,PORTSMOUTH,NH,3801,(603) 436-4567,,ROCKINGHAM
4331,Freestanding Megavoltage Radiation Thera,SEACOAST CANCER CENTER-PORTSMOUTH,121 CORPORATE DR STE 100,PORTSMOUTH,NH,3801,(603) 742-8787,,Rockingham
2877,Home Care - Durable Medical,HERRON AND SMITH,8 INDUSTRIAL PARK DRIVE #20,HOOKSETT,NH,3106,(603) 627-8500,,MERRIMACK
2875,Home Care - Durable Medical,HM MED EQUIP & INFUS SV OF MANCH & SO NH,1050 HOLT AVE UNIT 5,MANCHESTER,NH,31095608,(603) 663-2728,,HILLSBOROUGH
2866,Home Care - Durable Medical,"KEENE MEDICAL PRODUCTS, LLC",5 LANDING RD,ENFIELD,NH,3748,(603) 448-5290,,Grafton
2997,Home Care - Durable Medical,TECH MED INC,114 PERIMETER RD UNIT D,NASHUA,NH,3060,(603) 595-8717,,HILLSBOROUGH
4304,Home Care Service Provider,ABUNDANT BLESSINGS HOME CARE INC,22 COSMAR DR,SANBORNVILLE,NH,3872,(603) 473-2510,,Carroll
3938,Home Care Service Provider,AGE AT HOME,24 HAMMOND ST,CONCORD,NH,3301,(603) 224-6100,,MERRIMACK
4503,Home Care Service Provider,AGING EXCELLENCE,949 WHITTIER HWY,Moultonborough,NH,3254,(207) 329-9075,,Carroll
3948,Home Care Service Provider,AGING EXCELLENCE,125 BREWERY LANE SUITE 8,PORTSMOUTH,NH,3801,(603) 294-0119,,ROCKINGHAM
4461,Home Care Service Provider,ALLIED CAREGIVERS,15 CONSTITUTION DR,Bedford,NH,3110,(603) 477-4369,,Hillsborough
4303,Home Care Service Provider,ALPHA HOME CARE SOLUTIONS INC,20 TECHNOLOGY WAY,NASHUA,NH,3060,(603) 943-7006,,Hillsborough
4496,Home Care Service Provider,ARCADIA NEW ENGLAND,130 CENTRAL AVE STE 105,Dover,NH,3820,(603) 842-5020,,Strafford
3066,Home Care Service Provider,AREA HOME CARE AND FAMILY SERVICES,1320 WOODBURY AVE,PORTSMOUTH,NH,3801,(603) 436-9059,,ROCKINGHAM
4181,Home Care Service Provider,ARMISTEAD SENIOR CARE,127 MASCOMA ST STE 1,LEBANON,NH,3766,(603) 489-5682,,Grafton
3526,Home Care Service Provider,ASCENTRIA IN-HOME CARE,261 SHEEP DAVIS ROAD,CONCORD,NH,3301,(603) 224-3010,,MERRIMACK
4418,Home Care Service Provider,ATTENTIVE CARING AT HOME LLC,107 MAIN ST,HAMPSTEAD,NH,3841,(603) 770-7529,,Rockingham
4462,Home Care Service Provider,BEDSIDE HOME CARE SERVICES LLC,7 ALLARD CT UNIT A,Hudson,NH,3051,(774) 281-4253,,Hillsborough
4380,Home Care Service Provider,BLOOM AND SHINE SERVICES,90 AIRPORT ROAD STE 27,CONCORD,NH,3301,(603) 262-0500,,Merrimack
4416,Home Care Service Provider,BLUE SKY,1087 ELM ST,Manchester,NH,3101,(603) 371-0777,,Hillsborough
4319,Home Care Service Provider,CARE HAVEN LLC,127 MAIN ST #14,NASHUA,NH,3060,(603) 459-8932,,Hillsborough
4196,Home Care Service Provider,CAREPOINT PLUS LLC,530 CHESTNUT ST #1B,MANCHESTER,NH,3101,(603) 647-1000,,Hillsborough
2993,Home Care Service Provider,"CARING WITH A HEART, LLC",609 PORTSMOUTH AVE UNIT 12,Greenland,NH,3840,(603) 571-7473,,Rockingham
4485,Home Care Service Provider,CHRISTINA'S CAREGIVING & HOME HEALTH CARE LLC,502 US-4 STE 2,Enfield,NH,3748,(603) 293-6260,,Grafton
3638,Home Care Service Provider,COLONY HOME CARE,21 UPPER MILE POINT DR,MEREDITH,NH,3253,(6032) 791-5000,,BELKNAP
3735,Home Care Service Provider,COMFORT KEEPERS-KEENE,55 MAIN STREET STE B,KEENE,NH,3431,(603) 352-2227,,CHESHIRE
4506,Home Care Service Provider,COMFORTING HANDS CARE LLC,68 MAIN ST,Northwood,NH,3261,(866) 488-0445,,Rockingham
4348,Home Care Service Provider,COMMONWEALTH NURSING SERVICES,"847 ROGERS ST, STE 201",LOWELL,MA,1852,(978) 459-7771,,Middlesex
4265,Home Care Service Provider,"COMPANION CARE PARTNERS, LLC",727 LAFAYETTE RD STE 6,SEABROOK,NH,3874,(215) 618-2324,,Rockingham
4505,Home Care Service Provider,CONCORD COMPASSIONATE CARE,8 N MAIN ST STE 1C,Concord,NH,3301,(603) 785-6584,,Merrimack
3557,Home Care Service Provider,CURTIS QUALITY CARE LLC,127 ROUTE 28 UNIT 11,Ossipee,NH,3864,(603) 569-2838,,Carroll
4420,Home Care Service Provider,D & S ELDERSERVICES LLC,257 VALLEY RD,Walpole,NH,3608,(603) 313-5691,,Cheshire
4420,Home Care Service Provider,D & S ELDERSERVICES LLC,257 VALLEY RD,Walpole,NH,3608,(603) 313-5691,,Cheshire
4042,Home Care Service Provider,DAVIS CARE GROUP LLC,62 PORTSMOUTH AVE #4,STRATHAM,NH,38850000,(603) 583-4580,,Rockingham
4233,Home Care Service Provider,ELLIE'S FAMILY HOME CARE LLC,595 NH ROUTE 10,ORFORD,NH,3777,(603) 353-9200,,Belknap
4479,Home Care Service Provider,EMINENCE HOME CARE LLC,15 CONSTITUTION DR,Bedford,NH,3110,(603) 635-4444,,Hillsborough
4518,Home Care Service Provider,FCP LIVE-IN LLC,2573 MAIN STREET,Stratford,CT,6615,(877) 845-8527,,Fairfield
3772,Home Care Service Provider,FIRST LIGHT HOME CARE,"940 ROOSEVELT TRL, #6",WINDHAM,ME,4062,(207) 627-1125,,Cumberland
3346,Home Care Service Provider,"FRIENDLY FOLKS, LLC",716 MAIN STREET,DUBLIN,NH,3444,(603) 563-8991,,CHESHIRE
4118,Home Care Service Provider,"HELP AT HOME, LLC",88 PROSPECT ST,White River Junction,VT,5001,(844) 524-9921,,Windsor
4488,Home Care Service Provider,HOME HELPERS,243 S MAIN ST,Laconia,NH,3246,(603) 832-4612,,Belknap
4280,Home Care Service Provider,HOME HELPERS OF LONDONDERRY,3 SANBORN RD 2ND FLOOR UNIT 3,LONDONDERRY,NH,3053,(603) 848-3443,,Belknap
4442,Home Care Service Provider,HOME INSTEAD SENIOR CARE MANCHESTER,100A MIDDLE ST,MANCHESTER,NH,3101,(603) 475-0981,,Hillsborough
4389,Home Care Service Provider,HOMECAREPROS,150 VILLAGE RD,Freedom,NH,3836,(603) 651-9280,,Carroll
4161,Home Care Service Provider,HOMEWATCH CAREGIVERS,70 MAIN ST #410,PETERBOROUGH,NH,3458,(603) 924-5924,,Hillsborough
4423,Home Care Service Provider,IMPRESS HEALTHCARE CORP,814 ELM ST,Manchester,NH,3101,(603) 239-0025,,Hillsborough
4372,Home Care Service Provider,INDEPENDENCE CARE OF NEW HAMPSHIRE LLC,10 FERRY STREET STE 404,CONCORD,NH,3301,(603) 283-7778,,Merrimack
4106,Home Care Service Provider,INTEGRITY CAREGIVERS OF NH LLC DBA HOME INSTEAD SENIOR CARE,16 DEPOT ST,WOLFEBORO,NH,3894,(603) 569-7733,,Carroll
3799,Home Care Service Provider,"J & S HOME CARE SERVICES, LLC",2 FIRST STREET,GORHAM,NH,3581,(603) 345-1209,,COOS
3855,Home Care Service Provider,LAKES REGION COMMUNITY SERVICES,719 NORTH MAIN STREET,LACONIA,NH,3246,(603) 524-8811,,BELKNAP
3956,Home Care Service Provider,LIVABILITY HOME HEALTH,1 TARA BLVD STE 257,NASHUA,NH,3060,(603) 921-8663,,HILLSBOROUGH
3949,Home Care Service Provider,MERRILL SENIOR SERVICES LLC,32 DOGWOOD DR,NASHUA,NH,3062,(603) 921-0015,,HILLSBOROUGH
2217,Home Care Service Provider,MONADNOCK LODGE AT RIVERWOODS,7 RIVERWOODS DRIVE,EXETER,NH,3833,(603) 772-4700,,ROCKINGHAM
3854,Home Care Service Provider,MOORE CENTER SERVICES,195 MCGREGOR STREET UNIT 400,MANCHESTER,NH,3102,(603) 206-2826,,HILLSBOROUGH
4284,Home Care Service Provider,"NEW HAMPSHIRE HOME CARE PROVIDERS, LLC",22 WOODCREST HEIGHTS DR,CONCORD,NH,3301,(603) 898-6438,,Merrimack
4251,Home Care Service Provider,REHAB 365,1 STILES RD STE 104,SALEM,NH,3079,(855) 390-7774,,Rockingham
4270,Home Care Service Provider,REST ASSURED HOME CARE LLC,28 JONATHAN LN,BOW,NH,3304,(603) 715-8574,,Merrimack
4349,Home Care Service Provider,RIGHT AT HOME,150 NASHUA RD UNIT C,LONDONDERRY,NH,3053,(603) 216-9296,,Rockingham
4374,Home Care Service Provider,SHEKINAH FAMILY SERVICES LLC,15 CONSTITUTION DR STE 1A,Bedford,NH,3110,(207) 618-3784,,Hillsborough
4363,Home Care Service Provider,"SOLARI CARGIVERS, LLC",18 LONG HILL RD,HOLLIS,NH,3049,(603) 213-4887,,Hillsborough
4234,Home Care Service Provider,"SWEET HOME CARE, LLC",7 BOGIE PL,GRANTHAM,NH,3753,(603) 309-3154,,Belknap
4273,Home Care Service Provider,SYNERGY HOMECARE OF NASHUA,2 WELLMAN AVE STE 110,NASHUA,NH,3064,(603) 336-3999,,Hillsborough
4253,Home Care Service Provider,"THE DNA GROUP, INCORPORTATED DBA AMADA SENIOR CARE OF SOUTHERN NEW HAMPSHIRE",116 SOUTH RIVER RD UNIT E-7C,Bedford,NH,3110,(603) 865-7999,,Hillsborough
3578,Home Care Service Provider,TIMBERLAND HOME CARE INC,2541 WHITE MOUNTAIN HWY,NORTH CONWAY,NH,3860,(603) 356-2273,,Carroll
4440,Home Care Service Provider,TRUSTED CHOICE ELDERCARE LLC,21 WHEELOCK ST,Keene,NH,3431,(603) 721-9353,,Cheshire
4232,Home Care Service Provider,VISITING ANGELS,401 GILFORD AVE UNIT 208,GILFORD,NH,3249,(603) 366-1993,,Belknap
3699,Home Care Service Provider,VISITING ANGELS,39 SIMON ST UNIT 4,NASHUA,NH,3060,(603) 821-0277,,Hillsborough
3660,Home Care Service Provider,VISITING ANGELS,14 HOOKSETT ROAD,AUBURN,NH,3032,(603) 483-8999,,ROCKINGHAM
4310,Home Care Service Provider,VISITING ANGELS OF WESTERN NEW HAMPSHIRE,24 OPERA HOUSE SQ STE 209,CLAREMONT,NH,3743,(603) 504-6080,,Sullivan
3934,Home Care Service Provider,VISITING ANGELS-NEWBURYPORT,182 STATE STREET,NEWBURYPORT,MA,1950,(603) 583-4890,,ESSEX
4465,Home Care Service Provider,WAY MAKER HOME CARE LLC,66 HANOVER ST. STE 101,Manchester,NH,3101,(617) 850-5925,,Hillsborough
4339,Home Care Service Provider,WHOLE HEARTED SENIOR HOME CARE,33 SOUTH MAIN STREET UNIT 2,WOLFEBORO,NH,3894,(603) 630-8096,,Carroll
4150,Home Care Service Provider,"YOUR COMFORT ZONE, INC",8 BATCHELDER AVE,West Lebanon,NH,3784,(603) 381-1321,,Grafton
4306,Home Health Agency Hospice,"ACCENTCARE OF MASSACHUSETTS, INC",30 PERWAL ST,WESTWOOD,MA,2090,(781) 551-5600,,Norfolk
3644,Home Health Agency Hospice,AMEDISYS HOSPICE,"7 ROCKINGHAM RD, SUITE 200",WINDHAM,NH,3087,(603) 421-9887,,Rockingham
3315,Home Health Agency Hospice,AMEDISYS HOSPICE CARE,"8 COMMERCE DR, STE 101",BEDFORD,NH,3110,(603) 421-0414,,Hillsborough
4313,Home Health Agency Hospice,BAYADA HOSPICE,194 PLEASANT STREET STE 9,CONCORD,NH,3301,(603) 724-6689,,Merrimack
4314,Home Health Agency Hospice,BAYADA HOSPICE,316 MAIN STREET UNIT EH-6,NORWICH,VT,5055,(802) 526-2380,,Windsor
3277,Home Health Agency Hospice,"BEACON HOSPICE, AN AMEDISYS COMPANY",25 NEW HAMPSHIRE AVE STE 272,PORTSMOUTH,NH,3801,(603) 433-2480,,Rockingham
4464,Home Health Agency Hospice,BROOKHAVEN HOSPICE OF NEW HAMPSHIRE LLC,2 BEDFORD FARMS DR,Bedford,NH,3110,(603) 782-7152,,Hillsborough
3888,Home Health Agency Hospice,COMPASSUS-GREATER HAMPTON,ONE HAMPTON RD STE 210,EXETER,NH,3833,(603) 964-5183,,Rockingham
3887,Home Health Agency Hospice,COMPASSUS-GREATER MANCHESTER,170 SO RIVER ROAD UNIT 2,BEDFORD,NH,31106941,(603) 606-7974,,Belknap
4104,Home Health Agency Hospice,CONSTELLATION HOSPICE,180 LOW STREET,NEWBURYPORT,MA,1950,(978) 904-3059,,Essex
3670,Home Health Agency Hospice,CORNERSTONE VNA,178 FARMINGTON ROAD,ROCHESTER,NH,3867,(603) 332-1133,,STRAFFORD
3914,Home Health Agency Hospice,FRANKLIN VNA & HOSPICE,75 CHESTNUT STREET,FRANKLIN,NH,3235,(603) 934-3454,,MERRIMACK
3501,Home Health Agency Hospice,GRANITE VNA,30 PILLSBURY STREET,CONCORD,NH,3301,(603) 224-2093,,MERRIMACK
4185,Home Health Agency Hospice,HARBORSIDE HOSPICE LLC,"23 ATKINSON DEPOT RD, SUITE 105",PLAISTOW,NH,3865,(800) 331-1044,,Rockingham
3676,Home Health Agency Hospice,HOME HEALTH & HOSPICE CARE,7 EXECUTIVE PARK DRIVE,MERRIMACK,NH,3054,(603) 882-2941,,HILLSBOROUGH
3917,Home Health Agency Hospice,LAKE SUNAPEE HOME CARE AND HOSPICE,107 NEWPORT ROAD,NEW LONDON,NH,3257,(603) 526-4077,,MERRIMACK
4216,Home Health Agency Hospice,LAKES REGION VISITING NURSES ASSOCIATION,186 WAUKEWAN ST,MEREDITH,NH,3253,(603) 279-6611,,Belknap
2664,Home Health Agency Hospice,MERRIMACK VALLEY HOSPICE INC,360 MERRIMACK STREET #9,LAWRENCE,MA,1843,(978) 552-4000,,ESSEX
3935,Home Health Agency Hospice,NEWFOUND AREA NURSING ASSOCIATION,214 LAKE STREET,BRISTOL,NH,3222,(603) 774-2733,,GRAFTON
3918,Home Health Agency Hospice,NO COUNTRY HM HEALTH & HOSPICE AGENCY IN,536 COTTAGE STREET,LITTLETON,NH,3561,(603) 444-5317,,GRAFTON
3322,Home Health Agency Hospice,PEMI-BAKER COMMUNITY HEALTH,101-3 BOULDER POINT ROAD SUITE 3,PLYMOUTH,NH,3264,(603) 536-2232,,GRAFTON
3913,Home Health Agency Hospice,ROCKINGHAM VNA AND HOSPICE,4 ALUMNI DR,EXETER,NH,3833,(603) 772-2981,,ROCKINGHAM
3610,Home Health Agency Hospice,VISITING NURSE ASSOC. & HOSPICE OF VT/NH,88 PROSPECT ST,White River Junction,VT,5001,(888) 300-8853,,Windsor
3878,Home Health Agency Hospice,VN HOME CARE & HOSPICE OF CARROLL CNTY,1529 WHITE MOUNTAIN HIGHWAY,NORTH CONWAY,NH,3860,(603) 356-7006,,CARROLL
3916,Home Health Agency Hospice,"VNA AT HCS, INC.",312 MARLBORO STREET,KEENE,NH,3431,(603) 352-2253,,CHESHIRE
3813,Home Health Agency Hospice,"VNA HOME HEALTH & HOSPICE SERVICES, INC",1070 HOLT AVENUE SUITE 1400,MANCHESTER,NH,3109,(603) 622-3781,,HILLSBOROUGH
3717,Home Health Agency Hospice,WENTWORTH HOME CARE & HOSPICE AN AMEDISI,9 ANDREWS RD,SOMERSWORTH,NH,3878,(603) 692-0220,,Strafford
3859,Home Health Care Provider,360 SHS,"360 RT 101, STE 3B",BEDFORD,NH,3110,(603) 801-1936,,Hillsborough
4432,Home Health Care Provider,AAA HOME HEALTH LLC,30 GREENVIEW DR APT 33,MANCHESTER,NH,3103,(888) 974-3699,,Hillsborough
4174,Home Health Care Provider,ABILITY ANGELS,324 CENTRAL ST,MANCHESTER,NH,3105,(603) 944-9500,,Hillsborough
4307,Home Health Care Provider,ACCENTCARE HOME HEALTH OF MASSACHUSETTS,30 PERWAL ST,WESTWOOD,MA,2090,(781) 551-5600,,Norfolk
4227,Home Health Care Provider,ACCREDO HEALTH GROUP INC,83 LAFAYETTE RD STE 13,HAMPTON FALLS,NH,3844,(877) 315-6140,,Rockingham
4364,Home Health Care Provider,AFFECTIONATE HOME HEALTH CARE AGENCY,1 CHESTNUT ST STE 201,Nashua,NH,3060,(603) 377-0019,,Hillsborough
2887,Home Health Care Provider,"ALL CARE RESOURCES, INC.",200 SUTTON STREET,NORTH ANDOVER,MA,1845,(978) 794-1138,,ESSEX
2886,Home Health Care Provider,ALL CARE VISITING NURSE ASSOCIATION,200 SUTTON STREET,NORTH ANDOVER,MA,1845,(978) 794-1138,,ESSEX
3688,Home Health Care Provider,ALLIANCE HOME HEALTH CARE,6 MARY E CLARK DR SUITE 11,HAMPSTEAD,NH,3841,(603) 329-8288,,ROCKINGHAM
4147,Home Health Care Provider,ALTERNATIVE HOME HEALTH CARE LLC,160 MERRIMACK ST,METHUEN,MA,1844,(978) 657-7444,,Essex
3723,Home Health Care Provider,ALWAYS TLC HOME CARE,1550 WILLISTON RD,SOUTH BURLINGTON,VT,5403,(603) 678-9504,,Chittenden
3314,Home Health Care Provider,AMEDISYS HOME HEALTH,25 NEW HAMPSHIRE AVE STE 270,PORTSMOUTH,NH,38014983,(603) 436-0815,,ROCKINGHAM
4083,Home Health Care Provider,"AMERICA AT HOME HEALTHCARE AND NURSING SERVICES, LTD DBA ELARA CARING",12 KENT WAY STE 210,Byfield,MA,1922,(978) 462-0209,,Essex
1938,Home Health Care Provider,ANDROSCOGGIN VALLEY HOME CARE SERV,795 MAIN STREET,BERLIN,NH,3570,(603) 752-7505,,COOS
4296,Home Health Care Provider,ARMISTEAD SENIOR CARE,10 NORTHERN BLVD #18,AMHERST,NH,3031,(603) 546-6060,,Hillsborough
3697,Home Health Care Provider,ATLANTIC HOMELIFE SENIOR CARE LLC,34 DOVER POINT RD STE 201,DOVER,NH,3820,(603) 343-4434,,Belknap
4238,Home Health Care Provider,"AWARE RECOVERY CARE OF NEW HAMPSHIRE, LLC","15 CONSTITUTION BLVD, STE 2N",BEDFORD,NH,3110,(603) 768-8462,,Hillsborough
4312,Home Health Care Provider,BAYADA HOME HEALTH CARE INC,1 SUNDIAL AVE STE 208N,MANCHESTER,NH,3103,(603) 413-7100,,Hillsborough
4315,Home Health Care Provider,BAYADA HOME HEALTH CARE INC,2 SOUTH MAIN ST SUITE 2 & 4,RUTLAND,VT,5701,(802) 655-7111,,Rutland
4094,Home Health Care Provider,BELL TOWER HOME HEALTH CARE,400 AMHERST ST STE 403,NASHUA,NH,3063,(603) 821-7421,,Hillsborough
3243,Home Health Care Provider,BIOSCRIP INFUSION SERVICES NEW HAMPSHIRE,8 TECHNOLOGY DRIVE,BEDFORD,NH,3110,(603) 626-6200,,HILLSBOROUGH
4114,Home Health Care Provider,BRIGHTSTAR CARE OF BEDFORD/MANCHESTER,601 RIVERWAY PL BLDG 6 STE B,Bedford,NH,3110,(603) 637-4646,,Hillsborough
4437,Home Health Care Provider,"BUSINESS OFFICE OF ASPIRE 365, LLC",1950 LAFAYETTE RD STE 204,Portsmouth,NH,3801,(661) 373-3570,,Rockingham
3827,Home Health Care Provider,CAREPRO LLC,"86 BARRISTER DR, UNIT G",WHITE RIVER JUNCTION,VT,5001,(603) 643-8010,,Windsor
4217,Home Health Care Provider,CARETENDERS,"285 CALEF HWY, STE 106 & 107",EPPING,NH,3042,(603) 952-3500,,Belknap
3897,Home Health Care Provider,CARING NURSES STAFFING AGENCY LLC,117 BEDFORD ROAD,NEW BOSTON,NH,3070,(603) 305-0841,,HILLSBOROUGH
2644,Home Health Care Provider,CIRCLE HOME INC,847 ROGERS ST STE 201,LOWELL,MA,1852,(978) 459-9343,,Barnstable
4205,Home Health Care Provider,COMFORT ANGELS HOME HEALTH OF NH LLC,1 CHESTNUT ST STE 337,NASHUA,NH,3060,(603) 320-9858,,Hillsborough
4213,Home Health Care Provider,"COMFORT HOME CARE, LLC",80 TOWN FARM RD,SALEM,NH,3079,(978) 685-4700,,Rockingham
3867,Home Health Care Provider,COMFORT KEEPERS-PLYMOUTH,12 YEATON RD STE B6 AND B7,PLYMOUTH,NH,3264,(603) 536-6060,,GRAFTON
4157,Home Health Care Provider,CONSTELLATION HOME CARE,180 LOW ST,NEWBURYPORT,MA,1950,(978) 904-3059,,Essex
3395,Home Health Care Provider,CORAM CVS/SPECIALTY INFUSION SERVICES,575 UNIVERSITY AVE SUITE 2,NORWOOD,MA,2062,(781) 255-0956,,NORFOLK
2814,Home Health Care Provider,CORNERSTONE VNA,178 FARMINGTON ROAD,ROCHESTER,NH,3867,(603) 332-1133,,STRAFFORD
4445,Home Health Care Provider,CPTE NASHUA INC,"522 AMHERST ST, STE 23",Nashua,NH,3063,(603) 880-0448,,Hillsborough
4103,Home Health Care Provider,CUSTOM HELPERS HOME HEALTH CARE LLC,428 MAIN ST STE 2,KEENE,NH,3431,(603) 331-4157,,Cheshire
3607,Home Health Care Provider,EASTER SEALS NEW HAMPSHIRE,435 SOUTH MAIN ST,MANCHESTER,NH,3102,(603) 623-8863,,Hillsborough
3463,Home Health Care Provider,ENCOMPASS HEALTH HOME HEALTH,35 NEW ENGLAND BUSINESS CENTER DR STE. 207,ANDOVER,MA,1810,(978) 388-4500,,Essex
4384,Home Health Care Provider,EXTENDED FAMILY,1 GREENLEAF WOODS DR UNIT 301,Portsmouth,NH,3801,(603) 430-6863,,Rockingham
2569,Home Health Care Provider,FAMILY CENTER HOME VISIT PROG AT EXETER,5 ALUMNI DRIVE,EXETER,NH,3833,(603) 580-6365,,ROCKINGHAM
4146,Home Health Care Provider,FOX REHAB-NH LLC,15 CONSTITUTION DR STE 144,BEDFORD,NH,3110,(877) 407-3422,,Hillsborough
1310,Home Health Care Provider,FRANKLIN VNA & HOSPICE,75 CHESTNUT STREET,FRANKLIN,NH,3235,(603) 934-3454,,MERRIMACK
2485,Home Health Care Provider,GATEWAYS COMMUNITY SERVICES,144 CANAL STREET,NASHUA,NH,3064,(603) 882-6333,,HILLSBOROUGH
3362,Home Health Care Provider,GENESIS REHABILITATION SERVICES,319 E DUNSTABLE RD,Nashua,NH,3062,(603) 888-7878,,Hillsborough
3500,Home Health Care Provider,GRANITE VNA,30 PILLSBURY STREET,CONCORD,NH,3301,(603) 224-4093,,MERRIMACK
3347,Home Health Care Provider,HAMPSTEAD HOME HEALTH CARE INC,10 BRICKETTS MILL #2,HAMPSTEAD,NH,3841,(603) 329-0292,,ROCKINGHAM
1727,Home Health Care Provider,HAVENWOOD HERITAGE HEIGHTS,33 CHRISTIAN AVENUE,CONCORD,NH,3301,(603) 224-5363,,MERRIMACK
3110,Home Health Care Provider,"HEALTHY AT HOME, INC.",77 NORTHEASTERN BLVD,NASHUA,NH,3062,(603) 595-4243,,Hillsborough
4141,Home Health Care Provider,"HEAVEN SENT HOME CARE, LLC",14 SPRING ST,NASHUA,NH,3060,(603) 459-8358,,Hillsborough
3193,Home Health Care Provider,HEAVENS CARING LLC,55 RAYMOND ROAD,DEERFIELD,NH,3037,(603) 340-6031,,ROCKINGHAM
4441,Home Health Care Provider,HOME CARE OF NEW ENGLAND LLC,155 FLEET ST,Portsmouth,NH,3801,(603) 766-4950,,Rockingham
3675,Home Health Care Provider,HOME HEALTH & HOSPICE CARE,7 EXECUTIVE PARK DRIVE,MERRIMACK,NH,3054,(603) 882-2941,,HILLSBOROUGH
2645,Home Health Care Provider,HOME HEALTH VNA OF HAVERHILL,360 MERRIMACK ST BLDG. 9,LAWRENCE,MA,1843,(978) 552-4000,,Essex
4347,Home Health Care Provider,HOME HEALTH VNA OF NH,"10 CORPORATE DR, STE 2203",BEDFORD,NH,3110,(603) 854-5657,,Hillsborough
3237,Home Health Care Provider,HOME INSTEAD SENIOR CARE,"10 VAUGHAN MALL, STE #209",PORTSMOUTH,NH,3801,(603) 433-5959,,ROCKINGHAM
2648,Home Health Care Provider,HOMECARE INC,360 MERRIMACK STREET  #9,LAWRENCE,MA,1843,(978) 552-4000,,ESSEX
1721,Home Health Care Provider,HUNT COMMUNITY,10 ALLDS STREET,NASHUA,NH,3060,(603) 882-6511,,HILLSBOROUGH
4523,Home Health Care Provider,HYGIEA HEALTH & WELLNESS LLC,46 ROCKY LN,Greenfield,NH,3047,(603) 547-2446,,Hillsborough
4045,Home Health Care Provider,"INFUSION VENTURES, INC",10 TOWER OFFICE PK ST 606,WOBURN,MA,1801,(781) 938-7070,,Middlesex
1973,Home Health Care Provider,INTERIM HEALTHCARE,608 CHESTNUT STREET,MANCHESTER,NH,3104,(603) 668-6956,,Hillsborough
1974,Home Health Care Provider,INTERIM HEALTHCARE,608 CHESTNUT STREET,MANCHESTER,NH,3105,(603) 668-6956,,HILLSBOROUGH
2855,Home Health Care Provider,J & K HOME CARE,85 STILES ROAD STE 202,SALEM,NH,3079,(603) 893-9214,,ROCKINGHAM
1778,Home Health Care Provider,KENDAL AT HANOVER,67 CUMMINGS RD,HANOVER,NH,3755,(603) 643-8900,,GRAFTON
2865,Home Health Care Provider,LACONIA HOUSING & REDEV AUTHORITY,25 UNION AVENUE,LACONIA,NH,3246,(603) 737-2218,,BELKNAP
3030,Home Health Care Provider,LAKE SUNAPEE COMMUNITY HEALTH SERVICES,107 NEWPORT ROAD,NEW LONDON,NH,3257,(603) 526-4077,,MERRIMACK
3031,Home Health Care Provider,LAKE SUNAPEE HOME CARE & HOSPICE,107 NEWPORT ROAD,NEW LONDON,NH,3257,(603) 526-4077,,MERRIMACK
3714,Home Health Care Provider,LAKES REGION VISITING NURSES ASSOCIATION,186 WAUKEWAN STREET,MEREDITH,NH,3253,(603) 279-6611,,BELKNAP
4126,Home Health Care Provider,LIVE FREE HOME HEALTHCARE,438 NH ROUTE 104,NEW HAMPTON,NH,3256,(603) 217-0149,,Belknap
4298,Home Health Care Provider,MANCHESTER HOME HEALTH CARE LLC,27 LOWELL ST 2ND FL #204,MANCHESTER,NH,3101,(603) 935-7824,,Hillsborough
4298,Home Health Care Provider,MANCHESTER HOME HEALTH CARE LLC,27 LOWELL ST 2ND FL #204,MANCHESTER,NH,3101,(603) 935-7824,,Hillsborough
4516,Home Health Care Provider,MAS HOME CARE OF NEW HAMPSHIRE,500 HARVEY RD #304,Manchester,NH,3103,(603) 296-0960,,Hillsborough
3687,Home Health Care Provider,"MAXIM HEALTH CARE SERVICES, INC",1750 ELM STREET SUITE 602,MANCHESTER,NH,3101,(603) 644-5003,,HILLSBOROUGH
2113,Home Health Care Provider,NEW ENGLAND LIFE CARE,41C TERRILL PARK DRIVE,CONCORD,NH,3301,(603) 224-3100,,MERRIMACK
4356,Home Health Care Provider,NEW ENGLAND PEDIATRIC SERVICES LLC,30 HARVEY RD,BEDFORD,NH,3110,(603) 296-5241,,Hillsborough
4309,Home Health Care Provider,NEW HOPE HEALTH SOLUTIONS LLC,169 DW HIGHWAY #104,Nashua,NH,3060,(617) 947-0097,,Hillsborough
1281,Home Health Care Provider,NEWFOUND AREA NURSING ASSOCIATION,214 LAKE ST,BRISTOL,NH,3222,(603) 744-2733,,GRAFTON
2236,Home Health Care Provider,NO COUNTRY HM HEALTH & HOSPICE AGENCY IN,536 COTTAGE STREET,LITTLETON,NH,3561,(603) 444-5317,,GRAFTON
4498,Home Health Care Provider,NO PLACE LIKE HOME LLC,76 SOUTH STATE ST,Concord,NH,3301,(603) 218-2033,,Merrimack
3604,Home Health Care Provider,NORTH COUNTRY INDEPENDENT LIVING,2541 WHITE MNT HWY BLDG 3,NORTH CONWAY,NH,3860,(603) 356-0282,,CARROLL
3284,Home Health Care Provider,NORTHEAST REHAB. HOSPITAL HOME CARE SRVS,70 BUTLER ST,SALEM,NH,3079,(603) 681-3500,,Belknap
4226,Home Health Care Provider,OFEMZ HOME HEALTH CARE AGENCY LLC,904 HANOVER ST STE 4,Manchester,NH,3104,(603) 820-0908,,Hillsborough
4218,Home Health Care Provider,"PATHWAYS HEALTHCARE, LLC",87 STILES RD STE 205,SALEM,NH,3079,(617) 481-9077,,Rockingham
3323,Home Health Care Provider,PEMI-BAKER COMMUNITY HEALTH,101 BOULDER POINT RD SUITE 3,PLYMOUTH,NH,3264,(603) 536-2232,,GRAFTON
3941,Home Health Care Provider,PENTEC HEALTH INC,"4 CREEK PARKWAY, STE A",BOOTHWYN,PA,19061,(800) 223-4376,,DELAWARE
4138,Home Health Care Provider,PRESIDENTIAL OAKS HOME HEALTH CARE,200 PLEASANT ST,CONCORD,NH,3301,(603) 225-6644,,Merrimack
4343,Home Health Care Provider,QUALITY HOME HEALTH SERVICES,73 SEARLES RD,WINDHAM,NH,3087,(603) 552-5300,,Rockingham
3169,Home Health Care Provider,"REGENCY HOME HEALTH, LLC",213 ROCKINGHAM RD,Londonderry,NH,3053,(603) 665-9800,,Rockingham
2359,Home Health Care Provider,RIVERMEAD,150 RIVERMEAD  RD,PETERBOROUGH,NH,3458,(603) 924-0062,,HILLSBOROUGH
4414,Home Health Care Provider,RIVERWOODS DURHAM,14 STONE QUARRY DR,Durham,NH,3824,(603) 590-4000,,Strafford
3094,Home Health Care Provider,RIVERWOODS MANCHESTER,100 ALLIANCE WAY,Manchester,NH,3102,(603) 645-6500,,HILLSBOROUGH
2339,Home Health Care Provider,ROCKINGHAM VNA AND HOSPICE,137 EPPING ROAD,EXETER,NH,3833,(603) 772-2981,,ROCKINGHAM
3686,Home Health Care Provider,"SB NURSING CARE MANAGEMENT SERVICES, LLC",35 CENTER STREET OFFICE #14 & 15,WOLFEBORO FALLS,NH,3896,(603) 569-0145,,Belknap
3929,Home Health Care Provider,SENIOR CLASS HOME HEALTH SERVICES,201 ROUTE 111,HAMPSTEAD,NH,3841,(603) 329-4401,,ROCKINGHAM
4396,Home Health Care Provider,SILVER TOUCH HOME HEALTH CARE,451 AMHERST ST UNIT 104,Nashua,NH,3060,(603) 424-9479,,Hillsborough
2939,Home Health Care Provider,TAMWORTH COMM NURSE ASSOC,84 MAIN STREET,TAMWORTH,NH,3886,(603) 323-8511,,CARROLL
4209,Home Health Care Provider,TAYLORCARE,435 UNION AVENUE,LACONIA,NH,3246,(603) 366-1207,,Belknap
4208,Home Health Care Provider,TENDER CARE INC.,4 BIRCH ST,Derry,NH,3038,(603) 434-2535,,Rockingham
3499,Home Health Care Provider,"TRUE CARE PROFESSIONALS, LLC","39.5 BIRCH ST. 3D., STE B",DERRY,NH,3038,(603) 537-9975,,ROCKINGHAM
3611,Home Health Care Provider,VISITING NURSE ASSOC. & HOSPICE OF VT/NH,88 PROSPECT ST,White River Junction,VT,5001,(888) 300-8853,,Windsor
3879,Home Health Care Provider,VN HOME CARE & HOSPICE OF CARROLL CNTY,1529 WHITE MOUNTAIN HIGHWAY,NORTH CONWAY,NH,3860,(603) 356-7006,,CARROLL
2915,Home Health Care Provider,"VNA AT HCS, INC.",312 MARLBORO STREET,KEENE,NH,3431,(603) 352-2253,,CHESHIRE
3812,Home Health Care Provider,"VNA HOME HEALTH & HOSPICE SERVICES, INC",1070 HOLT AVENUE SUITE 1400,MANCHESTER,NH,3109,(603) 622-3781,,HILLSBOROUGH
3814,Home Health Care Provider,"VNA PERSONAL SERVICES, INC",1070 HOLT AVENUE,MANCHESTER,NH,3109,(603) 622-3781,,HILLSBOROUGH
3388,Home Health Care Provider,WAYPOINT,464 CHESTNUT STREET,MANCHESTER,NH,3101,(603) 518-4000,,HILLSBOROUGH
3718,Home Health Care Provider,"WENTWORTH HOME CARE & HOSPICE, AN AMEDIS",9 ANDREWS RD,SOMERSWORTH,NH,3878,(603) 692-0200,,Strafford
3397,Home Health Care Provider,WHITTIER HOME HEALTH CARE AGENCY,145 WARD HILL AVENUE,BRADFORD,MA,1835,(978) 374-6300,,ESSEX
3869,Home Health Care Provider,YORK HOSPITAL,127 LONG SANDS ROAD SUITE 12,YORK,ME,3909,(207) 337-7300,,YORK
2779,Hospice House / Support Res Care,COMMUNITY HOSPICE HOUSE,210 NATICOOK ROAD,MERRIMACK,NH,3054,(603) 595-5688,10,HILLSBOROUGH
2046,Hospice House / Support Res Care,GRANITE VNA - HOSPICE HOUSE,250 PLEASANT STREET,CONCORD,NH,3301,(603) 224-4093,10,MERRIMACK
16,Hospital,ALICE PECK DAY MEMORIAL HOSPITAL,10 ALICE PECK DAY DRIVE,LEBANON,NH,3766,(603) 448-7440,25,GRAFTON
50,Hospital,ANDROSCOGGIN VALLEY HOSPITAL,59 PAGE HILL RD,BERLIN,NH,3570,(603) 752-2200,25,COOS
646,Hospital,CATHOLIC MEDICAL CENTER,100 MCGREGOR STREET,MANCHESTER,NH,3102,(603) 663-6552,330,HILLSBOROUGH
14,Hospital,CHESHIRE MEDICAL CENTER (THE),580 COURT STREET,KEENE,NH,3431,(603) 354-5400,169,CHESHIRE
1098,Hospital,CONCORD HOSPITAL,250 PLEASANT STREET,CONCORD,NH,3301,(603) 225-2711,295,MERRIMACK
4500,Hospital,CONCORD HOSPITAL - LACONIA,80 HIGHLAND STREET,Laconia,NH,3246,(603) 524-3211,137,Belknap
4499,Hospital,CONCORD HOSPITAL-FRANKLIN,15 AIKEN AVENUE,Franklin,NH,3235,(603) 934-2060,35,Merrimack
1770,Hospital,COTTAGE HOSPITAL,90 SWIFTWATER ROAD,WOODSVILLE,NH,3785,(603) 747-9000,35,GRAFTON
4328,Hospital,DOVER EMERGENCY ROOM,10 CENTRAL AVENUE,DOVER,NH,3820,(603) 740-1500,,Strafford
18,Hospital,ELLIOT HOSPITAL CITY OF MANCHESTER,ONE ELLIOT WAY,MANCHESTER,NH,3103,(603) 669-5300,296,HILLSBOROUGH
1985,Hospital,"ENCOMPASS HEALTH REHABILITATION HOSPITAL OF CONCORD, INC",254 PLEASANT STREET,CONCORD,NH,3301,(603) 226-9800,50,MERRIMACK
1761,Hospital,EXETER HOSPITAL INC,5 ALUMNI DRIVE,EXETER,NH,3833,(603) 580-6691,100,ROCKINGHAM
4404,Hospital,FRISBIE MEMORIAL HOSPITAL,11 WHITEHALL RD,Rochester,NH,3867,(603) 332-5211,112,Strafford
1078,Hospital,HAMPSTEAD HOSPITAL,218 EAST ROAD,HAMPSTEAD,NH,3841,(603) 329-5311,111,ROCKINGHAM
29,Hospital,HUGGINS HOSPITAL,240 SOUTH MAIN STREET,WOLFEBORO,NH,3894,(603) 569-7500,25,CARROLL
2790,Hospital,LITTLETON REGIONAL HEALTHCARE,600 ST. JOHNSBURY ROAD,LITTLETON,NH,3561,(603) 444-9000,25,GRAFTON
1799,Hospital,MARY HITCHCOCK MEMORIAL HOSPITAL,ONE MEDICAL CENTER DRIVE,LEBANON,NH,3756,(603) 650-5000,396,GRAFTON
9,Hospital,MEMORIAL HOSPITAL,3073 WHITE MOUNTAIN HIGHWAY,NORTH CONWAY,NH,3860,(603) 356-5461,25,CARROLL
2507,Hospital,MONADNOCK COMMUNITY HOSPITAL,452 OLD STREET ROAD,PETERBOROUGH,NH,3458,(603) 924-7191,25,HILLSBOROUGH
2407,Hospital,NEW LONDON HOSPITAL,273 COUNTY ROAD,NEW LONDON,NH,3257,(603) 526-2911,25,MERRIMACK
3733,Hospital,NORTHEAST REHAB HOSPITAL @ PEASE,105 CORPORATE DRIVE,PORTSMOUTH,NH,3801,(603) 501-5500,33,ROCKINGHAM
3102,Hospital,"NORTHEAST REHAB. HOSP. @ SNHMC, WEST",29 NORTHWEST BLVD,NASHUA,NH,3062,(603) 689-2400,20,HILLSBOROUGH
2362,Hospital,NORTHEAST REHABILITATION HOSPITAL,70 BUTLER STREET,SALEM,NH,3079,(603) 893-2900,67,ROCKINGHAM
4079,Hospital,NORTHEAST REHABILITATION HOSPITAL@ELLIOT HOSPITAL,1 ELLIOT WY,MANCHESTER,NH,3103,(603) 893-2900,15,Hillsborough
902,Hospital,PARKLAND MEDICAL CENTER,ONE PARKLAND DRIVE,DERRY,NH,3038,(603) 421-2100,86,ROCKINGHAM
1349,Hospital,PORTSMOUTH REGIONAL HOSPITAL,333 BORTHWICK AVE,PORTSMOUTH,NH,3801,(603) 436-5110,220,ROCKINGHAM
4214,Hospital,SEABROOK EMERGENCY ROOM,603 LAFAYETTE RD,SEABROOK,NH,3874,(603) 474-6400,,Belknap
2496,Hospital,SOUTHERN NEW HAMPSHIRE MEDICAL CENTER,8 PROSPECT STREET,NASHUA,NH,3061,(603) 577-2000,188,Hillsborough
1300,Hospital,SPEARE MEMORIAL HOSPITAL,16 HOSPITAL ROAD,PLYMOUTH,NH,3264,(603) 536-1120,25,GRAFTON
23,Hospital,ST JOSEPH HOSPITAL,172 KINSLEY ST,NASHUA,NH,3060,(603) 882-3000,208,Hillsborough
592,Hospital,UPPER CT VALLEY HOSPITAL,181 CORLISS LANE,COLEBROOK,NH,3576,(603) 388-4299,16,COOS
7,Hospital,"VALLEY REGIONAL HOSPITAL, INC",243 ELM STREET,CLAREMONT,NH,3743,(603) 542-7771,25,SULLIVAN
15,Hospital,WEEKS MEDICAL CENTER,173 MIDDLE STREET,LANCASTER,NH,3584,(603) 788-4911,25,COOS
10,Hospital,WENTWORTH-DOUGLASS HOSPITAL,789 CENTRAL AVENUE,DOVER,NH,3820,(603) 742-5252,178,STRAFFORD
1709,ICF/IID,CEDARCREST INC,91 MAPLE AVENUE,KEENE,NH,3431,(603) 358-3384,26,CHESHIRE
I0063,Individual Home Care Service Provider,ALICE EWALT,41 JERICHO ROAD,BERLIN,NH,3570,(603) 348-2916,,Belknap
I0105,Individual Home Care Service Provider,AMY E PARSLOW,446 COLBURN ROAD,TEMPLE,NH,3084,(603) 291-0024,,HILLSBOROUGH
I0307,Individual Home Care Service Provider,ANGELA V TUPICK,17 HEMLOCK LANE APT 1,BERLIN,NH,3570,(603) 723-6082,,Coos
I0012,Individual Home Care Service Provider,ANN MARIE PATRICK,9 CEDAR LANE,LEE,NH,3861,(603) 915-1832,,Strafford
I0085,Individual Home Care Service Provider,BEVERLY A CARPENTER,4648 RTE 113,THETFORD CTR,VT,5075,(802) 785-4960,,UNKNOWN
I0200,Individual Home Care Service Provider,BEVERLY WESTON,60 FROST RD,DERRY,NH,3038,(603) 475-4879,,Rockingham
I0309,Individual Home Care Service Provider,BRANDIE GREELEY,136 TEMPLE RD,WILTON,NH,3086,(781) 584-2982,,Hillsborough
I0086,Individual Home Care Service Provider,BRIDGET CUSSON,8 JODRIE LN,MILAN,NH,3588,(603) 723-0915,,Belknap
I0318,Individual Home Care Service Provider,CANE & ABLE HOME HEALTH CARE SERVICES,726 VALLEY RD,Randolph,NH,3593,(603) 915-9202,,Coos
I0305,Individual Home Care Service Provider,CAROL A LAFLAMME,506 SWEDEN ST,Berlin,NH,3570,(603) 723-6472,,Coos
I0292,Individual Home Care Service Provider,CATHERINE TIBBITS,61 HELL HOLLOW RD,PLAINFIELD,NH,3781,(603) 812-7881,,Sullivan
I0300,Individual Home Care Service Provider,CHANTAL M BEDARD,30 WEST MILAN RD,Berlin,NH,3570,(603) 723-9993,,Coos
I0283,Individual Home Care Service Provider,CHERYL ZINDULKA,86 US RT 4A,LEBANON,NH,3766,(703) 850-1454,,Grafton
I0076,Individual Home Care Service Provider,CINDY L STOCKTON,3240 PROVICE LAKE RD,East Wakefield,NH,3830,(603) 581-4791,,Carroll
I0083,Individual Home Care Service Provider,CLAIRE FRENETTE,107 STRAFFORD ROAD,BERLIN,NH,3570,(603) 752-0011,,COOS
I0279,Individual Home Care Service Provider,CLAUDIA SIMARD,5 GILE DR UNIT TA,HANOVER,NH,3755,(603) 663-1658,,Grafton
I0284,Individual Home Care Service Provider,COLLINE COOK,56 HILLTOP DR,KEENE,NH,3431,(603) 852-0710,,Cheshire
I0238,Individual Home Care Service Provider,COMPASSIONATE COMPANIONS,14 RIVERSIDE FARM DR,LEE,NH,3861,(603) 978-0211,,Strafford
I0330,Individual Home Care Service Provider,CORRINA ARBOGAST,17 PINE TOP RD,Amherst,NH,3031,(603) 345-0171,,Hillsborough
I0015,Individual Home Care Service Provider,CRYSTAL ARSENAULT,163 NORWAY ST,BERLIN,NH,3570,(603) 728-5845,,Coos
I0016,Individual Home Care Service Provider,DEBORAH BACHAND,461 HILL ROAD,DUMMER,NH,3588,(603) 449-2000,,COOS
I0315,Individual Home Care Service Provider,DEBRA A CHENEY,61 PICKEREL POND RD,Laconia,NH,3246,(603) 387-1367,,Belknap
I0119,Individual Home Care Service Provider,DENISE THIBODEAU,20 BRET STREET,BERLIN,NH,3570,(603) 752-4257,,COOS
I0139,Individual Home Care Service Provider,FAE A MOORE,7 BASSETT ROAD,WOLFEBORO,NH,3894,(603) 833-0644,,CARROLL
I0324,Individual Home Care Service Provider,GABRIELLE ISABELLE,968 LACONIA RD,Tilton,NH,3276,(603) 533-1300,,Belknap
I0103,Individual Home Care Service Provider,GAIL LAMONTAGNE,21 LIBBY ST,GORHAM,NH,3581,(603) 915-9135,,Coos
I0017,Individual Home Care Service Provider,GAIL VILLNAVE,249 SWEDEN STREET,BERLIN,NH,3570,(603) 723-1497,,COOS
I0018,Individual Home Care Service Provider,GUYLAINE DONOVAN,771 3RD AVENUE,BERLIN,NH,3570,(603) 915-6308,,COOS
I0304,Individual Home Care Service Provider,HILARY A ALANDER,311 WILLARD ST,BERLIN,NH,3570,(603) 991-8929,,Coos
I0310,Individual Home Care Service Provider,HOPE SUPRY,312 COOS ST,BERLIN,NH,3570,(603) 915-0515,,Coos
I0175,Individual Home Care Service Provider,JACQUELINE GRASSO,33 FIELDSTONE RD,WOLFEBORO,NH,3894,(603) 986-1254,,Carroll
I0251,Individual Home Care Service Provider,JAMES H FREDRICKSON,161 CANAAN ST,CANAAN,NH,3741,(603) 523-9960,,Grafton
I0265,Individual Home Care Service Provider,JANET CHAMBERLAIN,36 WEBSTER AVE,CLAREMONT,NH,3743,(603) 542-9374,,Belknap
I0313,Individual Home Care Service Provider,JENNA ARGUIN,40 HAVEN AVE,Berlin,NH,3570,(603) 723-7118,,Coos
I0236,Individual Home Care Service Provider,KAREN G PERKINS,128 MOUNTAIN RD,Center Tuftonboro,NH,3816,(603) 707-2034,,Carroll
I0125,Individual Home Care Service Provider,KAREN SUPRY,312 COOS STREET,BERLIN,NH,3570,(603) 915-0704,,COOS
I0314,Individual Home Care Service Provider,KENDRA DISILVA,29 FOX RUN RD,WEST OSSIPEE,NH,3890,(603) 662-6436,,Carroll
I0172,Individual Home Care Service Provider,KIMBERLY BARTENHAGEN,88 LYFORD RD,BROOKFIELD,NH,3872,(603) 522-6558,,Carroll
I0323,Individual Home Care Service Provider,KIMBERLY COLE,52 FRONT ST,Pembroke,NH,3275,(603) 674-8258,,Merrimack
I0253,Individual Home Care Service Provider,L. ELIZABETH WALLER,2245 CONNECTICUT RIVER RD,SPRINGFIELD,VT,5156,(802) 338-1383,,Windsor
I0047,Individual Home Care Service Provider,LESLIE ANN ELLIOTT,5 JOHNSON ROAD,MIRROR LAKE,NH,3853,(603) 569-3412,,CARROLL
I0326,Individual Home Care Service Provider,LILY CUMMINGS,660 KENT ST,Berlin,NH,3570,(207) 924-4755,,Coos
I0064,Individual Home Care Service Provider,LINDA A GUAY,776 CAPE MOONSHINE ROAD,PIERMONT,NH,3779,(603) 764-9210,,Belknap
I0102,Individual Home Care Service Provider,LINDA A VAILLANCOURT,19 JASPER ST,BERLIN,NH,3570,(603) 215-6154,,Belknap
I0131,Individual Home Care Service Provider,LINDA S POSNER,28 STARLING STREET,KEENE,NH,3431,(603) 209-1335,,CHESHIRE
I0302,Individual Home Care Service Provider,LOUISE DION,100 JASPER ST,Berlin,NH,3570,(603) 752-4087,,Coos
I0174,Individual Home Care Service Provider,MARCELLA A HOULE,774 HILLSIDE AVE,BERLIN,NH,3570,(603) 752-5529,,Coos
I0048,Individual Home Care Service Provider,MARGUERITE A SCANLON,136 SUMMITVIEW DRIVE,TAMWORTH,NH,3886,(603) 960-2231,,CARROLL
I0274,Individual Home Care Service Provider,MARIA ARISTEGUI-BURKE,163 MADISON AVE,BERLIN,NH,3570,(603) 387-0583,,Belknap
I0049,Individual Home Care Service Provider,MARLENE A FRENCH,141 DOOE ROAD,DUBLIN,NH,3444,(603) 563-8876,,CHESHIRE
I0120,Individual Home Care Service Provider,MARY A ST. AUBIN,21 ACHORN HILL ROAD,DALTON,NH,3598,(603) 616-1709,,Coos
I0186,Individual Home Care Service Provider,MAUREEN D ELDRIDGE,21 ELDRIDGE RD,Freedom,NH,3836,(603) 539-9570,,Carroll
I0058,Individual Home Care Service Provider,MAUREEN ROBICHAUD,63 DEAN FARM ROAD,JAFFREY,NH,3452,(603) 532-4511,,CHESHIRE
I0285,Individual Home Care Service Provider,MICHELE HOGUE,5 ROWELL DR,STRAFFORD,NH,3884,(603) 343-6839,,Strafford
I0024,Individual Home Care Service Provider,MYSTIE PEARE,393 WESTERN AVENUE,BERLIN,NH,3570,(603) 723-8523,,COOS
I0322,Individual Home Care Service Provider,NORMA HERNANDEZ,19 CHURCH  ST #3,Belmont,NH,3220,(603) 832-1711,,Belknap
I0293,Individual Home Care Service Provider,PAMELA J LURVEY,159 PRESIDENTIAL HWY,Jefferson,NH,3583,(603) 631-6479,,Coos
I0327,Individual Home Care Service Provider,PAMELA MICHAUD,114 N VILLAGE RD,Loudon,NH,3307,(603) 229-7036,,Merrimack
I0135,Individual Home Care Service Provider,PAMELA VILLENEUVE,2 MASON DRIVE,MILAN,NH,3588,(603) 723-7566,,COOS
I0115,Individual Home Care Service Provider,PATRICIA A GOOD,2702 CHINOOK TRAIL,WONALANCET,NH,3897,(603) 986-3328,,CARROLL
I0124,Individual Home Care Service Provider,PAULA LITTLETON,3 MARISUE TERRACE,MELVIN VILLAGE,NH,3850,(603) 544-2059,,Carroll
I0258,Individual Home Care Service Provider,PRISCILLA BREAULT,112 STATE ST,BERLIN,NH,3570,(603) 752-5137,,Coos
I0050,Individual Home Care Service Provider,RACHEL A DONNELLY,59 MAPLE AVENUE APT. 20,KEENE,NH,3431,(603) 376-9614,,CHESHIRE
I0329,Individual Home Care Service Provider,RACHEL A YAEGER,290 RTE 10,Piermont,NH,3779,(603) 272-9444,,Grafton
I0056,Individual Home Care Service Provider,REBECCA CIARDELLI,8 CURRIER AVENUE,PETERBOROUGH,NH,3458,(603) 924-7385,,HILLSBOROUGH
I0308,Individual Home Care Service Provider,REBECCA R TRAFFIE,5 HUNTEE LOOP,NEW IPSWICH,NH,3071,(603) 562-6642,,Hillsborough
I0317,Individual Home Care Service Provider,RESILIENT HEALTHCARE LLC,63 LITTLE RIVER RD,Hampton,NH,3842,(603) 474-7601,,Rockingham
I0062,Individual Home Care Service Provider,RIDGE SATTERTHWAITE,287 W FAIRLEE ROAD,FAIRLEE,VT,5045,(802) 333-3629,,Addison
I0026,Individual Home Care Service Provider,ROXANNE BOUCHER,32 HAVEN AVENUE,BERLIN,NH,3570,(603) 752-2498,,COOS
I0319,Individual Home Care Service Provider,"SAFE AT HOME, HOME CARE SERVICE",208 2ND NH TPKE SO,Francestown,NH,3043,(603) 548-3856,,Hillsborough
I0321,Individual Home Care Service Provider,SARAH DICKINSON,249 BAPTIST RD,Canterbury,NH,3224,(603) 520-7905,,Merrimack
I0325,Individual Home Care Service Provider,SARAH FLYNN,40 TIOGA DR,Belmont,NH,3220,(603) 393-5866,,Belknap
I0027,Individual Home Care Service Provider,SHIRLEY DUPONT,745 LANCASTER STREET,BERLIN,NH,3570,(603) 752-2335,,COOS
I0156,Individual Home Care Service Provider,SIMPLY SENIORS,130 OAK HILL RD,CONCORD,NH,3301,(603) 224-5716,,MERRIMACK
I0286,Individual Home Care Service Provider,SOLACE MAREK,8 CONTOOCOOK AVE,JAFFREY,NH,3452,(603) 703-7353,,Cheshire
I0122,Individual Home Care Service Provider,SUNNY CARE BY BETH LLC,44 WARFIELD ROAD,CHESTER,NH,3036,(603) 490-5741,,ROCKINGHAM
I0028,Individual Home Care Service Provider,SUSAN BISSON,800 SECOND AVENUE,BERLIN,NH,3570,(603) 723-0126,,COOS
I0030,Individual Home Care Service Provider,SUSAN C FRENETTE,104 PINE ISLAND AVENUE,BERLIN,NH,3570,(603) 723-4070,,COOS
I0033,Individual Home Care Service Provider,SUSAN FLANDERS,10 FLANDERS ROAD,MEREDITH,NH,3253,(603) 279-4913,,BELKNAP
I0328,Individual Home Care Service Provider,TAMMY ST AMANT,5 BRUNSWICK ST,Berlin,NH,3570,(603) 723-1642,,Coos
I0331,Individual Home Care Service Provider,THRIVE AT HOME LLC,10 PINEWOOD DR,Stratham,NH,3885,,,Rockingham
I0320,Individual Home Care Service Provider,VALERIE MORIN,500 MAIN ST TRLR 4,Gorham,NH,3581,(603) 315-7858,,Coos
I0316,Individual Home Care Service Provider,VERONICA JEAN SAY,22 STRAFFORD ST #30C,Laconia,NH,3246,(603) 892-5175,,Belknap
I0080,Individual Home Care Service Provider,WENDY THORNTON,159 CROSIER LANE,LYNDONVILLE,VT,5851,(603) 359-0697,,Caledonia
I0075,Individual Home Care Service Provider,YVETTE MERCIER,11 COTTAGE STREET,GORHAM,NH,3581,(603) 723-0556,,COOS
4084,Laboratory,21 HAMPTON ROAD LAB,21 HAMPTON RD BLD 3,EXETER,NH,3833,(603) 580-8446,,Rockingham
4003,Laboratory,AMERICAN PAIN INSTITUTE LLC,14 MANCHESTER SQ STE 290,PORTSMOUTH,NH,3801,(603) 766-8500,,Rockingham
2747,Laboratory,AVH LABORATORY-GORHAM,2 BROADWAY ST,GORHAM,NH,3581,(603) 466-2615,,COOS
3276,Laboratory,AVH LABORATORY-PLEASANT STREET,133 PLEASANT STREET,BERLIN,NH,3570,(603) 752-4861,,COOS
4134,Laboratory,CARRIAGE HILL ASSISTED LIVING,306 KNOX MARSH ROAD,MADBURY,NH,3823,(603) 343-4475,,Strafford
4451,Laboratory,CEDX LABS INC,"200 INNOVATIVE WY, STE 1305",Nashua,NH,3062,(978) 712-0843,,Hillsborough
4007,Laboratory,CH ANTICOAGULATION CLINIC @ CFM,18 FOUNDRY ST,CONCORD,NH,3301,(603) 228-0071,,Merrimack
4436,Laboratory,CH ANTICOAGULATION CLINIC AT MEMORIAL WEST,"MEMORIAL BLDG WEST, FL 2 246 PLEASANT ST",Concord,NH,3301,(603) 224-4003,,Merrimack
4262,Laboratory,CMC VEIN AND VASCULAR SPECIALIST,160 SOUTH RIVER RD STE 100,BEDFORD,NH,3110,(603) 655-5150,,Hillsborough
4501,Laboratory,CONCORD HOSPITAL - LACONIA LABORATORY COLLECTING STATION,724 MAIN STREET,Laconia,NH,3246,(603) 524-5151,,Belknap
4502,Laboratory,CONCORD HOSPITAL - MEREDITH PRIMARY CARE LABORATORY COLLECTION STATION,238 DANIEL WEBSTER HIGHWAY,Meredith,NH,3253,(603) 279-7464,,Belknap
4378,Laboratory,CONVENIENT MD URGENT CARE - BELMONT,73 DANIEL WEBSTER HIGHWAY,Belmont,NH,3220,(603) 737-0550,,Belknap
4376,Laboratory,CONVENIENTMD URGENT CARE - LITTLETON,551 MEADOW STREET,Littleton,NH,3561,(603) 761-3660,,Grafton
3973,Laboratory,CONVENIENTMD URGENT CARE LAB,8 LOUDON ROAD,CONCORD,NH,3301,(603) 226-9000,,MERRIMACK
3974,Laboratory,CONVENIENTMD URGENT CARE LAB WINDHAM,125 INDIAN ROCK ROAD,WINDHAM,NH,3087,(603) 890-6330,,ROCKINGHAM
4051,Laboratory,CONVENIENTMD URGENT CARE-BEDFORD LAB,3 NASHUA RD,BEDFORD,NH,3110,(603) 472-6700,,Hillsborough
4035,Laboratory,CONVENIENTMD URGENT CARE-EXETER,1 PORTSMOUTH AVE,STRATHAM,NH,3885,(603) 942-7900,,Rockingham
4124,Laboratory,CONVENIENTMD URGENT CARE-KEENE,351 WINCHESTER ST,KEENE,NH,3431,(603) 605-0654,,Cheshire
4483,Laboratory,CONVENIENTMD URGENT CARE-LONDONDERRY LAB,42 NASHUA RD,Londonderry,NH,3053,(603) 413-6800,,Rockingham
4201,Laboratory,CONVENIENTMD URGENT CARE-MERRIMACK,2 DOBSON WY,MERRIMACK,NH,3054,(603) 471-6068,,Hillsborough
4127,Laboratory,CONVENIENTMD URGENT CARE-NASHUA,565 AMHERST ST,NASHUA,NH,3063,(603) 578-3347,,Hillsborough
4167,Laboratory,CONVENIENTMD URGENT CARE-PORTSMOUTH,599 LAFAYETTE RD,PORTSMOUTH,NH,3801,(603) 942-7900,,Belknap
4069,Laboratory,CONVENIENTMD-DOVER,14 WEBB PLACE,DOVER,NH,3820,(603) 742-7900,,Strafford
4430,Laboratory,CORE OBSTETRICS AND GYNECOLOGY,3 ALUMNI DR STE 401,Exeter,NH,3833,(603) 580-8446,,Rockingham
3531,Laboratory,CORE PHYSICIANS LAB SERVICES,"1 HAMPTON RD, BLDG B STE 108",EXETER,NH,3833,(603) 580-8446,,ROCKINGHAM
4386,Laboratory,CORE PRIMARY CARE OF PORTSMOUTH,605 LAFAYETTE RD,PORTSMOUTH,NH,3801,(603) 580-8446,,Rockingham
4275,Laboratory,"CROSSROADS RECOVERY CENTER, LLC",155 MAIN ST,SALEM,NH,3079,(603) 912-4490,,Rockingham
4332,Laboratory,DARTMOUTH-HITCHCOCK CONCORD LAB,253 PLEASANT STREET,CONCORD,NH,3301,(603) 226-2200,,Merrimack
3591,Laboratory,DARTMOUTH-HITCHCOCK MANCHESTER LAB,100 HITCHCOCK WAY,MANCHESTER,NH,3104,(603) 629-8074,,HILLSBOROUGH
3790,Laboratory,DARTMOUTH-HITCHCOCK NASHUA LAB,2300 SOUTHWOOD DRIVE,NASHUA,NH,3063,(603) 577-4338,,HILLSBOROUGH
4263,Laboratory,DICK HALL'S HOUSE,5-7 ROPE FERRY RD,HANOVER,NH,3755,(603) 646-9423,,Grafton
3053,Laboratory,DIVISION OF PH AND CS - CITY OF NASHUA,18 MULBERRY STREET,NASHUA,NH,3060,(603) 589-4500,,HILLSBOROUGH
4325,Laboratory,DIVISION OF PUBLIC HEALTH & COMMUNITY SERVICES-CITY OF NASHUA VAN,18 MULBERRY ST,Nashua,NH,3060,(603) 589-4500,,Hillsborough
3720,Laboratory,ELLIOT COUMADIN CLINIC @ 138 WEBSTER ST,138 WEBSTER STREET,MANCHESTER,NH,3104,(603) 663-2557,,HILLSBOROUGH
4252,Laboratory,ELLIOT COUMADIN CLINIC @ 15 FREETOWN RD,15 FREETOWN RD #8,RAYMOND,NH,3077,(603) 663-2557,,Rockingham
3724,Laboratory,ELLIOT COUMADIN CLINIC @ 40 BUTTRICK RD,40 BUTTRICK ROAD,LONDONDERRY,NH,3053,(603) 663-2557,,ROCKINGHAM
3691,Laboratory,ELLIOT ONE DAY SURGERY CENTER @ 185 QUEEN CITY AVE,185 QUEEN CITY AVE,MANCHESTER,NH,3101,(603) 663-2557,,HILLSBOROUGH
3392,Laboratory,ELLIOT POC LAB/COLLECTION STATION @ 145 HOLLIS ST,145 HOLLIS STREET,MANCHESTER,NH,3101,(603) 663-2557,,HILLSBOROUGH
3475,Laboratory,ELLIOT STAT LAB/COLLECTION STATION @ 40 BUTTRICK RD,40 BUTTRICK ROAD,LONDONDERRY,NH,3053,(603) 663-2557,,Rockingham
3692,Laboratory,ELLIOT URGENT CARE LAB @ 185 QUEEN CITY AVE,185 QUEEN CITY AVENUE,MANCHESTER,NH,3101,(603) 663-2557,,HILLSBOROUGH
3304,Laboratory,ELLIOT URGENT CARE LAB @ 40 BUTTRICK RD,40 BUTTRICK ROAD,LONDONDERRY,NH,3053,(603) 663-2557,,ROCKINGHAM
4277,Laboratory,ELLIOT URGENT CARE LAB @ BEDFORD,25 LEAVY DR,BEDFORD,NH,3110,(603) 663-2557,,Hillsborough
3927,Laboratory,EPPING FAMILY PRACTICE LAB,212 CALEF HIGHWAY,EPPING,NH,3042,(603) 580-8446,,ROCKINGHAM
3288,Laboratory,EQUALITY HEALTH CENTER,38 SOUTH MAIN STREET,CONCORD,NH,3301,(603) 225-2739,,MERRIMACK
4452,Laboratory,FARNUM CENTER - LAB,140 QUEEN CITY AVE,MANCHESTER,NH,3103,(603) 622-3020,,Hillsborough
4424,Laboratory,FRANKLIN PIERCE UNIVERSITY LAB,40 UNIVERSITY DR,Rindge,NH,3461,(603) 899-4130,,Cheshire
3602,Laboratory,HAMPTON HEALTH,879 LAFAYETTE ROAD,HAMPTON,NH,3842,(603) 580-8446,,ROCKINGHAM
4491,Laboratory,INTEGRATIVE HEALTH CARE CENTER LLC,155 MAIN DUNSTABLE RD STE 200,Nashua,NH,3060,(603) 821-0000,,Hillsborough
3205,Laboratory,JOAN G LOVERING HEALTH CENTER,559 PORTSMOUTH AVENUE,GREENLAND,NH,3840,(603) 436-7588,,ROCKINGHAM
4295,Laboratory,LABCORP-WINDHAM STAT LAB,183 ROCKINGHAM RD,WINDHAM,NH,3087,(603) 430-4125,,Rockingham
4447,Laboratory,LIGHT POINT LABS,56 STILES RD #204,Salem,NH,3079,(978) 473-4176,,Rockingham
3250,Laboratory,MANCHESTER HEALTH DEPARTMENT,1528 ELM STREET,MANCHESTER,NH,3101,(603) 624-6466,,HILLSBOROUGH
4493,Laboratory,MANCHESTER HEALTH DEPARTMENTMOBILE LAB,1528 ELM ST,Manchester,NH,3103,(603) 624-6466,,Hillsborough
2731,Laboratory,METABOLIC SOLUTIONS,460 AMHERST STREET,NASHUA,NH,3063,(603) 598-6960,,Belknap
3729,Laboratory,NASHUA EYE SURGERY CENTER - LAB,5 COLISEUM AVENUE,NASHUA,NH,3063,(603) 689-9240,,Belknap
4145,Laboratory,NELSON ANALYTICAL,490 EAST INDUSTRIAL PARK DR,MANCHESTER,NH,3109,(603) 622-0200,,Hillsborough
4065,Laboratory,NEW HAMPSHIRE LABORATORY SPECTRUM MEDICAL GROUP PATHOLOGY,1 HAMPTON RD STE 307,EXETER,NH,3833,(603) 580-5554,,Rockingham
4247,Laboratory,NORDX-MEMORIAL CAMPUS,3073 WHITE MOUNTAIN HWY,NORTH CONWAY,NH,3860,(603) 356-0691,,Carroll
4473,Laboratory,ON-SITE MEDICAL SERVICES LLC MOBILE VAN 040,71 BELKNAP AVE,Newport,NH,3773,(603) 826-6500,,Sullivan
4474,Laboratory,"ON-SITE MEDICAL SERVICES,  LLC MOBILE VAN 050",71 BELKNAP AVE,Newport,NH,3773,(603) 826-6500,,Sullivan
4469,Laboratory,"ON-SITE MEDICAL SERVICES, LLC",71 BELKNAP AVE,Newport,NH,3773,(603) 826-6500,,Sullivan
4471,Laboratory,"ON-SITE MEDICAL SERVICES, LLC 020",71 BELKNAP AVE,Newport,NH,3773,(603) 826-6500,,Sullivan
4470,Laboratory,"ON-SITE MEDICAL SERVICES, LLC MOBILE VAN 010",71 BELKNAP AVE,Newport,NH,3773,(603) 826-6500,,Sullivan
4472,Laboratory,"ON-SITE MEDICAL SERVICES, LLC MOBILE VAN 030",71 BELKNAP AVE,Newport,NH,3773,(603) 826-6500,,Sullivan
3924,Laboratory,PARKLAND LABORATORY @ STILES RD,31 STILES ROAD SUITE 2400,SALEM,NH,3079,(603) 890-2785,,ROCKINGHAM
4137,Laboratory,PINEWOOD MEDICAL LABORATORY,7 WORKS WAY,SOMERSWORTH,NH,3878,(603) 692-1835,,Strafford
4427,Laboratory,PLAISTOW HEALTH LAB,127 PLAISTOW RD,Plaistow,NH,3865,(603) 580-8446,,Rockingham
3167,Laboratory,PRH-LAB,155 BORTHWICK AVE SUITE 302,PORTSMOUTH,NH,3801,(603) 433-5282,,ROCKINGHAM
3877,Laboratory,QUEST DIAGNOSTICS-TSIENNETO RD,14 TSIENNETO ROAD #201,DERRY,NH,3038,(603) 421-0527,,ROCKINGHAM
4454,Laboratory,RAY HOUSE-FARNUM NORTH LAB,14 HOLY CROSS RD,FRANKLIN,NH,3235,(603) 622-3020,,Merrimack
4030,Laboratory,SACO RIVER MEDICAL GROUP,7 GREENWOOD AVE,CONWAY,NH,3818,(603) 447-3500,,Carroll
3603,Laboratory,SALTONSTALL LAB,9 BUZZELL AVENUE,EXETER,NH,3833,(603) 580-8446,,Rockingham
3236,Laboratory,"SEACOAST PATHOLOGY, INC",ONE HAMPTON RD SUITE 307,EXETER,NH,38334849,(603) 778-8522,,ROCKINGHAM
4190,Laboratory,SNHU WELLNESS CENTER LAB,2500 NORTH RIVER RD,HOOKSETT,NH,3106,(603) 645-9679,,Merrimack
4385,Laboratory,STRATHAM FAMILY PRACTICE,"118 PORTSMOUTH AVE, BLDG D",Stratham,NH,3885,(603) 580-8446,,Rockingham
4308,Laboratory,STRIVE HEALTH,"1750 ELM ST, STE 103",MANCHESTER,NH,3104,(603) 865-1706,,Hillsborough
3741,Laboratory,URGENT CARE LAB @ BEDFORD MEDICAL PARK,5 WASHINGTON PLACE STE 1B,BEDFORD,NH,3110,(603) 314-4543,,HILLSBOROUGH
3099,Laboratory,WALK-IN SERVICES/POINT OF CARE LAB,60 COMMERCIAL STREET,CONCORD,NH,3301,(603) 227-7000,,MERRIMACK
4455,Laboratory,WEBSTER PLACE-FARNUM NORTH LAB,27 HOLY CROSS RD,FRANKLIN,NH,3235,(603) 622-3020,,Merrimack
4017,Laboratory,WENTWORTH-DOUGLASS EXPRESS CARE DOVER,701 B CENTRAL AVE,DOVER,NH,3820,(603) 609-6700,,Strafford
3496,Laboratory,WENTWORTH-DOUGLASS PROF. CENTER @ LEE,65 CALEF HIGHWAY,LEE,NH,3861,(603) 868-8550,,STRAFFORD
4342,Laboratory,WENTWORTH-DOUGLASS SEACOAST CANCER CENTER PORTSMOUTH,121 CORPORATE DR,PORTSMOUTH,NH,3801,(603) 742-5252,,Rockingham
3769,Non-Emergency Walk-In Care Center,ACCESS SPORTS MEDICINE AND ORTHOPAEDICS,"1 HAMPTON RD, STE 200",EXETER,NH,3833,(603) 775-7575,,ROCKINGHAM
4179,Non-Emergency Walk-In Care Center,ACCESS WALK-IN INJURY CLINIC,"155 BORTHWICK AVE, STE 102",PORTSMOUTH,NH,3801,(603) 431-3575,,Rockingham
4394,Non-Emergency Walk-In Care Center,ACCESS WALK-IN INJURY CLINIC,120 WASHINGTON ST,ROCHESTER,NH,3839,(603) 330-3888,,Strafford
4316,Non-Emergency Walk-In Care Center,CHARLESTOWN HEALTH CENTER,250 CEDA ROAD,CHARLESTOWN,NH,3603,(603) 826-5711,,Sullivan
4320,Non-Emergency Walk-In Care Center,CLEARCHOICE MD-CMC URGENT CARE,558 MAST ROAD,GOFFSTOWN,NH,3045,(603) 232-1790,,Hillsborough
4326,Non-Emergency Walk-In Care Center,CLEARCHOICE MD-CMC URGENT CARE-HOOKSETT,7 CINEMAGIC WAY,HOOKSETT,NH,3106,(603) 782-5112,,Merrimack
4507,Non-Emergency Walk-In Care Center,CLEARCHOICEMD URGENT CARE - ALTON,24 HOMESTEAD PLACE,Alton,NH,3809,(603) 822-4713,,Belknap
4508,Non-Emergency Walk-In Care Center,CLEARCHOICEMD URGENT CARE - BELMONT,96 DANIEL WEBSTER HWY,Belmont,NH,3220,(603) 267-0656,,Belknap
4509,Non-Emergency Walk-In Care Center,CLEARCHOICEMD URGENT CARE-EPPING,1 BEEHIVE DRIVE,Epping,NH,3042,(603) 734-9292,,Rockingham
4510,Non-Emergency Walk-In Care Center,CLEARCHOICEMD URGENT CARE-LEBANON,410 MIRACLE MILE,Lebanon,NH,3766,(603) 267-3260,,Grafton
4511,Non-Emergency Walk-In Care Center,CLEARCHOICEMD URGENT CARE-PLAISTOW,127 PLAISTOW ROAD,Plaistow,NH,3865,(603) 797-9289,,Rockingham
4512,Non-Emergency Walk-In Care Center,CLEARCHOICEMD URGENT CARE-PORTSMOUTH,750 LAFAYETTE ROAD,Portsmouth,NH,3801,(603) 427-8539,,Rockingham
4513,Non-Emergency Walk-In Care Center,CLEARCHOICEMD URGENT CARE-TILTON,75 LACONIA ROAD,Tilton,NH,3276,(603) 729-0050,,Belknap
3561,Non-Emergency Walk-In Care Center,CONCENTRA URGENT CARE - CONCORD,1 PILLSBURY STREET,CONCORD,NH,3301,(603) 223-2300,,MERRIMACK
3560,Non-Emergency Walk-In Care Center,CONCENTRA URGENT CARE - NASHUA,14 A BROAD STREET,NASHUA,NH,3064,(603) 889-2354,,HILLSBOROUGH
4000,Non-Emergency Walk-In Care Center,CONCENTRA URGENT CARE-MANCHESTER,1279 S WILLOW ST,MANCHESTER,NH,3103,(603) 644-3330,,Hillsborough
3889,Non-Emergency Walk-In Care Center,CONVENIENTMD URGENT CARE,125 INDIAN ROCK RD UNIT 1,WINDHAM,NH,3087,(603) 890-6330,,ROCKINGHAM
4377,Non-Emergency Walk-In Care Center,CONVENIENTMD URGENT CARE - BELMONT,73 DANIEL WEBSTER HIGHWAY,Belmont,NH,3220,(603) 737-0550,,Belknap
3970,Non-Emergency Walk-In Care Center,CONVENIENTMD URGENT CARE - CONCORD,8 LOUDON ROAD,CONCORD,NH,3301,(603) 226-9000,,MERRIMACK
4375,Non-Emergency Walk-In Care Center,CONVENIENTMD URGENT CARE - LITTLETON,551 MEADOW STREET,Littleton,NH,3561,(603) 761-3660,,Grafton
4077,Non-Emergency Walk-In Care Center,CONVENIENTMD URGENT CARE - MERRIMACK,2 DOBSON WAY,MERRIMACK,NH,3054,(603) 471-6069,,Hillsborough
4049,Non-Emergency Walk-In Care Center,CONVENIENTMD URGENT CARE-BEDFORD,3 NASHUA RD,BEDFORD,NH,3110,(603) 472-6700,,Hillsborough
4070,Non-Emergency Walk-In Care Center,CONVENIENTMD URGENT CARE-DOVER,14 WEBB PL,DOVER,NH,3820,(603) 742-7900,,Strafford
4036,Non-Emergency Walk-In Care Center,CONVENIENTMD URGENT CARE-EXETER,1 PORTSMOUTH AVE,STRATHAM,NH,3885,(603) 772-3600,,Rockingham
4125,Non-Emergency Walk-In Care Center,CONVENIENTMD URGENT CARE-KEENE,351 WINCHESTER ST,KEENE,NH,3431,(603) 605-0654,,Cheshire
4482,Non-Emergency Walk-In Care Center,CONVENIENTMD URGENT CARE-LONDONDERRY,42 NASHUA RD,Londonderry,NH,3053,(603) 413-6800,,Rockingham
4129,Non-Emergency Walk-In Care Center,CONVENIENTMD URGENT CARE-NASHUA,565 AMHERST ST,NASHUA,NH,3063,(603) 578-3347,,Hillsborough
4171,Non-Emergency Walk-In Care Center,CONVENIENTMD URGENT CARE-PORTSMOUTH,599 LAFAYETTE RD,PORTSMOUTH,NH,3801,(603) 942-7900,,Rockingham
2702,Non-Emergency Walk-In Care Center,CONWAY WALK-IN CARE,7 GREENWOOD AVENUE,CONWAY,NH,3818,(603) 447-3500,,CARROLL
3307,Non-Emergency Walk-In Care Center,ELLIOT URGENT CARE @ LONDONDERRY,40 BUTTRICK ROAD,LONDONDERRY,NH,3053,(603) 552-1550,,ROCKINGHAM
4276,Non-Emergency Walk-In Care Center,ELLIOT URGENT CARE AT BEDFORD,25 LEAVY DR,BEDFORD,NH,3110,(603) 472-1772,,Hillsborough
3713,Non-Emergency Walk-In Care Center,ELLIOT URGENT CARE AT RIVER'S EDGE,185 QUEEN CITY AVENUE,MANCHESTER,NH,3101,(603) 663-4211,,HILLSBOROUGH
4037,Non-Emergency Walk-In Care Center,EXPRESS MED AT SALEM LLC,159 NORTH BROADWAY,SALEM,NH,3079,(603) 898-0961,,Rockingham
4212,Non-Emergency Walk-In Care Center,EXPRESSMED LLC,39 KOSCIUZKO ST,MANCHESTER,NH,3101,(603) 627-8053,,Hillsborough
3866,Non-Emergency Walk-In Care Center,EXPRESSMED-MANCHESTER,1 HIGHLANDER WAY,MANCHESTER,NH,3103,(603) 625-2622,,HILLSBOROUGH
3270,Non-Emergency Walk-In Care Center,"HEALTH STOP, INC",228 DANIEL WEBSTER HWY,NASHUA,NH,3060,(603) 888-9200,,HILLSBOROUGH
3853,Non-Emergency Walk-In Care Center,IMMEDIATE CARE OF SO NH @ PELHAM,33 WINDHAM ROAD,PELHAM,NH,3076,(603) 577-2273,,HILLSBOROUGH
3955,Non-Emergency Walk-In Care Center,IMMEDIATE CARE OF SO NH-NASHUA,112 SPIT BROOK ROAD,NASHUA,NH,3062,(603) 577-2273,,HILLSBOROUGH
3519,Non-Emergency Walk-In Care Center,IMMEDIATE CARE OF SOUTHERN NH,29 NORTHWEST BLVD,NASHUA,NH,3063,(603) 577-2273,,Hillsborough
3764,Non-Emergency Walk-In Care Center,IMMEDIATE CARE OF SOUTHERN NH-HUDSON,300 DERRY ROAD,HUDSON,NH,3051,(603) 577-2273,,HILLSBOROUGH
4345,Non-Emergency Walk-In Care Center,LITTLETON URGENT CARE,600 ST JOHNSBURY RD,LITTLETON,NH,3561,(603) 444-9294,,Grafton
4223,Non-Emergency Walk-In Care Center,MED CHECK URGENT CARE,389 TENNEY MTN. HWY HATCH PLAZA,PLYMOUTH,NH,3264,(603) 536-1120,,Grafton
3991,Non-Emergency Walk-In Care Center,MINUTECLINIC DIAGNOSTIC OF NEW HAMPSHIRE LLC #6596,321A LAFAYETTE RD,Hampton,NH,3842,(866) 389-2727,,Rockingham
3997,Non-Emergency Walk-In Care Center,"MINUTECLINIC DIAGNOSTIC OF NEW HAMPSHIRE, LLC #2257",271 MAMMOTH RD,MANCHESTER,NH,3109,(866) 389-2727,,Hillsborough
3982,Non-Emergency Walk-In Care Center,MINUTECLINIC DIAGNOSTIC OF NH LLC #1004,512 SOUTH BROADWAY,SALEM,NH,3079,(866) 389-2727,,ROCKINGHAM
3986,Non-Emergency Walk-In Care Center,MINUTECLINIC DIAGNOSTIC OF NH LLC (#1003),214 DANIEL WEBSTER HIGHWAY,NASHUA,NH,3060,(866) 389-2727,,Hillsborough
3978,Non-Emergency Walk-In Care Center,MINUTECLINIC DIAGNSOTIC OF NH LLC #0841,4 HALL STREET,CONCORD,NH,3301,(603) 389-2727,,MERRIMACK
4411,Non-Emergency Walk-In Care Center,MOBILE HEALTH CLINIC,172 KINSLEY ST,Nashua,NH,3060,(603) 579-5665,,Hillsborough
2132,Non-Emergency Walk-In Care Center,NEWPORT HEALTH CENTER,11 JOHN STARK HIGHWAY,NEWPORT,NH,3773,(603) 863-4100,,SULLIVAN
3926,Non-Emergency Walk-In Care Center,PARKLAND URGENT CARE AT STILES RD,31 STILES ROAD STE 1100,SALEM,NH,3079,(603) 421-2100,,ROCKINGHAM
3953,Non-Emergency Walk-In Care Center,SACO RIVER MEDICAL GROUP-GLEN,15 US RTE 302 STE 1,GLEN,NH,3838,(603) 383-3005,,CARROLL
3992,Non-Emergency Walk-In Care Center,ST JOSEPH HOSPITAL MILFORD MEDICAL CENTER,442 NASHUA ST,MILFORD,NH,3055,(603) 673-5623,,Hillsborough
3739,Non-Emergency Walk-In Care Center,URGENT CARE AT BEDFORD MEDICAL PARK,5 WASHINGTON PLACE,BEDFORD,NH,3110,(603) 314-4567,,HILLSBOROUGH
4092,Non-Emergency Walk-In Care Center,URGENT CARE AT VALLEY REGIONAL,243 ELM ST,CLAREMONT,NH,3743,(603) 542-7771,,Sullivan
3197,Non-Emergency Walk-In Care Center,WALK - IN CARE AT MEMORIAL HOSPITAL,3073 WHITE MOUNTAIN HIGHWAY,NORTH CONWAY,NH,3860,(603) 356-5461,,CARROLL
3056,Non-Emergency Walk-In Care Center,WALK-IN SERVICES,60 COMMERCIAL STREET,CONCORD,NH,3301,(603) 230-1200,,MERRIMACK
4487,Non-Emergency Walk-In Care Center,WENTWORTH DOUGLASS WENTWORTH HEALTH PARTNERS,67 CORPORTATE DR BLDG A,Portsmouth,NH,3801,(603) 610-8051,,Rockingham
3497,Non-Emergency Walk-In Care Center,WENTWORTH-DOUGLASS EXPRESS CARE,65 CALEF HIGHWAY,LEE,NH,3861,(603) 868-8500,,Belknap
4018,Non-Emergency Walk-In Care Center,WENTWORTH-DOUGLASS EXPRESS CARE,701 B CENTRAL AVE,DOVER,NH,3820,(603) 609-6700,,Strafford
4458,Nursing Home,ALPINE HEALTHCARE CENTER,298 MAIN ST,KEENE,NH,3431,(603) 352-7311,85,Cheshire
2282,Nursing Home,APPLEWOOD CENTER,8 SNOW RD,WINCHESTER,NH,3470,(603) 239-6355,72,CHESHIRE
2285,Nursing Home,BEDFORD HILLS CENTER,30 COLBY COURT,BEDFORD,NH,3110,(603) 625-6462,147,HILLSBOROUGH
4029,Nursing Home,BEDFORD NURSING AND REHABILITATION CENTER,480 DONALD ST,BEDFORD,NH,3110,(603) 627-4147,102,Hillsborough
3989,Nursing Home,BEL-AIR NURSING & REHAB CENTER,29 CENTER ST,GOFFSTOWN,NH,3045,(603) 497-4871,35,Hillsborough
89,Nursing Home,BELKNAP COUNTY NURSING HOME,30 COUNTY DRIVE,LACONIA,NH,3246,(603) 527-5410,94,BELKNAP
4459,Nursing Home,BIRCH HEALTHCARE CENTER,62 ROCHESTER HILL RD,ROCHESTER,NH,3867,(603) 335-3955,79,Strafford
4457,Nursing Home,CEDAR HEALTHCARE CENTER,188 JONES AVE,PORTSMOUTH,NH,3801,(603) 431-2530,102,Rockingham
84,Nursing Home,CHESHIRE COUNTY HOME,201 RIVER ROAD,WESTMORELAND,NH,3467,(603) 399-4912,150,CHESHIRE
2458,Nursing Home,COLONIAL HILL CENTER,62 ROCHESTER HILL RD,ROCHESTER,NH,3867,(603) 335-3955,79,STRAFFORD
2393,Nursing Home,COLONIAL POPLIN NURSING HOME,442 MAIN ST,FREMONT,NH,3044,(603) 895-3126,50,ROCKINGHAM
636,Nursing Home,COOS COUNTY NURSING HOME (BERLIN),364 CATES HILL ROAD,BERLIN,NH,3570,(603) 752-2343,100,COOS
49,Nursing Home,COOS COUNTY NURSING HOSPITAL,136 COUNTY FARM ROAD,WEST STEWARTSTOWN,NH,3597,(603) 246-3321,97,COOS
3707,Nursing Home,COUNTRY VILLAGE CENTER GENESIS HEALTHCAR,91 COUNTRY VILLAGE ROAD,LANCASTER,NH,3584,(603) 788-4735,86,Belknap
2263,Nursing Home,COURVILLE AT MANCHESTER (THE),44 WEST WEBSTER STREET,MANCHESTER,NH,3104,(603) 647-5900,76,HILLSBOROUGH
651,Nursing Home,COURVILLE AT NASHUA,22 HUNT ST,NASHUA,NH,3060,(603) 889-5450,94,Hillsborough
2283,Nursing Home,CRESTWOOD CENTER,40 CROSBY STREET,MILFORD,NH,3055,(603) 673-7061,82,HILLSBOROUGH
4367,Nursing Home,DERRY CENTER FOR REHABILITATION AND HEALTHCARE,20 CHESTER RD,Derry,NH,3038,(603) 432-3801,62,Rockingham
3933,Nursing Home,DOVER CENTER FOR HEALTH & REHABILITATION,307 PLAZA DRIVE,DOVER,NH,3820,(603) 742-2676,112,STRAFFORD
2913,Nursing Home,EDGEWOOD MANOR DBA EDGEWOOD CENTRE (THE),928 SOUTH STREET,PORTSMOUTH,NH,3801,(603) 436-0099,156,ROCKINGHAM
3404,Nursing Home,ELM WOOD CENTER AT CLAREMONT,290 HANOVER STREET,CLAREMONT,NH,3743,(603) 542-2606,68,SULLIVAN
3963,Nursing Home,EPSOM HEALTHCARE CENTER,901 SUNCOOK VALLEY HIGHWAY,EPSOM,NH,3234,(603) 736-4772,108,MERRIMACK
2448,Nursing Home,EXETER REHABILITATION CENTER,8 HAMPTON ROAD,EXETER,NH,3833,(603) 778-0531,81,ROCKINGHAM
3264,Nursing Home,FAIRVIEW NURSING HOME,203 LOWELL ROAD,HUDSON,NH,3051,(603) 882-5261,101,HILLSBOROUGH
2632,Nursing Home,GOLDEN VIEW HEALTH CARE CENTER,19 NH ROUTE 104,MEREDITH,NH,3253,(603) 279-8111,105,BELKNAP
214,Nursing Home,GRAFTON COUNTY NURSING HOME,3855 DARTMOUTH COLLEGE HIGHWAY,NORTH HAVERHILL,NH,3774,(603) 787-6971,135,GRAFTON
4450,Nursing Home,GREENBRIAR REHAB AND HEALTHCARE,55 HARRIS RD,Nashua,NH,30622145,(603) 888-1573,290,Hillsborough
4048,Nursing Home,HACKETT HILL CENTER,191 HACKETT HILL RD,MANCHESTER,NH,3102,(603) 668-8161,70,Hillsborough
3562,Nursing Home,HANOVER HILL HEALTH CARE CENTER,700 HANOVER STREET,MANCHESTER,NH,3104,(603) 627-3826,124,HILLSBOROUGH
4366,Nursing Home,HANOVER TERRACE HEALTH AND REHABILITATION CENTER,49 LYME RD,HANOVER,NH,3755,(603) 643-2854,100,Grafton
3708,Nursing Home,HARRIS HILL CENTER GENESIS HEALTHCARE,20 MAITLAND STREET,CONCORD,NH,3301,(603) 224-1319,85,MERRIMACK
577,Nursing Home,HAVENWOOD HERITAGE HEIGHTS,33 CHRISTIAN AVENUE,CONCORD,NH,3301,(603) 224-5363,115,MERRIMACK
534,Nursing Home,HILLSBORO HOUSE NURSING HOME,67 SCHOOL STREET,HILLSBORO,NH,3244,(603) 464-5561,33,HILLSBOROUGH
640,Nursing Home,HILLSBOROUGH COUNTY NURSING HOME,400 MAST ROAD,GOFFSTOWN,NH,3045,(603) 627-5540,300,HILLSBOROUGH
4350,Nursing Home,HILLSIDE VILLAGE,100 WYMAN RD,KEENE,NH,3431,(603) 283-5150,20,Cheshire
2324,Nursing Home,HOLY CROSS HEALTH CENTER,357 ISLAND POND RD,MANCHESTER,NH,3109,(603) 628-3550,40,HILLSBOROUGH
1689,Nursing Home,HUNT COMMUNITY,10 ALLDS STREET,NASHUA,NH,3060,(603) 882-6511,40,HILLSBOROUGH
4335,Nursing Home,JAFFREY REHABILITATION AND NURSING CENTER,20 PLANTATION DR,JAFFREY,NH,3452,(603) 532-8762,83,Cheshire
3706,Nursing Home,KEENE CENTER GENESIS HEALTHCARE,677 COURT STREET,KEENE,NH,3431,(603) 357-3800,106,CHESHIRE
3705,Nursing Home,LACONIA REHABILITATION CENTER,175 BLUEBERRY LANE,LACONIA,NH,3246,(603) 524-3340,120,BELKNAP
4521,Nursing Home,LAFAYETTE CENTER,93 MAIN STREET,Franconia,NH,3580,(603) 823-5502,72,Grafton
2695,Nursing Home,"LANGDON PLACE OF DOVER, A SR LIVING COMM",60 MIDDLE ROAD,DOVER,NH,3820,(603) 743-4110,30,STRAFFORD
2693,Nursing Home,LANGDON PLACE OF KEENE,136A ARCH STREET,KEENE,NH,3431,(603) 357-3902,25,CHESHIRE
3702,Nursing Home,LEBANON CENTER GENESIS HEALTHCARE,24 OLD ETNA ROAD,LEBANON,NH,3766,(603) 448-2234,110,Grafton
2122,Nursing Home,LEDGEVIEW,21 LEDGES DRIVE,LACONIA,NH,3246,(603) 366-1275,49,BELKNAP
3964,Nursing Home,MAPLE LEAF HEALTHCARE CENTER,198 PEARL STREET,MANCHESTER,NH,3104,(603) 669-1660,114,HILLSBOROUGH
3351,Nursing Home,MERRIMACK COUNTY NURSING HOME,325 DANIEL  WEBSTER HIGHWAY,BOSCAWEN,NH,3303,(603) 796-2165,290,MERRIMACK
0009A,Nursing Home,MERRIMAN HOUSE (MEMORIAL ELDER HEALTH SERVICES),3073 WHITE MOUNTAIN HIGHWAY,NORTH CONWAY,NH,3860,(603) 356-5461,45,CARROLL
2454,Nursing Home,MINERAL SPRINGS,1251 WHITE MOUNTAIN HIGHWAY,NORTH CONWAY,NH,3860,(603) 356-7294,87,Belknap
40,Nursing Home,MORRISON NURSING HOME,6 TERRACE STREET,WHITEFIELD,NH,3598,(603) 837-2541,57,COOS
580,Nursing Home,MOUNT CARMEL REHAB AND NURSING CENTER,235 MYRTLE ST,MANCHESTER,NH,3104,(603) 627-3811,120,HILLSBOROUGH
3701,Nursing Home,MOUNTAIN RIDGE CENTER GENESIS HEALTHCARE,7 BALDWIN STREET,FRANKLIN,NH,3235,(603) 934-2541,86,MERRIMACK
3752,Nursing Home,MOUNTAIN VIEW COMMUNITY,93 WATER VILLAGE ROAD,OSSIPEE,NH,3864,(603) 539-7511,103,Carroll
3405,Nursing Home,OCEANSIDE SKILLED NURSING & REHABILITATION,22 TUCK ROAD,HAMPTON,NH,3842,(603) 926-4551,117,ROCKINGHAM
363,Nursing Home,PEABODY HOME,24 PEABODY PLACE,FRANKLIN,NH,3235,(603) 934-3718,13,MERRIMACK
2287,Nursing Home,PHEASANT WOOD CENTER,50 PHEASANT ROAD,PETERBOROUGH,NH,3458,(603) 924-7267,99,HILLSBOROUGH
3990,Nursing Home,PLEASANT VALLEY NURSING CENTER,8 PEABODY RD,DERRY,NH,3038,(603) 434-1566,112,Rockingham
4520,Nursing Home,PLEASANT VIEW CENTER,239 PLEASANT ST,Concord,NH,3301,(603) 224-6561,174,Merrimack
1817,Nursing Home,PRESIDENTIAL OAKS,200 PLEASANT STREET,CONCORD,NH,3301,(603) 225-6644,85,MERRIMACK
3700,Nursing Home,RIDGEWOOD CENTER GENESIS HEALTHCARE,25 RIDGEWOOD ROAD,BEDFORD,NH,3110,(603) 623-8805,148,HILLSBOROUGH
2275,Nursing Home,RIVERMEAD,300 RIVERMEAD RD,PETERBOROUGH,NH,3458,(603) 924-0062,12,Belknap
185,Nursing Home,RIVERSIDE REST HOME,276 COUNTY FARM ROAD,DOVER,NH,3820,(603) 742-1348,215,Belknap
4098,Nursing Home,RIVERSIDE REST HOME-HYDER HOSPICE UNIT,285 COUNTY FARM RD,DOVER,NH,3820,(603) 742-1348,14,Strafford
2112,Nursing Home,RIVERWOODS AT EXETER,15 RIVERWOODS DRIVE,EXETER,NH,3833,(603) 772-4700,39,ROCKINGHAM
4434,Nursing Home,RIVERWOODS DURHAM,20 STONE QUARRY DR,Durham,NH,3824,(603) 590-4073,12,Strafford
3093,Nursing Home,RIVERWOODS MANCHESTER,100 ALLIANCE WAY,MANCHESTER,NH,3102,(603) 645-6500,9,HILLSBOROUGH
4123,Nursing Home,ROCHESTER MANOR,40 WHITEHALL RD,ROCHESTER,NH,3867,(603) 332-7711,108,Strafford
105,Nursing Home,ROCKINGHAM COUNTY NURSING HOME,117 NORTH ROAD,BRENTWOOD,NH,3833,(603) 679-5335,226,ROCKINGHAM
2630,Nursing Home,SALEMHAVEN NURSING HOME,23 GEREMONTY DRIVE,SALEM,NH,3079,(603) 893-5586,110,ROCKINGHAM
403,Nursing Home,ST ANN REHABILITATION AND NURSING CENTER,195 DOVER POINT ROAD,DOVER,NH,3820,(603) 742-2612,54,STRAFFORD
223,Nursing Home,ST FRANCIS REHAB AND NURSING CENTER,406 COURT ST,LACONIA,NH,3246,(603) 524-0466,51,BELKNAP
2470,Nursing Home,ST JOSEPH RESIDENCE,495 MAMMOTH ROAD,MANCHESTER,NH,3104,(603) 668-6011,22,HILLSBOROUGH
581,Nursing Home,ST TERESA REHAB AND NURSING CENTER,519 BRIDGE ST,MANCHESTER,NH,3104,(603) 668-2373,51,HILLSBOROUGH
503,Nursing Home,ST VINCENT DE PAUL REHAB & NURSING CTR,29 PROVIDENCE AVENUE,BERLIN,NH,3570,(603) 752-1820,80,COOS
88,Nursing Home,SULLIVAN COUNTY HEALTH CARE,5 NURSING HOME DRIVE,UNITY,NH,3743,(603) 542-9511,156,Sullivan
3620,Nursing Home,THE BOULDERS AT RIVERWOODS,6 TIMBER LANE,EXETER,NH,3833,(603) 772-4700,16,ROCKINGHAM
2284,Nursing Home,THE ELMS CENTER,71 ELM STREET,MILFORD,NH,3055,(603) 673-2907,52,HILLSBOROUGH
3045,Nursing Home,THE HUNTINGTON AT NASHUA,55 KENT LANE,NASHUA,NH,3062,(603) 598-1440,24,HILLSBOROUGH
3054,Nursing Home,THE RIDGE AT RIVERWOODS,6 WHITE OAK DRIVE,EXETER,NH,3833,(603) 772-4700,23,ROCKINGHAM
3965,Nursing Home,VILLA CREST NURSING & RETIREMENT,1276 HANOVER STREET,MANCHESTER,NH,3104,(603) 622-3262,126,HILLSBOROUGH
4086,Nursing Home,WARDE HEALTH CENTER,21 SEARLES RD,WINDHAM,NH,3087,(603) 890-1290,32,Rockingham
1237,Nursing Home,WEBSTER AT RYE,795 WASHINGTON RD,RYE,NH,3870,(603) 964-8144,61,ROCKINGHAM
2451,Nursing Home,WOLFEBORO BAY CENTER,39 CLIPPER DRIVE,WOLFEBORO,NH,3894,(603) 569-3950,104,CARROLL
699,Nursing Home,WOODLAWN CARE CENTER,84 PINE STREET,NEWPORT,NH,3773,(603) 863-1020,53,SULLIVAN
3194,Residential Treatment and Rehab,PETERBOROUGH PROGRAM,52 SUMMER STREET,PETERBOROUGH,NH,3458,(603) 464-3841,10,Hillsborough
2119,Residential Treatment and Rehab,ROBIN HILL FARM INC - MEREDITH HOUSE,93 PRESTON STREET,HILLSBOROUGH,NH,3244,(603) 464-5084,5,HILLSBOROUGH
1226,Residential Treatment and Rehab,ROBIN HILL FARM-BLUE HOUSE,55 DONOVAN ROAD,WEST DEERING,NH,3244,(603) 464-3841,14,Hillsborough
1226,Residential Treatment and Rehab,ROBIN HILL FARM-BLUE HOUSE,55 DONOVAN ROAD,WEST DEERING,NH,3244,(603) 464-3841,14,Hillsborough
3076,Residential Treatment and Rehab,WESTBRIDGE COMMONS,517 PINE STREET,MANCHESTER,NH,3104,(603) 606-3791,12,HILLSBOROUGH
2658,Residential Treatment and Rehab,WHITE HOUSE,63 DONOVAN ROAD,DEERING,NH,3244,(603) 464-3725,8,HILLSBOROUGH
3788,Residential Treatment and Rehab,WILTON HILL PROGRAM,165 WILTON ROAD,PETERBOROUGH,NH,3458,(603) 464-3841,5,HILLSBOROUGH
4497,Substance Use Disorder Res Treatment,BONFIRE BEHAVIORAL HEALTH,2957 MAIN STREET,Bethlehem,NH,3574,(833) 497-4457,,Grafton
4246,Substance Use Disorder Res Treatment,DISMAS HOME,102 FOURTH ST,MANCHESTER,NH,3102,(603) 782-3004,6,Hillsborough
3932,Substance Use Disorder Res Treatment,FARNUM CENTER,140 QUEEN CITY AVENUE,MANCHESTER,NH,3101,(603) 622-3020,80,HILLSBOROUGH
4133,Substance Use Disorder Res Treatment,GREEN MOUNTAIN TREATMENT CENTER,244 HIGHWATCH RD,EFFINGHAM,NH,3882,(603) 230-2448,83,Carroll
4113,Substance Use Disorder Res Treatment,HEADREST INC,14 CHURCH ST,LEBANON,NH,3766,(603) 448-4872,14,Grafton
4260,Substance Use Disorder Res Treatment,HOPE ON HAVEN HILL,326 ROCHESTER HILL RD,ROCHESTER,NH,3867,(603) 841-5353,8,Strafford
4260,Substance Use Disorder Res Treatment,HOPE ON HAVEN HILL,326 ROCHESTER HILL RD,ROCHESTER,NH,3867,(603) 841-5353,8,Strafford
3815,Substance Use Disorder Res Treatment,KEYSTONE HALL,615 AMHERST STREET,NASHUA,NH,3060,(603) 881-4848,54,HILLSBOROUGH
4517,Substance Use Disorder Res Treatment,LIBERTY HEALTH SERVICES,29 ASHLEIGH DR,Derry,NH,3038,(603) 216-0277,,Rockingham
4524,Substance Use Disorder Res Treatment,LIVE FREE RECOVERY SERVICES,881 MARLBORO RD,Keene,NH,3431,(603) 438-3276,,Cheshire
4102,Substance Use Disorder Res Treatment,NEW FREEDOM ACADEMY,367 SHAKER RD,CANTERBURY,NH,3224,(603) 505-4364,20,Merrimack
2724,Substance Use Disorder Res Treatment,PHOENIX HOUSE-DUBLIN,3 PIERCE ROAD,DUBLIN,NH,3444,(603) 563-8501,49,CHESHIRE
4139,Substance Use Disorder Res Treatment,RAY HOUSE,14 HOLY CROSS RD,FRANKLIN,NH,3235,(603) 622-3020,21,Merrimack
4192,Substance Use Disorder Res Treatment,SOBRIETY CENTERS OF NEW HAMPSHIRE,55 MAIN STREET,ANTRIM,NH,3440,(603) 808-0185,21,Hillsborough
4200,Substance Use Disorder Res Treatment,SOUTHEASTERN NH ALCOHOL AND DRUG ABUSE SERVICES,272 COUNTY FARM RD,DOVER,NH,3820,(603) 516-8160,28,Strafford
4504,Substance Use Disorder Res Treatment,THE GRANITE HOUSE 37 WEST BROADWAY,37 W BROADWAY,Derry,NH,3038,(866) 637-5288,,Rockingham
4413,Substance Use Disorder Res Treatment,THE GRANITE HOUSE SOBER LIVING LLC,35 W BROADWAY,Derry,NH,3038,(866) 453-5927,,Rockingham
4489,Substance Use Disorder Res Treatment,THE PLYMOUTH HOUSE,446 MAIN ST,PLYMOUTH,NH,3264,(603) 536-5500,,Grafton
4164,Substance Use Disorder Res Treatment,WEBSTER PLACE,27 HOLY CROSS RD,FRANKLIN,NH,3235,(603) 622-3020,42,Merrimack
4429,Substance Use Disorder Res Treatment,WESTBRIDGE COMMONS,517 PINE ST,Manchester,NH,3104,(603) 606-3791,,Hillsborough
4281,Substance Use Disorder Res Treatment,WILLOWS TRANSITIONAL LIVING PROGRAM,293 WILSON STREET 3RD FL,MANCHESTER,NH,3103,(603) 681-9441,25,Hillsborough
4282,Substance Use Disorder Res Treatment,WILLOWS TRANSITIONAL LIVING PROGRAM,15 BROOK ST,Manchester,NH,3104,(603) 641-9441,14,Hillsborough
4365,Supported Residential Care Facility,ALL AMERICAN ASSISTED LIVING AT KINGSTON,193 MAIN ST,KINGSTON,NH,3848,(603) 347-5522,112,Rockingham
4160,Supported Residential Care Facility,ALL AMERICAN ASSISTED LIVING AT LONDONDERRY,1 BUTTON DR,LONDONDERRY,NH,3053,(603) 537-9898,112,Rockingham
4484,Supported Residential Care Facility,ASSISTED LIVING@SUGARHILL,83 ROLLING WOOD DR,Wolfeboro,NH,3894,(603) 569-8485,25,Carroll
1526,Supported Residential Care Facility,AYNSLEY PLACE,80 LAKE STREET,NASHUA,NH,3060,(603) 881-4190,46,HILLSBOROUGH
4353,Supported Residential Care Facility,BEDFORD FALLS,5 CORPORATE DRIVE,BEDFORD,NH,3110,(603) 471-2555,114,Hillsborough
4354,Supported Residential Care Facility,BENCHMARK SENIOR LIVING AT NASHUA CROSSINGS,674 WEST HOLLIS ST,Nashua,NH,3062,(603) 882-2898,103,Hillsborough
4490,Supported Residential Care Facility,BOWMAN PLACE OF OLDE BEDFORD,24 OLD BEDFORD RD,Bedford,NH,3110,(603) 714-7003,150,Hillsborough
4175,Supported Residential Care Facility,BRIDGES BY EPOCH AT NASHUA,575 AMHERST ST,NASHUA,NH,3063,(603) 594-0581,54,Belknap
3728,Supported Residential Care Facility,BROOKDALE SPRUCE WOOD,25 WORTHEN ROAD,DURHAM,NH,3824,(603) 659-1100,80,STRAFFORD
1548,Supported Residential Care Facility,CARLYLE PLACE,40 ROUTE 101,BEDFORD,NH,3110,(603) 472-2000,46,HILLSBOROUGH
4128,Supported Residential Care Facility,CARRIAGE HILL ASSISTED LIVING,306 KNOX MARSH RD,MADBURY,NH,3823,(603) 343-4475,24,Strafford
4456,Supported Residential Care Facility,CEDAR HEALTHCARE CENTER,188 JONES AVE,PORTSMOUTH,NH,3801,(603) 431-2530,30,Rockingham
4165,Supported Residential Care Facility,COMMUNITY LIVING FOR ELDERLY TAMWORTH,22 MAY'S WY,WEST OSSIPEE,NH,3890,(603) 323-8717,15,Belknap
4525,Supported Residential Care Facility,CORNERSTONE AT HAMPTON,298 EXETER ROAD,Hampton,NH,3842,(603) 929-6300,212,Rockingham
2934,Supported Residential Care Facility,ERNEST P. BARKA ASSISTED LIVING,117 NORTH ROAD,BRENTWOOD,NH,3833,(603) 679-9359,49,ROCKINGHAM
3170,Supported Residential Care Facility,EVERGREEN PLACE,813 BEECH STREET,MANCHESTER,NH,3104,(603) 669-7361,52,HILLSBOROUGH
4453,Supported Residential Care Facility,EVOLVE AT RYE,295 LAFAYETTE RD,Rye,NH,3870,(603) 379-1898,64,Rockingham
3677,Supported Residential Care Facility,FORESTVIEW MANOR 1,153 PARADE ROAD,MEREDITH,NH,3253,(603) 279-3121,26,BELKNAP
3678,Supported Residential Care Facility,FORESTVIEW MANOR 2,153 PARADE ROAD,MEREDITH,NH,3253,(603) 279-3121,30,BELKNAP
3679,Supported Residential Care Facility,FORESTVIEW MANOR 3,153 PARADE ROAD,MEREDITH,NH,3253,(603) 279-3121,20,BELKNAP
2738,Supported Residential Care Facility,GERRISH MANOR,325 DANIEL WEBSTER HIGHWAY BLDG 2,BOSCAWEN,NH,3303,(603) 796-3241,29,MERRIMACK
3498,Supported Residential Care Facility,GRACE HOUSE OF WINDHAM,23 MAMMOTH RD,WINDHAM,NH,3087,(603) 889-1800,17,ROCKINGHAM
2698,Supported Residential Care Facility,GRANITE LEDGES OF CONCORD,151 LANGLEY PARKWAY,CONCORD,NH,3301,(603) 224-0777,90,MERRIMACK
4355,Supported Residential Care Facility,GREYSTONE FARM AT SALEM,242 MAIN ST,Salem,NH,3079,(603) 898-5393,82,Rockingham
4228,Supported Residential Care Facility,HARMONY HOMES BY THE BAY,40 BRIGGS WY,DURHAM,NH,3824,(603) 292-5175,60,Strafford
2420,Supported Residential Care Facility,HARVEST HILL,23 ALICE PECK DAY DRIVE,LEBANON,NH,3766,(603) 448-7458,154,Grafton
3904,Supported Residential Care Facility,HAVENWOOD HERITAGE HEIGHTS,33 CHRISTIAN AVENUE,CONCORD,NH,3301,(603) 224-5363,29,MERRIMACK
2431,Supported Residential Care Facility,HAVENWOOD-HERITAGE HEIGHTS,33 CHRISTIAN AVENUE,CONCORD,NH,3301,(603) 224-5363,34,MERRIMACK
4351,Supported Residential Care Facility,HILLSIDE VILLAGE (ASSISTED LIVING AND MEMORY CARE),100 WYMAN ROAD,KEENE,NH,3431,(603) 283-5150,61,Cheshire
3919,Supported Residential Care Facility,HUNT COMMUNITY,10 ALLDS STREET,NASHUA,NH,3060,(603) 882-6511,25,HILLSBOROUGH
2784,Supported Residential Care Facility,INN AT DEERFIELD INC. (THE),34 RIDGE ROAD,DEERFIELD,NH,3037,(603) 463-7002,32,ROCKINGHAM
2734,Supported Residential Care Facility,INN AT GOLDEN VIEW (THE),19 NH ROUTE 104,MEREDITH,NH,3253,(603) 279-8111,48,BELKNAP
2612,Supported Residential Care Facility,INN AT PARKER STATION,46 PARKER STATION ROAD,GOFFSTOWN,NH,3045,(603) 497-5300,15,HILLSBOROUGH
1954,Supported Residential Care Facility,KENDAL AT HANOVER,67 CUMMINGS RD,HANOVER,NH,3755,(603) 643-8900,107,GRAFTON
4407,Supported Residential Care Facility,KIRKWOOD CORNERS,206 NORTH RIVER RD,LEE,NH,3861,(603) 659-6586,32,Strafford
3906,Supported Residential Care Facility,"LANGDON PLACE OF DOVER, A SR LIVING COMM",60 MIDDLE ROAD,DOVER,NH,3820,(603) 743-4110,126,Belknap
2694,Supported Residential Care Facility,"LANGDON PLACE OF EXETER, A SR LIVING COM",17 HAMPTON RD,EXETER,NH,3833,(603) 772-5251,114,ROCKINGHAM
3921,Supported Residential Care Facility,LANGDON PLACE OF KEENE,136A ARCH STREET,KEENE,NH,3431,(603) 357-3902,156,CHESHIRE
2692,Supported Residential Care Facility,"LANGDON PLACE OF NASHUA, A SR LIVING COM",319 EAST DUNSTABLE ROAD,NASHUA,NH,3062,(603) 888-7878,105,HILLSBOROUGH
3263,Supported Residential Care Facility,LAUREL PLACE ASSISTED LIVING,203 LOWELL ROAD,HUDSON,NH,3051,(603) 883-2419,47,HILLSBOROUGH
3907,Supported Residential Care Facility,LEDGEVIEW,21 LEDGES DRIVE,LACONIA,NH,3246,(603) 366-1275,40,BELKNAP
4323,Supported Residential Care Facility,LEDGEWOOD BAY ASSISTED IVING AND MEMORY CARE,43 LEDGEWOOD DRIVE,MILFORD,NH,3055,(603) 672-5037,44,Hillsborough
2670,Supported Residential Care Facility,MAPLEWOOD ASSISTED LIVING,201 RIVER ROAD,WESTMORELAND,NH,3467,(603) 399-7348,40,CHESHIRE
4301,Supported Residential Care Facility,MCCOY HOME FOR THE ELDERLY,1016 JOHN STARK HWY,NEWPORT,NH,3773,(603) 543-1255,16,Sullivan
3908,Supported Residential Care Facility,MINERAL SPRINGS,1251 WHITE MOUNTAIN HIGHWAY,NORTH CONWAY,NH,3860,(603) 356-7294,16,Carroll
3400,Supported Residential Care Facility,PARTRIDGE HOUSE,777 LAFAYETTE ROAD,HAMPTON,NH,3842,(603) 929-3032,80,ROCKINGHAM
2460,Supported Residential Care Facility,PEABODY HOME ASSISTED LIVING UNIT,24  PEABODY PLACE,FRANKLIN,NH,3235,(603) 934-3718,36,MERRIMACK
2624,Supported Residential Care Facility,PEACEFUL HARVEST HOMES LLC,144 PARIS AVE,CHARLESTOWN,NH,3603,(603) 826-4770,14,SULLIVAN
4409,Supported Residential Care Facility,PINE ROCK MANOR,3 DENNY HILL ROAD,WARNER,NH,3278,(603) 456-3181,70,Merrimack
2883,Supported Residential Care Facility,POPLIN WAY,442 MAIN STREET UNIT 2,FREMONT,NH,3044,(603) 895-3126,36,ROCKINGHAM
1717,Supported Residential Care Facility,PRESIDENTIAL OAKS,200 PLEASANT STREET,CONCORD,NH,3301,(603) 225-6644,24,MERRIMACK
2772,Supported Residential Care Facility,PYAREO HOME,333  BROOK ROAD,SANBORNTON,NH,3269,(603) 934-2300,7,BELKNAP
4406,Supported Residential Care Facility,RIVERGLEN HOUSE,55 RIVERGLEN LN,Littleton,NH,3561,(603) 991-7307,60,Grafton
3910,Supported Residential Care Facility,RIVERMEAD,150 RIVERMEAD ROAD,PETERBOROUGH,NH,3458,(603) 924-0062,78,HILLSBOROUGH
3920,Supported Residential Care Facility,RIVERWOODS AT EXETER,7 RIVERWOODS DRIVE,EXETER,NH,3833,(603) 772-4700,27,ROCKINGHAM
4435,Supported Residential Care Facility,RIVERWOODS DURHAM,20 STONE QUARRY DR,Durham,NH,3824,(603) 590-4073,60,Strafford
3095,Supported Residential Care Facility,RIVERWOODS MANCHESTER,100 ALLIANCE WAY,Manchester,NH,3102,(603) 645-6500,70,HILLSBOROUGH
4107,Supported Residential Care Facility,ROSE MEADOW ACRES,539 OLD COACH RD,NEW BOSTON,NH,3070,(603) 487-1568,16,Hillsborough
2182,Supported Residential Care Facility,ROSE MEADOW FARM,37 BRIAR HILL ROAD,NEW BOSTON,NH,3070,(603) 487-3600,11,HILLSBOROUGH
3289,Supported Residential Care Facility,ROSE MEADOW GARDEN,336 BEDFORD ROAD,NEW BOSTON,NH,3070,(603) 487-3590,16,HILLSBOROUGH
4178,Supported Residential Care Facility,SCOTT-FARRAR AT PETERBOROURGH,11 ELM STREET,PETERBOROUGH,NH,3458,(603) 924-3691,76,Hillsborough
4410,Supported Residential Care Facility,SPRING VILLAGE AT DOVER,35 POINTE PL,DOVER,NH,3820,(603) 842-4908,62,Strafford
2652,Supported Residential Care Facility,STUDLEY HOME INC,34 EASTERN AVENUE,ROCHESTER,NH,3867,(603) 332-1738,25,STRAFFORD
3377,Supported Residential Care Facility,"SUMMERCREST ASSISTED LIVING, LLC",169 SUMMER STREET,NEWPORT,NH,3773,(603) 863-8181,18,SULLIVAN
3199,Supported Residential Care Facility,SUMMERHILL ASSISTED LIVING,183 OLD DUBLIN ROAD,PETERBOROUGH,NH,3458,(603) 924-6238,75,HILLSBOROUGH
4274,Supported Residential Care Facility,SUMMIT BY MORRISON,56 SUMMIT DR,WHITEFIELD,NH,3598,(603) 837-3500,62,Coos
4005,Supported Residential Care Facility,SUNAPEE COVE ASSISTED LIVING,1250 ROUTE 11,SUNAPEE,NH,3782,(603) 763-0566,31,Sullivan
62,Supported Residential Care Facility,TAYLOR HOME (THE),435 UNION AVENUE,LACONIA,NH,3246,(603) 366-1275,53,BELKNAP
3922,Supported Residential Care Facility,THE ARBORS OF BEDFORD,70 HAWTHORNE DRIVE,BEDFORD,NH,3110,(603) 647-9300,89,Belknap
4352,Supported Residential Care Facility,THE BIRCHES AT CONCORD,300 PLEASANT ST,CONCORD,NH,3301,(603) 224-9111,60,Merrimack
3619,Supported Residential Care Facility,THE BOULDERS AT RIVERWOODS,6 TIMBER LANE,EXETER,NH,3833,(603) 772-4700,48,ROCKINGHAM
4191,Supported Residential Care Facility,THE GOLDEN CREST,29 BALDWIN ST,FRANKLIN,NH,3235,(603) 934-6742,100,Merrimack
3905,Supported Residential Care Facility,THE HUNTINGTON AT NASHUA,55 KENT LANE,NASHUA,NH,3062,(603) 598-1440,24,HILLSBOROUGH
4015,Supported Residential Care Facility,THE INN AT FAIRVIEW,203 LOWELL RD,HUDSON,NH,3051,(603) 816-0070,45,Hillsborough
4408,Supported Residential Care Facility,THE PINES OF NEWMARKET,9 GRANT ROAD,NEWMARKET,NH,3857,(603) 659-6000,81,Rockingham
4371,Supported Residential Care Facility,THE RESIDENCE AT SALEM WOODS,6 SALLY SWEET'S WAY,SALEM,NH,3079,(603) 890-0581,100,Rockingham
4250,Supported Residential Care Facility,THE RESIDENCE AT SILVER SQUARE,100 STERLING WAY,DOVER,NH,3820,(603) 570-9390,81,Strafford
3909,Supported Residential Care Facility,THE RIDGE AT RIVERWOODS,6 WHITE OAK DRIVE,EXETER,NH,3833,(603) 772-4700,54,ROCKINGHAM
3966,Supported Residential Care Facility,VILLA CREST NURSING & RETIREMENT,1276 HANOVER STREET,MANCHESTER,NH,3104,(603) 622-3262,39,HILLSBOROUGH
3954,Supported Residential Care Facility,VILLAGE AT RIVERMEAD,50 TIMBERPOND RD,PETERBOROUGH,NH,3458,(603) 924-0062,40,HILLSBOROUGH
4448,Supported Residential Care Facility,WADLEIGH HOUSE,10 SUMMER ST,DOVER,NH,3820,(603) 743-4103,16,Strafford
4087,Supported Residential Care Facility,WARDE HEALTH CENTER SUPPORTED RESIDENTIAL CARE FACILITY,21 SEARLES RD,WINDHAM,NH,3087,(603) 890-1290,39,Rockingham
3528,Supported Residential Care Facility,WATSON FIELDS,201 WATSON RD,DOVER,NH,3820,(603) 516-8810,54,STRAFFORD
3817,Supported Residential Care Facility,WEBSTER AT RYE ASSISTED LIVING COMMUNITY,795 WASHINGTON ROAD,RYE,NH,3870,(603) 964-8144,86,ROCKINGHAM
1532,Supported Residential Care Facility,WENTWORTH HOME FOR THE AGED,795 CENTRAL AVENUE,DOVER,NH,3820,(603) 742-7406,42,STRAFFORD
147,Supported Residential Care Facility,WENTWORTH SENIOR LIVING,346 PLEASANT ST,PORTSMOUTH,NH,3801,(603) 436-0169,101,ROCKINGHAM
2767,Supported Residential Care Facility,WHEELOCK TERRACE,32 BUCK ROAD,HANOVER,NH,3755,(603) 643-7290,87,GRAFTON
2783,Supported Residential Care Facility,WINDHAM TERRACE,3 CHURCH ROAD,WINDHAM,NH,3087,(603) 437-4600,82,ROCKINGHAM
2614,Supported Residential Care Facility,"WOODCREST VILLAGE, LLC",356 MAIN STREET,NEW LONDON,NH,3257,(603) 526-2300,50,MERRIMACK