Facility Name,Address,County,City,Zip Code,Phone Number,Facility ID,Licensee,License Number,Capacity,Type,Classification
Home Sweet Home of Athens,71 Second Street,Greene,Athens,12015,(518) 945-1673,AF0015B,"The W Group at Hudson, LLC",300-F-034,24,AH/ALP,PPHA
Rockaway Manor HFA,145 Beach 8th Street,Queens,Far Rockaway,11691,(718) 327-6300,AF0371A,Foundation For The Elderly,590-E-292,120,AH,NFP
Echo Arms Adult Home,204 Patchogue Road,Suffolk,Port Jefferson Stat.,11776,(631) 473-0166,AF0241A,"Katz, Harry",700-F-020,49,AH,PPHA
Kendal on Hudson,1010 Kendal Way,Westchester,Sleepy Hollow,10591,(914) 922-1000,AF0636A,Kendal On Hudson,800-S-134,47,EHP,NFP
Elizabeth Brewster House,41 South Main Street,Cortland,Homer,13077,(607) 749-3061,AF0039A,Elizabeth Brewster House,210-E-001,45,AH,NFP
Meadowbrook Terrace Assisted Living Facility,21957 Cole Road,Jefferson,Carthage,13619,(315) 519-1246,AF0704A,Meadowbrook Terrace Inc.,330-E-004,60,AH/ALP,NFP
Fox Run at Orchard Park,One Fox Run Lane,Erie,Orchard Park,14127,(716) 662-5001,AF0662A,"Orchard Park CCRC, Inc.",240-S-111,52,EHP,NFP
Brandywine Senior Living at Huntington Terrace,70 Pinelawn Road,Suffolk,Melville,11747,(631) 531-0000,AF0590B,Brandywine Senior Living at Huntington Terrace LLC,700-F-919,54,AH,PPHA
Atria Kew Gardens,117-01 84th Avenue,Queens,Kew Gardens,11418,(718) 441-0300,AF0810B,"ATR New York LH, Inc.",590-S-315,175,EHP,PPHA
Bishop's Commons at St. Luke,4 Burkle Street,Oswego,Oswego,13126,(315) 349-0799,AF0829A,"Bishop's Commons, Inc.",560-S-002,68,EHP,NFP
The Bristal at Massapequa,400 County Line Road,Nassau,Massapequa,11758,(516) 691-0706,AF0647B,"EB CARE at Massapequa, LLC",400-F-315,84,AH,PPHA
Maryville Assisted Living,70 Greenlawn Road,Suffolk,Huntington,11743,(631) 427-7685,AF0306A,"Maryville Adult Home, Inc.",700-F-891,32,AH,PPHA
The Arbors at Westbury,45 Jericho Turnpike,Nassau,Jericho,11753,(516) 333-6400,AF0434C,"Arcadia Management, Inc.",400-F-307,200,AH,PPHA
Atria Delmar Place,467 Delaware Ave,Albany,Delmar,12054,(518) 434-4663,AF0622B,"ATR New York LH, Inc.",000-S-008,106,EHP,PPHA
"Bristol Village, Inc.",8455 Clarence Center Road,Erie,Clarence Center,14032,(716) 319-9500,AF0609A,"Bristol Village, Inc.",240-S-107,142,EHP,NFP
Sunrise of Dix Hills,337 Deer Park Avenue,Suffolk,Dix Hills,11746,(631) 385-1733,AF0840B,"GWC - Dix Hills, Inc.",700-F-923,114,AH,PPHA
Brandywine Assisted Living at The Savoy,55-15 Little Neck Parkway,Queens,Little Neck,11362,(718) 423-7900,AF0380B,"Brandywine Assisted Living at The Savoy, LLC",590-S-305,160,EHP,PPHA
The Terrace at Glen Eddy,1 Ascot Lane,Schenectady,Niskayuna,12309,(518) 280-8361,AF0126A,Glen Eddy Inc.,650-S-067,53,EHP,NFP
Cobbs Hill Manor,1175 Monroe Avenue,Monroe,Rochester,14620,(585) 851-8696,AF0742A,"Cobbs Hill Manor, Inc.",370-F-242,118,AH/ALP,PPHA
The Bristal at Armonk,90 Business Park Drive,Westchester,Armonk,10504,(914) 269-2375,AF0712A,Armonk Senior Care LLC,800-S-151,171,EHP,PPHA
Symphony Manor at Lancaster,5539 Broadway,Erie,Lancaster,14086,(716) 683-5150,AF0556C,"Symphony Manor, LLC",240-F-902,117,AH,PPHA
Atria Plainview,12 Washington Avenue,Nassau,Plainview,11803,(516) 933-0002,AF0223C,"ATR New York LH, Inc.",400-F-329,99,AH,PPHA
Lutheran Home of Central New York,108 Utica Road,Oneida,Clinton,13323,(315) 853-5515,AF0075A,Lutheran Home of Central NY,510-E-007,68,AH,NFP
Sedgwick Heights,1100 James Street,Onondaga,Syracuse,13203,(315) 475-4388,AF0185A,"Loretto Adult Community, Inc.",520-E-091,154,AH/ALP,NFP
Elderwood Village at Colonie,626 Watervliet-Shaker Road,Albany,Latham,12110,(518) 783-8695,AF0032D,"626 Watervliet Shaker Road Operating Company, LLC",000-F-314,94,AH,PPHA
The Bristal at West Babylon,520 Montauk Highway (Unit A),Suffolk,West Babylon,11704,(631) 635-5501,AF0755A,EB Care at West Babylon LLC,700-S-313,187,EHP,PPHA
Elderwood Village at Ticonderoga,101 Adirondack Drive Suite 201,Essex,Ticonderoga,12883,(518) 585-3871,AF0608B,"1019 Wicker Street AL Operating Company, LLC",260-F-020,23,AH,PPHA
Atria Tanglewood,125 Ocean Avenue,Nassau,Lynbrook,11563,(516) 596-3400,AF0639C,"ATR New York LH, Inc.",400-F-306,160,AH,PPHA
L'Dor,156 West Clarkstown Road,Rockland,New City,10956,(845) 356-4108,AF0290B,Elliot Markowitz,620-F-076,44,AH,PPHA
Dominican Village Enriched Housing Program 1,565-567 Albany Avenue,Suffolk,Amityville,11701,(631) 842-6091,AF0237A,Dominican Village EHP,700-S-287,66,EHP,NFP
The Terrace at Newark,208 Route 88 South,Wayne,Newark,14513,(315) 331-5282,AF0671A,"The Terrace at Newark, Inc.",770-F-037,71,AH/ALP,PPHA
Lockport Presbyterian Home,327 High Street,Niagara,Lockport,14094,(716) 434-8805,AF0524B,"Lockport Presbyterian Home, Inc.",500-E-016,60,AH,NFP
Heather Heights of Pittsford,160 West Jefferson Road,Monroe,Pittsford,14534,(585) 264-1600,AF0508A,"Heather Heights of Pittsford, Inc.",370-F-220,120,AH,PPHA
Marjorie Doyle Rockwell Center,18 Pasinella Way,Albany,Cohoes,12047,(518) 238-4150,AF0077A,"Marjorie Doyle Rockwell Center, Inc.",000-E-283,52,AH,NFP
Sunrise of New City,233 North Main Street,Rockland,New City,10956,(845) 708-7855,AF0802A,"SZR New York LH, Inc.",620-F-089,120,AH,PPHA
Artis Senior Living of Chestnut Ridge,801 Chestnut Ridge Road,Rockland,Chestnut Ridge,10977,(845) 920-8341,AF0916A,"Artis Senior Living Operator of Chestnut Ridge, LLC",620-F-099,64,AH,PPHA
Orchard Grove Residences,2000 Southwestern Drive W. E.,Chautauqua,Jamestown,14701,(716) 338-1600,AF0698A,The Gerry Homes,060-E-040,36,AH/ALP,NFP
Marian Woods,152 Ridge Road,Westchester,Hartsdale,10530,(914) 750-6000,AF0304A,"Marian Woods, Inc.",800-E-130,50,AH,NFP
The Cloisters,171 North Maple Street,Wyoming,Warsaw,14569,(585) 786-8727,AF0472C,"Sunrise Assets, LLC",900-F-005,48,AH,PPHA
Brooklyn Boulevard ALP,636 Louisiana Avenue,Kings,Brooklyn,11239,(718) 557-0777,AF0749A,Brooklyn Boulevard ALP LLC,331-S-014,184,EHP/ALP,PPHA
Woodland Pond at New Paltz,100 Woodland Pond Circle,Ulster,New Paltz,12561,(845) 256-5910,AF0677B,"Woodland Pond, Inc.",740-S-010,60,EHP,NFP
"Fairlawn Adult Home, Inc.",301 Eighth Avenue,Suffolk,East Northport,11731,(631) 757-7666,AF0245B,"Fairlawn Adult Home, Inc.",700-F-898,30,AH,PPHA
Gallagher Home,517 North Lake Boulevard,Putnam,Mahopac,10541,(845) 628-7000,AF0730A,"Lake Mahopac Heights, LLC",580-F-003,16,AH,PPHA
The Country House in Westchester,2000 Baldwin Road,Westchester,Yorktown Heights,10598,(914) 962-3625,AF0226B,"The Country House in Westchester, an Adult Home LLC",800-F-007,100,AH,PPHA
Brooklyn Adult Care Center,2830 Pitkin Avenue,Kings,Brooklyn,11208,(718) 235-0900,AF0213B,"Brooklyn Adult Care Center, LLC",331-F-278,210,AH/ALP,PPHA
Legacy at Cranberry Landing,300 Cranberry Landing Drive,Monroe,Rochester,14609,(585) 244-3630,AF0724B,"Rochester Operating Company, LLC",370-F-252,78,AH,PPHA
Home of the Good Shepherd Moreau,186-200 Bluebird Road,Saratoga,Moreau,12803,(518) 792-1000,AF0708A,"The Church Aid of the Protestant Episcopal Church in the Town of Saratoga Springs, Inc.",640-E-040,72,AH,NFP
"Evergreen Place, Enhanced, Assisted Living & Memory Care",90 West Avenue,Monroe,Brockport,14420,(585) 637-3140,AF0567B,Wegman Family (Brockport) LLC II,370-S-849,114,EHP,PPHA
Underwood Manor,"4460 Union Hill Road, R.D. #1",Cattaraugus,Hinsdale,14743,(716) 557-2322,AF0569A,"Johnson, Ronald",040-F-024,32,AH/ALP,PPHA
Claddagh Care (L.B.S.H.) EHP #1,34 Church Street Suite 1,St. Lawrence,Brasher Falls,13613,(315) 389-5149,AF0027A,L.B.S.H. Housing,630-S-016,28,EHP,NFP
Bronxwood,799 East Gun Hill Road,Bronx,Bronx,10467,(718) 881-9100,AF0211A,"Bronxwood Home For The Aged, Inc.",020-E-004,320,AH/ALP,NFP
Loretto EHP #3 Nottingham,1301 Nottingham Road,Onondaga,Jamesville,13078,(315) 445-9242,AF0176A,"Loretto Adult Community, Inc.",520-S-114,64,EHP,NFP
Brookdale Liverpool,4055 Long Branch Road,Onondaga,Liverpool,13090,(315) 451-3221,AF0189C,"Painted Post, LLC",520-F-165,80,AH,PPHA
The Sentinel of Port Jervis,2247 Greenville Turnpike,Orange,Port Jervis,12771,(845) 896-0400,AF0905A,"The Sentinel of Port Jervis, LLC",540-F-040,160,AH/ALP,PPHA
Atria Huntington,165 Beverly Road,Suffolk,Huntington,11746,(631) 549-3533,AF0389B,"ATR New York LH, Inc.",700-F-931,198,AH,PPHA
Metro Interfaith Housing,21 New Street,Broome,Binghamton,13903,(607) 772-6766,AF0597A,Metro Interfaith Housing Management Corporation,030-S-046,11,EHP,NFP
The W Assisted Living at Riverdale Home for Adults,6355 Broadway,Bronx,Bronx,10471,(718) 549-3300,AF0370B,"Elener Associates, LLC",020-F-133,256,AH/ALP,PPHA
Vista on 5th,1261 Fifth Avenue,New York,New York,10029,(212) 534-6464,AF0234C,Vista on 5th Corp.,420-S-395,127,EHP/ALP,NFP
"Evergreen Court Home for Adults SP, LLC",65 Lafayette Street,Rockland,Spring Valley,10977,(845) 356-7700,AF0201C,"Evergreen Court Home for Adults SP, LLC",620-F-078,200,AH/ALP,PPHA
Memory Garden,560 Fairmount Avenue,Chautauqua,Jamestown,14701,(716) 483-2876,AF0687B,"Memory Garden at Tanglewood, Inc.",060-F-040,56,AH/ALP,PPHA
RiverSpring Assisted Living,5901 Palisades Avenue,Bronx,Bronx,10471,(718) 581-1780,AF0706A,The Hebrew Home for the Aged at Riverdale,020-E-136,35,AH/ALP,NFP
The Northfield,4560 Nine Mile Point Road,Monroe,Fairport,14450,(585) 377-1810,AF0632A,"Family Service of Rochester, Inc.",370-S-847,79,EHP,NFP
Sunrise of Staten Island,801 Narrows Road,Richmond,Staten Island,10304,(718) 727-8498,AF0877A,"SZR New York LH, Inc.",610-S-003,121,EHP,PPHA
The Landing at Queensbury,27 Woodvale Road,Warren,Queensbury,12804,(518) 793-5556,AF0125B,Wegman Family (Glens Falls) LLC V,750-S-003,88,EHP,PPHA
Absolutcare of Orchard Brooke,6060 Armor Road,Erie,Orchard Park,14127,(716) 662-6753,AF0537C,"Absolut at Orchard Brooke, LLC",240-F-878,80,AH/ALP,PPHA
Alice Hyde Assisted Living Program,45 Sixth Street,Franklin,Malone,12953,(518) 481-8401,AF0725A,Alice Hyde Medical Center,270-E-007,30,AH/ALP,NFP
"Madison York Assisted Living Community, LLC",112-14 Corona Avenue,Queens,Flushing,11368,(718) 699-4100,AF0381C,"Madison York Assisted Living Community, LLC",590-F-320,226,AH/ALP,PPHA
New Gloria's Manor Home for Adults,140 Beach 119th Street,Queens,Rockaway Park,11694,(718) 945-5700,AF0327B,Gloria's Manor LLC,590-F-307,172,AH,PPHA
Woodcrest Commons,4455 West Henrietta Road,Monroe,Henrietta,14467,(585) 334-1800,AF0481A,"DePaul Adult Care Communities, Inc.",370-E-198,120,AH/ALP,NFP
Palisade Gardens,185 Palisade Avenue,Westchester,Yonkers,10703,(914) 966-1300,AF0350A,Israel Orzel,800-F-971,106,AH,PPHA
New South Shore Manor,1041 East 83rd Street,Kings,Brooklyn,11236,(718) 241-7035,AF0332A,George Katz Batsheva Katz David J. Deutsch,331-F-266,74,AH,PPHA
The Village at Mill Landing,45 Mill Road,Monroe,Rochester,14626,(585) 720-3033,AF0748A,WRP Operating Greece LLC,370-S-859,150,EHP,PPHA
Amber Court of Pelham Gardens,1800 Waring Avenue,Bronx,Bronx,10469,(718) 379-4400,AF0285B,"Judith Lynn Home for Adults, LLC",020-F-817,200,AH/ALP,PPHA
Updyke's Willow Ridge Quality Care Facility,131 Hornell Street,Steuben,Hornell,14843,(607) 324-5417,AF0571A,"Updyke, Josephine",690-F-035,40,AH,PPHA
Westminster Manor,81 South Street,Cayuga,Auburn,13021,(315) 252-0507,AF0190A,Cayuga-Syracuse Presbyterian Home for the Elderly,050-E-002,37,AH,NFP
Elderwood Assisted Living at Hamburg,76 Buffalo Street,Erie,Hamburg,14075,(716) 649-7676,AF0548B,"76 Buffalo Street Operating Company, LLC",240-S-117,103,EHP/ALP,PPHA
Pounder Hall EHP,1400 Utica Street,Oneida,Oriskany,13424,(315) 736-1759,AF0095A,"Pounder Hall, Inc.",510-S-062,10,EHP,NFP
Maplewood Assisted Living,205 State Street Road,St. Lawrence,Canton,13617,(315) 386-4541,AF0673A,"United Helpers Canton Nursing Home, Inc",630-E-008,48,AH/ALP,NFP
Mount Alverno Center,20 Grand Street,Orange,Warwick,10990,(845) 986-2267,AF0322A,"St. Francis Center At The Knolls, Inc.",540-E-051,85,AH/ALP,NFP
Garden of Eden Assisted Living Program,1608-1620 Stillwell Avenue,Kings,Brooklyn,11223,(718) 236-5757,AF0251B,"Garden of Eden Home, LLC",331-F-280,201,AH/ALP,PPHA
The Bristal at Garden City,1001 Axinn Avenue,Nassau,Garden City,11530,(516) 570-7010,AF0766A,"EB Care at Garden City, LLC",400-S-330,170,EHP,PPHA
E.R.I.E.  EHP #1 Toomey Abbott Tower,1207 Almond Street,Onondaga,Syracuse,13210,(315) 428-8562,AF0155A,Enriched Resources for the Independent Elderly Inc,520-S-118,95,EHP,NFP
The Bristal at Lake Grove,2995 Middle Country Road,Suffolk,Lake Grove,11755,(631) 676-7580,AF0718B,Lake Grove Senior Care LLC,700-S-311,155,EHP,PPHA
Frewsburg Rest Home,106 West Main Street,Chautauqua,Frewsburg,14738,(716) 483-2876,AF0497B,"Frewsburg Rest Home, Inc.",060-F-035,81,AH/ALP,PPHA
Ashton Place,190 Ashton Court,Ontario,Clifton Springs,14432,(315) 462-3140,AF0634A,"Clifton Park Associates, LLC",530-S-005,60,EHP,PPHA
"Hedgewood Assisted Living, LLC",355 Fishkill Avenue,Dutchess,Beacon,12508,(845) 831-6000,AF0263B,"Hedgewood Assisted Living, LLC",230-F-082,192,AH/ALP,PPHA
Carnegie East House,1844 Second Avenue,New York,New York,10128,(212) 360-2275,AF0598B,"Carnegie East House Housing Development Fund Company, Inc.",420-S-387,112,EHP,NFP
Ideal Senior Living Center,600 High Avenue,Broome,Endicott,13760,(607) 786-7300,AF0065A,Ideal Senior Living Housing Corporation,030-E-039,70,AH/ALP,NFP
Sunrise of North Lynbrook,53 Franklin Avenue,Nassau,Lynbrook,11563,(516) 596-2377,AF0866A,"SZR New York LH, Inc.",400-F-328,138,AH,PPHA
Gables Home for Adults,127 Rider Avenue,Suffolk,Patchogue,11772,(631) 475-3857,AF0250B,"Gables Holding Company, Inc.",700-F-909,24,AH,PPHA
Bridges Cornell Heights - The Tudor,407 Wyckoff Avenue,Tompkins,Ithaca,14850,(607) 257-5777,AF0641A,"Ambrose, Elizabeth Classen",730-F-003,15,AH,PPHA
Morgan Estates,4588 Morgan View Road,Livingston,Geneseo,14454,(585) 243-6000,AF0535A,Peter S. Bruckel,350-F-008,78,AH,PPHA
Family Srvs/Rochester EHP3 Hudson-Ridge Towers,401 Seneca Manor Drive,Monroe,Rochester,14621,(585) 266-5610,AF0496A,"Family Service of Rochester, Inc.",370-S-191,47,EHP,NFP
Sunrise of Holbrook,320 Patchogue-Holbrook Road,Suffolk,Holbrook,11741,(631) 289-8400,AF0820B,"GWC - Holbrook, Inc.",700-F-925,109,AH,PPHA
The W Senior Living at Goshen,46 Harriman Drive,Orange,Goshen,10924,(845) 388-1251,AF0196B,"The W Group of Goshen, LLC",540-F-038,120,AH,PPHA
The Brielle at Seaview,140 Friendship Lane,Richmond,Staten Island,10314,(917) 281-6810,AF0729A,Seaview Senior Living Housing Development Fund Corporation,610-E-012,188,AH,NFP
Sunrise of Plainview,1231 Old Country Road,Nassau,Plainview,11803,(516) 932-5151,AF0836B,"GWC - Plainview, Inc.",400-F-323,65,AH,PPHA
The 80th Street Residence,430 East 80th Street,New York,New York,10075,(212) 717-8888,AF0242B,"Upper East Side Senior Residence, LLC",420-F-379,70,AH,PPHA
The New Swan Lake Adult Home LLC,Route 55 Box 247,Sullivan,Swan Lake,12783,(845) 292-6298,AF0411B,The New Swan Lake Adult Home LLC,710-F-058,27,AH,PPHA
Mary Agnes Manor ALP,307 Porter Avenue,Erie,Buffalo,14201,(716) 881-0565,AF0532B,"Mary Agnes Manor, LLC",240-F-868,230,AH/ALP,PPHA
The Bristal at East Meadow,40 Merrick Ave.,Nassau,East Meadow,11554,(516) 542-0800,AF0416A,"Engel Burman Senior Housing at East Meadow, Inc.",400-S-299,151,EHP,PPHA
Keene Valley Neighborhood House,1782 Route 73,Essex,Keene Valley,12943,(518) 576-4474,AF0070A,"Keene Valley Neighborhood Services, Inc.",260-E-006,50,AH,NFP
Maple House,15 Maple Place,Westchester,Ossining,10562,(914) 941-9415,AF0302A,"Family Services of Westchester, Inc.",800-S-123,25,EHP,NFP
"Central Assisted Living, LLC",1509 Central Avenue,Queens,Far Rockaway,11691,(718) 471-7700,AF0326B,"Central Assisted Living, LLC",590-F-322,186,AH/ALP,PPHA
Brompton Heights,275 Brompton Road,Erie,Williamsville,14221,(716) 634-5734,AF0460A,"Brompton Heights, Inc.",240-F-133,200,AH,PPHA
Castle Senior Living at Forest Hills,108-25 Horace Harding Expressway,Queens,Forest Hills,11368,(718) 760-4600,AF0218D,"Midway A.L., LLC",590-S-307,177,EHP/ALP,PPHA
Braemar Living at Medford,1529 North Ocean Avenue,Suffolk,Medford,11763,(631) 289-0600,AF0660A,Medford Hamlet LLC,700-F-921,200,AH/ALP,PPHA
Cumberland Gardens NY Foundation EHP #6,425 Cumberland Street,Kings,Brooklyn,11201,(718) 623-8181,AF0230A,"New York Foundation for Senior Citizens, Inc.",331-S-003,47,EHP,NFP
Home of the Good Shepherd at Highpointe,26 Rock Rose Way,Saratoga,Malta,12020,(518) 581-2800,AF0613A,"The Church Aid of the Protestant Episcopal Church in the Town of Saratoga Springs, Inc.",640-E-036,86,AH,NFP
Adirondack Manor HFA D.B.A. Willow Park HFA,1550 Herkimer Road,Oneida,Utica,13502,(315) 732-2257,AF0009A,James E. Kane Sr. James E. Kane Jr.,510-F-055,60,AH/ALP,PPHA
Bida Adult Home,4 Washington Park Rd,Chenango,Oxford,13830,(607) 843-6769,AF0017A,William J. Lyons,080-F-010,28,AH,PPHA
The Bristal at Lake Success,69 North Service Road,Nassau,Lake Success,11020,(516) 600-1800,AF0750A,EB Care at Lake Success LLC,400-F-337,110,AH,PPHA
The Hearth on James,830 James Street,Onondaga,Syracuse,13203,(315) 422-2173,AF0612B,"Hearth Management, L.L.C.",520-S-135,60,EHP,PPHA
"The Shores at Peconic Landing Assisted Living Residence, Inc.",1600 Brecknock Road,Suffolk,Greenport,11944,(631) 477-3800,AF0601B,"The Shores at Peconic Landing Assisted Living Residence, Inc.",700-S-298,47,EHP,PPHA
The Eliot at Catskill,122 Jefferson Heights,Greene,Catskill,12414,(518) 943-7100,AF0091C,"The Eliot at Catskill, LLC",300-F-033,98,AH/ALP,PPHA
Woodlawn Commons,156 Lawrence Street,Saratoga,Saratoga Springs,12866,(518) 587-4100,AF0138A,"Woodlawn Apartments, Inc.",640-S-001,42,EHP,PPHA
Eden Heights of West Seneca,3030 Clinton Street,Erie,West Seneca,14224,(716) 822-4466,AF0486B,"Eden Management of West Seneca, Inc.",240-F-848,120,AH,PPHA
Heritage Home for Women,1519 Union Street,Schenectady,Schenectady,12309,(518) 374-6921,AF0058A,Heritage Home For Women,650-E-003,36,AH,NFP
Elderwood Village at Bassett Park,245 Bassett Road,Erie,Williamsville,14221,(716) 688-4011,AF0446D,"245 Bassett Road Operating Company, LLC",240-F-898,105,AH,PPHA
The Regency at Glen Cove,94 School Street,Nassau,Glen Cove,11542,(516) 674-3007,AF0422A,"National Healthplex, Inc.",400-E-290,143,AH,NFP
Birchwood Suites,423 Clay Pitts Road,Suffolk,East Northport,11731,(631) 368-5252,AF0208C,Birchwood Suites Operator LLC,700-F-943,95,AH,PPHA
Atria Crossgate,140 Washington Avenue Extension,Albany,Albany,12203,(518) 869-0211,AF0113B,"ATR New York LH, Inc.",000-S-009,83,EHP,PPHA
NY Found-Sr Citizens EHP#4 Ridge Street Gardens,80-92 Ridge Street,New York,New York,10002,(212) 598-4148,AF0341A,"New York Foundation for Senior Citizens, Inc.",420-S-375,47,EHP,NFP
Holbrook Adult Home,73 North Street,Washington,Granville,12832,(518) 642-3476,AF0062C,"73 North of Granville, Inc.",760-F-014,33,AH,PPHA
The Eliot at New Rochelle,41 Lockwood Ave.,Westchester,New Rochelle,10801,(914) 303-9710,AF0331C,"The Eliot at New Rochelle, LLC",800-F-011,200,AH/ALP,PPHA
Quail Summit,5102 Parrish Street Ext.,Ontario,Canandaigua,14424,(585) 396-1010,AF0545A,"Quail Summit, Inc.",530-S-001,55,EHP,NFP
Dutchess Care,186 Washington Street,Dutchess,Poughkeepsie,12601,(845) 471-7930,AF0239A,Azzy Reckess Paula Reckess,230-F-044,92,AH/ALP,PPHA
Arkell Hall,55 Montgomery Street,Montgomery,Canajoharie,13317,(518) 673-5514,AF0014A,Arkell Hall Foundation,380-E-002,24,AH,NFP
Brookdale Bellevue,4330 Onondaga Boulevard,Onondaga,Syracuse,13219,(315) 468-5108,AF0148C,"Painted Post, LLC",520-F-163,91,AH,PPHA
The Hearth at Greenpoint Senior Living,150 Old Liverpool Road,Onondaga,Liverpool,13088,(315) 453-7911,AF0162B,"Hearth Management, L.L.C.",520-S-129,139,EHP,PPHA
The Amsterdam at Harborside,300 East Overlook,Nassau,Port Washington,11050,(516) 472-6626,AF0681A,"Amsterdam House Continuing Care Retirement Community, Inc.",400-S-320,55,EHP,NFP
Brentwood Adult Home,147 Second Avenue,Suffolk,Brentwood,11717,(631) 273-7204,AF0210A,Sarah Halpert Simon Halpert,700-F-013,30,AH,PPHA
Peregrine Senior Living at Colonie,5 South Family Drive,Albany,Colonie,12205,(518) 456-4500,AF0753A,"Peregrine Senior Living of Colonie, LLC",000-F-312,68,AH,PPHA
The Bristal at North Hills,99 South Service Road,Nassau,North Hills,11040,(516) 233-3100,AF0643A,"Engel Burman Senior Housing at North Hills, Inc.",400-F-310,60,AH,PPHA
Chenango County Home Preston Manor,"1150 County Road 4  RFD #2, Box 203",Chenango,Oxford,13830,(607) 334-9428,AF0024A,Chenango County D.S.S.,080-N-007,48,AH,PUBL
The New Golden Acres SP LLC,11 Prospect Street,Rockland,Spring Valley,10977,(845) 356-2440,AF0253C,The New Golden Acres SP LLC,620-F-091,79,AH/ALP,PPHA
Eden Heights,4071 Hardt Road,Erie,Eden,14057,(716) 992-4466,AF0487B,"Eden Heights of Eden Operating, LLC",240-F-900,120,AH,PPHA
Atria on the Hudson,321 North Highland Avenue,Westchester,Ossining,10562,(914) 762-1980,AF0684B,"ATR New York LH, Inc.",800-S-147,185,EHP,PPHA
Sunrise of Huntington,300 West Hills Road,Suffolk,Huntington Station,11746,(631) 760-2044,AF0913A,"GWC-West Hills, Inc.",700-F-959,130,AH,PPHA
Wheatfield Commons,3920 Forest Parkway,Niagara,North Tonawanda,14120,(716) 475-7600,AF0756A,"DePaul Adult Care Communities, Inc.",500-E-014,114,AH,NFP
The Bristal at White Plains,305 North Street,Westchester,White Plains,10605,(914) 984-5343,AF0700A,"EBC White Plains, LLC",800-S-145,190,EHP,PPHA
Westchester Center for Independent and Assisted Living,75 Stratton Street South,Westchester,Yonkers,10701,(914) 787-7400,AF0692A,"Westchester ALP Management, LLC",800-F-990,195,AH/ALP,PPHA
Peregrine's Landing at Orchard Park,101 Sterling Drive,Erie,Orchard Park,14127,(716) 675-1022,AF0466B,"Peregrine Properties of Upstate, LLC",240-F-827,52,AH,PPHA
Brookdale Pittsford,159 Sully's Trail,Monroe,Pittsford,14534,(585) 249-9990,AF0468A,"Perinton Clare Bridge Operator, Inc.",370-F-217,52,AH,PPHA
The Pavilion at Pine Valley,661 North Main Street,Rockland,Spring Valley,10977,(845) 426-5600,AF0741A,"TPPV, LLC",620-F-095,56,AH/ALP,PPHA
The Bristal at Lynbrook,8 Freer Street,Nassau,Lynbrook,11563,(516) 593-2424,AF0387D,"Lynbrook Senior Care, LLC",400-F-335,200,AH/ALP,PPHA
The Pines at Heartwood,2405 Fifteenth Street,Rensselaer,Troy,12180,(518) 266-9654,AF0057B,"Troy Crossings, LLC",600-F-250,86,AH/ALP,PPHA
White Plains Guest Home for Adults,32 Ridgeview Avenue,Westchester,White Plains,10606,(914) 949-8984,AF0436B,"Family Services of Westchester, Inc.",800-E-134,15,AH,NFP
Fredonia Place of Williamsville,201 Reist Street,Erie,Williamsville,14221,(716) 632-2155,AF0921A,SOSF Ventures L.P.,240-F-904,99,AH,PPHA
Clara Welch Thanksgiving Home,48 Grove Street,Otsego,Cooperstown,13326,(607) 547-8844,AF0028A,"Clara Welch Thanksgiving Home, Inc.",570-E-002,26,AH,NFP
Keepsake Village at Greenpoint,138 Old Liverpool Road,Onondaga,Liverpool,13088,(315) 451-4567,AF0163A,"Greenpoint Special Needs, Inc.",520-F-143,57,AH,PPHA
NY Found-Sr Citizens EHP#2 Brown Gardens,225 East 93rd Street,New York,New York,10128,(212) 369-5523,AF0339A,"New York Foundation for Senior Citizens, Inc.",420-S-272,47,EHP,NFP
"Sutton Gardens, LLC",147-02 34th Avenue,Queens,Flushing,11354,(718) 461-1923,AF0238C,"Sutton Gardens, LLC",590-F-326,47,AH,PPHA
Hilltop Manor West,286 Deyo Hill Road,Broome,Johnson City,13790,(607) 798-7818,AF0061B,UMH NY Corp.,030-E-008,98,AH/ALP,NFP
St. Louise Manor,861 Front Street,Broome,Binghamton,13905,(607) 724-4000,AF0116C,UMH NY Corp.,030-E-052,52,AH/ALP,NFP
Norwegian Christian Home and Health Center,1250-1270 67th Street,Kings,Brooklyn,11219,(718) 232-2322,AF0337A,Norwegian Christian Home and Health Center,331-E-030,88,AH/ALP,NFP
Assisted Living at Northern Riverview,89 South Route 9W,Rockland,Haverstraw,10927,(845) 429-4300,AF0198A,"Assisted Living at Northern Riverview, Inc.",620-E-019,105,AH/ALP,NFP
Brookdale Manlius,100 Flume Road,Onondaga,Manlius,13104,(315) 682-9261,AF0844A,"WW Manlius Operator, Inc.",520-S-137,86,EHP,PPHA
Walden Place,839 Bennie Rd.,Cortland,Cortland,13045,(607) 756-8101,AF0585B,"SL Walden, LLC",210-F-030,86,AH,PPHA
Pinecrest Home For Adults,7 Charlesworth Avenue,Steuben,Avoca,14809,(607) 566-2252,AF0543A,Pinecrest Voluntary Home For The Aged,690-E-001,17,AH,NFP
Hilton East Assisted Living,231 East Avenue,Monroe,Hilton,14468,(585) 392-7171,AF0515A,Hilton East Assisted Living LLC,370-F-208,205,AH/ALP,PPHA
Judson Meadows,39 Swaggertown Road,Schenectady,Glenville,12302,(518) 831-2400,AF0711A,"Baptist Health Enriched Housing Program, Inc.",650-S-009,80,EHP/ALP,NFP
Village Walk A Carlisle Assisted Living Community,131 East Main Street,Suffolk,Patchogue,11772,(631) 503-9000,AF0759A,"Carlisle Patchogue Operator, Inc",700-F-941,146,AH,PPHA
"Briarwood Manor, Inc.",1001 Lincoln Avenue,Niagara,Lockport,14094,(716) 433-1513,AF0457A,"Ferreri, Salvatore",500-F-092,160,AH/ALP,PPHA
Claremont Village ALP,1160 Teller Avenue,Bronx,Bronx,10456,(718) 293-1500,AF0720B,DOJ ALP Operations Associates LLC,020-F-135,70,AH/ALP,PPHA
Samaritan Summit Village,22691 Campus Drive,Jefferson,Watertown,13601,(315) 782-6800,AF0705A,"Samaritan Senior Village, Inc.",330-E-005,120,AH/ALP,NFP
Hamilton Manor Home for Adults,8196 Green Road,Madison,Hubbardsville,13355,(315) 691-4051,AF0052B,8196 Green Road LLC,360-F-010,38,AH,PPHA
Elderwood Village at Vestal,505 Clubhouse Road,Broome,Vestal,13850,(607) 722-3422,AF0137D,"505 Clubhouse Road Operating Company, LLC",030-F-060,116,AH,PPHA
Peregrine's Landing Senior Community,575 Cayuga Creek Road,Erie,Cheektowaga,14227,(716) 893-3000,AF0615A,"Peregrine's Landing, L.L.C",240-S-109,112,EHP,PPHA
The Arbors at Hauppauge,1740 Express Drive South,Suffolk,Hauppauge,11788,(631) 582-3334,AF0388C,"Arcadia Management, Inc.",700-F-916,200,AH,PPHA
Atria Cutter Mill,96 Cutter Mill Road,Nassau,Great Neck,11021,(516) 858-3023,AF0747A,"ATR New York LH, Inc.",400-S-328,130,EHP,PPHA
Arcadia Residence,25 Carrier Street,Sullivan,Liberty,12754,(845) 292-7011,AF0665A,"Greater Adult Neighbors, Inc.",710-F-063,114,AH,PPHA
Inspir Carnegie Hill,1802 2nd Avenue,New York,New York,10128,(646) 978-9040,AF0923A,"Inspir Carnegie Hill, LLC",420-S-397,100,EHP,PPHA
RPH-West,48 Cottage Grove Circle,Monroe,North Chili,14514,(585) 235-9100,AF0667A,"Rochester Presbyterian Home, Inc.",370-E-200,52,AH,NFP
Chai Home,125-02 Ocean Promenade,Queens,Belle Harbor,11694,(718) 634-6100,AF0222B,"Chai Home, LLC",530-F-057,71,AH,PPHA
Samuel F. Vilas Home,61 Beekman Street,Clinton,Plattsburgh,12901,(518) 563-4960,AF0106B,"Plattsburgh ALR, Inc",090-F-005,44,AH,PPHA
Whisper Woods of Smithtown,71 St. Johnland Road,Suffolk,Smithtown,11787,(631) 320-3181,AF0765A,"BSL Smithtown Operations, Inc.",700-F-957,136,AH,PPHA
The Amberleigh,2330-40 Maple Road,Erie,Amherst,14221,(716) 689-4195,AF0743A,"CSL Amberleigh, Inc.",240-S-125,76,EHP,PPHA
Apple Gate Adult Home,400 Ohio Street,Orleans,Medina,14103,(585) 798-3420,AF0443A,"Alan R. Johnson, II  Alan R. Johnson",550-F-004,28,AH,PPHA
Maplewood Commons,1015 Saw Mill River Road,Westchester,Ardsley,10502,(914) 400-1103,AF0627C,"ATR New York LH, Inc.",800-S-149,80,EHP,PPHA
Missionary Sisters of St. Benedict,350 Cuba Hill Road,Suffolk,Huntington,11743,(631) 368-9528,AF0315A,Missionary Sisters Of St. Benedict,700-E-054,60,AH,NFP
Brookdale Ithaca Assisted Living,103 Bundy Road,Tompkins,Ithaca,14850,(607) 256-2580,AF0822A,"SH Ithaca Operator, Inc.",730-S-011,53,EHP,PPHA
Clinton Crest Manor,411 Clinton Street,Yates,Penn Yan,14527,(315) 536-8800,AF0471A,"Harpending Housing, Inc.",910-E-004,42,AH,NFP
Babylon Beach House Home for Adults,23 Yacht Club Road,Suffolk,Babylon,11702,(631) 669-3323,AF0199A,William A. Lockwood William R. Lockwood Scott W. Lockwood Paul M. Lockwood,700-F-131,67,AH,PPHA
The Eliot at Erie Station ALP,10 - 18 John Street,Orange,Middletown,10940,(845) 342-2077,AF0414B,"The Eliot Management Group, LLC",540-F-028,136,AH/ALP,PPHA
"Cedarbrook Village, Incorporated",101 Sitrin Lane,Oneida,New Hartford,13413,(315) 737-2227,AF0666A,"Cedarbrook Village, Inc.",510-S-064,65,EHP/ALP,NFP
Plattduetsche Home Society,1150 Hempstead Turnpike,Nassau,Franklin Square,11010,(516) 352-4252,AF0361A,"Plattduetsche Altenheim Gesellschaft Von Brooklyn Und Umgegend, Inc.",400-S-290,90,EHP,NFP
The Osborn,101 Theall Road,Westchester,Rye,10580,(914) 925-8200,AF0902A,The Osborn,800-S-141,103,EHP,NFP
Horizons,3132 State Route 21 South,Ontario,Canandaigua,14424,(585) 396-3390,AF0517A,"DePaul Adult Care Communities, Inc.",530-E-051,76,AH/ALP,NFP
Oceanview Manor Home for Adults,3010 West 33rd Street,Kings,Brooklyn,11224,(718) 996-1500,AF0383B,"Oceanview Manor Home for Adults, Inc.",331-F-270,176,AH/ALP,PPHA
Beacon Pointe Memory Care Community,1 Emma Lane,Saratoga,Clifton Park,12065,(518) 371-2200,AF0029C,"Peregrine Properties of Upstate, LLC",640-F-042,52,AH,PPHA
"Millview of Latham, LLC",514 Old Loudon Road,Albany,Cohoes,12047,(518) 785-7788,AF0018B,"Millview of Latham, LLC",000-F-294,55,AH,PPHA
Greece Long Pond Senior Housing,1 GBC Parkway,Monroe,Rochester,14626,(585) 227-3007,AF0734A,"Family Service of Rochester, Inc.",370-S-857,30,EHP,NFP
Promenade at Chestnut Ridge,168 Red Schoolhouse Road,Rockland,Chestnut Ridge,10977,(845) 620-0606,AF0394B,"Chestnut Operating Company, LLC",620-F-081,198,AH/ALP,PPHA
Hultquist Place,715 Falconer Street,Chautauqua,Jamestown,14701,(716) 720-9610,AF0646A,Lutheran Housing Realty Inc.,060-E-015,96,AH/ALP,NFP
Queens Adult Care Center,80-08 45th Avenue,Queens,Elmhurst,11373,(718) 639-1800,AF0293B,"Hofgur, LLC",590-F-309,352,AH/ALP,PPHA
Shire Senior Living Assisted Living Program,2515 Culver Road,Monroe,Rochester,14609,(585) 467-4544,AF0554B,Shire Senior Living LLC,370-F-240,200,AH/ALP,PPHA
The Watermark at Brooklyn Heights,21 Clark Street,Kings,Brooklyn,11201,(347) 343-4900,AF0920A,"Brooklyn Operating Company, LLC",331-S-016,256,EHP,PPHA
Country Valley Home,5946 County Route 11,Steuben,Bath,14810,(607) 776-5730,AF0479A,"Tetor Enterprises, Ltd.",690-F-039,19,AH,PPHA
Culinarians' Home Foundation,71 Old Tschirky Road,Ulster,New Paltz,12561,(845) 255-7010,AF0229A,Culinarians' Home Foundation,740-E-002,18,AH,NFP
Park Creek Senior Living Community,410 Mill Street,Erie,Amherst,14221,(716) 632-3000,AF0657B,Mill Street Assisted Living LLC,240-F-876,94,AH,PPHA
Cloverhill Adult Home,355 South Main Street,Orleans,Albion,14411,(585) 589-7832,AF0473A,Alan R. Johnson Alan R. Johnson II,550-F-002,44,AH,PPHA
Dawn Hill Adult Home,65 Lisa Drive,Suffolk,North Port,11768,(631) 261-8088,AF0232A,"Flowerfield Associates, Inc.",700-F-897,30,AH,PPHA
West Seventy-Fourth Street Home,300 Amsterdam Avenue,New York,New York,10023,(212) 595-8983,AF0433A,West Side Federation For Senior and Support Housing,420-E-254,95,AH,NFP
"Longview, an Ithacare Community",1 Bella Vista Drive,Tompkins,Ithaca,14850,(607) 375-6300,AF0171A,"Ithacare Center Service Company, Inc.",730-E-002,96,AH,NFP
The Farrar Home,46 Constable Street,Franklin,Malone,12953,(518) 483-7550,AF0041A,Farrar Home For Deserving Old Ladies,270-E-005,30,AH,NFP
St. Mary's Manor,60 Doughty Boulevard,Nassau,Inwood,11096,(516) 250-3234,AF0651A,"St. Mary's Manor for Senior Citizen Housing Development Fund Company, Inc.",400-S-312,28,EHP,NFP
The Plaza at Clover Lake,838 Fair Street,Putnam,Carmel,10512,(845) 878-4111,AF0696A,"Clover Lake Management, LLC",580-F-001,175,AH/ALP,PPHA
Green Briar Adult Home,26 Old Route 82,Dutchess,Millbrook,12545,(845) 677-9997,AF0256B,"Green Briar Adult Home, LLC",230-F-072,53,AH,PPHA
The Landing of Brighton,1350 Westfall Road,Monroe,Rochester,14618,(585) 271-1925,AF0716B,"Brighton Senior Care, LLC",370-S-197,121,EHP,PPHA
Crestview Manor ALP,150 Old Saw Mill River Road,Westchester,Hawthorne,10532,(914) 769-1762,AF0228A,Azzy Reckess Paula Reckess,800-F-129,76,AH/ALP,PPHA
Pearl Garden Manor,36 Locust Avenue,Suffolk,Islip,11751,(631) 859-3228,AF0356C,"HSN, Inc.",700-F-911,26,AH,PPHA
The Club at Briarcliff Manor,25 Scarborough Road,Westchester,Briarcliff Manor,10510,(914) 618-5496,AF0908A,"SL Briarcliff Manor Operator, Inc.",800-S-157,145,EHP,PPHA
Kendal at Ithaca,2230 North Triphammer Road,Tompkins,Ithaca,14850,(607) 266-5300,AF0167A,"Kendal at Ithaca, Inc.",730-E-005,36,AH,NFP
Five Star Premier Residences of Yonkers,537 Riverdale Avenue,Westchester,Yonkers,10705,(914) 709-1234,AF0272C,D&R Yonkers LLC,800-F-992,40,AH,PPHA
The Bristal at Jericho,310 Jericho Turnpike,Nassau,Jericho,11753,(516) 219-8688,AF0867A,"Engel Burman Senior Care at Jericho, LLC",400-S-332,200,EHP,PPHA
The Meadows,2650 North Forest Road,Erie,Getzville,14068,(716) 639-3311,AF0731A,"Menorah Campus Adult Home, Inc.",240-S-123,48,EHP,NFP
Rudolf Steiner Fellowship Foundation,241 Hungry Hollow Road,Rockland,Spring Valley,10977,(845) 356-8494,AF0376A,"Rudolf Steiner Fellowship Foundation, Inc.",620-E-013,33,AH,NFP
Meadowview at the Wartburg,2 Wartburg Place,Westchester,Mount Vernon,10552,(914) 699-0800,AF0309A,"Wartburg Senior Housing, Inc.",800-S-125,105,EHP,NFP
Rodden Home,15 Wittridge Street,Suffolk,Lake Ronkonkoma,11779,(631) 585-1906,AF0373A,Matthew Patkowski Margaret Patkowski,700-F-109,23,AH,PPHA
Grande'Vie Senior Living,2140 Five Mile Line Road,Monroe,Penfield,14526,(520) 797-4000,AF0503C,"Rochester Operating Company, LLC",370-F-250,178,AH,PPHA
Manor Hills,4192-B Bolivar Road,Allegany,Wellsville,14895,(585) 593-9800,AF0528B,Manor Hills Inc.,010-F-017,137,AH,PPHA
Genesee Adult Home,278 Bank Street,Genesee,Batavia,14020,(585) 344-0584,AF0498B,Genesee Center Operating II LLC,290-F-007,80,AH,PPHA
Randolph Manor,40 East Main Street,Cattaraugus,Randolph,14772,(716) 358-4041,AF0546A,"Randolph Manor Home for Adults, LLC",040-F-026,50,AH,PPHA
"Mariners Residence, Inc.",2099 Forest Avenue,Richmond,Staten Island,10303,(718) 720-8800,AF0377B,"Mariners Residence, Inc.",610-F-066,270,AH,PPHA
The Terrace at the Glen at Hiland Meadows,71 Longview Drive,Warren,Queensbury,12804,(518) 832-7894,AF0127A,The Glen at Hiland Meadows Inc.,750-S-002,52,EHP,NFP
The Mohawk Homestead,62 East Main Street,Herkimer,Mohawk,13407,(315) 866-1841,AF0085A,The Mohawk Homestead,320-E-005,41,AH/ALP,NFP
Vassar-Warner Home,52 South Hamilton Street,Dutchess,Poughkeepsie,12601,(845) 454-3754,AF0430A,Vassar-Warner Home,230-E-014,58,AH/ALP,NFP
Leroy Manor,8678 Lake Street Road,Genesee,Leroy,14482,(585) 768-6291,AF0512D,"Leroy Manor, LLC",290-F-005,79,AH/ALP,PPHA
Elm York Home for Adults,100-30 Ditmars Boulevard,Queens,East Elmhurst,11369,(718) 446-7900,AF0243B,Elm York LLC,590-F-319,262,AH/ALP,PPHA
The Bristal at Massapequa,400 County Line Road,Nassau,Massapequa,11758,(516) 691-0706,AF0648B,"EB CARE at Massapequa, LLC",400-S-314,86,EHP,PPHA
Dosberg Manor,2680 North Forest Road,Erie,Amherst,14068,(716) 639-3311,AF0484A,"Menorah Campus Adult Home, Inc.",240-E-141,96,AH/ALP,NFP
Island Assisted Living,800-820 Front Street,Nassau,Hempstead,11550,(516) 564-1100,AF0715A,Newco ALP Inc.,400-E-295,200,AH/ALP,NFP
Massry Residence at Daughters of Sarah,182 Washington Ave. Extension,Albany,Albany,12203,(518) 689-0453,AF0591A,"Daughters of Sarah Housing Company, Inc.",000-S-006,70,EHP,NFP
NY Found-Sr Citizens EHP#5 Clinton Gardens,404-412 W. 54 St.- Clinton Gardens,New York,New York,10019,(212) 489-9339,AF0336A,"New York Foundation for Senior Citizens, Inc.",420-S-376,47,EHP,NFP
New Haven Manor,1526 New Haven Avenue,Queens,Far Rockaway,11691,(718) 471-7200,AF0328B,"New Haven Manor Home for Adults, LLC",590-F-172,123,AH,PPHA
Fairport Baptist Homes Adult Care Facility,4646 Nine Mile Point Road,Monroe,Fairport,14450,(585) 377-0350,AF0670A,"Fairport Baptist Homes Adult Care Facility, Inc.",370-E-202,42,AH/ALP,NFP
Argyle Center for Independent Living,4573 State Route 40,Washington,Argyle,12809,(518) 638-8274,AF0094B,Washington AH Operations Associates LLC,760-F-016,35,AH/ALP,PPHA
Brookdale Fayetteville,5125 Highbridge Street,Onondaga,Fayetteville,13066,(315) 637-2000,AF0153A,"Manlius Clare Bridge Operator, Inc.",520-F-145,52,AH,PPHA
Yorktown Assisted Living Residence,2276 Catherine Street,Westchester,Cortlandt Manor,10567,(914) 737-2255,AF0600B,"YALR Operating, LLC",800-F-134,85,AH/ALP,PPHA
Ahana House,31 Sixth Street,Saratoga,Waterford,12188,(518) 238-0471,AF0011A,"Support Ministries, Inc",640-E-034,17,AH,NFP
Sunnydale Home,809 Stuart Avenue,Westchester,Mamaroneck,10543,(914) 698-2824,AF0408A,Perlita Guerzon Robert Guerzon,800-F-127,17,AH,PPHA
Camillus Ridge Terrace,2453 W. Genesee Turnpike,Onondaga,Camillus,13031,(315) 672-3790,AF0645A,"Eastview Associates, LLC",520-F-157,56,AH,PPHA
"Kingsway Manor, LLC",357 Kings Road,Schenectady,Schenectady,12304,(518) 393-4304,AF0071B,"Kingsway Manor, LLC",650-F-103,140,AH,PPHA
Atria South Setauket,4089 Nesconset Highway,Suffolk,Centereach,11720,(631) 473-8000,AF0392C,"ATR New York LH, Inc.",700-F-933,200,AH,PPHA
Woodview Court,1015 Saw Mill River Road,Westchester,Ardsley,10502,(914) 400-1103,AF0628C,"ATR New York LH, Inc.",800-F-998,40,AH,PPHA
The Villa at Westhampton,68 Old Country Road,Suffolk,Westhampton,11977,(631) 240-8100,AF0752A,"Westhampton Senior Living, Inc.",700-F-939,100,AH,PPHA
Laurelwood at the Highlands,300 Hahnemann Trail,Monroe,Pittsford,14534,(585) 389-1630,AF0523A,Highland Community Development Corp.,370-S-835,68,EHP,NFP
The Pavilion at Vestal,105 West Sheedy Road,Broome,Vestal,13850,(607) 754-4105,AF0733A,"The Pavilion at Vestal, LLC",030-F-058,40,AH/ALP,PPHA
Castle Gardens Keepsake Village,1715 Castle Gardens Road,Broome,Vestal,13850,(607) 748-5700,AF0909A,"Hearth Management, LLC",030-F-062,48,AH,PPHA
Brookdale Hospital Medical Center ALP,558-578 Rockaway Parkway,Kings,Brooklyn,11212,(718) 240-6225,AF0212A,Brookdale Hospital Medical Center,331-S-001,43,EHP/ALP,NFP
NY Found-Sr Citizens EHP#3,1850 Second Avenue,New York,New York,10128,(212) 369-5523,AF0340A,"New York Foundation for Senior Citizens, Inc.",420-S-370,39,EHP,NFP
North Brook Heights Home for Adults,170 Murray Street Extension,Cayuga,Auburn,13021,(315) 253-2755,AF0182B,"North Brook Heights Home for Adults, Inc.",050-F-022,178,AH/ALP,PPHA
The Belvedere,5110 19th Avenue,Kings,Brooklyn,11204,(718) 223-1800,AF0367B,Boro Park Senior Living Community LLC,331-F-288,200,AH,PPHA
Presbyterian Residential Community,4300 Middle Settlement Road,Oneida,New Hartford,13413,(315) 724-9300,AF0097A,"Presbyterian Residential Community, Inc.",510-E-065,96,AH/ALP,NFP
Pine Harbour,15 New Hampshire Street,Clinton,Plattsburgh,12903,(518) 561-5307,AF0652A,"Pine Harbour, Inc.",090-S-001,66,EHP,NFP
Wolk Manor Enriched Living Center,4000 Summit Circle Drive,Monroe,Rochester,14618,(585) 442-1950,AF0561A,"Jewish Home of Rochester Enriched Housing, Inc.",370-S-836,85,EHP,NFP
Manlius Home for Adults,215 East Pleasant Street,Onondaga,Manlius,13104,(315) 682-6725,AF0179B,215 East Pleasant Street LLC,520-F-167,39,AH/ALP,PPHA
Atria Riverdale,3718-3726 Henry Hudson Parkway,Bronx,Riverdale,10463,(718) 432-2448,AF0827A,"ATR New York LH, Inc.",020-S-001,195,EHP,PPHA
Brandywine Senior Living at Huntington Terrace,70 Pinelawn Road,Suffolk,Melville,11747,(631) 531-0000,AF0589B,Brandywine Senior Living at Huntington Terrace LLC,700-S-299,110,EHP,PPHA
Brooklyn Terrace,2316 Surf Avenue,Kings,Brooklyn,11224,(718) 996-8400,AF0409B,"Brooklyn Terrace, LLC",331-F-290,200,AH,PPHA
"Lakeside Manor Home for Adults, Inc.",797 Brighton Avenue,Richmond,Staten Island,10301,(718) 720-9600,AF0291A,"Lakeside Manor Home For Adults, Inc.",610-F-037,200,AH/ALP,PPHA
Family Srvs/Rochester EHP1 Danforth Towers East,140 West Avenue,Monroe,Rochester,14611,(585) 436-9462,AF0494A,"Family Service of Rochester, Inc.",370-S-051,28,EHP,NFP
Cohocton Valley Home for Adults,64 South Main Street,Steuben,Avoca,14809,(607) 566-2543,AF0475A,Cohocton Valley Home for Adults LLC,690-F-031,10,AH,PPHA
The Hamlet at Park Ridge,1471 Long Pond Road,Monroe,Rochester,14626,(585) 723-7820,AF0540A,"Park Ridge Housing, Inc.",370-S-193,66,EHP,NFP
Cook Adult Home,1 Prospect Street,Saratoga,Mechanicville,12118,(518) 664-8014,AF0033A,"Saltzman, Leonard",640-F-032,13,AH,PPHA
Parkview Home for Adults,3200 Bronx Boulevard,Bronx,Bronx,10467,(718) 547-9300,AF0355B,"Parkview HFA, Inc.",020-F-131,134,AH,PPHA
Evergreen Heights,8939 Oakland Street,Cayuga,Weedsport,13166,(315) 834-6142,AF0158B,"Central New York Adult Homes, Inc.",050-E-010,60,AH,NFP
Masonic Home,2150 Bleecker Street,Oneida,Utica,13501,(315) 798-4800,AF0079A,Trustees of The Masonic Hall and Asylym Fund,510-E-033,96,AH,NFP
Buckley Landing Enriched Housing Site #6,7430 Buckley Road,Onondaga,North Syracuse,13212,(315) 452-1207,AF0151A,"Loretto Adult Community, Inc.",520-S-121,90,EHP/ALP,NFP
Bethany Village,3005 Watkins Road,Chemung,Horseheads,14845,(607) 739-8711,AF0450A,"Bethany Retirement Home, Inc.",070-E-002,144,AH/ALP,NFP
GreenField Terrace,5979 Broadway Street,Erie,Lancaster,14086,(716) 681-4434,AF0526A,"Lutheran Church Home Of Buffalo, Inc.",240-E-013,56,AH,NFP
Brookdale Clinton,115 Brookside Drive,Oneida,Clinton,13323,(315) 859-1947,AF0013A,"Clinton Sterling Cottage Operator, Inc.",510-F-057,40,AH,PPHA
Crimson Ridge Meadows,3 Treeline Drive,Monroe,Rochester,14612,(585) 720-9330,AF0604B,"Peregrine Properties of Upstate, LLC",370-F-227,52,AH,PPHA
The Kensington,100 Maple Avenue,Westchester,White Plains,10601,(914) 390-0080,AF0688A,"White Plains Kensington, LLC",800-F-988,130,AH,PPHA
Atria West 86,333 West 86th Street,New York,New York,10024,(212) 712-0200,AF0675B,"ATR New York LH, Inc.",420-S-389,189,EHP,PPHA
"Good Shepherd- Fairview Home, Inc.",80 Fairview Avenue,Broome,Binghamton,13904,(607) 724-2477,AF0049A,"Good Shepherd-Fairview Home, Inc.",030-E-005,67,AH/ALP,NFP
Marchand Manor,"121 Main Street, Route 10",Schoharie,Sharon Springs,13459,(518) 284-2357,AF0076B,"Marchand Manor, LLC",660-F-051,36,AH/ALP,PPHA
The Pavilion at Robinson Terrace,One Buntline Drive,Delaware,Stamford,12167,(607) 652-2960,AF0690B,"RTACF, LLC",220-F-032,60,AH/ALP,PPHA
The Springs at Fountainview,2000 Fountainview Drive,Rockland,Monsey,10952,(845) 426-6757,AF0764A,"Fountainview at College Road, Inc.",620-E-021,60,EHP/ALP,NFP
Atria Shaker,345 Northern Boulevard,Albany,Albany,12204,(518) 465-4444,AF0016B,"ATR New York LH, Inc.",000-S-011,146,EHP,PPHA
The Arbors at Islandia East,1515A Veterans Memorial Highway,Suffolk,Islandia,11749,(631) 232-3131,AF0277C,"Arcadia Management, Inc.",700-F-914,200,AH,PPHA
Old Peoples Russian Orthodox Convent,100 Smith Road,Rockland,Nanuet,10954,(845) 356-8250,AF0344A,Russian Orthodox Convent,620-E-010,76,AH,NFP
The Women's Christian Association,134 Temple Street,Chautauqua,Fredonia,14063,(716) 672-7961,AF0582A,The Women's Christian Association,060-E-014,42,AH/ALP,NFP
Clark Meadows at Ferris Hills,One Clark Meadows,Ontario,Canandaigua,14424,(585) 393-4330,AF0470A,"FF Thompson Senior Communities, Inc.",530-S-003,54,EHP,PPHA
Sunrise at Mill Basin,5905 Strickland Avenue,Kings,Brooklyn,11234,(718) 444-2600,AF0809A,"GWC-Mill Basin, Inc.",331-S-011,142,EHP,PPHA
Hudson Valley Senior Residence,80 Washington Avenue,Ulster,Kingston,12401,(845) 331-0630,AF0270B,The Lutheran Care Network,740-E-008,48,AH,NFP
Fredonia Place,50 Howard Street,Chautauqua,Fredonia,14063,(716) 679-2250,AF0606A,"Water/Howard Associates, LLC",060-S-003,84,EHP,PPHA
Bickford Home,56 Main Street,Wayne,Macedon,14502,(315) 986-5552,AF0451B,Peter Schumacher Shirley A. Schumacher,770-F-035,24,AH,PPHA
Elmore Home for Adults,330 Elmore Street,Suffolk,Central Islip,11722,(631) 234-6506,AF0244A,Josevito Miranda Teresita Vasquez,700-F-300,22,AH,PPHA
"Woodside Hall, LLC",1 Main Street,Otsego,Cooperstown,13326,(607) 547-0600,AF0664A,Woodside Hall LLC,570-F-044,37,AH,PPHA
The Glen at Maple Pointe,260 Maple Avenue,Nassau,Rockville Center,11570,(516) 764-4848,AF0592C,"Maple Pointe Senior Care, LLC",400-S-316,83,EHP/ALP,PPHA
Brentland Woods,3831 East Henrietta Road,Monroe,Henrietta,14467,(585) 321-1490,AF0455A,"CH Services, Inc.",370-S-838,60,EHP,NFP
Long Island Living Center,431 Beach 20th Street,Queens,Far Rockaway,11691,(718) 327-2700,AF0298B,"Long Island Living Center, LLC",590-F-328,306,AH/ALP,PPHA
Brightview Tarrytown,581 Old White Plains Rd,Westchester,Tarrytown,10591,(914) 297-8594,AF0728A,"BV Tarrytown Operator, LLC",800-F-131,107,AH,PPHA
Greenfield Court,5951 Broadway,Erie,Lancaster,14086,(716) 684-8400,AF0507A,Lutheran Church Home at Greenfield Inc.,240-S-105,57,EHP,NFP
St. Nicholas Home,437 Ovington Avenue,Kings,Brooklyn,11209,(718) 238-8141,AF0404A,St. Nicholas Home Inc.,331-E-125,75,AH,NFP
Seniorfirst Assisted Living at Valley Manor,1530 East Avenue,Monroe,Rochester,14610,(585) 770-1953,AF0685A,"Presbyterian Residential Community, Inc.",370-S-853,13,EHP,NFP
Ingersoll Place,3359 Consaul Road,Schenectady,Schenectady,12304,(518) 370-4419,AF0663A,"Ingersoll Adult Home, Inc.",650-E-007,78,AH,NFP
Elderwood Village at Greece,1404 Long Pond Road,Monroe,Rochester,14626,(585) 225-7210,AF0576D,"1404 Long Pond Road Operating Company, LLC",370-F-248,72,AH,PPHA
Elderwood Assisted Living at Tonawanda,111 Ensminger Road,Erie,Tonawanda,14150,(716) 871-1814,AF0568C,"111 Ensminger Road Operating Company, LLC",240-F-890,120,AH/ALP,PPHA
Rosewood on the Sound,59 Bayville Avenue,Nassau,Bayville,11709,(516) 628-1350,AF0284B,"Rosewood on the Sound, LLC",400-F-333,50,AH,PPHA
Brookdale Niagara Assisted Living,6741 Nash Road,Niagara,North Tonawanda,14120,(716) 731-1634,AF0872A,"SH Niagara Operator, Inc.",500-S-002,53,EHP,PPHA
Brookdale Painted Post,120 Creekside Drive,Steuben,Painted Post,14870,(607) 962-5096,AF0506C,"Painted Post, LLC",690-F-044,110,AH,PPHA
The Terraces at Brookmeade,54 Brookmeade Drive,Dutchess,Rhinebeck,12572,(845) 876-5522,AF0669A,"Brookview, Inc.",230-S-001,29,EHP,NFP
"Eger Harbor House, Inc.",110 Meisner Avenue,Richmond,Staten Island,10306,(718) 554-8700,AF0625A,"Eger Harbor House, Inc.",610-S-001,75,EHP/ALP,NFP
Atria Park of Great Neck,51 Great Neck Road,Nassau,Great Neck,11021,(516) 829-4100,AF0391B,"ATR New York LH, Inc.",400-S-326,162,EHP,PPHA
Sanford Home,140-40 Sanford Avenue,Queens,Flushing,11355,(718) 353-1400,AF0379B,"Sanford Home for Adults, LLC",590-F-142,200,AH,PPHA
Artis Senior Living of Commack,1131 Jericho Turnpike,Suffolk,Commack,11725,(631) 343-7942,AF0926A,"Artis Senior Living Operator of Commack, LLC",700-F-961,64,AH,PPHA
The Avalon Assisted Living and Wellness Center,1629 Route 376,Dutchess,Wappingers Falls,12590,(845) 463-0500,AF0415A,Azzy Reckess Paula Reckess,230-F-068,76,AH/ALP,PPHA
Atria Guilderland,300 Mill Rose Court,Albany,Slingerlands,12159,(518) 218-0506,AF0614C,"ATR New York LH, Inc.",000-F-308,120,AH,PPHA
Long Beach Assisted Living,274 West Broadway,Nassau,Long Beach,11561,(516) 897-0140,AF0267C,"Hempstead ALP, LLC",400-F-301,200,AH/ALP,PPHA
Braemar Living at Wallkill,21 Riverside Drive,Orange,Middletown,10941,(914) 305-2230,AF0722A,"The Hamlet at Wallkill, LLC",540-F-036,200,AH/ALP,PPHA
Eden Heights of Olean,161 South Twenty-Fifth Street,Cattaraugus,Olean,14760,(716) 372-4466,AF0488A,"Eden Management of Olean, Inc.",040-F-028,120,AH,PPHA
Atria East Northport,10 Cheshire Place,Suffolk,East Northport,11731,(631) 757-8000,AF0390C,"ATR New York LH, Inc.",700-F-929,200,AH,PPHA
Canterbury Woods Gates Circle,1 Gates Circle,Erie,Buffalo,14209,(716) 929-5150,AF0757A,"Episcopal Church Home & Affiliates Life Care Community, Inc.",240-S-127,5,EHP,NFP
New Sunnyside Adult Home,7010 Collamer Road,Onondaga,East Syracuse,13057,(315) 656-8606,AF0181B,"New Sunnyside Adult Home, Inc.",520-F-148,20,AH,PPHA
Heritage Manor of Ransomville Assisted Living Program,3509 Ransomville Road,Niagara,Ransomville,14131,(716) 791-4211,AF0510D,"Heritage Ransomville Management, LLC",500-F-099,142,AH/ALP,PPHA
Hillcrest Spring Residential,"5052 Rte30 Upper Market St, POB 383",Montgomery,Amsterdam,12010,(518) 843-3770,AF0060A,Paul F. Wolfe,380-F-043,80,AH/ALP,PPHA
The Arbors at Bohemia,1065 Smithtown Avenue,Suffolk,Bohemia,11716,(631) 567-3113,AF0276C,"Arcadia Management, Inc.",700-F-913,200,AH,PPHA
Promenade at Blue Hill,582 Veterans Memorial Drive,Rockland,Pearl River,10965,(845) 735-6846,AF0225B,Promenade Blue Hill LLC,620-F-085,61,AH,PPHA
Ivy Lodge,108 Main Street,Ulster,Saugerties,12477,(845) 246-4646,AF0832A,"Ivy Hall at the Family Lodge, LLC",740-F-082,40,AH,PPHA
Boulevard ALP,71-61 159th Street,Queens,Flushing,11365,(718) 969-8102,AF0629B,Queens Boulevard ALP LLC,590-S-317,239,EHP/ALP,PPHA
The Terrace at The Eddy Memorial,2256 Burdett Avenue,Rensselaer,Troy,12180,(518) 274-9890,AF0605A,"The James A. Eddy Memorial Geriatric Center, Inc.",600-S-001,69,EHP,NFP
St. Mark's Terrace EHP #1,110 Chapel Street,Yates,Penn Yan,14527,(315) 536-2440,AF0557A,St. Mark's Housing,910-S-005,27,EHP,NFP
Willow Gardens,60 Willow Drive,Westchester,New Rochelle,10805,(914) 336-2338,AF0737A,"Willow Gardens, Inc.",800-E-136,51,AH,NFP
Brookdale Kenmore,2971 Delaware Avenue,Erie,Kenmore,14217,(716) 874-3200,AF0893A,"WW Kenmore Operator, Inc.",240-S-113,120,EHP,PPHA
Promenade at Tuxedo Place,40 Hospital Road,Orange,Tuxedo,10987,(845) 735-6846,AF0683A,Promenade Tuxedo LLC,540-F-030,89,AH/ALP,PPHA
Harbor View Home for Adults,3900 Shore Parkway,Kings,Brooklyn,11235,(718) 769-9700,AF0261B,"Harbor View Senior Living Residence, LLC",331-F-282,162,AH,PPHA
Amber Court of Westbury,3400 Brush Hollow Road,Nassau,Westbury,11590,(516) 334-3838,AF0366C,"Amber Court of Westbury, LLC",400-F-325,225,AH/ALP,PPHA
Elderwood Village at Williamsville,5271 Main Street,Erie,Williamsville,14221,(716) 565-9663,AF0500B,"5271 Main Street Operating Company, LLC",240-S-115,110,EHP,PPHA
Jeffersonville Senior Living,4806 Route 52,Sullivan,Jeffersonville,12748,(845) 482-4375,AF0281B,"JJJ Yabut, LLC",710-F-060,49,AH,PPHA
Five Star Premier Residences of Yonkers,537 Riverdale Avenue,Westchester,Yonkers,10705,(914) 423-7200,AF0273C,D&R Yonkers LLC,800-S-143,84,EHP,PPHA
"Camphill Ghent, Inc.",2542 Route 66,Columbia,Chatham,12037,(518) 392-2760,AF0693A,"Camphill Ghent, Inc.",200-E-007,31,AH/ALP,NFP
The Glen at Maple Pointe,260 Maple Avenue,Nassau,Rockville Center,11570,(516) 764-4848,AF0607C,"Maple Pointe Senior Care, LLC",400-F-320,60,AH/ALP,PPHA
VillageCare at 46 and Ten,510 West 46th Street,New York,New York,10036,(212) 977-4600,AF0423A,Village Housing Development Fund Corporation,420-S-379,89,EHP/ALP,NFP
The Waterford on the Bay,2900 Bragg Street,Kings,Brooklyn,11235,(718) 891-8400,AF0351B,"The Palm Home for Adults, LLC",331-F-272,200,AH/ALP,PPHA
RPH East,20 Crossing Creek Drive,Monroe,Fairport,14450,(585) 223-0160,AF0739A,"Rochester Presbyterian Home, Inc.",370-E-204,64,AH,NFP
Tennyson Court,49 Tennyson Court,Erie,Williamsville,14221,(716) 632-9496,AF0565B,"Tennyson Court, LLC",240-F-874,93,AH,PPHA
The Willows,459 East Oak Orchard Street,Orleans,Medina,14103,(585) 798-5233,AF0580B,"Blue Heron Enterprises,  LLC",550-F-005,24,AH,PPHA
Pleasant Gardens Home for Adults,396 Middle Road,Suffolk,Bayport,11705,(631) 472-1047,AF0363B,"Mercy Haven, Inc.",700-E-282,27,AH,NFP
Lincoln Rest Home,12 Lincoln Avenue,Westchester,Ardsley,10502,(914) 693-1146,AF0294A,"Politan, Nenita",800-F-125,23,AH,PPHA
The Manor House,427 East Main Street,Genesee,Batavia,14020,(585) 344-2345,AF0899A,"Manor House Enriched, LLC",290-S-003,60,EHP,PPHA
Home of the Good Shepherd Wilton,60 Waller Road,Saratoga,Wilton,12831,(518) 580-0702,AF0659A,"The Church Aid of the Protestant Episcopal Church in the Town of Saratoga Springs, Inc.",640-E-038,54,AH,NFP
Lutheran Home Cottages,114 Utica Road,Oneida,Clinton,13323,(315) 801-5261,AF0904A,"The Lutheran Home of Central New York, Inc.",510-E-009,14,AH,NFP
Maple Rest,61 Rollstone Avenue,Suffolk,West Sayville,11796,(631) 589-4840,AF0303A,Simon Halpert Sarah Halpert,700-F-146,27,AH,PPHA
Village Green A Carlisle Assisted Living Community,90 Schoolhouse Road,Nassau,Levittown,11756,(516) 271-2500,AF0914A,"D & F Levittown, A.L., LLC",400-F-341,77,AH,PPHA
St. Joseph's Assisted Living,125 Sisters Servants Lane P.O. Box 8,Rockland,Sloatsburg,10974,(845) 753-2555,AF0402A,"St. Joseph's Adult Care Home, Inc.",620-E-016,31,AH/ALP,NFP
Kalet's Adult Home,504 Delaware Street,Onondaga,Syracuse,13204,(315) 479-7514,AF0166B,"Kalet, Diane",520-F-161,45,AH,PPHA
Foltsbrook Center for Senior Living,104 North Washington Street,Herkimer,Herkimer,13350,(315) 866-6964,AF0042C,"ClaxtonManor, LLC (as Receiver)",320-E-008,80,AH,NFP
McHarrie Pointe,7740 Meigs Road,Onondaga,Baldwinsville,13027,(315) 638-2521,AF0674A,Syracuse Home Association,520-E-093,47,AH,NFP
The Bristal at North Hills,99 South Service Road,Nassau,North Hills,11040,(516) 233-3100,AF0644A,"Engel Burman Senior Housing at North Hills, Inc.",400-S-309,140,EHP,PPHA
Terrace at Beverwyck,41 Beverwyck Lane,Albany,Slingerlands,12159,(518) 459-4062,AF0122A,"Beverwyck, Inc.",000-S-005,48,EHP,NFP
Brookdale Niagara Memory Care,6751 Nash Road,Niagara,North Tonawanda,14120,(716) 731-1461,AF0442A,"Niagara Sterling Cottage Operator, Inc.",500-F-095,40,AH,PPHA
The Cambridge,4 West Main Street,Washington,Cambridge,12816,(518) 677-3460,AF0736A,"ICC Management & Consulting, Inc.",760-F-018,40,AH,PPHA
South Bay Adult Home,"33 Cottontail Run, Box 601",Suffolk,Center Moriches,11934,(631) 878-0758,AF0396B,South Bay Adult Home and ALP LLC,700-F-937,39,AH/ALP,PPHA
Sachem Adult Home,1298 Coates Avenue,Suffolk,Holbrook,11741,(631) 588-4554,AF0378B,Sachem Adult Home and ALP LLC,700-F-935,46,AH/ALP,PPHA
Oyster Bay Manor,150 South Street,Nassau,Oyster Bay,11771,(516) 624-0600,AF0650A,"Oyster Bay Manor, Inc.",400-F-313,72,AH,PPHA
"Hyde Park Assisted Living Facility, Inc.",394 Violet Avenue,Dutchess,Poughkeepsie,12601,(845) 204-9572,AF0744A,"Hyde Park Assisted Living Facility, Inc.",230-F-282,78,AH/ALP,PPHA
Grande'ville Senior Living Community,555 Maiden Lane,Monroe,Rochester,14616,(585) 621-6160,AF0504B,"Grande'ville Senior Living Community, LLC",370-F-230,115,AH,PPHA
Metro Interfaith EHP,110 Chenango Place,Broome,Binghamton,13901,(607) 724-3774,AF0082A,Metro Interfaith Housing Management Corporation,030-S-041,37,EHP,NFP
Woodhaven Home for Adults,1350 Route 112,Suffolk,Port Jefferson Sta.,11776,(631) 473-3304,AF0440B,"Woodhaven A.H., LLC",700-F-905,181,AH/ALP,PPHA
Brookdale Ithaca Memory Care,101 Bundy Road,Tompkins,Ithaca,14850,(607) 256-5094,AF0145A,"Ithaca Sterling Cottage Operator, Inc.",730-F-001,36,AH,PPHA
Brightview Sayville,455 Broadway Avenue,Suffolk,Sayville,11782,(631) 546-0302,AF0910A,"BV Sayville Operator, LLC",700-F-947,92,AH,PPHA
East Road Adult Home,7731 East Road,Lewis,Lowville,13367,(315) 376-7072,AF0038B,Homes for Humanity Holdings I LLC,340-F-019,20,AH,PPHA
The Fountains at RiverVue,1 Rivervue Place,Westchester,Tuckahoe,10707,(914) 768-6000,AF0419A,"The Fountains Operating Company (NY), Inc.",800-F-981,141,AH,PPHA
Sunrise of Crestwood,65 Crisfield Street,Westchester,Yonkers,10710,(914) 395-3500,AF0865A,"GWC-Crestwood, Inc.",800-F-994,116,AH,PPHA
Harbor Terrace Adult Home and Assisted Living,110 Henderson Avenue,Richmond,Staten Island,10301,(718) 727-8100,AF0195B,Baywood LLC,610-F-064,363,AH/ALP,PPHA
Frederic Fleming Residence,443-445 West 22nd Street,New York,New York,10011,(212) 242-5277,AF0249A,West Side Federation For Senior Housing,420-E-374,47,AH,NFP
Sarah Jane Sanford Home,69 Guy Park Avenue,Montgomery,Amsterdam,12010,(518) 842-3670,AF0111A,The Home for Elderly Women of Montgomery County,380-E-011,40,AH,NFP
Elderwood Assisted Living at Waverly,44 Ball Street,Tioga,Waverly,14892,(607) 565-6216,AF0188C,"44 Ball Street Operating Company, LLC",720-S-004,40,EHP/ALP,PPHA
Elderwood Assisted Living at Cheektowaga,229 Bennett Road,Erie,Cheektowaga,14227,(716) 681-8631,AF0531C,"229 Bennett Road Operating Company, LLC",240-F-886,80,AH/ALP,PPHA
The Springvale Inn,62 Springvale Rd.,Westchester,Croton-on-Hudson,10520,(914) 739-4404,AF0611A,"Living Independently for the Elderly, Inc.",800-S-129,125,EHP,NFP
"Surfside Manor Home for Adults, LLC",95-02 Rockaway Beach Boulevard,Queens,Rockaway Beach,11693,(718) 945-5500,AF0410B,"Surfside Manor Home for Adults, LLC",590-F-314,200,AH/ALP,PPHA
Champlain Valley Senior Community,10 Gilliland Lane,Essex,Willsboro,12996,(518) 817-9108,AF0707A,"Stonebrook Properties, LLC",260-F-018,81,AH,PPHA
"Seaview Manor, LLC",210 Beach 47th Street,Queens,Far Rockaway,11691,(718) 471-1311,AF0386B,"Seaview Manor, LLC",590-F-313,118,AH/ALP,PPHA
Hidden Gem Home for Adults,11 Wittridge Street,Suffolk,Lake Ronkonkoma,11779,(631) 588-4755,AF0438B,"Golden Homes Operating, Inc.",700-F-085,18,AH,PPHA
Rochester Presbyterian Home,256 Thurston Road,Monroe,Rochester,14619,(585) 235-9100,AF0547A,"Rochester Presbyterian Home, Inc.",370-E-022,102,AH,NFP
"Moffat Gardens ALP, Inc",22 Moffat Street,Kings,Brooklyn,11207,(718) 366-3800,AF0680A,"Ridgewood Bushwick Senior Citizens Council, Inc",331-S-009,30,EHP/ALP,NFP
Southern Tier Meadows,4883 West Main Road,Chautauqua,Fredonia,14063,(716) 679-4883,AF0520B,"Southern Tier Environments for Living, Inc.",060-E-038,24,AH,NFP
The Knolls,55 Grasslands Road,Westchester,Valhalla,10595,(914) 989-7878,AF0602B,The Bethel Methodist Home,800-S-155,12,EHP,NFP
Valehaven Home for Adults,"2989 North Main Street, Box 683",Clinton,Peru,12972,(518) 643-2740,AF0006A,James E. Kane Sr. James E. Kane Jr.,090-F-003,40,AH/ALP,PPHA
The Nottingham Memory Care Residence,1307 Nottingham Road,Onondaga,Jamesville,13078,(315) 413-3945,AF0924A,"Loretto Adult Community, Inc.",520-E-097,24,AH,NFP
Morningside at Home Assisted Living Program,1000 Pelham Parkway South,Bronx,Bronx,10461,(718) 409-8266,AF0713B,"Morningside Acquisition III, LLC",020-F-821,40,AH/ALP,PPHA
The Terrace at Woodland,8299 Turin Road,Oneida,Rome,13440,(315) 336-0307,AF0668A,"Forest Hill Associates, Inc.",510-F-059,60,AH/ALP,PPHA
Amber Court of Brooklyn,650 East 104th Street,Kings,Brooklyn,11236,(718) 649-0700,AF0425B,"Amber Court of Brooklyn, LLC",331-F-284,224,AH/ALP,PPHA
The New Falls,117 Schuyler Street,Schuyler,Montour Falls,14865,(607) 535-7165,AF0566B,The New Falls Home. LLC,670-F-006,111,AH/ALP,PPHA
Garden House,2720 North Forest Road,Erie,Getzville,14068,(716) 639-3311,AF0879A,"Menorah Campus Adult Home, Inc.",240-S-121,48,EHP,NFP
New Windsor Country Inn,450 Temple Hill Road P.O. Box 4328,Orange,New Windsor,12553,(845) 565-8110,AF0333A,William R. Lockwood  William A. Lockwood Scott W. Lockwood Paul M. Lockwood,540-F-026,86,AH,PPHA
Adirondack Manor HFA D.B.A Scotia Mansion,39 Wallace Street,Schenectady,Scotia,12302,(518) 346-6458,AF0002A,James E. Kane Sr. James E. Kane Jr.,650-F-078,49,AH/ALP,PPHA
Alma Rangel Gardens NY Foundation EHP#7,55 West 137th Street,New York,New York,10037,(917) 507-1108,AF0594A,"New York Foundation for Senior Citizens, Inc.",420-S-381,42,EHP,NFP
Crossroads,120 Gifford Street,Onondaga,Syracuse,13202,(315) 701-3894,AF0154A,"Rescue Mission Alliance of Syracuse New York, Inc.",520-E-088,59,AH,NFP
"Tanglewood Manor, Inc.",560 Fairmount Avenue,Chautauqua,Jamestown,14701,(716) 483-2876,AF0564B,"Tanglewood Manor, Inc.",060-F-036,158,AH/ALP,PPHA
Ghent Assisted Living,30 Whittier Way,Columbia,Ghent,12075,(518) 828-0900,AF0050C,GALR Operating LLC,200-F-022,80,AH/ALP,PPHA
Atria Greece,150 Towngate Road,Monroe,Rochester,14626,(585) 225-3010,AF0551B,"ATR New York LH, Inc.",370-F-210,79,AH,PPHA
Family Srvs/Rochester EHP2 Jonathan Child Project,399 Colvin Avenue,Monroe,Rochester,14611,(585) 436-9462,AF0495A,"Family Service of Rochester, Inc.",370-S-132,30,EHP/ALP,NFP
Seabury Woods,110 Dalaker Drive,Monroe,Rochester,14624,(585) 426-4950,AF0593A,"CH Services, Inc.",370-S-841,85,EHP,NFP
St. Francis Commons,12 Burkle Street,Oswego,Oswego,13126,(315) 326-0870,AF0710A,"St. Francis Commons, Inc.",560-E-009,60,AH/ALP,NFP
Gurwin Jewish Fay J. Lindner Residence,50 Hauppauge Road,Suffolk,Commack,11725,(631) 715-8500,AF0260A,"Gurwin Jewish - Fay J. Lindner Residences, Inc.",700-S-289,200,EHP,NFP
The New Jewish Home University Avenue Assisted Living,2553 University Avenue,Bronx,Bronx,10468,(347) 418-4270,AF0714A,"Jewish Home Lifecare, University Avenue Assisted Living",020-S-003,72,EHP/ALP,NFP
Danforth Adult Care Center,19 Danforth Street,Rensselaer,Hoosick Falls,12090,(518) 686-5167,AF0035B,Danforth Assisted Living Program LLC,600-F-254,80,AH/ALP,PPHA
Countryside Adult Home,353 Schroon River Road,Warren,Warrensburg,12885,(518) 623-3451,AF0131A,Warren County D.S.S,750-N-006,48,AH,PUBL
Gurwin Jewish Fay J. Lindner Residence,50 Hauppauge Road,Suffolk,Commack,11725,(631) 715-6500,AF0259A,"Gurwin Jewish - Fay J. Lindner Residences, Inc.",700-E-288,65,AH,NFP
Pineview Commons H.F.A.,201 South Melcher Street,Fulton,Johnstown,12095,(518) 762-5488,AF0093B,"Pineview Commons, LLC",280-F-034,94,AH/ALP,PPHA
Robynwood Assisted Living,43 Walnut Street,Otsego,Oneonta,13820,(607) 432-6387,AF0100C,Robynwood ALP LLC,570-F-053,49,AH/ALP,PPHA
"Manor Haven Adult Home, Inc.",222 Columbia Street,Suffolk,Huntington Station,11746,(631) 549-0226,AF0300B,"Manor Haven Adult Home, Inc.",700-F-896,32,AH,PPHA
"New Homestead Home for Adults, Inc.",82-45 Grenfell Street,Queens,Kew Gardens,11415,(718) 441-2000,AF0329B,"New Homestead Home for Adults, Inc.",590-F-311,163,AH,PPHA
Chester Hill Adult Home,187 Cottage Avenue,Westchester,Mount Vernon,10550,(914) 699-4294,AF0236B,187 Cottage Avenue Corporation,800-F-986,21,AH,PPHA
Garden House For Adults,91 Walnut Street,Broome,Binghamton,13905,(607) 724-5763,AF0044A,"Bawas, Imelda",030-F-038,24,AH,PPHA
Hampshire House Adult Home,1846 County Highway 48,Otsego,Oneonta,13820,(607) 432-6171,AF0053B,Hampshire House Operating Corporation,570-F-048,65,AH,PPHA
Mermaid Manor Home for Adults,3602 Mermaid Avenue,Kings,Brooklyn,11224,(718) 266-2100,AF0311B,"Mermaid Manor Home for Adults, LLC",331-F-276,200,AH/ALP,PPHA
Kenwood Manor,141 Rockefeller Road,Albany,Delmar,12054,(518) 439-8899,AF0048A,"Kenwood Manor, Inc.",000-E-282,67,AH,NFP
Inspire of McClelland,126 Old Castle Point Road,Dutchess,Wappinger Falls,12590,(845) 831-1909,AF0307C,"Inspire of McClelland, LLC",230-F-284,75,AH,PPHA
Legacy at Maiden Park,749 Maiden Lane,Monroe,Rochester,14615,(585) 546-7275,AF0746B,"Rochester Operating Company, LLC",370-F-254,98,AH,PPHA
Tappan Zee Manor,51 Mountainview Avenue,Rockland,Nyack,10960,(845) 353-6100,AF0413B,"TZ Manor, LLC",620-F-087,150,AH,PPHA
Seneca Lake Terrace Assisted Living Center,3670 Pre-emption Road County Rd. #6,Ontario,Geneva,14456,(315) 789-4162,AF0550B,"Seneca Lake Terrace Operating, LLC",530-F-059,66,AH,PPHA
Atria Bay Shore,53 Ocean Ave.,Suffolk,Bay Shore,11706,(631) 206-1200,AF0359C,"ATR New York LH, Inc.",700-S-305,116,EHP,PPHA
Sunrise at Sheepshead Bay,2211 Emmons Avenue,Kings,Brooklyn,11235,(718) 616-1850,AF0831A,"GWC-Sheepshead Bay, Inc.",331-S-012,189,EHP,PPHA
Valley Vista Adult Home and Assisted Living Program,141 North Road,Ulster,Highland,12528,(845) 691-7400,AF0429B,"New York Senior Care in the Valley, LLC",740-F-076,89,AH/ALP,PPHA
Faatz-Crofut Home for the Elderly,46 Grant Avenue,Cayuga,Auburn,13021,(315) 253-6141,AF0160A,Faatz-Crofut Home for the Elderly,050-E-006,53,AH,NFP
Plattduetsche Home Society,1150 Hempstead Turnpike,Nassau,Franklin Square,11010,(516) 352-4252,AF0362A,"Plattduetsche Altenheim Gesellschaft Von Brooklyn Und Umgegend, Inc.",400-E-028,91,AH,NFP
Brookhaven Care Center,111 Beaverdam Road,Suffolk,Brookhaven,11719,(631) 286-2500,AF0325B,Brookhaven Care Center LLC,700-F-290,182,AH/ALP,PPHA
Atria Glen Cove,146 Glen Street,Nassau,Glen Cove,11542,(516) 671-7008,AF0689B,"ATR New York LH, Inc.",400-S-324,128,EHP,PPHA
The Bristal at Mount Sinai,400 Sutton Court,Suffolk,Mount Sinai,11766,(631) 250-8989,AF0912A,"EB Care at Mount Sinai, LLC",700-S-315,157,EHP,NFP
St. Francis Park,5229 South Park Avenue,Erie,Hamburg,14075,(716) 649-1205,AF0911A,"St. Francis Geriatric and Healthcare Services, Inc.",240-S-129,36,EHP,NFP
Park Inn Home,115-02 Ocean Promenade,Queens,Rockaway Park,11694,(718) 634-3400,AF0352A,"Konig, Samuel",590-F-104,181,AH,PPHA
Sunrise of Fleetwood,500 North Columbus Avenue,Westchester,Mount Vernon,10552,(914) 667-5660,AF0815A,"SZR New York LH, Inc.",800-F-995,136,AH,PPHA
Canterbury Woods,725 Renaissance Drive,Erie,Williamsville,14221,(716) 929-5150,AF0462A,"Episcopal Church Home & Affiliates Life Care Community, Inc.",240-S-106,32,EHP,NFP
The Bristal at Sayville,129 Lakeland Avenue,Suffolk,Sayville,11782,(631) 563-1160,AF0717A,Sayville Senior Care LLC,700-F-302,155,AH,PPHA
Crimson Ridge Gardens,1 Treeline Drive,Monroe,Rochester,14612,(585) 720-9310,AF0467B,"Peregrine Properties of Upstate, LLC",370-F-226,52,AH,PPHA
The Ambassador at Scarsdale,9 Saxon Woods Road,Westchester,White Plains,10605,(646) 528-0099,AF0721A,"KARP Scarsdale, LLC",800-S-153,138,EHP,PPHA
The New Village View SP LLC,1 Grove Street,Ulster,Highland,12528,(845) 691-8399,AF0266C,The New Village View SP LLC,740-F-084,80,AH/ALP,PPHA
Amber Court of Westbury,3400 Brush Hollow Road,Nassau,Westbury,11590,(516) 334-3838,AF0723A,"Amber Court of Westbury II, LLC",400-F-331,64,AH,PPHA
Brookdale Williamsville,6076 Main Street,Erie,Williamsville,14221,(716) 632-7123,AF0465A,"Williamsville Clare Bridge Operator, Inc.",240-F-851,52,AH,PPHA
"The Eliot at Troy, LLC",2902 Upper Tibbits Avenue,Rensselaer,Troy,12180,(518) 273-2040,AF0117C,"The Eliot at Troy, LLC",600-F-252,155,AH/ALP,PPHA
Willow Towers EHP,355 Pelham Road,Westchester,New Rochelle,10805,(914) 636-6565,AF0618A,"Willow Towers, Inc.",800-S-131,150,EHP,NFP
"Glen Arden, Inc.",214 Harriman Drive,Orange,Goshen,10924,(845) 291-7822,AF0631A,"Glen Arden, Inc.",540-S-003,28,EHP,NFP
Field of Dreams Senior Living,3260 N. 7th Street,Cattaraugus,Allegany,14706,(716) 543-4200,AF0906A,"Olean Manor, Inc.",040-F-030,140,AH/ALP,PPHA
The Inn at Menorah Park,4101 East Genesee Street,Onondaga,Syracuse,13214,(315) 446-9111,AF0838A,"Jewish Home of Central New York Senior Apartments, Inc.",520-E-095,61,AH,NFP
Brookdale Vestal West,421 Plaza Drive,Broome,Vestal,13850,(607) 771-1700,AF0697A,"Painted Post, LLC",030-F-056,65,AH,PPHA
305 West End Assisted Living,305 West End Avenue,New York,New York,10023,(212) 874-5000,AF0763A,305 West End Avenue Operating LLC,420-S-393,145,EHP,PPHA
Signature Senior Living,631 Foster Avenue,Kings,Brooklyn,11230,(718) 859-2400,AF0382B,"SMACF, Inc.",331-F-022,199,AH,PPHA
River View Gardens NY Foundation EHP #8,4-12 49th Avenue,Queens,Long Island City,11101,(718) 361-8442,AF0654A,"New York Foundation for Senior Citizens, Inc.",590-S-303,46,EHP,NFP
Green Hills Estate,1 South Route 9W,Rockland,Haverstraw,10927,(845) 429-8411,AF0257B,"Green Hills Estate, L.L.C",620-F-038,164,AH/ALP,PPHA
Heathwood Assisted Living at Penfield,100 Elderwood Court,Monroe,Penfield,14526,(585) 425-9663,AF0676B,"Heathwood Assisted Living at Penfield, Inc.",370-S-852,151,EHP/ALP,PPHA
St. Columban's on the Lake,"2546 Lake Road, Route 5",Chautauqua,Silver Creek,14136,(716) 934-4515,AF0555A,"St Columban's on the Lake, Home for Well-Aged Inc.",060-E-008,57,AH,NFP
Juniper Glen Alzheimer's Special Care Center,8820 Transit Road,Erie,East Amherst,14051,(716) 568-2099,AF0758A,"Amherst Care Group, LLC",240-F-894,66,AH,PPHA
Home of the Good Shepherd Saratoga,394-402 Church Street,Saratoga,Saratoga Springs,12866,(518) 450-7360,AF0738A,"The Church Aid of the Protestant Episcopal Church in the Town of Saratoga Springs, Inc.",640-E-042,105,AH,NFP
Elderwood Village at Fairport,7 Chardonnay Drive,Monroe,Fairport,14450,(585) 425-0210,AF0541D,"7 Chardonnay Drive Operating Company, LLC",370-F-246,80,AH,PPHA
The Lodge at Ives Hill,1200 Jewell Drive,Jefferson,Watertown,13601,(315) 681-4038,AF0694A,"The Lodge at Ives Hill, Inc.",330-S-038,24,EHP,NFP
Sue's Rest,396 Canisteo Street,Steuben,Hornell,14843,(607) 324-3222,AF0560A,Suzanne Coddington  Hubert Coddington,690-F-019,14,AH,PPHA
St. Vincent de Paul Assisted Living Program,900 Interval Avenue,Bronx,Bronx,10459,(917) 645-9200,AF0699A,St. Vincent De Paul Residence,020-E-133,59,AH/ALP,NFP
Loudonville Assisted Living Residence,298 Albany Shaker Road,Albany,Loudonville,12211,(518) 463-4398,AF0074B,"Westmere Home for Adults, LLC",000-F-304,105,AH,PPHA
The Inn at Millbrook,560 Flint Road,Dutchess,Millbrook,12545,(845) 677-8550,AF0420A,"The Fountains Operating Company (NY), Inc.",230-F-066,40,AH,PPHA
Loretto Village Apts. Enriched Housing Site #5,750 East Brighton Avenue,Onondaga,Syracuse,13205,(315) 492-1329,AF0178A,"Loretto Adult Community, Inc.",520-S-120,79,EHP/ALP,NFP
Heathwood Assisted Living at Williamsville,815 Hopkins Road,Erie,Williamsville,14221,(716) 688-0111,AF0686B,"Heathwood Assisted Living at Williamsville, Inc.",240-F-881,115,AH/ALP,PPHA
Woodbrook,1250 Maple Avenue,Chemung,Elmira,14904,(607) 734-7741,AF0583A,"Woodbrook Assisted Living, Inc.",070-E-011,80,AH,NFP
Brightview Lake Tappan,31 Hunt Road,Rockland,Orangeburg,10962,(845) 867-2333,AF0768A,"BV Lake Tappan Operator, LLC",620-F-097,85,AH,PPHA
Somerset Gardens,150 Sunnyside Boulevard,Nassau,Plainview,11803,(516) 576-3330,AF0217D,"Somerset Gardens Senior Care, LLC",400-S-318,160,EHP,PPHA
Harbor House,150 South Street,Nassau,Oyster Bay,11771,(516) 624-8400,AF0808A,"Oyster Bay Senior Residence, Inc.",400-F-305,136,AH,PPHA
Sunrise of Smithtown,"30 Hauppauge, Route 111",Suffolk,Smithtown,11787,(631) 724-2299,AF0860A,"SZR New York LH, Inc.",700-F-927,104,AH,PPHA
Parkwood Heights Senior Living Community,1340 Parkwood Drive,Wayne,Macedon,14502,(315) 986-9100,AF0695A,Parkwood Heights LLC,770-S-039,49,EHP,PPHA
"The Sentinel of Amsterdam, LLC",10 Market Street,Montgomery,Amsterdam,12010,(518) 896-0010,AF0754A,"The Sentinel of Amsterdam, LLC",380-F-047,150,AH/ALP,PPHA
The Arbors at Islandia West,1515 Veterans Memorial Highway,Suffolk,Islandia,11749,(631) 582-3600,AF0278C,"Arcadia Management, Inc.",700-F-915,200,AH,PPHA
Elderwood Assisted Living at Wheatfield,2600 Niagara Falls Boulevard,Niagara,Niagara Falls,14304,(716) 731-2200,AF0691B,"2600 Niagara Falls Boulevard AL Operating Company, LLC",500-F-103,65,AH/ALP,PPHA
Garnerville Home,216 Ramapo Road Route 202,Rockland,Garnerville,10923,(845) 241-5284,AF0252B,"Garnerville HFA Operation & Management, LLC",620-F-093,39,AH,PPHA
Madison York Home for Adults,61-80 Woodhaven Boulevard,Queens,Rego Park,11374,(718) 446-4300,AF0299B,"Madison York Rego Park, LLC",590-F-321,202,AH/ALP,PPHA
Chelsea at Greenburgh,715 Dobbs Ferry Road,Westchester,Greenburgh,10607,(914) 275-0010,AF0917A,"CRP/CSH Greenburgh Operator, Inc.",800-F-004,137,AH,PPHA
Artis Senior Living of Briarcliff Manor,553 North State Road,Westchester,Briarcliff Manor,10510,(914) 800-9057,AF0915A,"Artis Senior Living Operator of Briarcliff Manor, LLC",800-F-002,64,AH,PPHA
The Landing of Poughkeepsie,251 Boardman Road,Dutchess,Poughkeepsie,12603,(845) 471-4044,AF0727B,"Landing Senior Care, LLC",230-S-005,121,EHP,PPHA
Atria Park of Lynbrook,100 Peninsula Boulevard,Nassau,Lynbrook,11563,(516) 596-2700,AF0395B,"ATR New York LH, Inc.",400-F-326,140,AH,PPHA
Loretto EHP #1 Bernardine Apartments,417 Churchill Avenue,Onondaga,Syracuse,13205,(315) 469-7786,AF0174A,"Loretto Adult Community, Inc.",520-S-054,148,EHP/ALP,NFP
Kings Adult Care Center,2255 Cropsey Avenue,Kings,Brooklyn,11214,(718) 266-5858,AF0205C,"Kings Adult Care Center, LLC",331-F-281,200,AH/ALP,PPHA
Peregrine Senior Living at Onondaga Hill,4701 Peregrine Way,Onondaga,Syracuse,13207,(315) 469-8900,AF0761A,Peregrine Senior Living Onondaga Hill LLC,520-F-171,68,AH,PPHA
The Bristal at Holtsville,5535 Expressway Drive North,Suffolk,Holtsville,11742,(631) 732-2300,AF0740A,EB Care at Farmingville LLC,700-S-309,166,EHP,PPHA
The Clark Manor House,318 Fort Hill Avenue,Ontario,Canandaigua,14424,(585) 394-0965,AF0469A,The Clark Manor House,530-E-002,17,AH,NFP
Sunrise of East Setauket,1 Sunrise Drive,Suffolk,East Setauket,11733,(631) 941-4455,AF0812B,"GWC - East Setauket, Inc.",700-F-926,109,AH,PPHA
Brookdale Niskayuna,1786 Union Street,Schenectady,Niskayuna,12309,(518) 346-6935,AF0869A,"WW Niskayuna Operator, Inc.",650-S-071,110,EHP,PPHA
The Hearth at Castle Gardens,1715 Castle Gardens Road,Broome,Vestal,13850,(607) 748-5700,AF0021A,"Hearth Management, L.L.C.",030-S-044,58,EHP,PPHA
Sage Harbor at Baywinde,100 Kidd Castle Way,Monroe,Webster,14580,(585) 670-7000,AF0549B,"SL Sage Harbor, LLC",370-F-236,88,AH,PPHA
Inspir Carnegie Hill,1802 2nd Avenue,New York,New York,10128,(646) 978-9040,AF0922A,"Inspir Carnegie Hill, LLC",420-F-381,158,AH,PPHA
Assisted Living at Jennings Hall,260 Powers Street,Kings,Brooklyn,11211,(718) 782-3390,AF0679A,St. Nicks Alliance Corp.,331-S-007,40,EHP/ALP,NFP
Good Shepherd Village at Endwell,14 Village Drive,Broome,Endwell,13760,(607) 757-3100,AF0672A,"Good Shepherd Village at Endwell, Inc.",030-E-050,32,AH,NFP
Bergquist Memorial Assisted Living Residences,"4600 Route 60, P.O. Box 350",Chautauqua,Gerry,14740,(716) 985-6832,AF0448A,The Gerry Homes,060-E-036,32,AH,NFP
Brookdale East Niskayuna,2861 Troy-Schenectady Road,Schenectady,Niskayuna,12309,(518) 782-7381,AF0030A,"Niskayuna Clare Bridge Operator, Inc.",650-F-101,52,AH,PPHA
Rainier Grove at Cherry Ridge,900 Cherry Ridge Road,Monroe,Webster,14580,(585) 697-6700,AF0635A,"The Glen at Cherry Ridge, LLC",370-F-229,87,AH,PPHA
Glenmere at Cloverwood,One Wheatley Terrace,Monroe,Pittsford,14534,(585) 248-1200,AF0626A,"Cloverwood Senior Living, Inc.",370-S-845,77,EHP,NFP
New Fordham Arms Assisted Living,2915 Williamsbridge Road,Bronx,Bronx,10467,(718) 655-3433,AF0248B,Bridgewood LLC,020-F-819,35,AH/ALP,PPHA
Maryville Home For Adults,7678 County Road 70,Steuben,Avoca,14809,(607) 566-2368,AF0533A,Suzanne Coddington  Hubert Coddington,690-F-024,14,AH,PPHA
Mount View Assisted Living,5465 Upper Mountain Road,Niagara,Lockport,14094,(716) 433-0790,AF0726A,"Mount View Assisted Living, Inc.",500-F-105,156,AH/ALP,PPHA
New Broadview Home for Adults,70 Father Capodanno Boulevard,Richmond,Staten Island,10305,(718) 273-8900,AF0324C,"The W Group at New Broadview, LLC",610-F-067,200,AH/ALP,PPHA
The Athenaeum of Skaneateles,150 Genesee Street,Onondaga,Skaneateles,13152,(315) 685-1400,AF0661A,Peregrine Properties of Skaneateles LLC,520-F-159,16,AH,PPHA
The Bristal at North Woodmere,477 Hungry Harbor Road,Nassau,North Woodmere,11581,(516) 336-2600,AF0621A,Hungry Harbor Care LLC,400-S-304,155,EHP,PPHA
"Carlucci Homes, Inc.",516 Mullock Road,Orange,Port Jervis,12771,(914) 443-6835,AF0830A,"Carlucci Homes, Inc.",540-F-034,23,AH,PPHA
The Courtyards LLC,5285 South Park Avenue,Erie,Hamburg,14075,(716) 649-9111,AF0480B,The Courtyards LLC,240-F-872,133,AH,PPHA
Christian Fellowship House,369 Split Rock Road,Nassau,Syosset,11791,(516) 922-6040,AF0224A,Christian Fellowship,400-E-264,45,AH,NFP
Helen Keller National Center,111 Middle Neck Road,Nassau,Sands Point,11050,(516) 944-8900,AF0264A,Helen Keller Services for the Blind,400-E-040,52,AH,NFP
Promenade at University Place,1228 Western Avenue,Albany,Albany,12203,(518) 514-9500,AF0903A,Promenade Albany LLC,000-F-315,200,AH/ALP,PPHA
Park Terrace at Radisson,2981 Town Center Road,Onondaga,Baldwinsville,13027,(315) 638-9207,AF0596B,"Park Terrace Operating, LLC",520-F-169,65,AH,PPHA
Willing Helpers' Home for Women,"226 West Madison Ave, P.O. Box O",Fulton,Johnstown,12095,(518) 762-7719,AF0136A,Willing Helpers,280-E-008,20,AH,NFP
"Valley Residential Services, Inc.",161 Valley Drive,Herkimer,Herkimer,13350,(315) 219-5700,AF0719A,"Valley Health Services, Inc.",320-S-001,76,EHP/ALP,NFP
Castle Senior Living at Forest Hills,108-25 Horace Harding Expressway,Queens,Forest Hills,11368,(718) 760-4600,AF0219D,"Midway A.L., LLC",590-F-324,20,AH,PPHA
The Mansion at South Union,11 South Union Street,Washington,Cambridge,12816,(518) 677-3711,AF0081C,"ICC Management & Consulting, Inc.",760-F-012,44,AH/ALP,PPHA
Heritage Manor of Lockport,41 Lexington Court,Niagara,Lockport,14094,(716) 433-7626,AF0587A,"Heritage Management Associates, LLC",500-F-093,64,AH,PPHA
Wavecrest Home for Adults,242 Beach 20th Street,Queens,Far Rockaway,11691,(718) 471-5500,AF0432A,"Wavecrest HFA, Inc.",590-F-301,120,AH,PPHA
Crystal House Manor,"97 Mills Street, P.O. Box 576",Dutchess,Dover Plains,12522,(845) 877-6400,AF0633A,"Crsytal House Manor, Inc.",230-F-272,39,AH,PPHA
Westwood Commons Adult Home,50 Union Square Boulevard,Monroe,North Chili,14514,(585) 293-2060,AF0577A,"DePaul Adult Care Communities, Inc.",370-E-196,120,AH,NFP
The Bristal at East Northport,760 Larkfield Road,Suffolk,East Northport,11731,(631) 858-0100,AF0682A,"Engel Burman Sr. Housing at East Northport, LLC",700-S-303,166,EHP,PPHA
"Bayview Rest Home, LLC",143 East Main Street,Suffolk,Babylon,11702,(631) 661-3292,AF0204B,"Bayview Rest Home, LLC",700-F-908,75,AH,PPHA
Home of the Good Shepherd,390 Church Street,Saratoga,Saratoga Springs,12866,(518) 584-3317,AF0603B,"The Church Aid of the Protestant Episcopal Church in the Town of Saratoga Springs, Inc.",640-E-037,42,AH,NFP
St. Michael's Home,3 Lehman Terrace,Westchester,Yonkers,10705,(914) 476-3374,AF0403A,"St. Michael's Home, Inc.",800-E-038,60,AH,NFP
Elderwood Assisted Living at West Seneca,580 Orchard Park Road,Erie,West Seneca,14224,(716) 677-4242,AF0578B,"580 Orchard Park Road Operating Company, LLC",240-S-119,128,EHP/ALP,PPHA
Focus Senior Living at Utica,1445 Kemble Street,Oneida,Utica,13501,(315) 732-0100,AF0073B,"Utica AH Operations Associates, LLC",510-S-061,110,EHP/ALP,PPHA
The Bixby Home,8342 North Main Street P.O. Box 419,Seneca,Interlaken,14847,(607) 532-4488,AF0656A,"Deborah Bixby, Richard Bixby",680-F-010,24,AH,PPHA
New Monsey Park Home,15 Monsey Boulevard,Rockland,Monsey,10952,(845) 356-3400,AF0330A,"Orzel, Israel",620-F-052,263,AH,PPHA
Olsen Rest,P.O. Box 256 366 Gibbs Pond,Suffolk,Nesconset,11767,(631) 588-5676,AF0345A,"Olsen, George Jr.",700-F-223,40,AH,PPHA
The Gardens by Morningstar,132 Ellen Street,Oswego,Oswego,13126,(315) 343-0880,AF0735A,"The Gardens by Morningstar, LLC",560-F-042,106,AH/ALP,PPHA
Amber Court  of Smithtown,130-132 Lake Avenue,Suffolk,Nesconset,11767,(631) 768-1000,AF0760A,Amber Court @ Suffolk County LLC,700-F-945,186,AH/ALP,PPHA
Atria Briarcliff Manor,1025 Pleasantville Road,Westchester,Briarcliff Manor,10510,(914) 923-4400,AF0393C,"ATR New York LH, Inc.",800-F-996,200,AH,PPHA
McPeak's Adult Home,286 North Ocean Avenue,Suffolk,Patchogue,11772,(631) 475-0445,AF0308A,"McPeak's Adult Home, Inc.",700-F-051,51,AH,PPHA
Home Sweet Home on the Hudson,38 Prospect Avenue,Greene,Catskill,12414,(518) 943-5701,AF0115C,"The W Group at Catskill, LLC",300-F-032,60,AH/ALP,PPHA
Brookdale Lakewood,220 Southwestern Drive,Chautauqua,Lakewood,14750,(716) 665-2414,AF0525A,"Painted Post Properties, Inc.",060-S-001,100,EHP,PPHA
"Rebekah Rehab Assisted Living Program, Inc.",1050 Havemeyer Avenue,Bronx,Bronx,10462,(718) 863-6200,AF0919A,"Rebekah Rehab Assisted Living Program, Inc.",020-S-005,56,EHP/ALP,NFP
Alpine Manor,2714 Poplar Hill Road,Livingston,Lima,14485,(585) 346-5880,AF0441A,Louise Kinsella Thomas M. Kinsella Thomas E. Kinsella Mary E. Knapp,350-F-001,41,AH,PPHA
Atria Penfield,2006 Five Mile Line Road,Monroe,Penfield,14526,(585) 381-0282,AF0552C,"ATR New York LH, Inc.",370-F-212,120,AH,PPHA
Cedarwood Senior Living,46 Cortland Street,Cortland,Homer,13077,(607) 213-3705,AF0051B,Cedarwood Homer Community LLC,210-F-032,35,AH,PPHA
Chenango Valley Home,24 Canasawacta Street,Chenango,Norwich,13815,(607) 334-6598,AF0026A,"The Chenango Valley Home, Inc.",080-E-002,32,AH,NFP
The Hawthorne,1 Johnsarbor Dr. E,Monroe,Rochester,14620,(585) 760-1300,AF0762A,St. John's Meadows,370-S-861,42,EHP,NFP
Adirondack Manor Home for Adults-Camden,128 Main Street,Oneida,Camden,13316,(315) 245-1520,AF0007A,James E. Kane Sr. James E. Kane Jr.,510-F-028,40,AH,PPHA
The Vincent Bove Center at Jefferson Ferry,One Jefferson Ferry Drive,Suffolk,South Setauket,11720,(631) 650-2600,AF0424A,"Active Retirement Community, Inc.",700-S-291,87,EHP,NFP
Adirondack Manor HFA D.B.A Adirondack Manor HFA ALP,653 Bay Road,Warren,Queensbury,12804,(518) 761-0176,AF0003A,James E. Kane Sr. James E. Kane Jr.,750-F-046,60,AH/ALP,PPHA
"Hawthorne Ridge, Inc.",30 Community Way,Rensselaer,East Greenbush,12061,(518) 833-1111,AF0649A,"Hawthorne Ridge, Inc.",600-E-114,66,AH,NFP
Glenwell,2248 Old Union Road,Erie,Cheektowaga,14227,(716) 608-7000,AF0499A,"DePaul Adult Care Communities, Inc.",240-E-146,120,AH/ALP,NFP
Orchard Heights,5200 Chestnut Ridge Road,Erie,Orchard Park,14127,(716) 662-0651,AF0538B,"Orchard Heights, Inc.",240-F-884,200,AH,PPHA
"West Side Federation For Senior And Supportive Housing, Inc.",109 West 129th Street,New York,New York,10027,(212) 348-8513,AF0368B,"West Side Federation For Sr And Supportive Housing, Inc.",420-E-377,99,AH,NFP
The Bristal at Westbury,117 Post Ave.,Nassau,Westbury,11590,(516) 333-9828,AF0418A,Westbury Senior Living Inc.,400-S-300,180,EHP,PPHA
Promenade at Middletown,70 Fulton Street,Orange,Middletown,10940,(845) 341-1888,AF0399B,Promenade Middletown LLC,540-F-032,200,AH/ALP,PPHA
Jeff Senior Living,4804 Route 52- East Main Street,Sullivan,Jeffersonville,12748,(845) 482-4375,AF0280B,"JJJ Yabut, LLC",710-F-061,11,AH,PPHA
Heritage at The Plains at Parish Homestead,163 Heritage Circle,Otsego,Oneonta,13820,(607) 267-4013,AF0678B,"CSL Heritage AL, Inc.",570-F-051,53,AH,PPHA
Adirondack Manor HFA D.B.A Montcalm Manor HFA,45 Montcalm Street,Essex,Ticonderoga,12883,(518) 585-6230,AF0004A,James E. Kane Sr. James E. Kane Jr.,260-F-016,40,AH/ALP,PPHA
Sunrise of West Babylon,580 Montauk Highway,Suffolk,West Babylon,11704,(631) 422-8500,AF0848B,"GWC - West Babylon, Inc.",700-F-924,110,AH,PPHA
Atria Forest Hills,112-50 72nd Avenue,Queens,Forest Hills,11375,(718) 261-5300,AF0437C,"ATR New York LH, Inc.",590-S-313,90,EHP,PPHA
Brothers of Mercy Sacred Heart Home,4526 Ransom Road,Erie,Clarence,14031,(716) 759-2644,AF0918A,"Brothers of Mercy Sacred Heart Home, Inc.",240-E-845,96,AH,NFP
Brookdale East Side,7164 East Genesee Street,Onondaga,Fayetteville,13066,(315) 637-5127,AF0156C,"Painted Post, LLC",520-F-164,88,AH,PPHA
Mohegan Park,3441 Lexington Avenue,Westchester,Mohegan Lake,10547,(914) 528-3512,AF0316A,"Orzel, Israel",800-F-974,150,AH,PPHA
Sunrise of Glen Cove,39 Forest Avenue,Nassau,Glen Cove,11542,(516) 656-0575,AF0834A,"GWC-Glen Cove, Inc.",400-F-327,111,AH,PPHA
Bridges Cornell Heights - The Colonial,403 Wyckoff Avenue,Tompkins,Ithaca,14850,(607) 257-5777,AF0640A,"Ambrose, Elizabeth Classen",730-F-002,13,AH,PPHA
Orchard Estate of Woodbury,900 Woodbury Road,Nassau,Woodbury,11797,(516) 407-8096,AF0907A,"BSL Woodbury Operations, Inc.",400-F-339,105,AH,PPHA
Mountain Valley Manor,373-421 Wilbur Avenue,Ulster,Kingston,12401,(845) 331-1254,AF0658A,"Salaber, Inc.",740-F-078,53,AH,PPHA
The Lake Shore Assisted Living Residence,211 Lake Shore Road,Suffolk,Lake Ronkonkoma,11779,(631) 585-8800,AF0421A,"Lakehaven Equities, Inc.",700-F-893,200,AH,PPHA
Belle Harbor Manor,209 Beach 125th Street,Queens,Belle Harbor,11694,(718) 945-6600,AF0206A,"Belle Harbor Home of the Sages, Inc.",590-E-293,162,AH,NFP
Sunrise of East Meadow,1555 Glenn Curtiss Blvd.,Nassau,East Meadow,11554,(516) 542-0990,AF0850B,"GWC - East Meadow, Inc.",400-F-322,107,AH,PPHA
Ken-Ton Enriched Housing,3735 Delaware Avenue,Erie,Kenmore,14217,(716) 874-6070,AF0544B,Ken-Ton Enriched Housing LLC,240-S-131,49,EHP,NFP