REPORT LINK,FACILITY_ID,FACILITY_NAME,FACILITY_ADDRESS,FACILITY_STATE,FACILITY_CITY,FACILITY_COUNTY,FACILITY_ZIP,FACILITY_PHONE,FACILITY_WOUND,FACILITY_INFECT,FACILITY_ALZ,FACILITY_VENT,FACILITY_TYPE,FACILITY_SUBTYPE,FACTYPE,FACILITY_TYPE_PROMPT,FACILITY_BURNUNIT,FACILITY_EMERGENCYDEPT,FACILITY_TRAUMA,GEOTYPE,Map Accuracy,x,y
"<a target=""_blank"" href=""http://www.in.gov/isdh/reports/QAMIS/ltccr/cr000001.htm"">View</a>",000001NFS,HOOVERWOOD,7001 HOOVER RD,IN,INDIANAPOLIS,MARION,46260,3172512261,Y,N,Y,N,RESIDENTIAL CARE FACILITIES,NON-FREE STANDING RESIDENTIAL CARE FACILITIES,NFS,RESIDENTIAL NFS,N,N,0,9,On or Near Building,-9592736.261,4848809.483
"<a target=""_blank"" href=""http://www.in.gov/isdh/reports/QAMIS/ltccr/cr000009.htm"">View</a>",000009NFS,HERITAGE HOUSE OF SHELBYVILLE,2309 S MILLER ST,IN,SHELBYVILLE,SHELBY,46176,3173989781,Y,N,Y,N,RESIDENTIAL CARE FACILITIES,NON-FREE STANDING RESIDENTIAL CARE FACILITIES,NFS,RESIDENTIAL NFS,N,N,0,9,On or Near Building,-9549828.164,4794047.499
"<a target=""_blank"" href=""http://www.in.gov/isdh/reports/QAMIS/ltccr/cr000010.htm"">View</a>",000010NFS,GREENWOOD VILLAGE SOUTH,295 VILLAGE LANE,IN,GREENWOOD,JOHNSON,46143,3178594444,N,N,Y,N,RESIDENTIAL CARE FACILITIES,NON-FREE STANDING RESIDENTIAL CARE FACILITIES,NFS,RESIDENTIAL NFS,N,N,0,9,On or Near Building,-9584901.373,4808273.88
"<a target=""_blank"" href=""http://www.in.gov/isdh/reports/QAMIS/ltccr/cr000018.htm"">View</a>",000018NFS,MILLER'S MERRY MANOR,612 E 11TH ST,IN,RUSHVILLE,RUSH,46173,7659324127,N,N,N,N,RESIDENTIAL CARE FACILITIES,NON-FREE STANDING RESIDENTIAL CARE FACILITIES,NFS,RESIDENTIAL NFS,N,N,0,9,On or Near Building,-9510681.329,4810860.815
"<a target=""_blank"" href=""http://www.in.gov/isdh/reports/QAMIS/ltccr/cr000029.htm"">View</a>",000029NFS,BEECH GROVE MEADOWS,2002 ALBANY ST,IN,BEECH GROVE,MARION,46107,3177832911,N,N,Y,N,RESIDENTIAL CARE FACILITIES,NON-FREE STANDING RESIDENTIAL CARE FACILITIES,NFS,RESIDENTIAL NFS,N,N,0,9,On or Near Building,-9585194.588,4825865.175
"<a target=""_blank"" href=""http://www.in.gov/isdh/reports/QAMIS/ltccr/cr000041.htm"">View</a>",000041NFS,MILLER'S MERRY MANOR,635 OAKHILL AVE,IN,PLYMOUTH,MARSHALL,46563,5749369981,N,Y,Y,N,RESIDENTIAL CARE FACILITIES,NON-FREE STANDING RESIDENTIAL CARE FACILITIES,NFS,RESIDENTIAL NFS,N,N,0,9,On or Near Building,-9608555.317,5061197.675
"<a target=""_blank"" href=""http://www.in.gov/isdh/reports/QAMIS/ltccr/cr000084.htm"">View</a>",000084NFS,WESTMINSTER VILLAGE NORTH,11050 PRESBYTERIAN DR,IN,INDIANAPOLIS,MARION,46236,3178236841,Y,Y,Y,N,RESIDENTIAL CARE FACILITIES,NON-FREE STANDING RESIDENTIAL CARE FACILITIES,NFS,RESIDENTIAL NFS,N,N,0,9,On or Near Building,-9570295.699,4847452.04
"<a target=""_blank"" href=""http://www.in.gov/isdh/reports/QAMIS/ltccr/cr000086.htm"">View</a>",000086NFS,WESTMINSTER VILLAGE MUNCIE INC,5801 W BETHEL AVE,IN,MUNCIE,DELAWARE,47304,7652882155,N,N,Y,N,RESIDENTIAL CARE FACILITIES,NON-FREE STANDING RESIDENTIAL CARE FACILITIES,NFS,RESIDENTIAL NFS,N,N,0,9,On or Near Building,-9512687.306,4898793.632
"<a target=""_blank"" href=""http://www.in.gov/isdh/reports/QAMIS/ltccr/cr000089.htm"">View</a>",000089NFS,MILLER'S MERRY MANOR,505 N BRADNER AVE,IN,MARION,GRANT,46952,7656623981,N,Y,Y,N,RESIDENTIAL CARE FACILITIES,NON-FREE STANDING RESIDENTIAL CARE FACILITIES,NFS,RESIDENTIAL NFS,N,N,0,9,On or Near Building,-9538498.734,4948530.13
"<a target=""_blank"" href=""http://www.in.gov/isdh/reports/QAMIS/ltccr/cr000093.htm"">View</a>",000093NFS,WESTMINSTER VILLAGE - WEST LAFAYETTE,2741 N SALISBURY ST,IN,WEST LAFAYETTE,TIPPECANOE,47906,7654637546,N,N,N,N,RESIDENTIAL CARE FACILITIES,NON-FREE STANDING RESIDENTIAL CARE FACILITIES,NFS,RESIDENTIAL NFS,N,N,0,9,On or Near Building,-9675472.914,4932766.993
"<a target=""_blank"" href=""http://www.in.gov/isdh/reports/QAMIS/ltccr/cr000100.htm"">View</a>",000100NFS,WESTMINSTER HEALTH CARE CENTER,2210 GREENTREE N,IN,CLARKSVILLE,CLARK,47129,8122825911,N,Y,N,N,RESIDENTIAL CARE FACILITIES,NON-FREE STANDING RESIDENTIAL CARE FACILITIES,NFS,RESIDENTIAL NFS,N,N,0,9,On or Near Building,-9547510.603,4626276.925
"<a target=""_blank"" href=""http://www.in.gov/isdh/reports/QAMIS/ltccr/cr000103.htm"">View</a>",000103NFS,ALTENHEIM HEALTH & LIVING COMMUNITY,3525 E HANNA AVE,IN,INDIANAPOLIS,MARION,46237,3177884261,N,N,N,N,RESIDENTIAL CARE FACILITIES,NON-FREE STANDING RESIDENTIAL CARE FACILITIES,NFS,RESIDENTIAL NFS,N,N,0,9,On or Near Building,-9585217.409,4823558.394
"<a target=""_blank"" href=""http://www.in.gov/isdh/reports/QAMIS/ltccr/cr000105.htm"">View</a>",000105NFS,MARQUETTE,8140 TOWNSHIP LINE RD,IN,INDIANAPOLIS,MARION,46260,3178759700,Y,N,Y,N,RESIDENTIAL CARE FACILITIES,NON-FREE STANDING RESIDENTIAL CARE FACILITIES,NFS,RESIDENTIAL NFS,N,N,0,9,On or Near Building,-9596099.668,4851914.254
"<a target=""_blank"" href=""http://www.in.gov/isdh/reports/QAMIS/ltccr/cr000115.htm"">View</a>",000115NFS,HANOVER NURSING CENTER,410 W LAGRANGE RD,IN,HANOVER,JEFFERSON,47243,8128662625,N,N,Y,N,RESIDENTIAL CARE FACILITIES,NON-FREE STANDING RESIDENTIAL CARE FACILITIES,NFS,RESIDENTIAL NFS,N,N,0,9,On or Near Building,-9515809.706,4680850.276
"<a target=""_blank"" href=""http://www.in.gov/isdh/reports/QAMIS/ltccr/cr000125.htm"">View</a>",000125NFS,DYER NURSING AND REHABILITATION CENTER,601 SHEFFIELD AVE,IN,DYER,LAKE,46311,2193222273,N,N,N,N,RESIDENTIAL CARE FACILITIES,NON-FREE STANDING RESIDENTIAL CARE FACILITIES,NFS,RESIDENTIAL NFS,N,N,0,9,On or Near Building,-9742270.286,5089059.375
"<a target=""_blank"" href=""http://www.in.gov/isdh/reports/QAMIS/ltccr/cr000126.htm"">View</a>",000126NFS,WESTMINSTER VILLAGE HEALTH & REHAB,1120 E DAVIS DR,IN,TERRE HAUTE,VIGO,47802,8122327533,N,N,N,N,RESIDENTIAL CARE FACILITIES,NON-FREE STANDING RESIDENTIAL CARE FACILITIES,NFS,RESIDENTIAL NFS,N,N,0,9,On or Near Building,-9729745.062,4783205.717
"<a target=""_blank"" href=""http://www.in.gov/isdh/reports/QAMIS/ltccr/cr000141.htm"">View</a>",000141NFS,AVON HEALTH & REHABILITATION CENTER,4171 FOREST POINTE CIRCLE,IN,AVON,HENDRICKS,46123,3177455184,N,N,Y,N,RESIDENTIAL CARE FACILITIES,NON-FREE STANDING RESIDENTIAL CARE FACILITIES,NFS,RESIDENTIAL NFS,N,N,0,9,On or Near Building,-9614670.431,4835063.157
"<a target=""_blank"" href=""http://www.in.gov/isdh/reports/QAMIS/ltccr/cr000180.htm"">View</a>",000180NFS,GOOD SAMARITAN SOCIETY NORTHWOOD RETIREMENT COMM,2515 NEWTON ST,IN,JASPER,DUBOIS,47547,8124821722,N,N,Y,N,RESIDENTIAL CARE FACILITIES,NON-FREE STANDING RESIDENTIAL CARE FACILITIES,NFS,RESIDENTIAL NFS,N,N,0,9,On or Near Building,-9678122.541,4637784.533
"<a target=""_blank"" href=""http://www.in.gov/isdh/reports/QAMIS/ltccr/cr000187.htm"">View</a>",000187NFS,ST ELIZABETH HEALTHCARE CENTER,701 ARMORY RD,IN,DELPHI,CARROLL,46923,7655646380,N,N,N,N,RESIDENTIAL CARE FACILITIES,NON-FREE STANDING RESIDENTIAL CARE FACILITIES,NFS,RESIDENTIAL NFS,N,N,0,9,On or Near Building,-9648157.338,4950032.123
"<a target=""_blank"" href=""http://www.in.gov/isdh/reports/QAMIS/ltccr/cr000189.htm"">View</a>",000189NFS,AMERICAN VILLAGE,2026 EAST 54TH ST,IN,INDIANAPOLIS,MARION,46220,3172536950,Y,N,Y,N,RESIDENTIAL CARE FACILITIES,NON-FREE STANDING RESIDENTIAL CARE FACILITIES,NFS,RESIDENTIAL NFS,N,N,0,9,On or Near Building,-9587748.203,4844474.401
"<a target=""_blank"" href=""http://www.in.gov/isdh/reports/QAMIS/ltccr/cr000191.htm"">View</a>",000191NFS,FORUM AT THE CROSSING,8505 WOODFIELD CROSSING BLVD,IN,INDIANAPOLIS,MARION,46240,3174662020,N,N,Y,N,RESIDENTIAL CARE FACILITIES,NON-FREE STANDING RESIDENTIAL CARE FACILITIES,NFS,RESIDENTIAL NFS,N,N,0,9,On or Near Building,-9587177.3,4853085.524
"<a target=""_blank"" href=""http://www.in.gov/isdh/reports/QAMIS/ltccr/cr000228.htm"">View</a>",000228NFS,OSSIAN HEALTH CARE AND REHABILITATION CENTER,215 DAVIS RD,IN,OSSIAN,WELLS,46777,2606227821,N,N,Y,N,RESIDENTIAL CARE FACILITIES,NON-FREE STANDING RESIDENTIAL CARE FACILITIES,NFS,RESIDENTIAL NFS,N,N,0,9,On or Near Building,-9480449.07,4995914.036
"<a target=""_blank"" href=""http://www.in.gov/isdh/reports/QAMIS/ltccr/cr000240.htm"">View</a>",000240NFS,SAINT ANNE HOME,1900 RANDALLIA DR,IN,FORT WAYNE,ALLEN,46805,2604845555,N,N,Y,N,RESIDENTIAL CARE FACILITIES,NON-FREE STANDING RESIDENTIAL CARE FACILITIES,NFS,RESIDENTIAL NFS,N,N,0,9,On or Near Building,-9474465.87,5026179.47
"<a target=""_blank"" href=""http://www.in.gov/isdh/reports/QAMIS/ltccr/cr000248.htm"">View</a>",000248NFS,RAWLINS HOUSE HEALTH & LIVING COMMUNITY,300 J H WALKER DR,IN,PENDLETON,MADISON,46064,7657787501,N,Y,Y,N,RESIDENTIAL CARE FACILITIES,NON-FREE STANDING RESIDENTIAL CARE FACILITIES,NFS,RESIDENTIAL NFS,N,N,0,9,On or Near Building,-9543749.674,4866626.747
"<a target=""_blank"" href=""http://www.in.gov/isdh/reports/QAMIS/ltccr/cr000252.htm"">View</a>",000252NFS,AMBER MANOR CARE CENTER,801 E ILLINOIS ST,IN,PETERSBURG,PIKE,47567,8123543001,N,N,N,N,RESIDENTIAL CARE FACILITIES,NON-FREE STANDING RESIDENTIAL CARE FACILITIES,NFS,RESIDENTIAL NFS,N,N,0,9,On or Near Building,-9715377.612,4648198.867
"<a target=""_blank"" href=""http://www.in.gov/isdh/reports/QAMIS/ltccr/cr000255.htm"">View</a>",000255NFS,BYRON HEALTH CENTER,12101 LIMA RD,IN,FORT WAYNE,ALLEN,46818,2606373166,Y,Y,Y,N,RESIDENTIAL CARE FACILITIES,NON-FREE STANDING RESIDENTIAL CARE FACILITIES,NFS,RESIDENTIAL NFS,N,N,0,9,On or Near Building,-9480891.788,5040935.553
"<a target=""_blank"" href=""http://www.in.gov/isdh/reports/QAMIS/ltccr/cr000280.htm"">View</a>",000280NFS,SWISS VILLAGE,1350 W MAIN ST,IN,BERNE,ADAMS,46711,2605893173,N,N,Y,N,RESIDENTIAL CARE FACILITIES,NON-FREE STANDING RESIDENTIAL CARE FACILITIES,NFS,RESIDENTIAL NFS,N,N,0,9,On or Near Building,-9458632.565,4961811.307
"<a target=""_blank"" href=""http://www.in.gov/isdh/reports/QAMIS/ltccr/cr000282.htm"">View</a>",000282NFS,GOLDEN YEARS HOMESTEAD,3136 GOEGLEIN RD,IN,FORT WAYNE,ALLEN,46815,2607499655,N,Y,Y,N,RESIDENTIAL CARE FACILITIES,NON-FREE STANDING RESIDENTIAL CARE FACILITIES,NFS,RESIDENTIAL NFS,N,N,0,9,On or Near Building,-9466223.441,5028188.83
"<a target=""_blank"" href=""http://www.in.gov/isdh/reports/QAMIS/ltccr/cr000283.htm"">View</a>",000283NFS,LUTHERAN LIFE VILLAGES,6701 S ANTHONY BLVD,IN,FORT WAYNE,ALLEN,46816,2604471591,N,N,Y,N,RESIDENTIAL CARE FACILITIES,NON-FREE STANDING RESIDENTIAL CARE FACILITIES,NFS,RESIDENTIAL NFS,N,N,0,9,On or Near Building,-9474457.632,5015760.13
"<a target=""_blank"" href=""http://www.in.gov/isdh/reports/QAMIS/ltccr/cr000299.htm"">View</a>",000299NFS,MILNER COMMUNITY HEALTH CARE,370 E MAIN ST,IN,ROSSVILLE,CLINTON,46065,7653792112,N,N,N,N,RESIDENTIAL CARE FACILITIES,NON-FREE STANDING RESIDENTIAL CARE FACILITIES,NFS,RESIDENTIAL NFS,N,N,0,9,On or Near Building,-9638255.914,4926809.547
"<a target=""_blank"" href=""http://www.in.gov/isdh/reports/QAMIS/ltccr/cr000312.htm"">View</a>",312,ROSEWOOD MANOR,5200 S BURLINGTON DR,IN,MUNCIE,DELAWARE,47302,7652880087,N,N,N,N,RESIDENTIAL CARE FACILITIES,FREESTANDING RESIDENTIAL CARE FACILITIES,02R,ALL NURSING HOMES,N,N,0,9,On or Near Building,-9499276.313,4887257.067
"<a target=""_blank"" href=""http://www.in.gov/isdh/reports/QAMIS/ltccr/cr000347.htm"">View</a>",000347NFS,LUTHERAN COMMUNITY HOME,111 W CHURCH AVE,IN,SEYMOUR,JACKSON,47274,8125225927,N,N,Y,N,RESIDENTIAL CARE FACILITIES,NON-FREE STANDING RESIDENTIAL CARE FACILITIES,NFS,RESIDENTIAL NFS,N,N,0,9,On or Near Building,-9560743.708,4713477.894
"<a target=""_blank"" href=""http://www.in.gov/isdh/reports/QAMIS/ltccr/cr000372.htm"">View</a>",000372NFS,ELWOOD HEALTH AND LIVING,2300 PARKVIEW LN,IN,ELWOOD,MADISON,46036,7652032672,N,N,N,N,RESIDENTIAL CARE FACILITIES,NON-FREE STANDING RESIDENTIAL CARE FACILITIES,NFS,RESIDENTIAL NFS,N,N,0,9,On or Near Building,-9554725.553,4907700.654
"<a target=""_blank"" href=""http://www.in.gov/isdh/reports/QAMIS/ltccr/cr000389.htm"">View</a>",000389NFS,ST AUGUSTINE HOME FOR THE AGED,2345 W 86TH ST,IN,INDIANAPOLIS,MARION,46260,3174155767,N,N,N,N,RESIDENTIAL CARE FACILITIES,NON-FREE STANDING RESIDENTIAL CARE FACILITIES,NFS,RESIDENTIAL NFS,N,N,0,9,On or Near Building,-9595899.85,4852987.997
"<a target=""_blank"" href=""http://www.in.gov/isdh/reports/QAMIS/ltccr/cr000391.htm"">View</a>",000391NFS,ST PAUL HERMITAGE,501 N 17TH AVE,IN,BEECH GROVE,MARION,46107,3177862261,N,N,N,N,RESIDENTIAL CARE FACILITIES,NON-FREE STANDING RESIDENTIAL CARE FACILITIES,NFS,RESIDENTIAL NFS,N,N,0,9,On or Near Building,-9584494.5,4827026.582
"<a target=""_blank"" href=""http://www.in.gov/isdh/reports/QAMIS/ltccr/cr000404.htm"">View</a>",000404NFS,PRESENCE SACRED HEART HOME,515 N MAIN ST,IN,AVILLA,NOBLE,46710,2608972841,N,N,Y,N,RESIDENTIAL CARE FACILITIES,NON-FREE STANDING RESIDENTIAL CARE FACILITIES,NFS,RESIDENTIAL NFS,N,N,0,9,On or Near Building,-9488794.804,5067678.32
"<a target=""_blank"" href=""http://www.in.gov/isdh/reports/QAMIS/ltccr/cr000419.htm"">View</a>",000419NFS,PARKER HEALTH CARE & REHABILITATION CENTER,359 RANDOLPH ST,IN,PARKER CITY,RANDOLPH,47368,7654688280,N,N,N,N,RESIDENTIAL CARE FACILITIES,NON-FREE STANDING RESIDENTIAL CARE FACILITIES,NFS,RESIDENTIAL NFS,N,N,0,9,On or Near Building,-9484593.495,4893171.277
"<a target=""_blank"" href=""http://www.in.gov/isdh/reports/QAMIS/ltccr/cr000420.htm"">View</a>",000420NFS,RIPLEY CROSSING,1200 WHITLATCH WAY,IN,MILAN,RIPLEY,47031,8126542231,N,N,Y,N,RESIDENTIAL CARE FACILITIES,NON-FREE STANDING RESIDENTIAL CARE FACILITIES,NFS,RESIDENTIAL NFS,N,N,0,9,On or Near Building,-9477073.084,4741005.409
"<a target=""_blank"" href=""http://www.in.gov/isdh/reports/QAMIS/ltccr/cr000427.htm"">View</a>",000427NFS,HAMILTON GROVE,31869 CHICAGO TRAIL,IN,NEW CARLISLE,ST JOSEPH,46552,5746542200,N,N,N,N,RESIDENTIAL CARE FACILITIES,NON-FREE STANDING RESIDENTIAL CARE FACILITIES,NFS,RESIDENTIAL NFS,N,N,0,9,On or Near Building,-9627363.302,5120576.015
"<a target=""_blank"" href=""http://www.in.gov/isdh/reports/QAMIS/ltccr/cr000439.htm"">View</a>",000439NFS,GOOD SAMARITAN HOME HEALTH CENTER AND RESIDENTIAL,601 N BOEKE RD,IN,EVANSVILLE,VANDERBURGH,47711,8124764912,N,N,Y,N,RESIDENTIAL CARE FACILITIES,NON-FREE STANDING RESIDENTIAL CARE FACILITIES,NFS,RESIDENTIAL NFS,N,N,0,9,On or Near Building,-9742615.043,4577110.573
"<a target=""_blank"" href=""http://www.in.gov/isdh/reports/QAMIS/ltccr/cr000448.htm"">View</a>",000448NFS,TIMBERCREST CHURCH OF THE BRETHREN HOME,2201 EAST ST,IN,NORTH MANCHESTER,WABASH,46962,2609822118,Y,N,Y,N,RESIDENTIAL CARE FACILITIES,NON-FREE STANDING RESIDENTIAL CARE FACILITIES,NFS,RESIDENTIAL NFS,N,N,0,9,On or Near Building,-9546737.155,5015845.71
"<a target=""_blank"" href=""http://www.in.gov/isdh/reports/QAMIS/ltccr/cr000455.htm"">View</a>",000455NFS,ARBOR TRACE HEALTH & LIVING COMMUNITY,3701 HODGIN RD,IN,RICHMOND,WAYNE,47374,7659393701,N,N,Y,N,RESIDENTIAL CARE FACILITIES,NON-FREE STANDING RESIDENTIAL CARE FACILITIES,NFS,RESIDENTIAL NFS,N,N,0,9,On or Near Building,-9445542.729,4838684.47
"<a target=""_blank"" href=""http://www.in.gov/isdh/reports/QAMIS/ltccr/cr000470.htm"">View</a>",000470NFS,MULBERRY HEALTH & REHABILITATION CENTER,502 W JACKSON ST,IN,MULBERRY,CLINTON,46058,7652962911,N,N,Y,N,RESIDENTIAL CARE FACILITIES,NON-FREE STANDING RESIDENTIAL CARE FACILITIES,NFS,RESIDENTIAL NFS,N,N,0,9,On or Near Building,-9648229.139,4916644.646
"<a target=""_blank"" href=""http://www.in.gov/isdh/reports/QAMIS/ltccr/cr000471.htm"">View</a>",000471NFS,APERION CARE DEMOTTE,10352 N 600 E  COUNTY LINE RD,IN,DEMOTTE,JASPER,46310,2193455211,Y,N,Y,N,RESIDENTIAL CARE FACILITIES,NON-FREE STANDING RESIDENTIAL CARE FACILITIES,NFS,RESIDENTIAL NFS,N,N,0,9,On or Near Building,-9715530.343,5034414.107
"<a target=""_blank"" href=""http://www.in.gov/isdh/reports/QAMIS/ltccr/cr000485.htm"">View</a>",000485NFS,PEABODY RETIREMENT COMMUNITY,400 W SEVENTH ST,IN,NORTH MANCHESTER,WABASH,46962,2609828616,Y,N,Y,N,RESIDENTIAL CARE FACILITIES,NON-FREE STANDING RESIDENTIAL CARE FACILITIES,NFS,RESIDENTIAL NFS,N,N,0,9,On or Near Building,-9548611.108,5013289.544
"<a target=""_blank"" href=""http://www.in.gov/isdh/reports/QAMIS/ltccr/cr000491.htm"">View</a>",000491NFS,PADDOCK SPRINGS,2695 SHELDON STREET,IN,WARSAW,KOSCIUSKO,46582,5746589455,N,N,N,N,RESIDENTIAL CARE FACILITIES,NON-FREE STANDING RESIDENTIAL CARE FACILITIES,NFS,RESIDENTIAL NFS,N,N,0,7,On or Near Building,-9557546.278,5053116.941
"<a target=""_blank"" href=""http://www.in.gov/isdh/reports/QAMIS/ltccr/cr000501.htm"">View</a>",000501NFS,GRACE VILLAGE HEALTH CARE FACILITY,337 GRACE VILLAGE DR,IN,WINONA LAKE,KOSCIUSKO,46590,5743726100,Y,Y,N,N,RESIDENTIAL CARE FACILITIES,NON-FREE STANDING RESIDENTIAL CARE FACILITIES,NFS,RESIDENTIAL NFS,N,N,0,9,On or Near Building,-9551408.678,5045167.569
"<a target=""_blank"" href=""http://www.in.gov/isdh/reports/QAMIS/ltccr/cr000534.htm"">View</a>",000534NFS,SCENIC HILLS AT THE MONASTERY,710 SUNRISE DRIVE,IN,FERDINAND,DUBOIS,47532,8125042048,Y,Y,Y,N,RESIDENTIAL CARE FACILITIES,NON-FREE STANDING RESIDENTIAL CARE FACILITIES,NFS,RESIDENTIAL NFS,N,N,0,7,On or Near Building,-9668282.009,4610787.709
"<a target=""_blank"" href=""http://www.in.gov/isdh/reports/QAMIS/ltccr/cr000538.htm"">View</a>",000538NFS,ZIONSVILLE MEADOWS,675 S FORD RD,IN,ZIONSVILLE,BOONE,46077,3178735205,N,N,Y,N,RESIDENTIAL CARE FACILITIES,NON-FREE STANDING RESIDENTIAL CARE FACILITIES,NFS,RESIDENTIAL NFS,N,N,0,9,On or Near Building,-9604362.914,4857818.3
"<a target=""_blank"" href=""http://www.in.gov/isdh/reports/QAMIS/ltccr/cr000539.htm"">View</a>",000539NFS,PARKVIEW HAVEN,101 CONSTITUTION DR,IN,FRANCESVILLE,PULASKI,47946,2195679149,Y,N,N,N,RESIDENTIAL CARE FACILITIES,NON-FREE STANDING RESIDENTIAL CARE FACILITIES,NFS,RESIDENTIAL NFS,N,N,0,9,On or Near Building,-9671431.126,5010906.45
"<a target=""_blank"" href=""http://www.in.gov/isdh/reports/QAMIS/ltccr/cr000541.htm"">View</a>",000541NFS,TOWNE HOUSE RETIREMENT COMMUNITY,2209 ST JOE CENTER RD,IN,FORT WAYNE,ALLEN,46825,2604833116,N,N,Y,N,RESIDENTIAL CARE FACILITIES,NON-FREE STANDING RESIDENTIAL CARE FACILITIES,NFS,RESIDENTIAL NFS,N,N,0,9,On or Near Building,-9474642.312,5032144.654
"<a target=""_blank"" href=""http://www.in.gov/isdh/reports/QAMIS/ltccr/cr000542.htm"">View</a>",000542NFS,HERITAGE POINTE,801 N HUNTINGTON AVE,IN,WARREN,HUNTINGTON,46792,2603752201,Y,N,Y,N,RESIDENTIAL CARE FACILITIES,NON-FREE STANDING RESIDENTIAL CARE FACILITIES,NFS,RESIDENTIAL NFS,N,N,0,9,On or Near Building,-9509900.089,4966346.408
"<a target=""_blank"" href=""http://www.in.gov/isdh/reports/QAMIS/ltccr/cr000543.htm"">View</a>",000543NFS,FOUR SEASONS RETIREMENT CENTER,1901 TAYLOR RD,IN,COLUMBUS,BARTHOLOMEW,47203,8123728481,N,N,N,N,RESIDENTIAL CARE FACILITIES,NON-FREE STANDING RESIDENTIAL CARE FACILITIES,NFS,RESIDENTIAL NFS,N,N,0,9,On or Near Building,-9559549.695,4752919.757
"<a target=""_blank"" href=""http://www.in.gov/isdh/reports/QAMIS/ltccr/cr000547.htm"">View</a>",000547NFS,CUMBERLAND POINTE HEALTH CAMPUS,1051 CUMBERLAND AVE,IN,WEST LAFAYETTE,TIPPECANOE,47906,7654632571,N,N,N,N,RESIDENTIAL CARE FACILITIES,NON-FREE STANDING RESIDENTIAL CARE FACILITIES,NFS,RESIDENTIAL NFS,N,N,0,9,On or Near Building,-9675720.823,4932996.4
"<a target=""_blank"" href=""http://www.in.gov/isdh/reports/QAMIS/ltccr/cr000548.htm"">View</a>",000548NFS,HOOSIER VILLAGE,9875 CHERRYLEAF DR,IN,INDIANAPOLIS,MARION,46268,3178733349,N,N,Y,N,RESIDENTIAL CARE FACILITIES,NON-FREE STANDING RESIDENTIAL CARE FACILITIES,NFS,RESIDENTIAL NFS,N,N,0,9,On or Near Building,-9601395.137,4855746.245
"<a target=""_blank"" href=""http://www.in.gov/isdh/reports/QAMIS/ltccr/cr000549.htm"">View</a>",000549NFS,CENTURY VILLA HEALTH CARE,705 N MERIDIAN ST,IN,GREENTOWN,HOWARD,46936,7656283377,N,N,N,N,RESIDENTIAL CARE FACILITIES,NON-FREE STANDING RESIDENTIAL CARE FACILITIES,NFS,RESIDENTIAL NFS,N,N,0,9,On or Near Building,-9569824.15,4936520.552
"<a target=""_blank"" href=""http://www.in.gov/isdh/reports/QAMIS/ltccr/cr000551.htm"">View</a>",000551NFS,HARBOUR MANOR HEALTH & LIVING COMMUNITY,1667 SHERIDAN RD,IN,NOBLESVILLE,HAMILTON,46060,3177739205,N,N,Y,N,RESIDENTIAL CARE FACILITIES,NON-FREE STANDING RESIDENTIAL CARE FACILITIES,NFS,RESIDENTIAL NFS,N,N,0,9,On or Near Building,-9578878.32,4874542.396
"<a target=""_blank"" href=""http://www.in.gov/isdh/reports/QAMIS/ltccr/cr000556.htm"">View</a>",000556NFS,ADAMS WOODCREST,1300 MERCER AVE,IN,DECATUR,ADAMS,46733,2607243311,N,N,N,N,RESIDENTIAL CARE FACILITIES,NON-FREE STANDING RESIDENTIAL CARE FACILITIES,NFS,RESIDENTIAL NFS,N,N,0,9,On or Near Building,-9451705.932,4984696.578
"<a target=""_blank"" href=""http://www.in.gov/isdh/reports/QAMIS/ltccr/cr000557.htm"">View</a>",000557NFS,WESLEYAN HEALTH CARE CENTER,729 WEST 35TH ST,IN,MARION,GRANT,46953,7656743371,Y,N,Y,N,RESIDENTIAL CARE FACILITIES,NON-FREE STANDING RESIDENTIAL CARE FACILITIES,NFS,RESIDENTIAL NFS,N,N,0,9,On or Near Building,-9536688.833,4942914.832
"<a target=""_blank"" href=""http://www.in.gov/isdh/reports/QAMIS/ltccr/cr000576.htm"">View</a>",000576NFS,CHRISTIAN CARE RETIREMENT COMMUNITY,720 E DUSTMAN RD,IN,BLUFFTON,WELLS,46714,2605653000,Y,N,Y,N,RESIDENTIAL CARE FACILITIES,NON-FREE STANDING RESIDENTIAL CARE FACILITIES,NFS,RESIDENTIAL NFS,N,N,0,9,On or Near Building,-9479065.703,4976378.679
"<a target=""_blank"" href=""http://www.in.gov/isdh/reports/QAMIS/ltccr/cr001120.htm"">View</a>",001120NFS,ASBURY TOWERS HEALTH CARE CENTER,102 W POPLAR ST,IN,GREENCASTLE,PUTNAM,46135,7656535148,N,N,N,N,RESIDENTIAL CARE FACILITIES,NON-FREE STANDING RESIDENTIAL CARE FACILITIES,NFS,RESIDENTIAL NFS,N,N,0,9,On or Near Building,-9669876.772,4814086.499
"<a target=""_blank"" href=""http://www.in.gov/isdh/reports/QAMIS/ltccr/cr001121.htm"">View</a>",1121,BETHANY VILLAGE ASSISTED LIVING,3530 S SHELBY ST,IN,INDIANAPOLIS,MARION,46227,3177843066,N,N,N,N,RESIDENTIAL CARE FACILITIES,FREESTANDING RESIDENTIAL CARE FACILITIES,02R,ALL NURSING HOMES,N,N,0,9,On or Near Building,-9589165.021,4824476.846
"<a target=""_blank"" href=""http://www.in.gov/isdh/reports/QAMIS/ltccr/cr001123.htm"">View</a>",1123,CHARLES FORD MEMORIAL HOME INC,920 S MAIN ST,IN,NEW HARMONY,POSEY,47631,8126824685,N,N,N,N,RESIDENTIAL CARE FACILITIES,FREESTANDING RESIDENTIAL CARE FACILITIES,02R,ALL NURSING HOMES,N,N,0,9,On or Near Building,-9788846.472,4597269.861
"<a target=""_blank"" href=""http://www.in.gov/isdh/reports/QAMIS/ltccr/cr001125.htm"">View</a>",001125NFS,EVANSVILLE PROTESTANT HOME INC,3701 WASHINGTON AVE,IN,EVANSVILLE,VANDERBURGH,47714,8124763360,N,N,N,N,RESIDENTIAL CARE FACILITIES,NON-FREE STANDING RESIDENTIAL CARE FACILITIES,NFS,RESIDENTIAL NFS,N,N,0,9,On or Near Building,-9741093.973,4574082.939
"<a target=""_blank"" href=""http://www.in.gov/isdh/reports/QAMIS/ltccr/cr001126.htm"">View</a>",001126NFS,FLATROCK RIVER LODGE,904 E 11TH ST,IN,RUSHVILLE,RUSH,46173,7659322974,N,N,N,N,RESIDENTIAL CARE FACILITIES,NON-FREE STANDING RESIDENTIAL CARE FACILITIES,NFS,RESIDENTIAL NFS,N,N,0,9,On or Near Building,-9510166.253,4810753.007
"<a target=""_blank"" href=""http://www.in.gov/isdh/reports/QAMIS/ltccr/cr001127.htm"">View</a>",001127NFS,OTTERBEIN FRANKLIN SENIORLIFE COMM RES & COM CARE,1070 W JEFFERSON ST,IN,FRANKLIN,JOHNSON,46131,3177367185,Y,Y,Y,N,RESIDENTIAL CARE FACILITIES,NON-FREE STANDING RESIDENTIAL CARE FACILITIES,NFS,RESIDENTIAL NFS,N,N,0,9,On or Near Building,-9581664.202,4790795.523
"<a target=""_blank"" href=""http://www.in.gov/isdh/reports/QAMIS/ltccr/cr001128.htm"">View</a>",001128NFS,FRIENDS FELLOWSHIP COMMUNITY,2030 CHESTER BLVD,IN,RICHMOND,WAYNE,47374,7659626546,Y,Y,Y,N,RESIDENTIAL CARE FACILITIES,NON-FREE STANDING RESIDENTIAL CARE FACILITIES,NFS,RESIDENTIAL NFS,N,N,0,9,On or Near Building,-9450232.396,4845607.357
"<a target=""_blank"" href=""http://www.in.gov/isdh/reports/QAMIS/ltccr/cr001131.htm"">View</a>",001131NFS,HUBBARD HILL ESTATES INC,28070 CR 24,IN,ELKHART,ELKHART,46517,5742956260,N,N,N,N,RESIDENTIAL CARE FACILITIES,NON-FREE STANDING RESIDENTIAL CARE FACILITIES,NFS,RESIDENTIAL NFS,N,N,0,9,On or Near Building,-9574066.869,5107616.081
"<a target=""_blank"" href=""http://www.in.gov/isdh/reports/QAMIS/ltccr/cr001135.htm"">View</a>",1135,KINGSTON RESIDENCE OF FORT WAYNE,7515 WINCHESTER RD,IN,FORT WAYNE,ALLEN,46819,2607471523,N,N,N,N,RESIDENTIAL CARE FACILITIES,FREESTANDING RESIDENTIAL CARE FACILITIES,02R,ALL NURSING HOMES,N,N,0,9,On or Near Building,-9478024.198,5014578.608
"<a target=""_blank"" href=""http://www.in.gov/isdh/reports/QAMIS/ltccr/cr001136.htm"">View</a>",1136,LAKE PARK RESIDENTIAL CARE,2075 RIPLEY ST,IN,LAKE STATION,LAKE,46405,2199629437,N,N,N,N,RESIDENTIAL CARE FACILITIES,FREESTANDING RESIDENTIAL CARE FACILITIES,02R,ALL NURSING HOMES,N,N,0,9,On or Near Building,-9711418.423,5098365.84
"<a target=""_blank"" href=""http://www.in.gov/isdh/reports/QAMIS/ltccr/cr001138.htm"">View</a>",001138NFS,LODGE OF THE WABASH,723 E RAMSEY RD,IN,VINCENNES,KNOX,47591,8128828787,N,N,N,N,RESIDENTIAL CARE FACILITIES,NON-FREE STANDING RESIDENTIAL CARE FACILITIES,NFS,RESIDENTIAL NFS,N,N,0,9,On or Near Building,-9743353.536,4671129.984
"<a target=""_blank"" href=""http://www.in.gov/isdh/reports/QAMIS/ltccr/cr001140.htm"">View</a>",1140,MILLER BEACH TERRACE,4905 MELTON RD,IN,GARY,LAKE,46403,2199380124,N,N,N,N,RESIDENTIAL CARE FACILITIES,FREESTANDING RESIDENTIAL CARE FACILITIES,02R,ALL NURSING HOMES,N,N,0,9,On or Near Building,-9715669.492,5100569.051
"<a target=""_blank"" href=""http://www.in.gov/isdh/reports/QAMIS/ltccr/cr001141.htm"">View</a>",001141NFS,"MILTON HOME, THE",206 E MARION ST,IN,SOUTH BEND,ST JOSEPH,46601,5742330165,N,N,N,N,RESIDENTIAL CARE FACILITIES,NON-FREE STANDING RESIDENTIAL CARE FACILITIES,NFS,RESIDENTIAL NFS,N,N,0,9,On or Near Building,-9601155.132,5113388.894
"<a target=""_blank"" href=""http://www.in.gov/isdh/reports/QAMIS/ltccr/cr001142.htm"">View</a>",1142,PINE KNOLL ASSISTED LIVING CENTER,607 WILSON CREEK RD,IN,LAWRENCEBURG,DEARBORN,47025,8125374422,N,N,N,N,RESIDENTIAL CARE FACILITIES,FREESTANDING RESIDENTIAL CARE FACILITIES,02R,ALL NURSING HOMES,N,N,0,9,On or Near Building,-9449335.718,4737573.105
"<a target=""_blank"" href=""http://www.in.gov/isdh/reports/QAMIS/ltccr/cr001143.htm"">View</a>",1143,PORTAGE MANOR HEALTH CARE FACILITY,3016 PORTAGE AVE,IN,SOUTH BEND,ST JOSEPH,46628,5742729100,N,N,N,N,RESIDENTIAL CARE FACILITIES,FREESTANDING RESIDENTIAL CARE FACILITIES,02R,ALL NURSING HOMES,N,N,0,9,On or Near Building,-9604952.24,5118904.936
"<a target=""_blank"" href=""http://www.in.gov/isdh/reports/QAMIS/ltccr/cr001144.htm"">View</a>",001144NFS,DIVERSICARE OF PROVIDENCE,4915 CHARLESTOWN RD,IN,NEW ALBANY,FLOYD,47150,8129455221,N,N,N,N,RESIDENTIAL CARE FACILITIES,NON-FREE STANDING RESIDENTIAL CARE FACILITIES,NFS,RESIDENTIAL NFS,N,N,0,9,On or Near Building,-9549389.008,4630638.86
"<a target=""_blank"" href=""http://www.in.gov/isdh/reports/QAMIS/ltccr/cr001145.htm"">View</a>",001145NFS,NEW ALBANY NURSING AND REHABILITATION CENTER,201 E ELM ST,IN,NEW ALBANY,FLOYD,47150,8129459517,N,N,Y,N,RESIDENTIAL CARE FACILITIES,NON-FREE STANDING RESIDENTIAL CARE FACILITIES,NFS,RESIDENTIAL NFS,N,N,0,9,On or Near Building,-9553674.92,4620165.579
"<a target=""_blank"" href=""http://www.in.gov/isdh/reports/QAMIS/ltccr/cr001148.htm"">View</a>",1148,WOOD RIDGE ASSISTED LIVING,17650 GENERATIONS DR,IN,SOUTH BEND,ST JOSEPH,46635,5742711151,N,N,N,Y,RESIDENTIAL CARE FACILITIES,FREESTANDING RESIDENTIAL CARE FACILITIES,02R,ALL NURSING HOMES,N,N,0,9,On or Near Building,-9596801.76,5117796.016
"<a target=""_blank"" href=""http://www.in.gov/isdh/reports/QAMIS/ltccr/cr001149.htm"">View</a>",001149NFS,MANOR CARE HEALTH SERVICES SUMMER TRACE,12999 N PENNSYLVANIA ST,IN,CARMEL,HAMILTON,46032,3178482448,N,N,N,N,RESIDENTIAL CARE FACILITIES,NON-FREE STANDING RESIDENTIAL CARE FACILITIES,NFS,RESIDENTIAL NFS,N,N,0,9,On or Near Building,-9590662.936,4862383.371
"<a target=""_blank"" href=""http://www.in.gov/isdh/reports/QAMIS/ltccr/cr001152.htm"">View</a>",001152NFS,WESLEY MANOR HEALTH CENTER,1555 N MAIN ST,IN,FRANKFORT,CLINTON,46041,7656591811,N,N,Y,N,RESIDENTIAL CARE FACILITIES,NON-FREE STANDING RESIDENTIAL CARE FACILITIES,NFS,RESIDENTIAL NFS,N,N,0,9,On or Near Building,-9630373.715,4909072.947
"<a target=""_blank"" href=""http://www.in.gov/isdh/reports/QAMIS/ltccr/cr001153.htm"">View</a>",001153NFS,WHITE RIVER LODGE,3710 KENNY SIMPSON LN,IN,BEDFORD,LAWRENCE,47421,8122757006,N,N,N,N,RESIDENTIAL CARE FACILITIES,NON-FREE STANDING RESIDENTIAL CARE FACILITIES,NFS,RESIDENTIAL NFS,N,N,0,9,On or Near Building,-9629938.456,4698307.169
"<a target=""_blank"" href=""http://www.in.gov/isdh/reports/QAMIS/ltccr/cr001156.htm"">View</a>",001156NFS,ROBIN RUN HEALTH CENTER,6370 ROBIN RUN W,IN,INDIANAPOLIS,MARION,46268,3172986255,N,N,Y,N,RESIDENTIAL CARE FACILITIES,NON-FREE STANDING RESIDENTIAL CARE FACILITIES,NFS,RESIDENTIAL NFS,N,N,0,9,On or Near Building,-9601593.063,4847136.858
"<a target=""_blank"" href=""http://www.in.gov/isdh/reports/QAMIS/ltccr/cr001198.htm"">View</a>",001198NFS,CROWN POINT CHRISTIAN VILLAGE,6685 EAST 117TH AVENUE,IN,CROWN POINT,LAKE,46307,2196620642,N,N,Y,N,RESIDENTIAL CARE FACILITIES,NON-FREE STANDING RESIDENTIAL CARE FACILITIES,NFS,RESIDENTIAL NFS,N,N,0,7,On or Near Building,-9713416.552,5072339.23
"<a target=""_blank"" href=""http://www.in.gov/isdh/reports/QAMIS/ltccr/cr001215.htm"">View</a>",001215NFS,CEDARS THE,14409 SUNRISE CT,IN,LEO,ALLEN,46765,2606272191,Y,Y,N,N,RESIDENTIAL CARE FACILITIES,NON-FREE STANDING RESIDENTIAL CARE FACILITIES,NFS,RESIDENTIAL NFS,N,N,0,9,On or Near Building,-9461513.068,5044843.307
"<a target=""_blank"" href=""http://www.in.gov/isdh/reports/QAMIS/ltccr/cr002280.htm"">View</a>",002280NFS,RIVER POINTE HEALTH CAMPUS,3001 GALAXY DR,IN,EVANSVILLE,VANDERBURGH,47715,8124752822,N,N,N,N,RESIDENTIAL CARE FACILITIES,NON-FREE STANDING RESIDENTIAL CARE FACILITIES,NFS,RESIDENTIAL NFS,N,N,0,9,On or Near Building,-9739220.132,4580130.474
"<a target=""_blank"" href=""http://www.in.gov/isdh/reports/QAMIS/ltccr/cr002392.htm"">View</a>",2392,TERRACE AT TOWNE CENTRE THE,7252 ARTHUR BLVD,IN,MERRILLVILLE,LAKE,46410,2197362900,N,N,N,N,RESIDENTIAL CARE FACILITIES,FREESTANDING RESIDENTIAL CARE FACILITIES,02R,ALL NURSING HOMES,N,N,0,9,On or Near Building,-9724824.184,5084457.367
"<a target=""_blank"" href=""http://www.in.gov/isdh/reports/QAMIS/ltccr/cr002512.htm"">View</a>",002512NFS,OAKWOOD HEALTH CAMPUS,1143 23RD ST,IN,TELL CITY,PERRY,47586,8125472333,N,N,Y,N,RESIDENTIAL CARE FACILITIES,NON-FREE STANDING RESIDENTIAL CARE FACILITIES,NFS,RESIDENTIAL NFS,N,N,0,9,On or Near Building,-9656969.611,4573473.283
"<a target=""_blank"" href=""http://www.in.gov/isdh/reports/QAMIS/ltccr/cr002627.htm"">View</a>",2627,BRENTWOOD AT HOBART,1420 ST MARY CIR,IN,HOBART,LAKE,46342,2199451968,N,N,Y,N,RESIDENTIAL CARE FACILITIES,FREESTANDING RESIDENTIAL CARE FACILITIES,02R,ALL NURSING HOMES,N,N,0,9,On or Near Building,-9714326.756,5088441.653
"<a target=""_blank"" href=""http://www.in.gov/isdh/reports/QAMIS/ltccr/cr002628.htm"">View</a>",002628NFS,ST CHARLES HEALTH CAMPUS,3150 ST CHARLES ST,IN,JASPER,DUBOIS,47546,8126346570,Y,N,N,N,RESIDENTIAL CARE FACILITIES,NON-FREE STANDING RESIDENTIAL CARE FACILITIES,NFS,RESIDENTIAL NFS,N,N,0,9,On or Near Building,-9678820.291,4638282.494
"<a target=""_blank"" href=""http://www.in.gov/isdh/reports/QAMIS/ltccr/cr002656.htm"">View</a>",2656,BROOKDALE GRANGER,430 CLEVELAND RD,IN,GRANGER,ST JOSEPH,46530,5742439020,N,N,Y,N,RESIDENTIAL CARE FACILITIES,FREESTANDING RESIDENTIAL CARE FACILITIES,02R,ALL NURSING HOMES,N,N,0,9,On or Near Building,-9592841.013,5119793.984
"<a target=""_blank"" href=""http://www.in.gov/isdh/reports/QAMIS/ltccr/cr002661.htm"">View</a>",002661NFS,GREENLEAF HEALTH CAMPUS,1201 E BEARDSLEY AVE,IN,ELKHART,ELKHART,46514,5742060086,N,N,Y,N,RESIDENTIAL CARE FACILITIES,NON-FREE STANDING RESIDENTIAL CARE FACILITIES,NFS,RESIDENTIAL NFS,N,N,0,9,On or Near Building,-9568763.275,5115574.386
"<a target=""_blank"" href=""http://www.in.gov/isdh/reports/QAMIS/ltccr/cr002662.htm"">View</a>",002662NFS,SOUTHFIELD VILLAGE,6450 MIAMI CIR,IN,SOUTH BEND,ST JOSEPH,46614,5742311000,N,Y,N,N,RESIDENTIAL CARE FACILITIES,NON-FREE STANDING RESIDENTIAL CARE FACILITIES,NFS,RESIDENTIAL NFS,N,N,0,9,On or Near Building,-9599374.688,5102016.453
"<a target=""_blank"" href=""http://www.in.gov/isdh/reports/QAMIS/ltccr/cr002667.htm"">View</a>",002667NFS,WATERFORD PLACE HEALTH CAMPUS,800 ST JOSEPH DR,IN,KOKOMO,HOWARD,46901,7652361239,N,N,Y,N,RESIDENTIAL CARE FACILITIES,NON-FREE STANDING RESIDENTIAL CARE FACILITIES,NFS,RESIDENTIAL NFS,N,N,0,9,On or Near Building,-9591440.391,4938091.704
"<a target=""_blank"" href=""http://www.in.gov/isdh/reports/QAMIS/ltccr/cr002668.htm"">View</a>",002668NFS,HOLY CROSS VILLAGE AT NOTRE DAME INC,54515 STATE ROAD 933 NORTH,IN,NOTRE DAME,ST JOSEPH,46556,5742871838,N,N,Y,N,RESIDENTIAL CARE FACILITIES,NON-FREE STANDING RESIDENTIAL CARE FACILITIES,NFS,RESIDENTIAL NFS,N,N,0,9,On or Near Building,-9601339.477,5117428.591
"<a target=""_blank"" href=""http://www.in.gov/isdh/reports/QAMIS/ltccr/cr002703.htm"">View</a>",002703NFS,HOMEWOOD HEALTH CAMPUS,2494 N LEBANON ST,IN,LEBANON,BOONE,46052,7654822076,N,N,Y,N,RESIDENTIAL CARE FACILITIES,NON-FREE STANDING RESIDENTIAL CARE FACILITIES,NFS,RESIDENTIAL NFS,N,N,0,9,On or Near Building,-9626416.307,4876837.612
"<a target=""_blank"" href=""http://www.in.gov/isdh/reports/QAMIS/ltccr/cr002724.htm"">View</a>",002724NFS,WOODMONT HEALTH CAMPUS,1325 ROCKPORT RD,IN,BOONVILLE,WARRICK,47601,8128974114,N,N,Y,N,RESIDENTIAL CARE FACILITIES,NON-FREE STANDING RESIDENTIAL CARE FACILITIES,NFS,RESIDENTIAL NFS,N,N,0,9,On or Near Building,-9713416.051,4584814.835
"<a target=""_blank"" href=""http://www.in.gov/isdh/reports/QAMIS/ltccr/cr002858.htm"">View</a>",2858,MORNING POINTE OF FRANKLIN,75 S MILFORD DR,IN,FRANKLIN,JOHNSON,46131,3177364665,N,N,Y,N,RESIDENTIAL CARE FACILITIES,FREESTANDING RESIDENTIAL CARE FACILITIES,02R,ALL NURSING HOMES,N,N,0,9,On or Near Building,-9576552.522,4790701.054
"<a target=""_blank"" href=""http://www.in.gov/isdh/reports/QAMIS/ltccr/cr002910.htm"">View</a>",002910NFS,HERITAGE OF HUNTINGTON,1180 WEST 500 NORTH,IN,HUNTINGTON,HUNTINGTON,46750,2603552750,Y,N,Y,N,RESIDENTIAL CARE FACILITIES,NON-FREE STANDING RESIDENTIAL CARE FACILITIES,NFS,RESIDENTIAL NFS,N,N,0,9,On or Near Building,-9516171.161,4998200.524
"<a target=""_blank"" href=""http://www.in.gov/isdh/reports/QAMIS/ltccr/cr002955.htm"">View</a>",002955NFS,SILVER OAKS HEALTH CAMPUS,2011 CHAPA STREET,IN,COLUMBUS,BARTHOLOMEW,47203,8123730787,N,N,Y,N,RESIDENTIAL CARE FACILITIES,NON-FREE STANDING RESIDENTIAL CARE FACILITIES,NFS,RESIDENTIAL NFS,N,N,0,9,On or Near Building,-9562663.857,4756892.705
"<a target=""_blank"" href=""http://www.in.gov/isdh/reports/QAMIS/ltccr/cr002999.htm"">View</a>",2999,HEARTH AT WINDERMERE,9745 OLYMPIA DR,IN,FISHERS,HAMILTON,46038,3175761925,N,N,Y,N,RESIDENTIAL CARE FACILITIES,FREESTANDING RESIDENTIAL CARE FACILITIES,02R,ALL NURSING HOMES,N,N,0,9,On or Near Building,-9571520.213,4855657.838
"<a target=""_blank"" href=""http://www.in.gov/isdh/reports/QAMIS/ltccr/cr003000.htm"">View</a>",3000,KINGSTON AT DUPONT,1716 E DUPONT RD,IN,FORT WAYNE,ALLEN,46825,2604905111,N,N,Y,N,RESIDENTIAL CARE FACILITIES,FREESTANDING RESIDENTIAL CARE FACILITIES,02R,ALL NURSING HOMES,N,N,0,9,On or Near Building,-9475520.4,5038646.38
"<a target=""_blank"" href=""http://www.in.gov/isdh/reports/QAMIS/ltccr/cr003237.htm"">View</a>",003237NFS,BRIDGEPOINTE HEALTH CAMPUS,1900 COLLEGE AVE,IN,VINCENNES,KNOX,47591,8128869870,N,N,N,N,RESIDENTIAL CARE FACILITIES,NON-FREE STANDING RESIDENTIAL CARE FACILITIES,NFS,RESIDENTIAL NFS,N,N,0,9,On or Near Building,-9741489.157,4674526.222
"<a target=""_blank"" href=""http://www.in.gov/isdh/reports/QAMIS/ltccr/cr003240.htm"">View</a>",003240NFS,BROOKSIDE VILLAGE INC,1111 CHURCH AVE,IN,JASPER,DUBOIS,47546,8126347750,N,N,N,N,RESIDENTIAL CARE FACILITIES,NON-FREE STANDING RESIDENTIAL CARE FACILITIES,NFS,RESIDENTIAL NFS,N,N,0,9,On or Near Building,-9675021.18,4632809.943
"<a target=""_blank"" href=""http://www.in.gov/isdh/reports/QAMIS/ltccr/cr003273.htm"">View</a>",3273,BROOKDALE FORT WAYNE,4730 E STATE BLVD,IN,FORT WAYNE,ALLEN,46815,2604840308,N,N,N,N,RESIDENTIAL CARE FACILITIES,FREESTANDING RESIDENTIAL CARE FACILITIES,02R,ALL NURSING HOMES,N,N,0,9,On or Near Building,-9471085.876,5026766.783
"<a target=""_blank"" href=""http://www.in.gov/isdh/reports/QAMIS/ltccr/cr003282.htm"">View</a>",3282,RITTENHOUSE VILLAGE AT NORTHSIDE,1251 W 96TH ST,IN,INDIANAPOLIS,MARION,46260,3175759200,N,N,Y,N,RESIDENTIAL CARE FACILITIES,FREESTANDING RESIDENTIAL CARE FACILITIES,02R,ALL NURSING HOMES,N,N,0,9,On or Near Building,-9593648.97,4855280.701
"<a target=""_blank"" href=""http://www.in.gov/isdh/reports/QAMIS/ltccr/cr003283.htm"">View</a>",3283,WELLINGTON AT SOUTHPORT THE,7212 US HWY 31 S,IN,INDIANAPOLIS,MARION,46227,3178899822,N,N,Y,N,RESIDENTIAL CARE FACILITIES,FREESTANDING RESIDENTIAL CARE FACILITIES,02R,ALL NURSING HOMES,N,N,0,9,On or Near Building,-9589674.753,4816829.952
"<a target=""_blank"" href=""http://www.in.gov/isdh/reports/QAMIS/ltccr/cr003342.htm"">View</a>",003342NFS,COVERED BRIDGE HEALTH CAMPUS,1675 W TIPTON ST,IN,SEYMOUR,JACKSON,47274,8125236405,N,N,Y,N,RESIDENTIAL CARE FACILITIES,NON-FREE STANDING RESIDENTIAL CARE FACILITIES,NFS,RESIDENTIAL NFS,N,N,0,9,On or Near Building,-9564363.372,4713914.294
"<a target=""_blank"" href=""http://www.in.gov/isdh/reports/QAMIS/ltccr/cr003376.htm"">View</a>",3376,TIPTON PLACE,460 FORKS OF THE WABASH WAY,IN,HUNTINGTON,HUNTINGTON,46750,2603562028,N,N,N,N,RESIDENTIAL CARE FACILITIES,FREESTANDING RESIDENTIAL CARE FACILITIES,02R,ALL NURSING HOMES,N,N,0,9,On or Near Building,-9521539.098,4994709.744
"<a target=""_blank"" href=""http://www.in.gov/isdh/reports/QAMIS/ltccr/cr003466.htm"">View</a>",3466,"WABASH BICKFORD COTTAGE OPCO, LLC",3037 W DIVISION RD,IN,WABASH,WABASH,46992,2605692000,N,N,Y,N,RESIDENTIAL CARE FACILITIES,FREESTANDING RESIDENTIAL CARE FACILITIES,02R,ALL NURSING HOMES,N,N,0,9,On or Near Building,-9556720.065,4986420.381
"<a target=""_blank"" href=""http://www.in.gov/isdh/reports/QAMIS/ltccr/cr003575.htm"">View</a>",003575NFS,RIVER TERRACE HEALTH CARE CENTER,400 CAYLOR BLVD,IN,BLUFFTON,WELLS,46714,2608248940,N,N,Y,N,RESIDENTIAL CARE FACILITIES,NON-FREE STANDING RESIDENTIAL CARE FACILITIES,NFS,RESIDENTIAL NFS,N,N,0,9,On or Near Building,-9483810.919,4979587.707
"<a target=""_blank"" href=""http://www.in.gov/isdh/reports/QAMIS/ltccr/cr003624.htm"">View</a>",003624NFS,PROVIDENCE HEALTH CARE CENTER,1 SISTERS OF PROVIDENCE,IN,ST MARY OF THE WOODS,VIGO,47876,8125354001,Y,Y,Y,Y,RESIDENTIAL CARE FACILITIES,NON-FREE STANDING RESIDENTIAL CARE FACILITIES,NFS,RESIDENTIAL NFS,N,N,0,9,On or Near Building,-9736408.09,4794375.582
"<a target=""_blank"" href=""http://www.in.gov/isdh/reports/QAMIS/ltccr/cr003673.htm"">View</a>",003673NFS,UNIVERSITY PLACE HEALTH CENTER AND ASSISTED LIVING,1750 LINDBERG RD,IN,WEST LAFAYETTE,TIPPECANOE,47906,7654645600,N,N,N,N,RESIDENTIAL CARE FACILITIES,NON-FREE STANDING RESIDENTIAL CARE FACILITIES,NFS,RESIDENTIAL NFS,N,N,0,9,On or Near Building,-9677771.662,4931142.861
"<a target=""_blank"" href=""http://www.in.gov/isdh/reports/QAMIS/ltccr/cr003674.htm"">View</a>",3674,CRAWFORDSVILLE BICKFORD COTTAGE LLC,100 BICKFORD LN,IN,CRAWFORDSVILLE,MONTGOMERY,47933,7653622000,N,N,N,N,RESIDENTIAL CARE FACILITIES,FREESTANDING RESIDENTIAL CARE FACILITIES,02R,ALL NURSING HOMES,N,N,0,9,On or Near Building,-9669846.605,4872615.022
"<a target=""_blank"" href=""http://www.in.gov/isdh/reports/QAMIS/ltccr/cr003691.htm"">View</a>",003691NFS,WOODBRIDGE HEALTH CAMPUS,602 WOODBRIDGE AVE,IN,LOGANSPORT,CASS,46947,5747533223,N,N,Y,N,RESIDENTIAL CARE FACILITIES,NON-FREE STANDING RESIDENTIAL CARE FACILITIES,NFS,RESIDENTIAL NFS,N,N,0,9,On or Near Building,-9612197.246,4978667.207
"<a target=""_blank"" href=""http://www.in.gov/isdh/reports/QAMIS/ltccr/cr003902.htm"">View</a>",3902,HEARTH AT PRESTWICK,182 S CR 550 E,IN,AVON,HENDRICKS,46123,3177452766,N,N,N,N,RESIDENTIAL CARE FACILITIES,FREESTANDING RESIDENTIAL CARE FACILITIES,02R,ALL NURSING HOMES,N,N,0,9,On or Near Building,-9621326.112,4830976
"<a target=""_blank"" href=""http://www.in.gov/isdh/reports/QAMIS/ltccr/cr003915.htm"">View</a>",3915,BLOOM AT EAGLE CREEK,5045 W 52ND ST,IN,INDIANAPOLIS,MARION,46254,3172932929,N,N,N,N,RESIDENTIAL CARE FACILITIES,FREESTANDING RESIDENTIAL CARE FACILITIES,02R,ALL NURSING HOMES,N,N,0,9,On or Near Building,-9600987.151,4843523.345
"<a target=""_blank"" href=""http://www.in.gov/isdh/reports/QAMIS/ltccr/cr003916.htm"">View</a>",3916,BLOOM AT GERMAN CHURCH,2250 HARVEST MOON DR,IN,INDIANAPOLIS,MARION,46229,3172498902,N,N,N,N,RESIDENTIAL CARE FACILITIES,FREESTANDING RESIDENTIAL CARE FACILITIES,02R,ALL NURSING HOMES,N,N,0,9,On or Near Building,-9570626.429,4837017.601
"<a target=""_blank"" href=""http://www.in.gov/isdh/reports/QAMIS/ltccr/cr003924.htm"">View</a>",003924NFS,STONEBRIDGE HEALTH CAMPUS,3100 SHAWNEE DR S,IN,BEDFORD,LAWRENCE,47421,8122788195,N,N,Y,N,RESIDENTIAL CARE FACILITIES,NON-FREE STANDING RESIDENTIAL CARE FACILITIES,NFS,RESIDENTIAL NFS,N,N,0,9,On or Near Building,-9630112.114,4699272.158
"<a target=""_blank"" href=""http://www.in.gov/isdh/reports/QAMIS/ltccr/cr003984.htm"">View</a>",3984,WORTHINGTON PLACE,10799 ALLIANCE DR,IN,CAMBY,MARION,46113,3178566224,N,N,N,N,RESIDENTIAL CARE FACILITIES,FREESTANDING RESIDENTIAL CARE FACILITIES,02R,ALL NURSING HOMES,N,N,0,9,On or Near Building,-9610223.217,4813324.25
"<a target=""_blank"" href=""http://www.in.gov/isdh/reports/QAMIS/ltccr/cr004001.htm"">View</a>",4001,WINDSOR RIDGE,2700 WATERS EDGE PKWY,IN,JEFFERSONVILLE,CLARK,47130,8122844336,N,N,N,N,RESIDENTIAL CARE FACILITIES,FREESTANDING RESIDENTIAL CARE FACILITIES,02R,ALL NURSING HOMES,N,N,0,9,On or Near Building,-9538720.593,4627424.75
"<a target=""_blank"" href=""http://www.in.gov/isdh/reports/QAMIS/ltccr/cr004011.htm"">View</a>",4011,BLISS PLACE,3008 SHAWNEE DR S,IN,BEDFORD,LAWRENCE,47421,8122752468,N,N,N,N,RESIDENTIAL CARE FACILITIES,FREESTANDING RESIDENTIAL CARE FACILITIES,02R,ALL NURSING HOMES,N,N,0,9,On or Near Building,-9630132.82,4699452.103
"<a target=""_blank"" href=""http://www.in.gov/isdh/reports/QAMIS/ltccr/cr004016.htm"">View</a>",4016,MONROE PLACE,2770 S ADAMS RD,IN,BLOOMINGTON,MONROE,47403,8123318153,N,N,N,N,RESIDENTIAL CARE FACILITIES,FREESTANDING RESIDENTIAL CARE FACILITIES,02R,ALL NURSING HOMES,N,N,0,9,On or Near Building,-9635244.945,4741320.573
"<a target=""_blank"" href=""http://www.in.gov/isdh/reports/QAMIS/ltccr/cr004017.htm"">View</a>",4017,CHRISTINA PLACE,1435 CHRISTIAN BLVD,IN,FRANKLIN,JOHNSON,46131,3175356550,N,N,N,N,RESIDENTIAL CARE FACILITIES,FREESTANDING RESIDENTIAL CARE FACILITIES,02R,ALL NURSING HOMES,N,N,0,9,On or Near Building,-9582821.591,4799039.309
"<a target=""_blank"" href=""http://www.in.gov/isdh/reports/QAMIS/ltccr/cr004028.htm"">View</a>",4028,YORK PLACE,725 W 50TH ST,IN,MARION,GRANT,46953,7656770095,N,N,N,N,RESIDENTIAL CARE FACILITIES,FREESTANDING RESIDENTIAL CARE FACILITIES,02R,ALL NURSING HOMES,N,N,0,9,On or Near Building,-9536350.713,4940178.179
"<a target=""_blank"" href=""http://www.in.gov/isdh/reports/QAMIS/ltccr/cr004075.htm"">View</a>",004075NFS,THORNTON TERRACE HEALTH CAMPUS,188 THORNTON RD,IN,HANOVER,JEFFERSON,47243,8128668396,N,N,N,N,RESIDENTIAL CARE FACILITIES,NON-FREE STANDING RESIDENTIAL CARE FACILITIES,NFS,RESIDENTIAL NFS,N,N,0,9,On or Near Building,-9515053.513,4681209.947
"<a target=""_blank"" href=""http://www.in.gov/isdh/reports/QAMIS/ltccr/cr004130.htm"">View</a>",004130NFS,RIVEROAKS HEALTH CAMPUS,1244 VAIL ST,IN,PRINCETON,GIBSON,47670,8123850794,Y,N,N,N,RESIDENTIAL CARE FACILITIES,NON-FREE STANDING RESIDENTIAL CARE FACILITIES,NFS,RESIDENTIAL NFS,N,N,0,9,On or Near Building,-9751222.043,4627795.749
"<a target=""_blank"" href=""http://www.in.gov/isdh/reports/QAMIS/ltccr/cr004268.htm"">View</a>",004268NFS,ASHFORD PLACE HEALTH CAMPUS,2200 N RILEY HWY,IN,SHELBYVILLE,SHELBY,46176,3173988422,N,N,Y,N,RESIDENTIAL CARE FACILITIES,NON-FREE STANDING RESIDENTIAL CARE FACILITIES,NFS,RESIDENTIAL NFS,N,N,0,9,On or Near Building,-9548445.909,4801730.558
"<a target=""_blank"" href=""http://www.in.gov/isdh/reports/QAMIS/ltccr/cr004352.htm"">View</a>",4352,JEWEL PLACE,607 VIRGINIA AVE,IN,MADISON,JEFFERSON,47250,8122730432,N,N,N,N,RESIDENTIAL CARE FACILITIES,FREESTANDING RESIDENTIAL CARE FACILITIES,02R,ALL NURSING HOMES,N,N,0,9,On or Near Building,-9504563.766,4691003.407
"<a target=""_blank"" href=""http://www.in.gov/isdh/reports/QAMIS/ltccr/cr004353.htm"">View</a>",4353,ELKHART PLACE,2024 COUNTY ROAD 24,IN,ELKHART,ELKHART,46517,5742959058,N,N,N,N,RESIDENTIAL CARE FACILITIES,FREESTANDING RESIDENTIAL CARE FACILITIES,02R,ALL NURSING HOMES,N,N,0,9,On or Near Building,-9573441.588,5108233.249
"<a target=""_blank"" href=""http://www.in.gov/isdh/reports/QAMIS/ltccr/cr004376.htm"">View</a>",4376,SEYMOUR PLACE,2288 NICHOLAS CT,IN,SEYMOUR,JACKSON,47274,8125238991,N,N,N,N,RESIDENTIAL CARE FACILITIES,FREESTANDING RESIDENTIAL CARE FACILITIES,02R,ALL NURSING HOMES,N,N,0,9,On or Near Building,-9556352.154,4716110.175
"<a target=""_blank"" href=""http://www.in.gov/isdh/reports/QAMIS/ltccr/cr004392.htm"">View</a>",4392,DIGBY PLACE,167 CR W 240 S,IN,LAFAYETTE,TIPPECANOE,47905,7654718552,N,N,N,N,RESIDENTIAL CARE FACILITIES,FREESTANDING RESIDENTIAL CARE FACILITIES,02R,ALL NURSING HOMES,N,N,0,7,On or Near Building,-9674674.754,4921717.162
"<a target=""_blank"" href=""http://www.in.gov/isdh/reports/QAMIS/ltccr/cr004417.htm"">View</a>",4417,FIVE STAR RESIDENCES OF NOBLESVILLE,7235 RIVERWALK WAY N,IN,NOBLESVILLE,HAMILTON,46062,3177700011,N,N,Y,N,RESIDENTIAL CARE FACILITIES,FREESTANDING RESIDENTIAL CARE FACILITIES,02R,ALL NURSING HOMES,N,N,0,9,On or Near Building,-9578295.563,4872145.197
"<a target=""_blank"" href=""http://www.in.gov/isdh/reports/QAMIS/ltccr/cr004419.htm"">View</a>",4419,WHITLOCK PLACE,1719 S ELM ST,IN,CRAWFORDSVILLE,MONTGOMERY,47933,7653641880,N,N,N,N,RESIDENTIAL CARE FACILITIES,FREESTANDING RESIDENTIAL CARE FACILITIES,02R,ALL NURSING HOMES,N,N,0,9,On or Near Building,-9673334.244,4869144.136
"<a target=""_blank"" href=""http://www.in.gov/isdh/reports/QAMIS/ltccr/cr004426.htm"">View</a>",4426,ADDISON PLACE,2244 Q AVE,IN,NEW CASTLE,HENRY,47362,7655213220,N,N,N,N,RESIDENTIAL CARE FACILITIES,FREESTANDING RESIDENTIAL CARE FACILITIES,02R,ALL NURSING HOMES,N,N,0,9,On or Near Building,-9501702.855,4852853.174
"<a target=""_blank"" href=""http://www.in.gov/isdh/reports/QAMIS/ltccr/cr004428.htm"">View</a>",4428,LYND PLACE,2410 E MCGALLIARD RD,IN,MUNCIE,DELAWARE,47303,7652847670,N,N,N,N,RESIDENTIAL CARE FACILITIES,FREESTANDING RESIDENTIAL CARE FACILITIES,02R,ALL NURSING HOMES,N,N,0,9,On or Near Building,-9502103.049,4897893.502
"<a target=""_blank"" href=""http://www.in.gov/isdh/reports/QAMIS/ltccr/cr004440.htm"">View</a>",4440,CHANDLER PLACE,2879 S LIMA RD,IN,KENDALLVILLE,NOBLE,46755,2603491030,N,N,N,N,RESIDENTIAL CARE FACILITIES,FREESTANDING RESIDENTIAL CARE FACILITIES,02R,ALL NURSING HOMES,N,N,0,9,On or Near Building,-9490260.77,5072157.15
"<a target=""_blank"" href=""http://www.in.gov/isdh/reports/QAMIS/ltccr/cr004441.htm"">View</a>",4441,MCKINNEY PLACE,3901 HIGH STREET RD,IN,LOGANSPORT,CASS,46947,5747392134,N,N,N,N,RESIDENTIAL CARE FACILITIES,FREESTANDING RESIDENTIAL CARE FACILITIES,02R,ALL NURSING HOMES,N,N,0,9,On or Near Building,-9608555.54,4977606.872
"<a target=""_blank"" href=""http://www.in.gov/isdh/reports/QAMIS/ltccr/cr004442.htm"">View</a>",4442,BENNETT PLACE,3928 HORNE AVE,IN,NEW ALBANY,FLOYD,47150,8129481960,N,N,N,N,RESIDENTIAL CARE FACILITIES,FREESTANDING RESIDENTIAL CARE FACILITIES,02R,ALL NURSING HOMES,N,N,0,9,On or Near Building,-9551332.98,4628813.438
"<a target=""_blank"" href=""http://www.in.gov/isdh/reports/QAMIS/ltccr/cr004444.htm"">View</a>",4444,WALKER PLACE,2216 N RILEY HWY,IN,SHELBYVILLE,SHELBY,46176,3173923370,N,N,N,N,RESIDENTIAL CARE FACILITIES,FREESTANDING RESIDENTIAL CARE FACILITIES,02R,ALL NURSING HOMES,N,N,0,9,On or Near Building,-9548476.634,4801857.473
"<a target=""_blank"" href=""http://www.in.gov/isdh/reports/QAMIS/ltccr/cr004458.htm"">View</a>",4458,SETTLERS PLACE,3304 MONROE ST,IN,LA PORTE,LA PORTE,46350,2193267283,N,N,N,N,RESIDENTIAL CARE FACILITIES,FREESTANDING RESIDENTIAL CARE FACILITIES,02R,ALL NURSING HOMES,N,N,0,9,On or Near Building,-9649597.923,5100927.495
"<a target=""_blank"" href=""http://www.in.gov/isdh/reports/QAMIS/ltccr/cr004503.htm"">View</a>",4503,LAFAYETTE BICKFORD COTTAGE LLC,3633 REGAL VALLEY DR,IN,LAFAYETTE,TIPPECANOE,47901,7654770770,N,N,N,N,RESIDENTIAL CARE FACILITIES,FREESTANDING RESIDENTIAL CARE FACILITIES,02R,ALL NURSING HOMES,N,N,0,9,On or Near Building,-9670287.652,4919087.73
"<a target=""_blank"" href=""http://www.in.gov/isdh/reports/QAMIS/ltccr/cr004550.htm"">View</a>",004550NFS,MILL POND HEALTH CAMPUS,1014 MILL POND LANE,IN,GREENCASTLE,PUTNAM,46135,7656534397,N,N,Y,N,RESIDENTIAL CARE FACILITIES,NON-FREE STANDING RESIDENTIAL CARE FACILITIES,NFS,RESIDENTIAL NFS,N,N,0,9,On or Near Building,-9666780.532,4813927.482
"<a target=""_blank"" href=""http://www.in.gov/isdh/reports/QAMIS/ltccr/cr004671.htm"">View</a>",004671NFS,ST ANDREWS HEALTH CAMPUS,1400 LAMMERS PIKE,IN,BATESVILLE,RIPLEY,47006,8129345090,N,N,Y,N,RESIDENTIAL CARE FACILITIES,NON-FREE STANDING RESIDENTIAL CARE FACILITIES,NFS,RESIDENTIAL NFS,N,N,0,9,On or Near Building,-9484298.053,4763949.716
"<a target=""_blank"" href=""http://www.in.gov/isdh/reports/QAMIS/ltccr/cr004686.htm"">View</a>",4686,HAMILTON PLACE,2116 BUTLER RD,IN,FORT WAYNE,ALLEN,46815,2604710944,N,N,N,N,RESIDENTIAL CARE FACILITIES,FREESTANDING RESIDENTIAL CARE FACILITIES,02R,ALL NURSING HOMES,N,N,0,9,On or Near Building,-9481076.467,5028124.267
"<a target=""_blank"" href=""http://www.in.gov/isdh/reports/QAMIS/ltccr/cr004831.htm"">View</a>",004831NFS,MEADOW LAKES,200 MEADOW LAKE DR,IN,MOORESVILLE,MORGAN,46158,3178341791,N,N,Y,N,RESIDENTIAL CARE FACILITIES,NON-FREE STANDING RESIDENTIAL CARE FACILITIES,NFS,RESIDENTIAL NFS,N,N,0,9,On or Near Building,-9613027.021,4811462.598
"<a target=""_blank"" href=""http://www.in.gov/isdh/reports/QAMIS/ltccr/cr004902.htm"">View</a>",004902NFS,HAMPTON OAKS HEALTH CAMPUS,966 N WILSON RD,IN,SCOTTSBURG,SCOTT,47170,8127522694,N,N,N,N,RESIDENTIAL CARE FACILITIES,NON-FREE STANDING RESIDENTIAL CARE FACILITIES,NFS,RESIDENTIAL NFS,N,N,0,9,On or Near Building,-9551058.578,4679679.33
"<a target=""_blank"" href=""http://www.in.gov/isdh/reports/QAMIS/ltccr/cr004903.htm"">View</a>",4903,BELL OAKS PLACE,4200 WYNTREE DR,IN,NEWBURGH,WARRICK,47630,8128580488,N,N,N,N,RESIDENTIAL CARE FACILITIES,FREESTANDING RESIDENTIAL CARE FACILITIES,02R,ALL NURSING HOMES,N,N,0,9,On or Near Building,-9728916.177,4575658.639
"<a target=""_blank"" href=""http://www.in.gov/isdh/reports/QAMIS/ltccr/cr004904.htm"">View</a>",4904,EMERALD PLACE,297 S 100 E,IN,WASHINGTON,DAVIESS,47501,8122545230,N,N,N,N,RESIDENTIAL CARE FACILITIES,FREESTANDING RESIDENTIAL CARE FACILITIES,02R,ALL NURSING HOMES,N,N,0,5,General Location,-9701640.787,4669303.321
"<a target=""_blank"" href=""http://www.in.gov/isdh/reports/QAMIS/ltccr/cr005616.htm"">View</a>",5616,BRIDGE AT GARDEN PLAZA,8614 W 10TH  ST,IN,INDIANAPOLIS,MARION,46234,3172711020,N,N,N,N,RESIDENTIAL CARE FACILITIES,FREESTANDING RESIDENTIAL CARE FACILITIES,02R,ALL NURSING HOMES,N,N,0,9,On or Near Building,-9608379.989,4833942.096
"<a target=""_blank"" href=""http://www.in.gov/isdh/reports/QAMIS/ltccr/cr005657.htm"">View</a>",5657,SANDERS GLEN,334 S CHERRY ST,IN,WESTFIELD,HAMILTON,46074,3178670212,N,N,N,N,RESIDENTIAL CARE FACILITIES,FREESTANDING RESIDENTIAL CARE FACILITIES,02R,ALL NURSING HOMES,N,N,0,9,On or Near Building,-9587085.795,4871732.101
"<a target=""_blank"" href=""http://www.in.gov/isdh/reports/QAMIS/ltccr/cr005722.htm"">View</a>",5722,HEARTH AT STONES CROSSING LLC THE,2339 S STATE ROAD 135,IN,GREENWOOD,JOHNSON,46143,3175350422,N,N,Y,N,RESIDENTIAL CARE FACILITIES,FREESTANDING RESIDENTIAL CARE FACILITIES,02R,ALL NURSING HOMES,N,N,0,9,On or Near Building,-9591343.543,4805266.864
"<a target=""_blank"" href=""http://www.in.gov/isdh/reports/QAMIS/ltccr/cr005729.htm"">View</a>",5729,CROWNPOINTE OF INDIANAPOLIS,7365 E 16TH ST,IN,INDIANAPOLIS,MARION,46219,3173512578,N,N,N,N,RESIDENTIAL CARE FACILITIES,FREESTANDING RESIDENTIAL CARE FACILITIES,02R,ALL NURSING HOMES,N,N,0,9,On or Near Building,-9577833.476,4835317.691
"<a target=""_blank"" href=""http://www.in.gov/isdh/reports/QAMIS/ltccr/cr005846.htm"">View</a>",5846,COVENTRY MEADOWS ASSISTED LIVING,7833 W JEFFERSON BLVD,IN,FORT WAYNE,ALLEN,46804,2604324848,N,N,Y,N,RESIDENTIAL CARE FACILITIES,FREESTANDING RESIDENTIAL CARE FACILITIES,02R,ALL NURSING HOMES,N,N,0,9,On or Near Building,-9489169.171,5017873.152
"<a target=""_blank"" href=""http://www.in.gov/isdh/reports/QAMIS/ltccr/cr005954.htm"">View</a>",005954NFS,SPRINGHURST HEALTH CAMPUS,628 N MERIDIAN RD,IN,GREENFIELD,HANCOCK,46140,3174627067,N,N,Y,N,RESIDENTIAL CARE FACILITIES,NON-FREE STANDING RESIDENTIAL CARE FACILITIES,NFS,RESIDENTIAL NFS,N,N,0,9,On or Near Building,-9551442.964,4835906.607
"<a target=""_blank"" href=""http://www.in.gov/isdh/reports/QAMIS/ltccr/cr006489.htm"">View</a>",6489,CHATEAU OF BATESVILLE,44 CHATEAU BLVD,IN,BATESVILLE,RIPLEY,47006,8129328888,N,N,N,N,RESIDENTIAL CARE FACILITIES,FREESTANDING RESIDENTIAL CARE FACILITIES,02R,ALL NURSING HOMES,N,N,0,9,On or Near Building,-9484331.56,4763897.502
"<a target=""_blank"" href=""http://www.in.gov/isdh/reports/QAMIS/ltccr/cr009669.htm"">View</a>",9669,TANGLEWOOD TRACE,530 W TANGLEWOOD LN,IN,MISHAWAKA,ST JOSEPH,46545,5742774310,N,N,N,N,RESIDENTIAL CARE FACILITIES,FREESTANDING RESIDENTIAL CARE FACILITIES,02R,ALL NURSING HOMES,N,N,0,9,On or Near Building,-9594688.026,5116287.339
"<a target=""_blank"" href=""http://www.in.gov/isdh/reports/QAMIS/ltccr/cr009894.htm"">View</a>",9894,"WYNDMOOR OF CASTLETON, LLC",8480 CRAIG ST,IN,INDIANAPOLIS,MARION,46250,3178426564,N,N,N,N,RESIDENTIAL CARE FACILITIES,FREESTANDING RESIDENTIAL CARE FACILITIES,02R,ALL NURSING HOMES,N,N,0,9,On or Near Building,-9579507.61,4852923.125
"<a target=""_blank"" href=""http://www.in.gov/isdh/reports/QAMIS/ltccr/cr010064.htm"">View</a>",10064,KESSLERWOOD PLACE,5011 KESSLER BLVD E,IN,INDIANAPOLIS,MARION,46220,3172511300,N,N,Y,N,RESIDENTIAL CARE FACILITIES,FREESTANDING RESIDENTIAL CARE FACILITIES,02R,ALL NURSING HOMES,N,N,0,9,On or Near Building,-9583017.29,4845229.877
"<a target=""_blank"" href=""http://www.in.gov/isdh/reports/QAMIS/ltccr/cr010065.htm"">View</a>",10065,EASTLAKE TERRACE,3109 E BRISTOL,IN,ELKHART,ELKHART,46514,5742664508,N,N,N,N,RESIDENTIAL CARE FACILITIES,FREESTANDING RESIDENTIAL CARE FACILITIES,02R,ALL NURSING HOMES,N,N,0,9,On or Near Building,-9565916.613,5116411.984
"<a target=""_blank"" href=""http://www.in.gov/isdh/reports/QAMIS/ltccr/cr010234.htm"">View</a>",10234,WILLOW LAKE PLACE,2725 LAKE CIRCLE DR,IN,INDIANAPOLIS,MARION,46268,3173349400,N,N,Y,N,RESIDENTIAL CARE FACILITIES,FREESTANDING RESIDENTIAL CARE FACILITIES,02R,ALL NURSING HOMES,N,N,0,9,On or Near Building,-9596672.518,4853309.17
"<a target=""_blank"" href=""http://www.in.gov/isdh/reports/QAMIS/ltccr/cr010235.htm"">View</a>",10235,CHAPMAN PLACE,3110 E COLISEUM BLVD,IN,FORT WAYNE,ALLEN,46805,2604713110,N,N,Y,N,RESIDENTIAL CARE FACILITIES,FREESTANDING RESIDENTIAL CARE FACILITIES,02R,ALL NURSING HOMES,N,N,0,9,On or Near Building,-9473265.735,5028462.597
"<a target=""_blank"" href=""http://www.in.gov/isdh/reports/QAMIS/ltccr/cr010409.htm"">View</a>",10409,KEYSTONE WOODS,2335 N MADISON AVE,IN,ANDERSON,MADISON,46011,7656428020,N,N,N,N,RESIDENTIAL CARE FACILITIES,FREESTANDING RESIDENTIAL CARE FACILITIES,02R,ALL NURSING HOMES,N,N,0,9,On or Near Building,-9539131.919,4886362.355
"<a target=""_blank"" href=""http://www.in.gov/isdh/reports/QAMIS/ltccr/cr010416.htm"">View</a>",10416,BROOKDALE CARMEL,301 EXECUTIVE DR,IN,CARMEL,HAMILTON,46032,3175800389,N,N,Y,N,RESIDENTIAL CARE FACILITIES,FREESTANDING RESIDENTIAL CARE FACILITIES,02R,ALL NURSING HOMES,N,N,0,9,On or Near Building,-9587090.805,4860646.878
"<a target=""_blank"" href=""http://www.in.gov/isdh/reports/QAMIS/ltccr/cr010610.htm"">View</a>",10610,TRAIL CREEK PLACE- ASSISTED LIVING,1400 E COOLSPRING AVE,IN,MICHIGAN CITY,LA PORTE,46360,2198745500,N,N,Y,N,RESIDENTIAL CARE FACILITIES,FREESTANDING RESIDENTIAL CARE FACILITIES,02R,ALL NURSING HOMES,N,N,0,9,On or Near Building,-9670618.383,5115410.692
"<a target=""_blank"" href=""http://www.in.gov/isdh/reports/QAMIS/ltccr/cr010667.htm"">View</a>",10667,BROOKDALE SOUTH BEND,17441 SR 23,IN,SOUTH BEND,ST JOSEPH,46635,5742732233,N,N,N,N,RESIDENTIAL CARE FACILITIES,FREESTANDING RESIDENTIAL CARE FACILITIES,02R,ALL NURSING HOMES,N,N,0,9,On or Near Building,-9596406.687,5117374.761
"<a target=""_blank"" href=""http://www.in.gov/isdh/reports/QAMIS/ltccr/cr010680.htm"">View</a>",10680,KEEPSAKE VILLAGE OF COLUMBUS,2564 FOXPOINTE DR,IN,COLUMBUS,BARTHOLOMEW,47201,8123720950,N,N,Y,N,RESIDENTIAL CARE FACILITIES,FREESTANDING RESIDENTIAL CARE FACILITIES,02R,ALL NURSING HOMES,N,N,0,9,On or Near Building,-9559090.168,4753842.399
"<a target=""_blank"" href=""http://www.in.gov/isdh/reports/QAMIS/ltccr/cr010681.htm"">View</a>",10681,WYNDMOOR OF EVANSVILLE LLC,6521 GREENDALE DR,IN,EVANSVILLE,VANDERBURGH,47711,8128677900,N,N,N,N,RESIDENTIAL CARE FACILITIES,FREESTANDING RESIDENTIAL CARE FACILITIES,02R,ALL NURSING HOMES,N,N,0,9,On or Near Building,-9746566.773,4584831.372
"<a target=""_blank"" href=""http://www.in.gov/isdh/reports/QAMIS/ltccr/cr010682.htm"">View</a>",10682,"WYNDMOOR OF MARION, LLC",2452 W KEM RD,IN,MARION,GRANT,46952,7653844500,N,N,N,N,RESIDENTIAL CARE FACILITIES,FREESTANDING RESIDENTIAL CARE FACILITIES,02R,ALL NURSING HOMES,N,N,0,9,On or Near Building,-9539499.496,4949826.5
"<a target=""_blank"" href=""http://www.in.gov/isdh/reports/QAMIS/ltccr/cr010739.htm"">View</a>",010739NFS,SPRING MILL HEALTH CAMPUS,101 W 87TH AVE,IN,MERRILLVILLE,LAKE,46410,2197560744,N,Y,Y,N,RESIDENTIAL CARE FACILITIES,NON-FREE STANDING RESIDENTIAL CARE FACILITIES,NFS,RESIDENTIAL NFS,N,N,0,9,On or Near Building,-9722415.23,5080268.109
"<a target=""_blank"" href=""http://www.in.gov/isdh/reports/QAMIS/ltccr/cr010757.htm"">View</a>",10757,BROOKDALE VALPARAISO,2601 VALPARAISO ST,IN,VALPARAISO,PORTER,46383,2195482230,N,N,Y,N,RESIDENTIAL CARE FACILITIES,FREESTANDING RESIDENTIAL CARE FACILITIES,02R,ALL NURSING HOMES,N,N,0,9,On or Near Building,-9691128.22,5085187.483
"<a target=""_blank"" href=""http://www.in.gov/isdh/reports/QAMIS/ltccr/cr010823.htm"">View</a>",010823NFS,OAK GROVE CHRISTIAN RETIREMENT VILLAGE,221 W DIVISION ST,IN,DEMOTTE,JASPER,46310,2199877005,N,N,N,N,RESIDENTIAL CARE FACILITIES,NON-FREE STANDING RESIDENTIAL CARE FACILITIES,NFS,RESIDENTIAL NFS,N,N,0,9,On or Near Building,-9707285.464,5042209.653
"<a target=""_blank"" href=""http://www.in.gov/isdh/reports/QAMIS/ltccr/cr010885.htm"">View</a>",10885,RIVERBEND,2715 CHARLESTOWN PIKE,IN,JEFFERSONVILLE,CLARK,47130,8122800965,N,N,N,N,RESIDENTIAL CARE FACILITIES,FREESTANDING RESIDENTIAL CARE FACILITIES,02R,ALL NURSING HOMES,N,N,0,9,On or Near Building,-9542997.934,4626247.834
"<a target=""_blank"" href=""http://www.in.gov/isdh/reports/QAMIS/ltccr/cr010886.htm"">View</a>",10886,ELMCROFT OF MUNCIE,1601 N MORRISON RD,IN,MUNCIE,DELAWARE,47304,7652894260,N,N,Y,N,RESIDENTIAL CARE FACILITIES,FREESTANDING RESIDENTIAL CARE FACILITIES,02R,ALL NURSING HOMES,N,N,0,9,On or Near Building,-9511525.353,4896055.736
"<a target=""_blank"" href=""http://www.in.gov/isdh/reports/QAMIS/ltccr/cr010887.htm"">View</a>",10887,VIRGINIA PLACE,8253 VIRGINIA ST,IN,MERRILLVILLE,LAKE,46410,2197369383,N,N,N,N,RESIDENTIAL CARE FACILITIES,FREESTANDING RESIDENTIAL CARE FACILITIES,02R,ALL NURSING HOMES,N,N,0,9,On or Near Building,-9721392.204,5081589.303
"<a target=""_blank"" href=""http://www.in.gov/isdh/reports/QAMIS/ltccr/cr010888.htm"">View</a>",10888,BROOKDALE RICHMOND,3700 SOUTH A STREET,IN,RICHMOND,WAYNE,47374,7659393310,N,N,N,N,RESIDENTIAL CARE FACILITIES,FREESTANDING RESIDENTIAL CARE FACILITIES,02R,ALL NURSING HOMES,N,N,0,9,On or Near Building,-9445513.563,4840800.663
"<a target=""_blank"" href=""http://www.in.gov/isdh/reports/QAMIS/ltccr/cr010889.htm"">View</a>",10889,"WYNDMOOR OF PORTAGE, LLC",3444 SWANSON RD,IN,PORTAGE,PORTER,46368,2197634867,N,N,N,N,RESIDENTIAL CARE FACILITIES,FREESTANDING RESIDENTIAL CARE FACILITIES,02R,ALL NURSING HOMES,N,N,0,9,On or Near Building,-9706796.438,5094142.707
"<a target=""_blank"" href=""http://www.in.gov/isdh/reports/QAMIS/ltccr/cr010890.htm"">View</a>",10890,BRENTWOOD AT LAPORTE,2002 ANDREW AVE,IN,LA PORTE,LA PORTE,46350,2193251599,N,N,Y,N,RESIDENTIAL CARE FACILITIES,FREESTANDING RESIDENTIAL CARE FACILITIES,02R,ALL NURSING HOMES,N,N,0,9,On or Near Building,-9655236.144,5099509.578
"<a target=""_blank"" href=""http://www.in.gov/isdh/reports/QAMIS/ltccr/cr010930.htm"">View</a>",010930NFS,TERRACE AT SOLARBRON THE,1701 MCDOWELL RD,IN,EVANSVILLE,VANDERBURGH,47712,8129850055,N,N,N,N,RESIDENTIAL CARE FACILITIES,NON-FREE STANDING RESIDENTIAL CARE FACILITIES,NFS,RESIDENTIAL NFS,N,N,0,9,On or Near Building,-9761316.383,4573522.98
"<a target=""_blank"" href=""http://www.in.gov/isdh/reports/QAMIS/ltccr/cr010937.htm"">View</a>",10937,ASSISTED LIVING AT HARTSFIELD VILLAGE,10002 COLUMBIA AVE,IN,MUNSTER,LAKE,46321,2199340580,N,N,Y,N,RESIDENTIAL CARE FACILITIES,FREESTANDING RESIDENTIAL CARE FACILITIES,02R,ALL NURSING HOMES,N,N,0,9,On or Near Building,-9742165.646,5090948.321
"<a target=""_blank"" href=""http://www.in.gov/isdh/reports/QAMIS/ltccr/cr011039.htm"">View</a>",011039NFS,MORNING BREEZE RETIREMENT COMMUNITY AND HEALTHCARE,950 N LAKEVIEW DR,IN,GREENSBURG,DECATUR,47240,8126627778,N,N,N,N,RESIDENTIAL CARE FACILITIES,NON-FREE STANDING RESIDENTIAL CARE FACILITIES,NFS,RESIDENTIAL NFS,N,N,0,9,On or Near Building,-9517381.983,4771128.702
"<a target=""_blank"" href=""http://www.in.gov/isdh/reports/QAMIS/ltccr/cr011045.htm"">View</a>",011045NFS,BETHANY POINTE HEALTH CAMPUS,1707 BETHANY RD,IN,ANDERSON,MADISON,46012,7656221211,N,N,Y,N,RESIDENTIAL CARE FACILITIES,NON-FREE STANDING RESIDENTIAL CARE FACILITIES,NFS,RESIDENTIAL NFS,N,N,0,9,On or Near Building,-9535576.374,4885989.582
"<a target=""_blank"" href=""http://www.in.gov/isdh/reports/QAMIS/ltccr/cr011075.htm"">View</a>",11075,KOKOMO PLACE,3025 W SYCAMORE ST,IN,KOKOMO,HOWARD,46901,7654561490,N,N,N,N,RESIDENTIAL CARE FACILITIES,FREESTANDING RESIDENTIAL CARE FACILITIES,02R,ALL NURSING HOMES,N,N,0,9,On or Near Building,-9592840.234,4937016.724
"<a target=""_blank"" href=""http://www.in.gov/isdh/reports/QAMIS/ltccr/cr011076.htm"">View</a>",11076,BROOKDALE BLOOMINGTON,3802 SARE RD,IN,BLOOMINGTON,MONROE,47401,8123300885,N,N,N,N,RESIDENTIAL CARE FACILITIES,FREESTANDING RESIDENTIAL CARE FACILITIES,02R,ALL NURSING HOMES,N,N,0,9,On or Near Building,-9629715.149,4739780.58
"<a target=""_blank"" href=""http://www.in.gov/isdh/reports/QAMIS/ltccr/cr011150.htm"">View</a>",011150NFS,WATERFORD CROSSING,1332 WATERFORD CIR,IN,GOSHEN,ELKHART,46526,5745343920,Y,N,N,N,RESIDENTIAL CARE FACILITIES,NON-FREE STANDING RESIDENTIAL CARE FACILITIES,NFS,RESIDENTIAL NFS,N,N,0,9,On or Near Building,-9552923.291,5092677.899
"<a target=""_blank"" href=""http://www.in.gov/isdh/reports/QAMIS/ltccr/cr011151.htm"">View</a>",011151NFS,"RETREAT AT THE STRATFORD, THE",2460 GLEBE ST,IN,CARMEL,HAMILTON,46032,3177339560,N,N,Y,N,RESIDENTIAL CARE FACILITIES,NON-FREE STANDING RESIDENTIAL CARE FACILITIES,NFS,RESIDENTIAL NFS,N,N,0,7,On or Near Building,-9596170.913,4862037.646
"<a target=""_blank"" href=""http://www.in.gov/isdh/reports/QAMIS/ltccr/cr011187.htm"">View</a>",011187NFS,GLEN OAKS HEALTH CAMPUS,601 W CR 200 S,IN,NEW CASTLE,HENRY,47362,7655295796,N,N,Y,N,RESIDENTIAL CARE FACILITIES,NON-FREE STANDING RESIDENTIAL CARE FACILITIES,NFS,RESIDENTIAL NFS,N,N,0,9,On or Near Building,-9505795.628,4851842.279
"<a target=""_blank"" href=""http://www.in.gov/isdh/reports/QAMIS/ltccr/cr011274.htm"">View</a>",11274,RIVERWALK COMMUNITIES,401 S.E. 6TH STREET,IN,EVANSVILLE,VANDERBURGH,47713,8124251041,N,N,N,N,RESIDENTIAL CARE FACILITIES,FREESTANDING RESIDENTIAL CARE FACILITIES,02R,ALL NURSING HOMES,N,N,0,9,On or Near Building,-9747835.927,4575061.598
"<a target=""_blank"" href=""http://www.in.gov/isdh/reports/QAMIS/ltccr/cr011296.htm"">View</a>",011296NFS,NORTH RIDGE VILLAGE NURSING & REHABILITATION CENTE,600 TRAIL RIDGE RD,IN,ALBION,NOBLE,46701,2606361000,Y,Y,N,N,RESIDENTIAL CARE FACILITIES,NON-FREE STANDING RESIDENTIAL CARE FACILITIES,NFS,RESIDENTIAL NFS,N,N,0,9,On or Near Building,-9508587.298,5072102.979
"<a target=""_blank"" href=""http://www.in.gov/isdh/reports/QAMIS/ltccr/cr011366.htm"">View</a>",11366,BLOOM AT KOKOMO,2800 S DIXON RD,IN,KOKOMO,HOWARD,46902,7654552828,N,N,Y,N,RESIDENTIAL CARE FACILITIES,FREESTANDING RESIDENTIAL CARE FACILITIES,02R,ALL NURSING HOMES,N,N,0,7,On or Near Building,-9591858.841,4931728.875
"<a target=""_blank"" href=""http://www.in.gov/isdh/reports/QAMIS/ltccr/cr011387.htm"">View</a>",011387NFS,FOREST PARK HEALTH CAMPUS,2401 SOUTH L ST,IN,RICHMOND,WAYNE,47374,7659665705,Y,N,N,N,RESIDENTIAL CARE FACILITIES,NON-FREE STANDING RESIDENTIAL CARE FACILITIES,NFS,RESIDENTIAL NFS,N,N,0,9,On or Near Building,-9447568.521,4838816.057
"<a target=""_blank"" href=""http://www.in.gov/isdh/reports/QAMIS/ltccr/cr011389.htm"">View</a>",11389,LAKE CITY PLACE,425 CHINWORTH CT,IN,WARSAW,KOSCIUSKO,46580,5742673873,N,N,N,Y,RESIDENTIAL CARE FACILITIES,FREESTANDING RESIDENTIAL CARE FACILITIES,02R,ALL NURSING HOMES,N,N,0,9,On or Near Building,-9553441.594,5048006.917
"<a target=""_blank"" href=""http://www.in.gov/isdh/reports/QAMIS/ltccr/cr011478.htm"">View</a>",11478,COUNTRY CHARM,3177 MERIDIAN PARKE DR,IN,GREENWOOD,JOHNSON,46142,3178825455,N,N,Y,Y,RESIDENTIAL CARE FACILITIES,FREESTANDING RESIDENTIAL CARE FACILITIES,02R,ALL NURSING HOMES,N,N,0,9,On or Near Building,-9591374.267,4810561.527
"<a target=""_blank"" href=""http://www.in.gov/isdh/reports/QAMIS/ltccr/cr011509.htm"">View</a>",011509NFS,VILLAS OF GUERIN WOODS,1002 SISTER BARBARA WAY,IN,GEORGETOWN,FLOYD,47122,8129511878,N,N,Y,N,RESIDENTIAL CARE FACILITIES,NON-FREE STANDING RESIDENTIAL CARE FACILITIES,NFS,RESIDENTIAL NFS,N,N,0,9,On or Near Building,-9566797.039,4622162.383
"<a target=""_blank"" href=""http://www.in.gov/isdh/reports/QAMIS/ltccr/cr011555.htm"">View</a>",11555,PRIMROSE RETIREMENT COMMUNITY OF KOKOMO,329 W RAINBOW DR,IN,KOKOMO,HOWARD,46901,7654551700,N,N,N,N,RESIDENTIAL CARE FACILITIES,FREESTANDING RESIDENTIAL CARE FACILITIES,02R,ALL NURSING HOMES,N,N,0,9,On or Near Building,-9588406.586,4931374.212
"<a target=""_blank"" href=""http://www.in.gov/isdh/reports/QAMIS/ltccr/cr011587.htm"">View</a>",11587,ROSEWALK AT LUTHERWOODS,1301 N RITTER AVE,IN,INDIANAPOLIS,MARION,46219,3173562760,N,N,N,N,RESIDENTIAL CARE FACILITIES,FREESTANDING RESIDENTIAL CARE FACILITIES,02R,ALL NURSING HOMES,N,N,0,9,On or Near Building,-9581681.123,4834839.485
"<a target=""_blank"" href=""http://www.in.gov/isdh/reports/QAMIS/ltccr/cr011596.htm"">View</a>",011596NFS,MORRISON WOODS HEALTH CAMPUS,4100 N MORRISON RD,IN,MUNCIE,DELAWARE,47304,7652869066,N,N,Y,N,RESIDENTIAL CARE FACILITIES,NON-FREE STANDING RESIDENTIAL CARE FACILITIES,NFS,RESIDENTIAL NFS,N,N,0,9,On or Near Building,-9511387.206,4898964.949
"<a target=""_blank"" href=""http://www.in.gov/isdh/reports/QAMIS/ltccr/cr011799.htm"">View</a>",11799,GREENBRIAR VILLAGE,8800 SPOON DR,IN,INDIANAPOLIS,MARION,46219,3178996777,N,N,N,N,RESIDENTIAL CARE FACILITIES,FREESTANDING RESIDENTIAL CARE FACILITIES,02R,ALL NURSING HOMES,N,N,0,7,On or Near Building,-9574767.514,4834851.364
"<a target=""_blank"" href=""http://www.in.gov/isdh/reports/QAMIS/ltccr/cr011804.htm"">View</a>",11804,HEARTH AT SYCAMORE VILLAGE LLC,611 W COUNTY LINE RD SOUTH,IN,FORT WAYNE,ALLEN,46814,2606254025,N,N,Y,N,RESIDENTIAL CARE FACILITIES,FREESTANDING RESIDENTIAL CARE FACILITIES,02R,ALL NURSING HOMES,N,N,0,7,On or Near Building,-9499656.024,5024575.766
"<a target=""_blank"" href=""http://www.in.gov/isdh/reports/QAMIS/ltccr/cr011806.htm"">View</a>",11806,PRIMROSE RETIREMENT COMMUNITY OF ANDERSON,1118 W CROSS ST,IN,ANDERSON,MADISON,46011,7656435000,N,N,N,N,RESIDENTIAL CARE FACILITIES,FREESTANDING RESIDENTIAL CARE FACILITIES,02R,ALL NURSING HOMES,N,N,0,9,On or Near Building,-9539485.47,4885558.581
"<a target=""_blank"" href=""http://www.in.gov/isdh/reports/QAMIS/ltccr/cr011840.htm"">View</a>",11840,SUMMIT PLACE WEST,55 N MISSION DR,IN,INDIANAPOLIS,MARION,46214,3172442600,N,N,N,N,RESIDENTIAL CARE FACILITIES,FREESTANDING RESIDENTIAL CARE FACILITIES,02R,ALL NURSING HOMES,N,N,0,9,On or Near Building,-9603930.438,4831997.813
"<a target=""_blank"" href=""http://www.in.gov/isdh/reports/QAMIS/ltccr/cr011906.htm"">View</a>",011906NFS,COBBLESTONE CROSSINGS HEALTH CAMPUS,1850 E HOWARD WAYNE DR,IN,TERRE HAUTE,VIGO,47802,8122320406,N,N,Y,N,RESIDENTIAL CARE FACILITIES,NON-FREE STANDING RESIDENTIAL CARE FACILITIES,NFS,RESIDENTIAL NFS,N,N,0,9,On or Near Building,-9727979.535,4776484.151
"<a target=""_blank"" href=""http://www.in.gov/isdh/reports/QAMIS/ltccr/cr011914.htm"">View</a>",11914,CROWN POINTE SENIOR LIVING COMMUNITY,1034 CROWN POINTE BLVD,IN,GREENSBURG,DECATUR,47240,8126628888,N,N,N,N,RESIDENTIAL CARE FACILITIES,FREESTANDING RESIDENTIAL CARE FACILITIES,02R,ALL NURSING HOMES,N,N,0,7,On or Near Building,-9514424.224,4768545.657
"<a target=""_blank"" href=""http://www.in.gov/isdh/reports/QAMIS/ltccr/cr011970.htm"">View</a>",11970,VERMILLION PLACE,449 MAIN ST,IN,ANDERSON,MADISON,46016,7656227825,N,N,N,N,RESIDENTIAL CARE FACILITIES,FREESTANDING RESIDENTIAL CARE FACILITIES,02R,ALL NURSING HOMES,N,N,0,7,On or Near Building,-9537609.402,4882172.383
"<a target=""_blank"" href=""http://www.in.gov/isdh/reports/QAMIS/ltccr/cr012007.htm"">View</a>",12007,RIVER CROSSING ASSISTED LIVING,2400 MARKET ST,IN,CHARLESTOWN,CLARK,47111,8124061099,N,N,N,N,RESIDENTIAL CARE FACILITIES,FREESTANDING RESIDENTIAL CARE FACILITIES,02R,ALL NURSING HOMES,N,N,0,9,On or Near Building,-9536648.381,4646641.901
"<a target=""_blank"" href=""http://www.in.gov/isdh/reports/QAMIS/ltccr/cr012107.htm"">View</a>",12107,APPLE RIDGE ASSISTED LIVING AND MEMORY CARE,3320 EAST STATE BOULEVARD,IN,FORT WAYNE,ALLEN,46805,2604834343,N,N,N,N,RESIDENTIAL CARE FACILITIES,FREESTANDING RESIDENTIAL CARE FACILITIES,02R,ALL NURSING HOMES,N,N,0,9,On or Near Building,-9472902.844,5026690.658
"<a target=""_blank"" href=""http://www.in.gov/isdh/reports/QAMIS/ltccr/cr012129.htm"">View</a>",12129,CROWNPOINTE OF ANDERSON,2727 CROWNPOINTE CIRCLE,IN,ANDERSON,MADISON,46012,7656419995,N,N,N,N,RESIDENTIAL CARE FACILITIES,FREESTANDING RESIDENTIAL CARE FACILITIES,02R,ALL NURSING HOMES,N,N,0,9,On or Near Building,-9533897.788,4882562.333
"<a target=""_blank"" href=""http://www.in.gov/isdh/reports/QAMIS/ltccr/cr012141.htm"">View</a>",12141,SUNRISE ON OLD MERIDIAN,12130 OLD MERIDIAN ST,IN,CARMEL,HAMILTON,46032,3175690100,N,N,Y,N,RESIDENTIAL CARE FACILITIES,FREESTANDING RESIDENTIAL CARE FACILITIES,02R,ALL NURSING HOMES,N,N,0,7,On or Near Building,-9590801.195,4861250.222
"<a target=""_blank"" href=""http://www.in.gov/isdh/reports/QAMIS/ltccr/cr012161.htm"">View</a>",12161,AZALEA HILLS,3700 LAFAYETTE PKWY,IN,FLOYDS KNOBS,FLOYD,47119,8129234888,N,N,N,N,RESIDENTIAL CARE FACILITIES,FREESTANDING RESIDENTIAL CARE FACILITIES,02R,ALL NURSING HOMES,N,N,0,9,On or Near Building,-9559349.765,4625709.304
"<a target=""_blank"" href=""http://www.in.gov/isdh/reports/QAMIS/ltccr/cr012180.htm"">View</a>",12180,RITTENHOUSE VILLAGE AT MICHIGAN CITY,4300 CLEVELAND RD,IN,MICHIGAN CITY,LA PORTE,46360,2198726800,N,N,Y,N,RESIDENTIAL CARE FACILITIES,FREESTANDING RESIDENTIAL CARE FACILITIES,02R,ALL NURSING HOMES,N,N,0,7,On or Near Building,-9671933.956,5112547.536
"<a target=""_blank"" href=""http://www.in.gov/isdh/reports/QAMIS/ltccr/cr012181.htm"">View</a>",12181,RITTENHOUSE VILLAGE AT VALPARAISO,1300 VALE PARK RD,IN,VALPARAISO,PORTER,46383,2195312484,N,N,Y,N,RESIDENTIAL CARE FACILITIES,FREESTANDING RESIDENTIAL CARE FACILITIES,02R,ALL NURSING HOMES,N,N,0,7,On or Near Building,-9689991.091,5085257.035
"<a target=""_blank"" href=""http://www.in.gov/isdh/reports/QAMIS/ltccr/cr012229.htm"">View</a>",12229,HEARTH AT JUDAY CREEK LLC,6330 N FIR RD,IN,GRANGER,ST JOSEPH,46530,5742435557,N,N,Y,N,RESIDENTIAL CARE FACILITIES,FREESTANDING RESIDENTIAL CARE FACILITIES,02R,ALL NURSING HOMES,N,N,0,9,On or Near Building,-9591209.403,5120620.167
"<a target=""_blank"" href=""http://www.in.gov/isdh/reports/QAMIS/ltccr/cr012263.htm"">View</a>",12263,HEARTH AT TUDOR GARDENS LLC,11755  N MICHIGAN RD,IN,ZIONSVILLE,BOONE,46077,3178736300,N,N,Y,N,RESIDENTIAL CARE FACILITIES,FREESTANDING RESIDENTIAL CARE FACILITIES,02R,ALL NURSING HOMES,N,N,0,7,On or Near Building,-9600651.745,4859633.446
"<a target=""_blank"" href=""http://www.in.gov/isdh/reports/QAMIS/ltccr/cr012285.htm"">View</a>",012285NFS,CREASY SPRINGS HEALTH CAMPUS,1750 S CREASY LN,IN,LAFAYETTE,TIPPECANOE,47905,7654476600,N,N,Y,N,RESIDENTIAL CARE FACILITIES,NON-FREE STANDING RESIDENTIAL CARE FACILITIES,NFS,RESIDENTIAL NFS,N,N,0,9,On or Near Building,-9666788.102,4923366.779
"<a target=""_blank"" href=""http://www.in.gov/isdh/reports/QAMIS/ltccr/cr012288.htm"">View</a>",12288,LAMPLIGHT INN OF FORT WAYNE,300 E WASHINGTON BLVD,IN,FORT WAYNE,ALLEN,46802,2604225511,N,N,Y,N,RESIDENTIAL CARE FACILITIES,FREESTANDING RESIDENTIAL CARE FACILITIES,02R,ALL NURSING HOMES,N,N,0,9,On or Near Building,-9477133.62,5023841.865
"<a target=""_blank"" href=""http://www.in.gov/isdh/reports/QAMIS/ltccr/cr012305.htm"">View</a>",012305NFS,PRAIRIE LAKES HEALTH CAMPUS,9730 PRAIRIE LAKES BLVD EAST,IN,NOBLESVILLE,HAMILTON,46060,3177703644,N,N,Y,N,RESIDENTIAL CARE FACILITIES,NON-FREE STANDING RESIDENTIAL CARE FACILITIES,NFS,RESIDENTIAL NFS,N,N,0,9,On or Near Building,-9571805.637,4874438.404
"<a target=""_blank"" href=""http://www.in.gov/isdh/reports/QAMIS/ltccr/cr012309.htm"">View</a>",12309,CROWNPOINTE OF CARMEL,11610 TECHNOLOGY DR,IN,CARMEL,HAMILTON,46032,3178181786,N,N,N,N,RESIDENTIAL CARE FACILITIES,FREESTANDING RESIDENTIAL CARE FACILITIES,02R,ALL NURSING HOMES,N,N,0,9,On or Near Building,-9589865.334,4859755.448
"<a target=""_blank"" href=""http://www.in.gov/isdh/reports/QAMIS/ltccr/cr012355.htm"">View</a>",012355NFS,WHITE OAK HEALTH CAMPUS,814 S 6TH ST,IN,MONTICELLO,WHITE,47960,5745830324,N,N,Y,N,RESIDENTIAL CARE FACILITIES,NON-FREE STANDING RESIDENTIAL CARE FACILITIES,NFS,RESIDENTIAL NFS,N,N,0,7,On or Near Building,-9659779.649,4976299.47
"<a target=""_blank"" href=""http://www.in.gov/isdh/reports/QAMIS/ltccr/cr012394.htm"">View</a>",12394,SUGAR GROVE SENIOR LIVING,5865 SUGAR LN,IN,PLAINFIELD,HENDRICKS,46168,3178397900,N,N,Y,N,RESIDENTIAL CARE FACILITIES,FREESTANDING RESIDENTIAL CARE FACILITIES,02R,ALL NURSING HOMES,N,N,0,9,On or Near Building,-9620152.471,4821154.786
"<a target=""_blank"" href=""http://www.in.gov/isdh/reports/QAMIS/ltccr/cr012396.htm"">View</a>",12396,RITTENHOUSE VILLAGE AT PORTAGE,6235 STERLING CREEK RD,IN,PORTAGE,PORTER,46368,2197642900,N,N,Y,N,RESIDENTIAL CARE FACILITIES,FREESTANDING RESIDENTIAL CARE FACILITIES,02R,ALL NURSING HOMES,N,N,0,9,On or Near Building,-9705267.353,5092930.595
"<a target=""_blank"" href=""http://www.in.gov/isdh/reports/QAMIS/ltccr/cr012448.htm"">View</a>",012448NFS,WEST RIVER HEALTH CAMPUS,714 S EICKHOFF RD,IN,EVANSVILLE,VANDERBURGH,47712,8129859878,N,N,Y,N,RESIDENTIAL CARE FACILITIES,NON-FREE STANDING RESIDENTIAL CARE FACILITIES,NFS,RESIDENTIAL NFS,N,N,0,9,On or Near Building,-9760075.393,4575344.157
"<a target=""_blank"" href=""http://www.in.gov/isdh/reports/QAMIS/ltccr/cr012497.htm"">View</a>",12497,"SENIOR SUITES AT THE LELAND, LLC",900 SOUTH A STREET,IN,RICHMOND,WAYNE,47374,7659396500,N,N,N,N,RESIDENTIAL CARE FACILITIES,FREESTANDING RESIDENTIAL CARE FACILITIES,02R,ALL NURSING HOMES,N,N,0,9,On or Near Building,-9449909.458,4840924.016
"<a target=""_blank"" href=""http://www.in.gov/isdh/reports/QAMIS/ltccr/cr012523.htm"">View</a>",012523NFS,RIDGEWOOD HEALTH CAMPUS,181 CAMPUS DR,IN,LAWRENCEBURG,DEARBORN,47025,8125375700,N,N,Y,N,RESIDENTIAL CARE FACILITIES,NON-FREE STANDING RESIDENTIAL CARE FACILITIES,NFS,RESIDENTIAL NFS,N,N,0,9,On or Near Building,-9446445.864,4740194.723
"<a target=""_blank"" href=""http://www.in.gov/isdh/reports/QAMIS/ltccr/cr012565.htm"">View</a>",012565NFS,BLAIR RIDGE HEALTH CAMPUS,269 MEADOWVIEW DR,IN,PERU,MIAMI,46970,7654728049,N,N,Y,N,RESIDENTIAL CARE FACILITIES,NON-FREE STANDING RESIDENTIAL CARE FACILITIES,NFS,RESIDENTIAL NFS,N,N,0,9,On or Near Building,-9585362.458,4976613.225
"<a target=""_blank"" href=""http://www.in.gov/isdh/reports/QAMIS/ltccr/cr012582.htm"">View</a>",12582,"PARK PLACE II, LLC",4411 PARK PLACE DR,IN,FORT WAYNE,ALLEN,46845,2604802500,N,N,Y,Y,RESIDENTIAL CARE FACILITIES,FREESTANDING RESIDENTIAL CARE FACILITIES,02R,ALL NURSING HOMES,N,N,0,9,On or Near Building,-9472250.167,5040181.557
"<a target=""_blank"" href=""http://www.in.gov/isdh/reports/QAMIS/ltccr/cr012619.htm"">View</a>",012619NFS,VILLAGES AT HISTORIC SILVERCREST THE,1 SILVERCREST DRIVE,IN,NEW ALBANY,FLOYD,47150,8125426720,N,N,N,N,RESIDENTIAL CARE FACILITIES,NON-FREE STANDING RESIDENTIAL CARE FACILITIES,NFS,RESIDENTIAL NFS,N,N,0,9,On or Near Building,-9556430.411,4621153.011
"<a target=""_blank"" href=""http://www.in.gov/isdh/reports/QAMIS/ltccr/cr012644.htm"">View</a>",012644NFS,HAMILTON TRACE OF FISHERS,11851 CUMBERLAND RD,IN,FISHERS,HAMILTON,46037,3178134444,N,N,Y,N,RESIDENTIAL CARE FACILITIES,NON-FREE STANDING RESIDENTIAL CARE FACILITIES,NFS,RESIDENTIAL NFS,N,N,0,7,On or Near Building,-9572826.214,4860280.88
"<a target=""_blank"" href=""http://www.in.gov/isdh/reports/QAMIS/ltccr/cr012688.htm"">View</a>",12688,"VANNONI LIVING CENTER, THE",500 LINCOLNWAY EAST,IN,MISHAWAKA,ST JOSEPH,46544,5748553937,N,N,N,N,RESIDENTIAL CARE FACILITIES,FREESTANDING RESIDENTIAL CARE FACILITIES,02R,ALL NURSING HOMES,N,N,0,9,On or Near Building,-9592965.802,5110434.404
"<a target=""_blank"" href=""http://www.in.gov/isdh/reports/QAMIS/ltccr/cr012706.htm"">View</a>",12706,AUTUMN HILLS ALZHEIMER'S SPECIAL CARE CENTER,3203 MOORES PIKE ROAD,IN,BLOOMINGTON,MONROE,47401,8123354655,N,N,Y,N,RESIDENTIAL CARE FACILITIES,FREESTANDING RESIDENTIAL CARE FACILITIES,02R,ALL NURSING HOMES,N,N,0,9,On or Near Building,-9628459.688,4743303.638
"<a target=""_blank"" href=""http://www.in.gov/isdh/reports/QAMIS/ltccr/cr012766.htm"">View</a>",012766NFS,AVALON SPRINGS HEALTH CAMPUS,2400 SILHAVY ROAD,IN,VALPARAISO,PORTER,46383,2194621778,N,N,Y,N,RESIDENTIAL CARE FACILITIES,NON-FREE STANDING RESIDENTIAL CARE FACILITIES,NFS,RESIDENTIAL NFS,N,N,0,7,On or Near Building,-9687794.757,5084969.616
"<a target=""_blank"" href=""http://www.in.gov/isdh/reports/QAMIS/ltccr/cr012798.htm"">View</a>",12798,CROWNPOINTE OF GREENFIELD,831 SWOPE STREET,IN,GREENFIELD,HANCOCK,46140,3174679317,N,N,N,N,RESIDENTIAL CARE FACILITIES,FREESTANDING RESIDENTIAL CARE FACILITIES,02R,ALL NURSING HOMES,N,N,0,7,On or Near Building,-9547335.497,4835997.736
"<a target=""_blank"" href=""http://www.in.gov/isdh/reports/QAMIS/ltccr/cr012809.htm"">View</a>",012809NFS,APERION CARE MARION LLC,614 WEST 14TH STREET,IN,MARION,GRANT,46953,7656623701,N,N,N,N,RESIDENTIAL CARE FACILITIES,NON-FREE STANDING RESIDENTIAL CARE FACILITIES,NFS,RESIDENTIAL NFS,N,N,0,9,On or Near Building,-9536371.53,4946079.718
"<a target=""_blank"" href=""http://www.in.gov/isdh/reports/QAMIS/ltccr/cr012854.htm"">View</a>",012854NFS,ASPEN PLACE HEALTH CAMPUS,2320 N MONTGOMERY ROAD,IN,GREENSBURG,DECATUR,47240,8125272222,N,N,Y,N,RESIDENTIAL CARE FACILITIES,NON-FREE STANDING RESIDENTIAL CARE FACILITIES,NFS,RESIDENTIAL NFS,N,N,0,7,On or Near Building,-9514491.795,4773137.507
"<a target=""_blank"" href=""http://www.in.gov/isdh/reports/QAMIS/ltccr/cr012931.htm"">View</a>",012931NFS,"HERITAGE OF FORT WAYNE, THE",5250 HERITAGE PARKWAY,IN,FORT WAYNE,ALLEN,46835,2602096279,Y,Y,Y,N,RESIDENTIAL CARE FACILITIES,NON-FREE STANDING RESIDENTIAL CARE FACILITIES,NFS,RESIDENTIAL NFS,N,N,0,7,On or Near Building,-9469865.926,5036083.166
"<a target=""_blank"" href=""http://www.in.gov/isdh/reports/QAMIS/ltccr/cr012936.htm"">View</a>",12936,ROSEGATE COMMONS ASSISTED LIVING,7525 ROSEGATE DRIVE,IN,INDIANAPOLIS,MARION,46237,3178890100,N,N,N,N,RESIDENTIAL CARE FACILITIES,FREESTANDING RESIDENTIAL CARE FACILITIES,02R,ALL NURSING HOMES,N,N,0,9,On or Near Building,-9582549.526,4816345.546
"<a target=""_blank"" href=""http://www.in.gov/isdh/reports/QAMIS/ltccr/cr012937.htm"">View</a>",012937NFS,WELLBROOKE OF WESTFIELD,937 E 186TH STREET,IN,WESTFIELD,HAMILTON,46074,3178048044,N,N,N,N,RESIDENTIAL CARE FACILITIES,NON-FREE STANDING RESIDENTIAL CARE FACILITIES,NFS,RESIDENTIAL NFS,N,N,0,9,On or Near Building,-9589183.611,4874103.457
"<a target=""_blank"" href=""http://www.in.gov/isdh/reports/QAMIS/ltccr/cr012938.htm"">View</a>",12938,BICKFORD OF GREENWOOD,3021 STELLA DRIVE,IN,GREENWOOD,JOHNSON,46143,3178073077,N,N,Y,N,RESIDENTIAL CARE FACILITIES,FREESTANDING RESIDENTIAL CARE FACILITIES,02R,ALL NURSING HOMES,N,N,0,7,On or Near Building,-9591288.885,4807958.343
"<a target=""_blank"" href=""http://www.in.gov/isdh/reports/QAMIS/ltccr/cr012940.htm"">View</a>",12940,BICKFORD OF CROWN POINT,140 E 107TH AVENUE,IN,CROWN POINT,LAKE,46307,2196630972,N,N,Y,N,RESIDENTIAL CARE FACILITIES,FREESTANDING RESIDENTIAL CARE FACILITIES,02R,ALL NURSING HOMES,N,N,0,7,On or Near Building,-9722129.919,5075152.308
"<a target=""_blank"" href=""http://www.in.gov/isdh/reports/QAMIS/ltccr/cr012966.htm"">View</a>",012966NFS,HAMILTON POINTE HEALTH AND REHAB,3800 ELI PLACE,IN,NEWBURGH,WARRICK,47630,8128585300,N,N,Y,N,RESIDENTIAL CARE FACILITIES,NON-FREE STANDING RESIDENTIAL CARE FACILITIES,NFS,RESIDENTIAL NFS,N,N,0,9,On or Near Building,-9734533.359,4576485.769
"<a target=""_blank"" href=""http://www.in.gov/isdh/reports/QAMIS/ltccr/cr012974.htm"">View</a>",012974NFS,HEARTHSTONE HEALTH CAMPUS,3043 NORTH LINTEL DRIVE,IN,BLOOMINGTON,MONROE,47404,8123337622,N,N,N,N,RESIDENTIAL CARE FACILITIES,NON-FREE STANDING RESIDENTIAL CARE FACILITIES,NFS,RESIDENTIAL NFS,N,N,0,9,On or Near Building,-9632077.46,4745345.814
"<a target=""_blank"" href=""http://www.in.gov/isdh/reports/QAMIS/ltccr/cr012993.htm"">View</a>",012993NFS,WELLBROOKE OF WABASH,20 JOHN KISSINGER DRIVE,IN,WABASH,WABASH,46992,2602740444,N,N,N,N,RESIDENTIAL CARE FACILITIES,NON-FREE STANDING RESIDENTIAL CARE FACILITIES,NFS,RESIDENTIAL NFS,N,N,0,7,On or Near Building,-9553926.947,4985511.886
"<a target=""_blank"" href=""http://www.in.gov/isdh/reports/QAMIS/ltccr/cr013005.htm"">View</a>",013005NFS,ARLINGTON PLACE HEALTH CAMPUS,1635 N ARLINGTON AVE,IN,INDIANAPOLIS,MARION,46218,3173536000,N,N,N,N,RESIDENTIAL CARE FACILITIES,NON-FREE STANDING RESIDENTIAL CARE FACILITIES,NFS,RESIDENTIAL NFS,N,N,0,7,On or Near Building,-9580627.818,4835400.268
"<a target=""_blank"" href=""http://www.in.gov/isdh/reports/QAMIS/ltccr/cr013017.htm"">View</a>",013017NFS,SPRENGER HEALTH CARE OF MISHAWAKA,60257 BODNAR BLVD,IN,MISHAWAKA,ST JOSEPH,46544,5742221234,N,N,N,N,RESIDENTIAL CARE FACILITIES,NON-FREE STANDING RESIDENTIAL CARE FACILITIES,NFS,RESIDENTIAL NFS,N,N,0,9,On or Near Building,-9589332.668,5104390.26
"<a target=""_blank"" href=""http://www.in.gov/isdh/reports/QAMIS/ltccr/cr013019.htm"">View</a>",013019NFS,CLEARVISTA LAKE HEALTH CAMPUS,8405 CLEARVISTA PLACE,IN,INDIANAPOLIS,MARION,46256,3175787500,N,N,N,N,RESIDENTIAL CARE FACILITIES,NON-FREE STANDING RESIDENTIAL CARE FACILITIES,NFS,RESIDENTIAL NFS,N,N,0,9,On or Near Building,-9578056.226,4852768.857
"<a target=""_blank"" href=""http://www.in.gov/isdh/reports/QAMIS/ltccr/cr013039.htm"">View</a>",13039,ALLISONVILLE MEADOWS ASSISTED LIVING,10410 ALLISONVILLE ROAD,IN,FISHERS,HAMILTON,46038,3174366400,N,N,Y,N,RESIDENTIAL CARE FACILITIES,FREESTANDING RESIDENTIAL CARE FACILITIES,02R,ALL NURSING HOMES,N,N,0,9,On or Near Building,-9579363.451,4856986.784
"<a target=""_blank"" href=""http://www.in.gov/isdh/reports/QAMIS/ltccr/cr013045.htm"">View</a>",13045,ASTER PLACE,741 PARK EAST BLVD,IN,LAFAYETTE,TIPPECANOE,47905,7654463540,N,N,N,N,RESIDENTIAL CARE FACILITIES,FREESTANDING RESIDENTIAL CARE FACILITIES,02R,ALL NURSING HOMES,N,N,0,9,On or Near Building,-9665656.539,4925679.806
"<a target=""_blank"" href=""http://www.in.gov/isdh/reports/QAMIS/ltccr/cr013069.htm"">View</a>",13069,RESIDENCES AT DEER CREEK,401 EAST US 30,IN,SCHERERVILLE,LAKE,46375,2198640700,N,N,Y,N,RESIDENTIAL CARE FACILITIES,FREESTANDING RESIDENTIAL CARE FACILITIES,02R,ALL NURSING HOMES,N,N,0,7,On or Near Building,-9734182.146,5083827.309
"<a target=""_blank"" href=""http://www.in.gov/isdh/reports/QAMIS/ltccr/cr013085.htm"">View</a>",013085NFS,WELLBROOKE OF AVON,10307 EAST COUNTY ROAD 100 NORTH,IN,INDIANAPOLIS,MARION,46234,3172732144,N,N,N,N,RESIDENTIAL CARE FACILITIES,NON-FREE STANDING RESIDENTIAL CARE FACILITIES,NFS,RESIDENTIAL NFS,N,N,0,7,On or Near Building,-9611309.696,4833786.383
"<a target=""_blank"" href=""http://www.in.gov/isdh/reports/QAMIS/ltccr/cr013107.htm"">View</a>",013107NFS,WELLBROOKE OF CRAWFORDSVILLE,517 CONCORD ROAD,IN,CRAWFORDSVILLE,MONTGOMERY,47933,7653629122,N,N,N,N,RESIDENTIAL CARE FACILITIES,NON-FREE STANDING RESIDENTIAL CARE FACILITIES,NFS,RESIDENTIAL NFS,N,N,0,9,On or Near Building,-9674024.314,4875726.23
"<a target=""_blank"" href=""http://www.in.gov/isdh/reports/QAMIS/ltccr/cr013144.htm"">View</a>",013144NFS,CEDAR CREEK HEALTH CAMPUS,18275 BURR STREET,IN,LOWELL,LAKE,46356,2196966750,N,N,Y,N,RESIDENTIAL CARE FACILITIES,NON-FREE STANDING RESIDENTIAL CARE FACILITIES,NFS,RESIDENTIAL NFS,N,N,0,9,On or Near Building,-9729391.066,5054772.784
"<a target=""_blank"" href=""http://www.in.gov/isdh/reports/QAMIS/ltccr/cr013149.htm"">View</a>",13149,MORNING VIEW NURSING AND REHABILITATION CENTER,475 NORTH NILES AVENUE,IN,SOUTH BEND,ST JOSEPH,46617,5742464123,N,N,Y,N,RESIDENTIAL CARE FACILITIES,FREESTANDING RESIDENTIAL CARE FACILITIES,02R,ALL NURSING HOMES,N,N,0,9,On or Near Building,-9600757.498,5113462.078
"<a target=""_blank"" href=""http://www.in.gov/isdh/reports/QAMIS/ltccr/cr013153.htm"">View</a>",013153NFS,WELLBROOKE OF KOKOMO,2200 SOUTH DIXON ROAD,IN,KOKOMO,HOWARD,46902,7654554443,N,N,N,N,RESIDENTIAL CARE FACILITIES,NON-FREE STANDING RESIDENTIAL CARE FACILITIES,NFS,RESIDENTIAL NFS,N,N,0,9,On or Near Building,-9591823.107,4933082.43
"<a target=""_blank"" href=""http://www.in.gov/isdh/reports/QAMIS/ltccr/cr013163.htm"">View</a>",13163,MEADOW BROOK SENIOR LIVING,11011 VILLAGE SQUARE LANE,IN,FISHERS,HAMILTON,46038,3178424215,N,N,Y,N,RESIDENTIAL CARE FACILITIES,FREESTANDING RESIDENTIAL CARE FACILITIES,02R,ALL NURSING HOMES,N,N,0,9,On or Near Building,-9578010.251,4858630.428
"<a target=""_blank"" href=""http://www.in.gov/isdh/reports/QAMIS/ltccr/cr013164.htm"">View</a>",13164,TRADITIONS AT SOLANA,7721 BATTERY POINTE WAY,IN,INDIANAPOLIS,MARION,46240,3178600000,N,N,N,N,RESIDENTIAL CARE FACILITIES,FREESTANDING RESIDENTIAL CARE FACILITIES,02R,ALL NURSING HOMES,N,N,0,9,On or Near Building,-9586605.897,4850960.187
"<a target=""_blank"" href=""http://www.in.gov/isdh/reports/QAMIS/ltccr/cr013185.htm"">View</a>",013185NFS,ASPEN TRACE HEALTH & LIVING COMMUNITY,3154 SOUTH STATE ROAD 135,IN,GREENWOOD,JOHNSON,46143,3175353344,N,N,Y,N,RESIDENTIAL CARE FACILITIES,NON-FREE STANDING RESIDENTIAL CARE FACILITIES,NFS,RESIDENTIAL NFS,N,N,0,7,On or Near Building,-9591182.798,4805392.235
"<a target=""_blank"" href=""http://www.in.gov/isdh/reports/QAMIS/ltccr/cr013212.htm"">View</a>",013212NFS,"BARRINGTON OF CARMEL, THE",1335 S GUILFORD ROAD,IN,CARMEL,HAMILTON,46032,3178101800,Y,N,Y,N,RESIDENTIAL CARE FACILITIES,NON-FREE STANDING RESIDENTIAL CARE FACILITIES,NFS,RESIDENTIAL NFS,N,N,0,9,On or Near Building,-9589219.456,4860503.091
"<a target=""_blank"" href=""http://www.in.gov/isdh/reports/QAMIS/ltccr/cr013217.htm"">View</a>",13217,BICKFORD OF CARMEL,5829  EAST 116TH STREET,IN,CARMEL,HAMILTON,46033,3178071500,N,N,Y,N,RESIDENTIAL CARE FACILITIES,FREESTANDING RESIDENTIAL CARE FACILITIES,02R,ALL NURSING HOMES,N,N,0,9,On or Near Building,-9581290.28,4859451.191
"<a target=""_blank"" href=""http://www.in.gov/isdh/reports/QAMIS/ltccr/cr013236.htm"">View</a>",13236,NORTH WOODS VILLAGE AT EDISON LAKES,1409 E DAY ROAD,IN,MISHAWAKA,ST JOSEPH,46545,5742471866,N,N,N,N,RESIDENTIAL CARE FACILITIES,FREESTANDING RESIDENTIAL CARE FACILITIES,02R,ALL NURSING HOMES,N,N,0,9,On or Near Building,-9591971.051,5115826.194
"<a target=""_blank"" href=""http://www.in.gov/isdh/reports/QAMIS/ltccr/cr013264.htm"">View</a>",13264,TRADITIONS AT REAGAN PARK,1176 KINGWOOD DRIVE,IN,AVON,HENDRICKS,46123,3172710100,N,N,Y,N,RESIDENTIAL CARE FACILITIES,FREESTANDING RESIDENTIAL CARE FACILITIES,02R,ALL NURSING HOMES,N,N,0,9,On or Near Building,-9612286.19,4833874.596
"<a target=""_blank"" href=""http://www.in.gov/isdh/reports/QAMIS/ltccr/cr013297.htm"">View</a>",13297,CARMEL SENIOR LIVING,13390 N ILLINOIS STREET,IN,CARMEL,HAMILTON,46032,3174514702,N,N,N,N,RESIDENTIAL CARE FACILITIES,FREESTANDING RESIDENTIAL CARE FACILITIES,02R,ALL NURSING HOMES,N,N,0,9,On or Near Building,-9589936.465,4863690.408
"<a target=""_blank"" href=""http://www.in.gov/isdh/reports/QAMIS/ltccr/cr013302.htm"">View</a>",013302NFS,WELLBROOKE OF SOUTH BEND,52565 STATE ROAD 933,IN,SOUTH BEND,ST JOSEPH,46637,5742477044,N,N,N,N,RESIDENTIAL CARE FACILITIES,NON-FREE STANDING RESIDENTIAL CARE FACILITIES,NFS,RESIDENTIAL NFS,N,N,0,9,On or Near Building,-9601554.991,5120621.808
"<a target=""_blank"" href=""http://www.in.gov/isdh/reports/QAMIS/ltccr/cr013321.htm"">View</a>",13321,ASSISTED LIVING AT ROMWEBER FLATS,123 SOUTH DEPOT STREET,IN,BATESVILLE,RIPLEY,47006,8129323528,N,N,N,N,RESIDENTIAL CARE FACILITIES,FREESTANDING RESIDENTIAL CARE FACILITIES,02R,ALL NURSING HOMES,N,N,0,9,On or Near Building,-9486647.673,4764289.333
"<a target=""_blank"" href=""http://www.in.gov/isdh/reports/QAMIS/ltccr/cr013322.htm"">View</a>",13322,AUTUMN GLEN,98 NORTH 10TH STREET,IN,GREENCASTLE,PUTNAM,46135,7656536999,N,N,N,N,RESIDENTIAL CARE FACILITIES,FREESTANDING RESIDENTIAL CARE FACILITIES,02R,ALL NURSING HOMES,N,N,0,9,On or Near Building,-9666176.29,4815092.417
"<a target=""_blank"" href=""http://www.in.gov/isdh/reports/QAMIS/ltccr/cr013327.htm"">View</a>",13327,"APERION ESTATES PERU, LLC",1200 KITTY HAWK DRIVE,IN,PERU,MIAMI,46970,7656897305,N,N,N,N,RESIDENTIAL CARE FACILITIES,FREESTANDING RESIDENTIAL CARE FACILITIES,02R,ALL NURSING HOMES,N,N,0,9,On or Near Building,-9588810.691,4963333.536
"<a target=""_blank"" href=""http://www.in.gov/isdh/reports/QAMIS/ltccr/cr013328.htm"">View</a>",13328,CROWN SENIOR LIVING,7960 SHADELAND AVENUE NORTH,IN,INDIANAPOLIS,MARION,46250,3173764639,N,N,Y,N,RESIDENTIAL CARE FACILITIES,FREESTANDING RESIDENTIAL CARE FACILITIES,02R,ALL NURSING HOMES,N,N,0,9,On or Near Building,-9578982.182,4851297.547
"<a target=""_blank"" href=""http://www.in.gov/isdh/reports/QAMIS/ltccr/cr013330.htm"">View</a>",13330,HERITAGE POINT ALZHEIMER'S SPECIAL CARE CENTER,1215 TRINITY PLACE,IN,MISHAWAKA,ST JOSEPH,46545,5742477400,N,N,Y,N,RESIDENTIAL CARE FACILITIES,FREESTANDING RESIDENTIAL CARE FACILITIES,02R,ALL NURSING HOMES,N,N,0,9,On or Near Building,-9591591.34,5117291.705
"<a target=""_blank"" href=""http://www.in.gov/isdh/reports/QAMIS/ltccr/cr013331.htm"">View</a>",13331,"WATERFORD AT EDISON LAKES, THE",1025 PARK PLACE,IN,MISHAWAKA,ST JOSEPH,46545,5742471552,N,N,N,N,RESIDENTIAL CARE FACILITIES,FREESTANDING RESIDENTIAL CARE FACILITIES,02R,ALL NURSING HOMES,N,N,0,9,On or Near Building,-9592427.572,5115230.452
"<a target=""_blank"" href=""http://www.in.gov/isdh/reports/QAMIS/ltccr/cr013332.htm"">View</a>",013332NFS,"VILLAGES AT OAK RIDGE, THE",1694 TROY ROAD,IN,WASHINGTON,DAVIESS,47501,8122543800,N,N,Y,N,RESIDENTIAL CARE FACILITIES,NON-FREE STANDING RESIDENTIAL CARE FACILITIES,NFS,RESIDENTIAL NFS,N,N,0,9,On or Near Building,-9702906.156,4669098.256
"<a target=""_blank"" href=""http://www.in.gov/isdh/reports/QAMIS/ltccr/cr013335.htm"">View</a>",013335NFS,HARRISON'S CROSSING HEALTH CAMPUS,395 8TH AVENUE,IN,TERRE HAUTE,VIGO,47804,8122347111,N,N,N,N,RESIDENTIAL CARE FACILITIES,NON-FREE STANDING RESIDENTIAL CARE FACILITIES,NFS,RESIDENTIAL NFS,N,N,0,7,On or Near Building,-9730762.411,4791338.695
"<a target=""_blank"" href=""http://www.in.gov/isdh/reports/QAMIS/ltccr/cr013347.htm"">View</a>",13347,OASIS AT 30TH,5651 E 30TH STREET,IN,INDIANAPOLIS,MARION,46218,3172979000,N,N,N,N,RESIDENTIAL CARE FACILITIES,FREESTANDING RESIDENTIAL CARE FACILITIES,02R,ALL NURSING HOMES,N,N,0,7,On or Near Building,-9581512.362,4838502.887
"<a target=""_blank"" href=""http://www.in.gov/isdh/reports/QAMIS/ltccr/cr013356.htm"">View</a>",13356,BROWNSBURG MEADOWS ASSISTED LIVING,7133 MEADOW TRAIL,IN,BROWNSBURG,HENDRICKS,46112,3178521977,N,N,N,N,RESIDENTIAL CARE FACILITIES,FREESTANDING RESIDENTIAL CARE FACILITIES,02R,ALL NURSING HOMES,N,N,0,9,On or Near Building,-9617967.269,4842185.468
"<a target=""_blank"" href=""http://www.in.gov/isdh/reports/QAMIS/ltccr/cr013367.htm"">View</a>",13367,CRESTWOOD VILLAGE SOUTH APARTMENTS LLC,8809 MADISON AVENUE,IN,INDIANAPOLIS,MARION,46227,3178853461,N,N,N,N,RESIDENTIAL CARE FACILITIES,FREESTANDING RESIDENTIAL CARE FACILITIES,02R,ALL NURSING HOMES,N,N,0,9,On or Near Building,-9586247.225,4814026.506
"<a target=""_blank"" href=""http://www.in.gov/isdh/reports/QAMIS/ltccr/cr013389.htm"">View</a>",13389,WYNDMOOR ASSISTED LIVING LLC,1465 EAST CROSSING BLVD,IN,TERRE HAUTE,VIGO,47802,8122989963,N,N,N,N,RESIDENTIAL CARE FACILITIES,FREESTANDING RESIDENTIAL CARE FACILITIES,02R,ALL NURSING HOMES,N,N,0,9,On or Near Building,-9728887.791,4778985.25
"<a target=""_blank"" href=""http://www.in.gov/isdh/reports/QAMIS/ltccr/cr013401.htm"">View</a>",13401,BRECKENRIDGE COMMONS,2009 NORTH HOSPITAL BLVD,IN,SULLIVAN,SULLIVAN,47882,8122682000,N,N,N,N,RESIDENTIAL CARE FACILITIES,FREESTANDING RESIDENTIAL CARE FACILITIES,02R,ALL NURSING HOMES,N,N,0,4,General Location,-9730463.852,4734700.021
"<a target=""_blank"" href=""http://www.in.gov/isdh/reports/QAMIS/ltccr/cr013409.htm"">View</a>",013409NFS,STONECROFT HEALTH CAMPUS,363 SOUTH FIELDSTONE BLVD,IN,BLOOMINGTON,MONROE,47403,8128250551,N,N,N,N,RESIDENTIAL CARE FACILITIES,NON-FREE STANDING RESIDENTIAL CARE FACILITIES,NFS,RESIDENTIAL NFS,N,N,0,7,On or Near Building,-9640864.575,4744877.333
"<a target=""_blank"" href=""http://www.in.gov/isdh/reports/QAMIS/ltccr/cr013439.htm"">View</a>",13439,PRIMROSE OF MISHAWAKA,820 FULMER ROAD,IN,MISHAWAKA,ST JOSEPH,46544,5742593211,N,N,N,N,RESIDENTIAL CARE FACILITIES,FREESTANDING RESIDENTIAL CARE FACILITIES,02R,ALL NURSING HOMES,N,N,0,7,On or Near Building,-9591553.603,5105666.965
"<a target=""_blank"" href=""http://www.in.gov/isdh/reports/QAMIS/ltccr/cr013444.htm"">View</a>",013444NFS,WELLBROOKE OF CARMEL,12315 PENNSYLVANIA STREET,IN,CARMEL,HAMILTON,46032,3175697200,N,N,N,N,RESIDENTIAL CARE FACILITIES,NON-FREE STANDING RESIDENTIAL CARE FACILITIES,NFS,RESIDENTIAL NFS,N,N,0,9,On or Near Building,-9590479.036,4861112.818
"<a target=""_blank"" href=""http://www.in.gov/isdh/reports/QAMIS/ltccr/cr013452.htm"">View</a>",013452NFS,SYMPHONY OF CROWN POINT  LLC,1555 S MAIN STREET,IN,CROWN POINT,LAKE,46307,2193238700,N,N,N,N,RESIDENTIAL CARE FACILITIES,NON-FREE STANDING RESIDENTIAL CARE FACILITIES,NFS,RESIDENTIAL NFS,N,N,0,9,On or Near Building,-9719472.611,5075414.938
"<a target=""_blank"" href=""http://www.in.gov/isdh/reports/QAMIS/ltccr/cr013455.htm"">View</a>",013455NFS,CUMBERLAND TRACE HEALTH & LIVING COMMUNITY,1925 REEVES ROAD,IN,PLAINFIELD,HENDRICKS,46168,3178387070,N,N,Y,N,RESIDENTIAL CARE FACILITIES,NON-FREE STANDING RESIDENTIAL CARE FACILITIES,NFS,RESIDENTIAL NFS,N,N,0,7,On or Near Building,-9615951.83,4819802.261
"<a target=""_blank"" href=""http://www.in.gov/isdh/reports/QAMIS/ltccr/cr013460.htm"">View</a>",13460,INDIANA MASONIC HOME INC,690 STATE STREET,IN,FRANKLIN,JOHNSON,46131,3177366141,N,N,N,N,RESIDENTIAL CARE FACILITIES,FREESTANDING RESIDENTIAL CARE FACILITIES,02R,ALL NURSING HOMES,N,N,0,9,On or Near Building,-9578618.389,4790011.969
"<a target=""_blank"" href=""http://www.in.gov/isdh/reports/QAMIS/ltccr/cr013462.htm"">View</a>",013462NFS,SYMPHONY OF DYER LLC,1532 CALUMET AVENUE,IN,DYER,LAKE,46311,2195154700,Y,Y,N,N,RESIDENTIAL CARE FACILITIES,NON-FREE STANDING RESIDENTIAL CARE FACILITIES,NFS,RESIDENTIAL NFS,N,N,0,7,On or Near Building,-9741480.586,5087097.965
"<a target=""_blank"" href=""http://www.in.gov/isdh/reports/QAMIS/ltccr/cr013463.htm"">View</a>",13463,GEORGETOWN PLACE,1717 MAPLECREST ROAD,IN,FORT WAYNE,ALLEN,46815,2604936927,N,N,N,N,RESIDENTIAL CARE FACILITIES,FREESTANDING RESIDENTIAL CARE FACILITIES,02R,ALL NURSING HOMES,N,N,0,9,On or Near Building,-9468820.525,5026025.852
"<a target=""_blank"" href=""http://www.in.gov/isdh/reports/QAMIS/ltccr/cr013499.htm"">View</a>",013499NFS,"SPRINGS AT LAFAYETTE, THE",2402 SOUTH STREET,IN,LAFAYETTE,TIPPECANOE,47904,7654469229,N,N,N,N,RESIDENTIAL CARE FACILITIES,NON-FREE STANDING RESIDENTIAL CARE FACILITIES,NFS,RESIDENTIAL NFS,N,N,0,7,On or Near Building,-9670201.268,4926800.336
"<a target=""_blank"" href=""http://www.in.gov/isdh/reports/QAMIS/ltccr/cr013510.htm"">View</a>",13510,WOODLAND TERRACE OF CARMEL,689 PRO MED LANE,IN,CARMEL,HAMILTON,46032,3176160858,N,N,N,N,RESIDENTIAL CARE FACILITIES,FREESTANDING RESIDENTIAL CARE FACILITIES,02R,ALL NURSING HOMES,N,N,0,9,On or Near Building,-9588815.815,4863666.455
"<a target=""_blank"" href=""http://www.in.gov/isdh/reports/QAMIS/ltccr/cr013535.htm"">View</a>",013535NFS,RIVER TERRACE HEALTH CAMPUS,120 PRESBYTERIAN AVE,IN,MADISON,JEFFERSON,47250,8122650080,N,N,N,N,RESIDENTIAL CARE FACILITIES,NON-FREE STANDING RESIDENTIAL CARE FACILITIES,NFS,RESIDENTIAL NFS,N,N,0,9,On or Near Building,-9504719.725,4684283.718
"<a target=""_blank"" href=""http://www.in.gov/isdh/reports/QAMIS/ltccr/cr013555.htm"">View</a>",13555,GRAND EMERALD PLACE,4010 S IRONWOOD DR,IN,SOUTH BEND,ST JOSEPH,46614,5742912222,N,N,N,N,RESIDENTIAL CARE FACILITIES,FREESTANDING RESIDENTIAL CARE FACILITIES,02R,ALL NURSING HOMES,N,N,0,9,On or Near Building,-9597363.924,5106498.635
"<a target=""_blank"" href=""http://www.in.gov/isdh/reports/QAMIS/ltccr/cr013556.htm"">View</a>",013556NFS,COPPER TRACE HEALTH & LIVING COMMUNITY,1250 W 146TH STREET,IN,WESTFIELD,HAMILTON,46074,3178445050,N,N,N,N,RESIDENTIAL CARE FACILITIES,NON-FREE STANDING RESIDENTIAL CARE FACILITIES,NFS,RESIDENTIAL NFS,N,N,0,7,On or Near Building,-9593514.607,4865861.919
"<a target=""_blank"" href=""http://www.in.gov/isdh/reports/QAMIS/ltccr/cr013578.htm"">View</a>",13578,CROWNPOINTE OF HARTFORD CITY,100 INDEPENDENCE PARKWAY,IN,HARTFORD CITY,BLACKFORD,47348,7653483250,N,N,N,N,RESIDENTIAL CARE FACILITIES,FREESTANDING RESIDENTIAL CARE FACILITIES,02R,ALL NURSING HOMES,N,N,0,4,General Location,-9505643.788,4934018.849
"<a target=""_blank"" href=""http://www.in.gov/isdh/reports/QAMIS/ltccr/cr013582.htm"">View</a>",13582,CROWNPOINTE OF LEBANON,610 CROWNPOINTE DRIVE,IN,LEBANON,BOONE,46052,7654823436,N,N,N,N,RESIDENTIAL CARE FACILITIES,FREESTANDING RESIDENTIAL CARE FACILITIES,02R,ALL NURSING HOMES,N,N,0,9,On or Near Building,-9626296.639,4877472.494
"<a target=""_blank"" href=""http://www.in.gov/isdh/reports/QAMIS/ltccr/cr013612.htm"">View</a>",13612,NORTH WOODS VILLAGE AT INVERNESS LAKE,8075 GLENCARIN BOULEVARD,IN,FORT WAYNE,ALLEN,46804,2604201866,N,N,N,N,RESIDENTIAL CARE FACILITIES,FREESTANDING RESIDENTIAL CARE FACILITIES,02R,ALL NURSING HOMES,N,N,0,7,On or Near Building,-9490056.721,5023236.202
"<a target=""_blank"" href=""http://www.in.gov/isdh/reports/QAMIS/ltccr/cr013613.htm"">View</a>",13613,"OASIS ASSISTED LIVING, INC",4301 WASHINGTON AVE,IN,EVANSVILLE,VANDERBURGH,47714,8123033310,N,N,Y,N,RESIDENTIAL CARE FACILITIES,FREESTANDING RESIDENTIAL CARE FACILITIES,02R,ALL NURSING HOMES,N,N,0,9,On or Near Building,-9740224.011,4574058.795
"<a target=""_blank"" href=""http://www.in.gov/isdh/reports/QAMIS/ltccr/cr013635.htm"">View</a>",013635NFS,"SPRINGS OF RICHMOND, THE",400 INDUSTRIES ROAD,IN,RICHMOND,WAYNE,47374,7659350135,N,N,N,N,RESIDENTIAL CARE FACILITIES,NON-FREE STANDING RESIDENTIAL CARE FACILITIES,NFS,RESIDENTIAL NFS,N,N,0,7,On or Near Building,-9453324.072,4846063.311
"<a target=""_blank"" href=""http://www.in.gov/isdh/reports/QAMIS/ltccr/cr013642.htm"">View</a>",13642,WALNUT CREEK ALZHEIMER'S,525 BENTEE WES COURT,IN,EVANSVILLE,VANDERBURGH,47715,8124713100,N,N,Y,N,RESIDENTIAL CARE FACILITIES,FREESTANDING RESIDENTIAL CARE FACILITIES,02R,ALL NURSING HOMES,N,N,0,7,On or Near Building,-9736647.539,4576901.971
"<a target=""_blank"" href=""http://www.in.gov/isdh/reports/QAMIS/ltccr/cr013687.htm"">View</a>",13687,LINCOLNSHIRE PLACE - FORT WAYNE,11911 DIEBOLD ROAD,IN,FORT WAYNE,ALLEN,46845,8477776933,N,N,N,N,RESIDENTIAL CARE FACILITIES,FREESTANDING RESIDENTIAL CARE FACILITIES,02R,ALL NURSING HOMES,N,N,0,9,On or Near Building,-9472669.876,5041028.801
"<a target=""_blank"" href=""http://www.in.gov/isdh/reports/QAMIS/ltccr/cr013688.htm"">View</a>",013688NFS,SYMPHONY OF CHESTERTON LLC,2775 VILLAGE POINT,IN,CHESTERTON,PORTER,46304,2193046700,N,N,N,N,RESIDENTIAL CARE FACILITIES,NON-FREE STANDING RESIDENTIAL CARE FACILITIES,NFS,RESIDENTIAL NFS,N,N,0,4,General Location,-9690255.363,5104304.338
"<a target=""_blank"" href=""http://www.in.gov/isdh/reports/QAMIS/ltccr/cr013694.htm"">View</a>",013694NFS,"SPRINGS OF MOORESVILLE, THE",302 NORTH JOHNSON ROAD,IN,MOORESVILLE,MORGAN,46158,3178319033,N,N,N,N,RESIDENTIAL CARE FACILITIES,NON-FREE STANDING RESIDENTIAL CARE FACILITIES,NFS,RESIDENTIAL NFS,N,N,0,4,General Location,-9620699.94,4807838.72
"<a target=""_blank"" href=""http://www.in.gov/isdh/reports/QAMIS/ltccr/cr013702.htm"">View</a>",013702NFS,HARRISON SPRINGS HEALTH CAMPUS,871 PACER DRIVE NW,IN,CORYDON,HARRISON,47112,8127380317,N,N,N,N,RESIDENTIAL CARE FACILITIES,NON-FREE STANDING RESIDENTIAL CARE FACILITIES,NFS,RESIDENTIAL NFS,N,N,0,4,General Location,-9590282.244,4606769.96
"<a target=""_blank"" href=""http://www.in.gov/isdh/reports/QAMIS/ltccr/cr013703.htm"">View</a>",013703NFS,NORTH RIVER HEALTH CAMPUS,811 E BASELINE ROAD,IN,EVANSVILLE,VANDERBURGH,47725,8128677256,N,N,N,N,RESIDENTIAL CARE FACILITIES,NON-FREE STANDING RESIDENTIAL CARE FACILITIES,NFS,RESIDENTIAL NFS,N,N,0,7,On or Near Building,-9745839.345,4596790.652
"<a target=""_blank"" href=""http://www.in.gov/isdh/reports/QAMIS/ltccr/cr013704.htm"">View</a>",013704NFS,ORCHARD POINTE HEALTH CAMPUS,702 SAWYER ROAD,IN,KENDALLVILLE,NOBLE,46755,2603473333,N,N,N,N,RESIDENTIAL CARE FACILITIES,NON-FREE STANDING RESIDENTIAL CARE FACILITIES,NFS,RESIDENTIAL NFS,N,N,0,7,On or Near Building,-9494847.529,5079302.723
"<a target=""_blank"" href=""http://www.in.gov/isdh/reports/QAMIS/ltccr/cr013719.htm"">View</a>",13719,ROSE SENIOR LIVING CARMEL,1285 FAIRFAX MANOR DRIVE,IN,CARMEL,HAMILTON,46032,3172498830,N,N,N,N,RESIDENTIAL CARE FACILITIES,FREESTANDING RESIDENTIAL CARE FACILITIES,02R,ALL NURSING HOMES,N,N,0,7,On or Near Building,-9590260.182,4862500.455
"<a target=""_blank"" href=""http://www.in.gov/isdh/reports/QAMIS/ltccr/cr013733.htm"">View</a>",13733,JOURNEY SENIOR LIVING OF MERRILLVILLE LLC,7900 RHODE ISLAND STREET,IN,MERRILLVILLE,LAKE,46410,2195254123,N,N,N,N,RESIDENTIAL CARE FACILITIES,FREESTANDING RESIDENTIAL CARE FACILITIES,02R,ALL NURSING HOMES,N,N,0,7,On or Near Building,-9720922.828,5082636.791
"<a target=""_blank"" href=""http://www.in.gov/isdh/reports/QAMIS/ltccr/cr013766.htm"">View</a>",13766,GENTRY PARK ,901 S HASTINGS DR,IN,BLOOMINGTON,MONROE,47401,8126681200,N,N,N,N,RESIDENTIAL CARE FACILITIES,FREESTANDING RESIDENTIAL CARE FACILITIES,02R,ALL NURSING HOMES,N,N,0,7,On or Near Building,-9625488.892,4744288.049
"<a target=""_blank"" href=""http://www.in.gov/isdh/reports/QAMIS/ltccr/cr013801.htm"">View</a>",13801,SILVER BIRCH OF HAMMOND,5620 SOHL AVENUE,IN,HAMMOND,LAKE,46320,2199379085,N,N,N,N,RESIDENTIAL CARE FACILITIES,FREESTANDING RESIDENTIAL CARE FACILITIES,02R,ALL NURSING HOMES,N,N,0,7,On or Near Building,-9741993.282,5103081.109
"<a target=""_blank"" href=""http://www.in.gov/isdh/reports/QAMIS/ltccr/cr013811.htm"">View</a>",13811,PRIMROSE MEMORY CARE OF ANDERSON,2101 N MADISON AVENUE,IN,ANDERSON,MADISON,46011,7656410050,N,N,N,N,RESIDENTIAL CARE FACILITIES,FREESTANDING RESIDENTIAL CARE FACILITIES,02R,ALL NURSING HOMES,N,N,0,7,On or Near Building,-9539192.605,4879803.013
"<a target=""_blank"" href=""http://www.in.gov/isdh/reports/QAMIS/ltccr/cr013824.htm"">View</a>",13824,HI JILL'S HOUSE LLC,751 E TAMARACK TRAIL,IN,BLOOMINGTON,MONROE,47408,8127877692,N,N,N,N,RESIDENTIAL CARE FACILITIES,FREESTANDING RESIDENTIAL CARE FACILITIES,02R,ALL NURSING HOMES,N,N,0,9,On or Near Building,-9632086.093,4749309.06
"<a target=""_blank"" href=""http://www.in.gov/isdh/reports/QAMIS/ltccr/cr013825.htm"">View</a>",13825,CLARENDALE OF SCHERERVILLE,7770 BURR STREET,IN,SCHERERVILLE,LAKE,46375,2193228855,N,N,N,N,RESIDENTIAL CARE FACILITIES,FREESTANDING RESIDENTIAL CARE FACILITIES,02R,ALL NURSING HOMES,N,N,0,7,On or Near Building,-9729654.024,5083193.245
"<a target=""_blank"" href=""http://www.in.gov/isdh/reports/QAMIS/ltccr/cr013838.htm"">View</a>",13838,GI-XXXIV SUMMERS POINTE OPERATOR LLC,1 SUNSET DRIVE,IN,WINCHESTER,RANDOLPH,47394,7655847676,N,N,N,N,RESIDENTIAL CARE FACILITIES,FREESTANDING RESIDENTIAL CARE FACILITIES,02R,ALL NURSING HOMES,N,N,0,9,On or Near Building,-9458559.428,4889783.491
"<a target=""_blank"" href=""http://www.in.gov/isdh/reports/QAMIS/ltccr/cr013841.htm"">View</a>",13841,CLARKSVILLE SENIOR LIVING LLC,400 HUNTER STATION ROAD,IN,SELLERSBURG,CLARK,47172,8127485258,N,N,N,N,RESIDENTIAL CARE FACILITIES,FREESTANDING RESIDENTIAL CARE FACILITIES,02R,ALL NURSING HOMES,N,N,0,7,On or Near Building,-9548539.347,4633058.875
"<a target=""_blank"" href=""http://www.in.gov/isdh/reports/QAMIS/ltccr/cr013846.htm"">View</a>",13846,PRIMROSE OF NEWBURGH,9800 LINCOLN AVE,IN,NEWBURGH,WARRICK,47630,8125730088,N,N,N,N,RESIDENTIAL CARE FACILITIES,FREESTANDING RESIDENTIAL CARE FACILITIES,02R,ALL NURSING HOMES,N,N,0,7,On or Near Building,-9732903.948,4575101.437
"<a target=""_blank"" href=""http://www.in.gov/isdh/reports/QAMIS/ltccr/cr013847.htm"">View</a>",13847,MCCORDSVILLE SENIOR LIVING LLC,6311 W CR 900 N,IN,MCCORDSVILLE,HANCOCK,46055,3173359900,N,N,N,N,RESIDENTIAL CARE FACILITIES,FREESTANDING RESIDENTIAL CARE FACILITIES,02R,ALL NURSING HOMES,N,N,0,7,On or Near Building,-9565102.979,4853333.778
"<a target=""_blank"" href=""http://www.in.gov/isdh/reports/QAMIS/ltccr/cr013880.htm"">View</a>",13880,1717 SENIOR LIVING LLC,1703 W 86TH STREET,IN,INDIANAPOLIS,MARION,46260,3178762916,N,N,N,N,RESIDENTIAL CARE FACILITIES,FREESTANDING RESIDENTIAL CARE FACILITIES,02R,ALL NURSING HOMES,N,N,0,9,On or Near Building,-9594691.295,4852814.3
"<a target=""_blank"" href=""http://www.in.gov/isdh/reports/QAMIS/ltccr/cr013896.htm"">View</a>",13896,WOODLAND TERRACE OF NEW PALESTINE LLC,4400 TERRACE DRIVE,IN,NEW PALESTINE,HANCOCK,46163,3173538311,N,N,N,N,RESIDENTIAL CARE FACILITIES,FREESTANDING RESIDENTIAL CARE FACILITIES,02R,ALL NURSING HOMES,N,N,0,7,On or Near Building,-9563424.726,4825868.504
"<a target=""_blank"" href=""http://www.in.gov/isdh/reports/QAMIS/ltccr/cr013933.htm"">View</a>",13933,ANTHOLOGY OF MERIDIAN HILLS,8549 N MERIDIAN STREET,IN,INDIANAPOLIS,MARION,46260,3172532020,N,N,N,N,RESIDENTIAL CARE FACILITIES,FREESTANDING RESIDENTIAL CARE FACILITIES,02R,ALL NURSING HOMES,N,N,0,9,On or Near Building,-9590970.565,4853032.73
"<a target=""_blank"" href=""http://www.in.gov/isdh/reports/QAMIS/ltccr/cr013945.htm"">View</a>",13945,"ENCLAVE SENIOR LIVING AT SAXONY, THE",12950 TALBLICK STREET,IN,FISHERS,HAMILTON,46037,3177733854,N,N,N,N,RESIDENTIAL CARE FACILITIES,FREESTANDING RESIDENTIAL CARE FACILITIES,02R,ALL NURSING HOMES,N,N,0,9,On or Near Building,-9566149.463,4863915.364
"<a target=""_blank"" href=""http://www.in.gov/isdh/reports/QAMIS/ltccr/cr013946.htm"">View</a>",13946,"VILLAS OF HOLLY BROOK INDIANA, LLC",1941 W US HIGHWAY 40,IN,BRAZIL,CLAY,47834,8124202243,N,N,N,N,RESIDENTIAL CARE FACILITIES,FREESTANDING RESIDENTIAL CARE FACILITIES,02R,ALL NURSING HOMES,N,N,0,9,On or Near Building,-9700518.337,4795839.634
"<a target=""_blank"" href=""http://www.in.gov/isdh/reports/QAMIS/ltccr/cr013978.htm"">View</a>",13978,SAINT ANNE -  VICTORY NOLL,25 VICTORY NOLL DRIVE,IN,HUNTINGTON,HUNTINGTON,46750,2602246848,N,N,N,N,RESIDENTIAL CARE FACILITIES,FREESTANDING RESIDENTIAL CARE FACILITIES,02R,ALL NURSING HOMES,N,N,0,7,On or Near Building,-9516540.199,4993282.397
"<a target=""_blank"" href=""http://www.in.gov/isdh/reports/QAMIS/ltccr/cr013994.htm"">View</a>",13994,"MANSION ON MAIN, THE",1420 EAST MAIN STREET,IN,NEW ALBANY,FLOYD,47150,8129141161,N,N,N,N,RESIDENTIAL CARE FACILITIES,FREESTANDING RESIDENTIAL CARE FACILITIES,02R,ALL NURSING HOMES,N,N,0,7,On or Near Building,-9552127.634,4620212.085
"<a target=""_blank"" href=""http://www.in.gov/isdh/reports/QAMIS/ltccr/cr014002.htm"">View</a>",14002,EVERGREEN VILLAGE AT BLOOMINGTON,3607 SOUTH HEIRLOOM DRIVE,IN,BLOOMINGTON,MONROE,47401,8123362718,N,N,N,N,RESIDENTIAL CARE FACILITIES,FREESTANDING RESIDENTIAL CARE FACILITIES,02R,ALL NURSING HOMES,N,N,0,7,On or Near Building,-9629391.877,4739877.728
"<a target=""_blank"" href=""http://www.in.gov/isdh/reports/QAMIS/ltccr/cr014015.htm"">View</a>",14015,FIVE STAR RESIDENCES OF LAFAYETTE,250 SHENANDOAH DRIVE,IN,LAFAYETTE,TIPPECANOE,47905,7654494475,N,N,N,N,RESIDENTIAL CARE FACILITIES,FREESTANDING RESIDENTIAL CARE FACILITIES,02R,ALL NURSING HOMES,N,N,0,9,On or Near Building,-9667771.721,4927313.857
"<a target=""_blank"" href=""http://www.in.gov/isdh/reports/QAMIS/ltccr/cr014016.htm"">View</a>",14016,FIVE STAR RESIDENCES OF CLEARWATER,4519 EAST 82ND STREET,IN,INDIANAPOLIS,MARION,46250,3178492244,N,N,N,N,RESIDENTIAL CARE FACILITIES,FREESTANDING RESIDENTIAL CARE FACILITIES,02R,ALL NURSING HOMES,N,N,0,9,On or Near Building,-9583695.337,4852320.867
"<a target=""_blank"" href=""http://www.in.gov/isdh/reports/QAMIS/ltccr/cr014017.htm"">View</a>",14017,FIVE STAR RESIDENCES OF FORT WAYNE,2601 COVINGTON COMMONS DRIVE,IN,FORT WAYNE,ALLEN,46804,2604321932,N,N,N,N,RESIDENTIAL CARE FACILITIES,FREESTANDING RESIDENTIAL CARE FACILITIES,02R,ALL NURSING HOMES,N,N,0,9,On or Near Building,-9487281.415,5021314.972
"<a target=""_blank"" href=""http://www.in.gov/isdh/reports/QAMIS/ltccr/cr014018.htm"">View</a>",14018,FIVE STAR RESIDENCES OF BANTA POINTE,6510 U.S. 31 SOUTH,IN,INDIANAPOLIS,MARION,46227,3177834663,N,N,N,N,RESIDENTIAL CARE FACILITIES,FREESTANDING RESIDENTIAL CARE FACILITIES,02R,ALL NURSING HOMES,N,N,0,7,On or Near Building,-9587433.063,4816959.122
"<a target=""_blank"" href=""http://www.in.gov/isdh/reports/QAMIS/ltccr/cr014019.htm"">View</a>",14019,FIVE STAR RESIDENCES OF NORTHWOODS,2501 FRIENDSHIP BLVD,IN,KOKOMO,HOWARD,46901,7654540001,N,N,N,N,RESIDENTIAL CARE FACILITIES,FREESTANDING RESIDENTIAL CARE FACILITIES,02R,ALL NURSING HOMES,N,N,0,7,On or Near Building,-9591940.119,4938190.44
"<a target=""_blank"" href=""http://www.in.gov/isdh/reports/QAMIS/ltccr/cr014034.htm"">View</a>",14034,SILVER BIRCH OF MUNCIE,2500 W KILGORE AVENUE,IN,MUNCIE,DELAWARE,47304,7652540329,N,N,N,N,RESIDENTIAL CARE FACILITIES,FREESTANDING RESIDENTIAL CARE FACILITIES,02R,ALL NURSING HOMES,N,N,0,9,On or Near Building,-9508369.089,4892675.138
"<a target=""_blank"" href=""http://www.in.gov/isdh/reports/QAMIS/ltccr/cr014045.htm"">View</a>",14045,"HARRISON AT EAGLE VALLEY, THE",3060 VALLEY FARMS ROAD,IN,INDIANAPOLIS,MARION,46214,3172911112,N,N,N,N,RESIDENTIAL CARE FACILITIES,FREESTANDING RESIDENTIAL CARE FACILITIES,02R,ALL NURSING HOMES,N,N,0,9,On or Near Building,-9607061.602,4838348.521
"<a target=""_blank"" href=""http://www.in.gov/isdh/reports/QAMIS/ltccr/cr014052.htm"">View</a>",14052,SILVER BIRCH OF MICHIGAN CITY,4400 EAST MICHIGAN BLVD,IN,MICHIGAN CITY,LA PORTE,46360,2198796115,N,N,N,N,RESIDENTIAL CARE FACILITIES,FREESTANDING RESIDENTIAL CARE FACILITIES,02R,ALL NURSING HOMES,N,N,0,7,On or Near Building,-9666495.729,5116170.844
"<a target=""_blank"" href=""http://www.in.gov/isdh/reports/QAMIS/ltccr/cr014059.htm"">View</a>",14059,ANSON SENIOR LIVING,6800 CENTRAL BOULEVARD,IN,ZIONSVILLE,BOONE,46077,3179730220,N,N,N,N,RESIDENTIAL CARE FACILITIES,FREESTANDING RESIDENTIAL CARE FACILITIES,02R,ALL NURSING HOMES,N,N,0,7,On or Near Building,-9611340.754,4859127.786
"<a target=""_blank"" href=""http://www.in.gov/isdh/reports/QAMIS/ltccr/cr014062.htm"">View</a>",14062,HELLENIC SENIOR LIVING OF INDIANAPOLIS,8601 SOUTH SHELBY STREET,IN,INDIANAPOLIS,MARION,46227,3178854446,N,N,N,N,RESIDENTIAL CARE FACILITIES,FREESTANDING RESIDENTIAL CARE FACILITIES,02R,ALL NURSING HOMES,N,N,0,9,On or Near Building,-9588915.887,4813961.38
"<a target=""_blank"" href=""http://www.in.gov/isdh/reports/QAMIS/ltccr/cr014079.htm"">View</a>",14079,DEMAREE CROSSING ASSISTED LIVING AND MEMORY CARE,1255 DEMAREE ROAD,IN,GREENWOOD,JOHNSON,46143,3173168380,N,N,N,N,RESIDENTIAL CARE FACILITIES,FREESTANDING RESIDENTIAL CARE FACILITIES,02R,ALL NURSING HOMES,N,N,0,9,On or Near Building,-9589328.477,4805756.907
"<a target=""_blank"" href=""http://www.in.gov/isdh/reports/QAMIS/ltccr/cr014080.htm"">View</a>",14080,SUGAR FORK CROSSING,1745 EAST 67TH STREET,IN,ANDERSON,MADISON,46013,7652339360,N,N,N,N,RESIDENTIAL CARE FACILITIES,FREESTANDING RESIDENTIAL CARE FACILITIES,02R,ALL NURSING HOMES,N,N,0,7,On or Near Building,-9537755.429,4873298.635
"<a target=""_blank"" href=""http://www.in.gov/isdh/reports/QAMIS/ltccr/cr014090.htm"">View</a>",14090,CROWNPOINTE OF PORTLAND,745 PATRIOT DRIVE,IN,PORTLAND,JAY,47371,2607263577,N,N,N,N,RESIDENTIAL CARE FACILITIES,FREESTANDING RESIDENTIAL CARE FACILITIES,02R,ALL NURSING HOMES,N,N,0,9,On or Near Building,-9460687.457,4930134.476
"<a target=""_blank"" href=""http://www.in.gov/isdh/reports/QAMIS/ltccr/cr014094.htm"">View</a>",14094,WICKSHIRE WEST LAFAYETTE,3575 SENIOR PLACE,IN,WEST LAFAYETTE,TIPPECANOE,47906,7654641805,N,N,N,N,RESIDENTIAL CARE FACILITIES,FREESTANDING RESIDENTIAL CARE FACILITIES,02R,ALL NURSING HOMES,N,N,0,9,On or Near Building,-9675196.984,4934401.532
"<a target=""_blank"" href=""http://www.in.gov/isdh/reports/QAMIS/ltccr/cr014109.htm"">View</a>",14109,WICKSHIRE FORT HARRISON,8025 DOUBLEDAY DRIVE,IN,INDIANAPOLIS,MARION,46216,3175462845,N,N,N,N,RESIDENTIAL CARE FACILITIES,FREESTANDING RESIDENTIAL CARE FACILITIES,02R,ALL NURSING HOMES,N,N,0,9,On or Near Building,-9576412.482,4844802.672
"<a target=""_blank"" href=""http://www.in.gov/isdh/reports/QAMIS/ltccr/cr014113.htm"">View</a>",14113,HERITAGE PARK COMMONS,2002 HERITAGE PARK DRIVE,IN,FORT WAYNE,ALLEN,46805,2604849557,N,N,N,N,RESIDENTIAL CARE FACILITIES,FREESTANDING RESIDENTIAL CARE FACILITIES,02R,ALL NURSING HOMES,N,N,0,9,On or Near Building,-9473279.116,5026290.551
"<a target=""_blank"" href=""http://www.in.gov/isdh/reports/QAMIS/ltccr/cr014137.htm"">View</a>",14137,SILVER BIRCH OF KOKOMO,408 S WASHINGTON STREET,IN,KOKOMO,HOWARD,46901,7658687266,N,N,N,N,RESIDENTIAL CARE FACILITIES,FREESTANDING RESIDENTIAL CARE FACILITIES,02R,ALL NURSING HOMES,N,N,0,9,On or Near Building,-9588280.266,4936490.419
"<a target=""_blank"" href=""http://www.in.gov/isdh/reports/QAMIS/ltccr/cr014148.htm"">View</a>",14148,"GLASSWATER CREEK OF LAFAYETTE, LLC",208 BECK LANE,IN,LAFAYETTE,TIPPECANOE,47909,7654771140,N,N,N,N,RESIDENTIAL CARE FACILITIES,FREESTANDING RESIDENTIAL CARE FACILITIES,02R,ALL NURSING HOMES,N,N,0,7,On or Near Building,-9673763.564,4922484.075
"<a target=""_blank"" href=""http://www.in.gov/isdh/reports/QAMIS/ltccr/cr014166.htm"">View</a>",14166,HELLENIC SENIOR LIVING OF NEW ALBANY,2632 GRANT LINE ROAD,IN,NEW ALBANY,FLOYD,47150,8129449048,N,N,N,N,RESIDENTIAL CARE FACILITIES,FREESTANDING RESIDENTIAL CARE FACILITIES,02R,ALL NURSING HOMES,N,N,0,7,On or Near Building,-9553526.162,4624010.56
"<a target=""_blank"" href=""http://www.in.gov/isdh/reports/QAMIS/ltccr/cr014168.htm"">View</a>",14168,GRAND VALLEY GARDENS ASSISTED LIVING FACILITY,1151 S HUBERT CIRCLE WEST,IN,MARTINSVILLE,MORGAN,46151,7655588200,N,N,N,N,RESIDENTIAL CARE FACILITIES,FREESTANDING RESIDENTIAL CARE FACILITIES,02R,ALL NURSING HOMES,N,N,0,7,On or Near Building,-9618311.58,4781535.099
"<a target=""_blank"" href=""http://www.in.gov/isdh/reports/QAMIS/ltccr/cr014178.htm"">View</a>",14178,BELVEDERE SENIOR HOUSING,343 E 90TH DRIVE,IN,MERRILLVILLE,LAKE,46410,2197692145,N,N,N,N,RESIDENTIAL CARE FACILITIES,FREESTANDING RESIDENTIAL CARE FACILITIES,02R,ALL NURSING HOMES,N,N,0,7,On or Near Building,-9721696.861,5079738.297
"<a target=""_blank"" href=""http://www.in.gov/isdh/reports/QAMIS/ltccr/cr014213.htm"">View</a>",14213,HERITAGE WOODS OF NOBLESVILLE,9600 E 146TH STREET,IN,NOBLESVILLE,HAMILTON,46060,3173306061,N,N,N,N,RESIDENTIAL CARE FACILITIES,FREESTANDING RESIDENTIAL CARE FACILITIES,02R,ALL NURSING HOMES,N,N,0,7,On or Near Building,-9573236.347,4866095.511
"<a target=""_blank"" href=""http://www.in.gov/isdh/reports/QAMIS/ltccr/cr014238.htm"">View</a>",14238,SILVER BIRCH OF EVANSVILLE,475 S GOVERNOR STREET,IN,EVANSVILLE,VANDERBURGH,47713,8122544133,N,N,N,N,RESIDENTIAL CARE FACILITIES,FREESTANDING RESIDENTIAL CARE FACILITIES,02R,ALL NURSING HOMES,N,N,0,7,On or Near Building,-9747036.156,4575536.956
"<a target=""_blank"" href=""http://www.in.gov/isdh/reports/QAMIS/ltccr/cr014241.htm"">View</a>",14241,HELLENIC SENIOR LIVING OF ELKHART,2528 BYPASS ROAD,IN,ELKHART,ELKHART,46514,5743891776,N,N,N,N,RESIDENTIAL CARE FACILITIES,FREESTANDING RESIDENTIAL CARE FACILITIES,02R,ALL NURSING HOMES,N,N,0,7,On or Near Building,-9574624.325,5114164.136
"<a target=""_blank"" href=""http://www.in.gov/isdh/reports/QAMIS/ltccr/cr014253.htm"">View</a>",14253,GRAND BROOK MEMORY CARE OF FISHERS,9796 EAST 131ST STREET,IN,FISHERS,HAMILTON,46038,3179142357,N,N,N,N,RESIDENTIAL CARE FACILITIES,FREESTANDING RESIDENTIAL CARE FACILITIES,02R,ALL NURSING HOMES,N,N,0,9,On or Near Building,-9572914.162,4862964.788
"<a target=""_blank"" href=""http://www.in.gov/isdh/reports/QAMIS/ltccr/cr014260.htm"">View</a>",14260,SILVER BIRCH OF MISHAWAKA,3630 HICKORY ROAD,IN,MISHAWAKA,ST JOSEPH,46545,5742527225,N,N,N,N,RESIDENTIAL CARE FACILITIES,FREESTANDING RESIDENTIAL CARE FACILITIES,02R,ALL NURSING HOMES,N,N,0,7,On or Near Building,-9595354.546,5115148.291
"<a target=""_blank"" href=""http://www.in.gov/isdh/reports/QAMIS/ltccr/cr014279.htm"">View</a>",14279,OASIS AT 56TH,4940 WEST 56TH STREET,IN,INDIANAPOLIS,MARION,46254,3172973115,N,N,N,N,RESIDENTIAL CARE FACILITIES,FREESTANDING RESIDENTIAL CARE FACILITIES,02R,ALL NURSING HOMES,N,N,0,9,On or Near Building,-9600694.604,4844691.533
"<a target=""_blank"" href=""http://www.in.gov/isdh/reports/QAMIS/ltccr/cr014291.htm"">View</a>",14291,SILVER BIRCH OF TERRE HAUTE,650 LAFAYETTE AVENUE,IN,TERRE HAUTE,VIGO,47807,8122370123,N,N,N,N,RESIDENTIAL CARE FACILITIES,FREESTANDING RESIDENTIAL CARE FACILITIES,02R,ALL NURSING HOMES,N,N,0,9,On or Near Building,-9730317.909,4790528.857
"<a target=""_blank"" href=""http://www.in.gov/isdh/reports/QAMIS/ltccr/cr014316.htm"">View</a>",14316,SILVER BIRCH OF FORT WAYNE,7125 S HANNA STREET,IN,FORT WAYNE,ALLEN,46816,2604478811,N,N,N,N,RESIDENTIAL CARE FACILITIES,FREESTANDING RESIDENTIAL CARE FACILITIES,02R,ALL NURSING HOMES,N,N,0,7,On or Near Building,-9476242.66,5015223.385
"<a target=""_blank"" href=""http://www.in.gov/isdh/reports/QAMIS/ltccr/cr014376.htm"">View</a>",14376,GRAND BROOK MEMORY CARE OF ZIONSVILLE,11870 SANDY DRIVE,IN,ZIONSVILLE,BOONE,46077,3179750049,N,N,N,N,RESIDENTIAL CARE FACILITIES,FREESTANDING RESIDENTIAL CARE FACILITIES,02R,ALL NURSING HOMES,N,N,0,9,On or Near Building,-9600652.645,4859804.887
"<a target=""_blank"" href=""http://www.in.gov/isdh/reports/QAMIS/ltccr/cr014377.htm"">View</a>",14377,HERITAGE WOODS OF NEWBURGH,4211 GRIMM ROAD,IN,NEWBURGH,WARRICK,47630,8128539810,N,N,N,N,RESIDENTIAL CARE FACILITIES,FREESTANDING RESIDENTIAL CARE FACILITIES,02R,ALL NURSING HOMES,N,N,0,7,On or Near Building,-9732904.392,4575864.17
"<a target=""_blank"" href=""http://www.in.gov/isdh/reports/QAMIS/ltccr/cr014383.htm"">View</a>",14383,LEGACY LIVING OF JASPER LLC,1850 WEST STATE ROAD 56,IN,JASPER,DUBOIS,47546,8125590200,N,N,N,N,RESIDENTIAL CARE FACILITIES,FREESTANDING RESIDENTIAL CARE FACILITIES,02R,ALL NURSING HOMES,N,N,0,7,On or Near Building,-9670670.085,4647729.192
"<a target=""_blank"" href=""http://www.in.gov/isdh/reports/QAMIS/ltccr/cr014410.htm"">View</a>",14410,GLASSWATER CREEK OF PLAINFIELD,10480 GLASSWATER LANE,IN,PLAINFIELD,HENDRICKS,46168,3178395808,N,N,N,N,RESIDENTIAL CARE FACILITIES,FREESTANDING RESIDENTIAL CARE FACILITIES,02R,ALL NURSING HOMES,N,N,0,7,On or Near Building,-9610940.894,4826997.342
"<a target=""_blank"" href=""http://www.in.gov/isdh/reports/QAMIS/ltccr/cr014419.htm"">View</a>",14419,BRIGHTSTAR SENIOR LIVING OF FORT WAYNE,11430 COLDWATER ROAD,IN,FORT WAYNE,ALLEN,46845,2602342929,N,N,N,N,RESIDENTIAL CARE FACILITIES,FREESTANDING RESIDENTIAL CARE FACILITIES,02R,ALL NURSING HOMES,N,N,0,9,On or Near Building,-9476888.721,5040190.956
"<a target=""_blank"" href=""http://www.in.gov/isdh/reports/QAMIS/ltccr/cr014426.htm"">View</a>",14426,GRAND BROOK MEMORY CARE OF GREENWOOD,2444 SOUTH STATE ROAD 135,IN,GREENWOOD,JOHNSON,46143,3174991310,N,N,N,N,RESIDENTIAL CARE FACILITIES,FREESTANDING RESIDENTIAL CARE FACILITIES,02R,ALL NURSING HOMES,N,N,0,7,On or Near Building,-9591196.157,4805078.38
"<a target=""_blank"" href=""http://www.in.gov/isdh/reports/QAMIS/ltccr/cr014463.htm"">View</a>",14463,LINCOLNSHIRE PLACE - MUNCIE,1600 N MORRISON ROAD,IN,MUNCIE,DELAWARE,47304,7655872714,N,N,N,N,RESIDENTIAL CARE FACILITIES,FREESTANDING RESIDENTIAL CARE FACILITIES,02R,ALL NURSING HOMES,N,N,0,7,On or Near Building,-9511429.21,4896104.851
"<a target=""_blank"" href=""http://www.in.gov/isdh/reports/QAMIS/ltccr/cr014469.htm"">View</a>",14469,RESIDENCES AT COFFEE CREEK,2300 VILLAGE POINT,IN,CHESTERTON,PORTER,46304,2199215200,N,N,N,N,RESIDENTIAL CARE FACILITIES,FREESTANDING RESIDENTIAL CARE FACILITIES,02R,ALL NURSING HOMES,N,N,0,7,On or Near Building,-9689485.367,5098984.201
"<a target=""_blank"" href=""http://www.in.gov/isdh/reports/QAMIS/ltccr/cr014512.htm"">View</a>",14512,EVERGREEN VILLAGE AT FORT WAYNE,12523 AUBURN ROAD,IN,FORT WAYNE,ALLEN,46845,2606372830,N,N,N,N,RESIDENTIAL CARE FACILITIES,FREESTANDING RESIDENTIAL CARE FACILITIES,02R,ALL NURSING HOMES,N,N,0,9,On or Near Building,-9474933.89,5041696.756
"<a target=""_blank"" href=""http://www.in.gov/isdh/reports/QAMIS/ltccr/cr014519.htm"">View</a>",14519,VIVERA SENIOR LIVING OF COLUMBUS,1971 STATE STREET,IN,COLUMBUS,BARTHOLOMEW,47201,8123760698,N,N,N,N,RESIDENTIAL CARE FACILITIES,FREESTANDING RESIDENTIAL CARE FACILITIES,02R,ALL NURSING HOMES,N,N,0,9,On or Near Building,-9562574.357,4749796.533
"<a target=""_blank"" href=""http://www.in.gov/isdh/reports/QAMIS/ltccr/cr014548.htm"">View</a>",14548,TIMBER CREEK VILLAGE,990 PROGRESS PARKWAY,IN,SHELBYVILLE,SHELBY,46176,2178219539,N,N,N,N,RESIDENTIAL CARE FACILITIES,FREESTANDING RESIDENTIAL CARE FACILITIES,02R,ALL NURSING HOMES,N,N,0,7,On or Near Building,-9544688.097,4797194.167
"<a target=""_blank"" href=""http://www.in.gov/isdh/reports/QAMIS/ltccr/cr014553.htm"">View</a>",14553,SILVER BIRCH AT COOK ROAD,3731 WEST COOK ROAD,IN,FORT WAYNE,ALLEN,46818,2604478811,N,N,N,N,RESIDENTIAL CARE FACILITIES,FREESTANDING RESIDENTIAL CARE FACILITIES,02R,ALL NURSING HOMES,N,N,0,9,On or Near Building,-9483547.077,5033946.451
"<a target=""_blank"" href=""http://www.in.gov/isdh/reports/QAMIS/ltccr/cr014576.htm"">View</a>",14576,CEDARHURST OF FORT WAYNE,9210 MAYSVILLE ROAD,IN,FORT WAYNE,ALLEN,46815,2602355957,N,N,N,N,RESIDENTIAL CARE FACILITIES,FREESTANDING RESIDENTIAL CARE FACILITIES,02R,ALL NURSING HOMES,N,N,0,7,On or Near Building,-9464839.894,5029022.343
"<a target=""_blank"" href=""http://www.in.gov/isdh/reports/QAMIS/ltccr/cr014602.htm"">View</a>",14602,SANCTUARY AT ST PAUL'S,3602 SOUTH IRONWOOD DRIVE,IN,SOUTH BEND,ST JOSEPH,46614,5742849000,N,N,N,N,RESIDENTIAL CARE FACILITIES,FREESTANDING RESIDENTIAL CARE FACILITIES,02R,ALL NURSING HOMES,N,N,0,9,On or Near Building,-9597303.477,5107067.917
"<a target=""_blank"" href=""http://www.in.gov/isdh/reports/QAMIS/ltccr/cr014623.htm"">View</a>",14623,TOWNE PARK ASSISTED LIVING,503 S MURPHY AVE,IN,BRAZIL,CLAY,47834,8124204100,N,N,N,N,RESIDENTIAL CARE FACILITIES,FREESTANDING RESIDENTIAL CARE FACILITIES,02R,ALL NURSING HOMES,N,N,0,7,On or Near Building,-9696849.141,4796513.956
"<a target=""_blank"" href=""http://www.in.gov/isdh/reports/QAMIS/ltccr/cr014910.htm"">View</a>",14910,LAKE MEADOWS SENIOR ASSISTED LIVING,11570 E 126TH STREET,IN,FISHERS,HAMILTON,46037,3175274475,N,N,N,N,RESIDENTIAL CARE FACILITIES,FREESTANDING RESIDENTIAL CARE FACILITIES,02R,ALL NURSING HOMES,N,N,0,7,On or Near Building,-9569561.968,4861882.098
"<a target=""_blank"" href=""http://www.in.gov/isdh/reports/QAMIS/ltccr/cr014224.htm"">View</a>",14224,HELLENIC SENIOR LIVING OF MISHAWAKA,1540 SOUTH LOGAN STREET,IN,MISHAWAKA,ST JOSEPH,46544,5742578629,N,N,N,N,RESIDENTIAL CARE FACILITIES,FREESTANDING RESIDENTIAL CARE FACILITIES,02R,ALL NURSING HOMES,N,N,0,9,On or Near Building,-9595345.008,5112299.35
"<a target=""_blank"" href=""http://www.in.gov/isdh/reports/QAMIS/ltccr/cr015179.htm"">View</a>",15179,COLUMBUS SENIOR LIVING LLC,4300 WEST GOELLER BLVD,IN,COLUMBUS,BARTHOLOMEW,47201,8125520500,N,N,N,N,RESIDENTIAL CARE FACILITIES,FREESTANDING RESIDENTIAL CARE FACILITIES,02R,ALL NURSING HOMES,N,N,0,9,On or Near Building,-9570147.72,4749526.816