Facility ID,Facility Name,Address,State,City,County,Zip Code,Phone Number,State Facility Type 1 Literal,Type 2,Type 3
000001NFS,HOOVERWOOD,7001 HOOVER RD,IN,INDIANAPOLIS,MARION,46260,3172512261,RESIDENTIAL CARE FACILITIES,NON-FREE STANDING RESIDENTIAL CARE FACILITIES,RESIDENTIAL NFS
000009NFS,HERITAGE HOUSE OF SHELBYVILLE,2309 S MILLER ST,IN,SHELBYVILLE,SHELBY,46176,3173989781,RESIDENTIAL CARE FACILITIES,NON-FREE STANDING RESIDENTIAL CARE FACILITIES,RESIDENTIAL NFS
000010NFS,GREENWOOD VILLAGE SOUTH,295 VILLAGE LANE,IN,GREENWOOD,JOHNSON,46143,3178594444,RESIDENTIAL CARE FACILITIES,NON-FREE STANDING RESIDENTIAL CARE FACILITIES,RESIDENTIAL NFS
000018NFS,MILLER'S MERRY MANOR,612 E 11TH ST,IN,RUSHVILLE,RUSH,46173,7659324127,RESIDENTIAL CARE FACILITIES,NON-FREE STANDING RESIDENTIAL CARE FACILITIES,RESIDENTIAL NFS
000029NFS,BEECH GROVE MEADOWS,2002 ALBANY ST,IN,BEECH GROVE,MARION,46107,3177832911,RESIDENTIAL CARE FACILITIES,NON-FREE STANDING RESIDENTIAL CARE FACILITIES,RESIDENTIAL NFS
000041NFS,MILLER'S MERRY MANOR,635 OAKHILL AVE,IN,PLYMOUTH,MARSHALL,46563,5749369981,RESIDENTIAL CARE FACILITIES,NON-FREE STANDING RESIDENTIAL CARE FACILITIES,RESIDENTIAL NFS
000084NFS,WESTMINSTER VILLAGE NORTH,11050 PRESBYTERIAN DR,IN,INDIANAPOLIS,MARION,46236,3178236841,RESIDENTIAL CARE FACILITIES,NON-FREE STANDING RESIDENTIAL CARE FACILITIES,RESIDENTIAL NFS
000086NFS,WESTMINSTER VILLAGE MUNCIE INC,5801 W BETHEL AVE,IN,MUNCIE,DELAWARE,47304,7652882155,RESIDENTIAL CARE FACILITIES,NON-FREE STANDING RESIDENTIAL CARE FACILITIES,RESIDENTIAL NFS
000089NFS,MILLER'S MERRY MANOR,505 N BRADNER AVE,IN,MARION,GRANT,46952,7656623981,RESIDENTIAL CARE FACILITIES,NON-FREE STANDING RESIDENTIAL CARE FACILITIES,RESIDENTIAL NFS
000093NFS,WESTMINSTER VILLAGE - WEST LAFAYETTE,2741 N SALISBURY ST,IN,WEST LAFAYETTE,TIPPECANOE,47906,7654637546,RESIDENTIAL CARE FACILITIES,NON-FREE STANDING RESIDENTIAL CARE FACILITIES,RESIDENTIAL NFS
000100NFS,WESTMINSTER HEALTH CARE CENTER,2210 GREENTREE N,IN,CLARKSVILLE,CLARK,47129,8122825911,RESIDENTIAL CARE FACILITIES,NON-FREE STANDING RESIDENTIAL CARE FACILITIES,RESIDENTIAL NFS
000103NFS,ALTENHEIM HEALTH & LIVING COMMUNITY,3525 E HANNA AVE,IN,INDIANAPOLIS,MARION,46237,3177884261,RESIDENTIAL CARE FACILITIES,NON-FREE STANDING RESIDENTIAL CARE FACILITIES,RESIDENTIAL NFS
000105NFS,MARQUETTE,8140 TOWNSHIP LINE RD,IN,INDIANAPOLIS,MARION,46260,3178759700,RESIDENTIAL CARE FACILITIES,NON-FREE STANDING RESIDENTIAL CARE FACILITIES,RESIDENTIAL NFS
000115NFS,HANOVER NURSING CENTER,410 W LAGRANGE RD,IN,HANOVER,JEFFERSON,47243,8128662625,RESIDENTIAL CARE FACILITIES,NON-FREE STANDING RESIDENTIAL CARE FACILITIES,RESIDENTIAL NFS
000125NFS,DYER NURSING AND REHABILITATION CENTER,601 SHEFFIELD AVE,IN,DYER,LAKE,46311,2193222273,RESIDENTIAL CARE FACILITIES,NON-FREE STANDING RESIDENTIAL CARE FACILITIES,RESIDENTIAL NFS
000126NFS,WESTMINSTER VILLAGE HEALTH & REHAB,1120 E DAVIS DR,IN,TERRE HAUTE,VIGO,47802,8122327533,RESIDENTIAL CARE FACILITIES,NON-FREE STANDING RESIDENTIAL CARE FACILITIES,RESIDENTIAL NFS
000141NFS,AVON HEALTH & REHABILITATION CENTER,4171 FOREST POINTE CIRCLE,IN,AVON,HENDRICKS,46123,3177455184,RESIDENTIAL CARE FACILITIES,NON-FREE STANDING RESIDENTIAL CARE FACILITIES,RESIDENTIAL NFS
000180NFS,GOOD SAMARITAN SOCIETY NORTHWOOD RETIREMENT COMM,2515 NEWTON ST,IN,JASPER,DUBOIS,47547,8124821722,RESIDENTIAL CARE FACILITIES,NON-FREE STANDING RESIDENTIAL CARE FACILITIES,RESIDENTIAL NFS
000187NFS,ST ELIZABETH HEALTHCARE CENTER,701 ARMORY RD,IN,DELPHI,CARROLL,46923,7655646380,RESIDENTIAL CARE FACILITIES,NON-FREE STANDING RESIDENTIAL CARE FACILITIES,RESIDENTIAL NFS
000189NFS,AMERICAN VILLAGE,2026 EAST 54TH ST,IN,INDIANAPOLIS,MARION,46220,3172536950,RESIDENTIAL CARE FACILITIES,NON-FREE STANDING RESIDENTIAL CARE FACILITIES,RESIDENTIAL NFS
000191NFS,FORUM AT THE CROSSING,8505 WOODFIELD CROSSING BLVD,IN,INDIANAPOLIS,MARION,46240,3174662020,RESIDENTIAL CARE FACILITIES,NON-FREE STANDING RESIDENTIAL CARE FACILITIES,RESIDENTIAL NFS
000228NFS,OSSIAN HEALTH CARE AND REHABILITATION CENTER,215 DAVIS RD,IN,OSSIAN,WELLS,46777,2606227821,RESIDENTIAL CARE FACILITIES,NON-FREE STANDING RESIDENTIAL CARE FACILITIES,RESIDENTIAL NFS
000240NFS,SAINT ANNE HOME,1900 RANDALLIA DR,IN,FORT WAYNE,ALLEN,46805,2604845555,RESIDENTIAL CARE FACILITIES,NON-FREE STANDING RESIDENTIAL CARE FACILITIES,RESIDENTIAL NFS
000248NFS,RAWLINS HOUSE HEALTH & LIVING COMMUNITY,300 J H WALKER DR,IN,PENDLETON,MADISON,46064,7657787501,RESIDENTIAL CARE FACILITIES,NON-FREE STANDING RESIDENTIAL CARE FACILITIES,RESIDENTIAL NFS
000252NFS,AMBER MANOR CARE CENTER,801 E ILLINOIS ST,IN,PETERSBURG,PIKE,47567,8123543001,RESIDENTIAL CARE FACILITIES,NON-FREE STANDING RESIDENTIAL CARE FACILITIES,RESIDENTIAL NFS
000255NFS,BYRON HEALTH CENTER,12101 LIMA RD,IN,FORT WAYNE,ALLEN,46818,2606373166,RESIDENTIAL CARE FACILITIES,NON-FREE STANDING RESIDENTIAL CARE FACILITIES,RESIDENTIAL NFS
000280NFS,SWISS VILLAGE,1350 W MAIN ST,IN,BERNE,ADAMS,46711,2605893173,RESIDENTIAL CARE FACILITIES,NON-FREE STANDING RESIDENTIAL CARE FACILITIES,RESIDENTIAL NFS
000282NFS,GOLDEN YEARS HOMESTEAD,3136 GOEGLEIN RD,IN,FORT WAYNE,ALLEN,46815,2607499655,RESIDENTIAL CARE FACILITIES,NON-FREE STANDING RESIDENTIAL CARE FACILITIES,RESIDENTIAL NFS
000283NFS,LUTHERAN LIFE VILLAGES,6701 S ANTHONY BLVD,IN,FORT WAYNE,ALLEN,46816,2604471591,RESIDENTIAL CARE FACILITIES,NON-FREE STANDING RESIDENTIAL CARE FACILITIES,RESIDENTIAL NFS
000299NFS,MILNER COMMUNITY HEALTH CARE,370 E MAIN ST,IN,ROSSVILLE,CLINTON,46065,7653792112,RESIDENTIAL CARE FACILITIES,NON-FREE STANDING RESIDENTIAL CARE FACILITIES,RESIDENTIAL NFS
312,ROSEWOOD MANOR,5200 S BURLINGTON DR,IN,MUNCIE,DELAWARE,47302,7652880087,RESIDENTIAL CARE FACILITIES,FREESTANDING RESIDENTIAL CARE FACILITIES,ALL NURSING HOMES
000347NFS,LUTHERAN COMMUNITY HOME,111 W CHURCH AVE,IN,SEYMOUR,JACKSON,47274,8125225927,RESIDENTIAL CARE FACILITIES,NON-FREE STANDING RESIDENTIAL CARE FACILITIES,RESIDENTIAL NFS
000372NFS,ELWOOD HEALTH AND LIVING,2300 PARKVIEW LN,IN,ELWOOD,MADISON,46036,7652032672,RESIDENTIAL CARE FACILITIES,NON-FREE STANDING RESIDENTIAL CARE FACILITIES,RESIDENTIAL NFS
000389NFS,ST AUGUSTINE HOME FOR THE AGED,2345 W 86TH ST,IN,INDIANAPOLIS,MARION,46260,3174155767,RESIDENTIAL CARE FACILITIES,NON-FREE STANDING RESIDENTIAL CARE FACILITIES,RESIDENTIAL NFS
000391NFS,ST PAUL HERMITAGE,501 N 17TH AVE,IN,BEECH GROVE,MARION,46107,3177862261,RESIDENTIAL CARE FACILITIES,NON-FREE STANDING RESIDENTIAL CARE FACILITIES,RESIDENTIAL NFS
000404NFS,PRESENCE SACRED HEART HOME,515 N MAIN ST,IN,AVILLA,NOBLE,46710,2608972841,RESIDENTIAL CARE FACILITIES,NON-FREE STANDING RESIDENTIAL CARE FACILITIES,RESIDENTIAL NFS
000419NFS,PARKER HEALTH CARE & REHABILITATION CENTER,359 RANDOLPH ST,IN,PARKER CITY,RANDOLPH,47368,7654688280,RESIDENTIAL CARE FACILITIES,NON-FREE STANDING RESIDENTIAL CARE FACILITIES,RESIDENTIAL NFS
000420NFS,RIPLEY CROSSING,1200 WHITLATCH WAY,IN,MILAN,RIPLEY,47031,8126542231,RESIDENTIAL CARE FACILITIES,NON-FREE STANDING RESIDENTIAL CARE FACILITIES,RESIDENTIAL NFS
000427NFS,HAMILTON GROVE,31869 CHICAGO TRAIL,IN,NEW CARLISLE,ST JOSEPH,46552,5746542200,RESIDENTIAL CARE FACILITIES,NON-FREE STANDING RESIDENTIAL CARE FACILITIES,RESIDENTIAL NFS
000439NFS,GOOD SAMARITAN HOME HEALTH CENTER AND RESIDENTIAL,601 N BOEKE RD,IN,EVANSVILLE,VANDERBURGH,47711,8124764912,RESIDENTIAL CARE FACILITIES,NON-FREE STANDING RESIDENTIAL CARE FACILITIES,RESIDENTIAL NFS
000448NFS,TIMBERCREST CHURCH OF THE BRETHREN HOME,2201 EAST ST,IN,NORTH MANCHESTER,WABASH,46962,2609822118,RESIDENTIAL CARE FACILITIES,NON-FREE STANDING RESIDENTIAL CARE FACILITIES,RESIDENTIAL NFS
000455NFS,ARBOR TRACE HEALTH & LIVING COMMUNITY,3701 HODGIN RD,IN,RICHMOND,WAYNE,47374,7659393701,RESIDENTIAL CARE FACILITIES,NON-FREE STANDING RESIDENTIAL CARE FACILITIES,RESIDENTIAL NFS
000470NFS,MULBERRY HEALTH & REHABILITATION CENTER,502 W JACKSON ST,IN,MULBERRY,CLINTON,46058,7652962911,RESIDENTIAL CARE FACILITIES,NON-FREE STANDING RESIDENTIAL CARE FACILITIES,RESIDENTIAL NFS
000471NFS,APERION CARE DEMOTTE,10352 N 600 E  COUNTY LINE RD,IN,DEMOTTE,JASPER,46310,2193455211,RESIDENTIAL CARE FACILITIES,NON-FREE STANDING RESIDENTIAL CARE FACILITIES,RESIDENTIAL NFS
000485NFS,PEABODY RETIREMENT COMMUNITY,400 W SEVENTH ST,IN,NORTH MANCHESTER,WABASH,46962,2609828616,RESIDENTIAL CARE FACILITIES,NON-FREE STANDING RESIDENTIAL CARE FACILITIES,RESIDENTIAL NFS
000491NFS,PADDOCK SPRINGS,2695 SHELDON STREET,IN,WARSAW,KOSCIUSKO,46582,5746589455,RESIDENTIAL CARE FACILITIES,NON-FREE STANDING RESIDENTIAL CARE FACILITIES,RESIDENTIAL NFS
000501NFS,GRACE VILLAGE HEALTH CARE FACILITY,337 GRACE VILLAGE DR,IN,WINONA LAKE,KOSCIUSKO,46590,5743726100,RESIDENTIAL CARE FACILITIES,NON-FREE STANDING RESIDENTIAL CARE FACILITIES,RESIDENTIAL NFS
000534NFS,SCENIC HILLS AT THE MONASTERY,710 SUNRISE DRIVE,IN,FERDINAND,DUBOIS,47532,8125042048,RESIDENTIAL CARE FACILITIES,NON-FREE STANDING RESIDENTIAL CARE FACILITIES,RESIDENTIAL NFS
000538NFS,ZIONSVILLE MEADOWS,675 S FORD RD,IN,ZIONSVILLE,BOONE,46077,3178735205,RESIDENTIAL CARE FACILITIES,NON-FREE STANDING RESIDENTIAL CARE FACILITIES,RESIDENTIAL NFS
000539NFS,PARKVIEW HAVEN,101 CONSTITUTION DR,IN,FRANCESVILLE,PULASKI,47946,2195679149,RESIDENTIAL CARE FACILITIES,NON-FREE STANDING RESIDENTIAL CARE FACILITIES,RESIDENTIAL NFS
000541NFS,TOWNE HOUSE RETIREMENT COMMUNITY,2209 ST JOE CENTER RD,IN,FORT WAYNE,ALLEN,46825,2604833116,RESIDENTIAL CARE FACILITIES,NON-FREE STANDING RESIDENTIAL CARE FACILITIES,RESIDENTIAL NFS
000542NFS,HERITAGE POINTE,801 N HUNTINGTON AVE,IN,WARREN,HUNTINGTON,46792,2603752201,RESIDENTIAL CARE FACILITIES,NON-FREE STANDING RESIDENTIAL CARE FACILITIES,RESIDENTIAL NFS
000543NFS,FOUR SEASONS RETIREMENT CENTER,1901 TAYLOR RD,IN,COLUMBUS,BARTHOLOMEW,47203,8123728481,RESIDENTIAL CARE FACILITIES,NON-FREE STANDING RESIDENTIAL CARE FACILITIES,RESIDENTIAL NFS
000547NFS,CUMBERLAND POINTE HEALTH CAMPUS,1051 CUMBERLAND AVE,IN,WEST LAFAYETTE,TIPPECANOE,47906,7654632571,RESIDENTIAL CARE FACILITIES,NON-FREE STANDING RESIDENTIAL CARE FACILITIES,RESIDENTIAL NFS
000548NFS,HOOSIER VILLAGE,9875 CHERRYLEAF DR,IN,INDIANAPOLIS,MARION,46268,3178733349,RESIDENTIAL CARE FACILITIES,NON-FREE STANDING RESIDENTIAL CARE FACILITIES,RESIDENTIAL NFS
000549NFS,CENTURY VILLA HEALTH CARE,705 N MERIDIAN ST,IN,GREENTOWN,HOWARD,46936,7656283377,RESIDENTIAL CARE FACILITIES,NON-FREE STANDING RESIDENTIAL CARE FACILITIES,RESIDENTIAL NFS
000551NFS,HARBOUR MANOR HEALTH & LIVING COMMUNITY,1667 SHERIDAN RD,IN,NOBLESVILLE,HAMILTON,46060,3177739205,RESIDENTIAL CARE FACILITIES,NON-FREE STANDING RESIDENTIAL CARE FACILITIES,RESIDENTIAL NFS
000556NFS,ADAMS WOODCREST,1300 MERCER AVE,IN,DECATUR,ADAMS,46733,2607243311,RESIDENTIAL CARE FACILITIES,NON-FREE STANDING RESIDENTIAL CARE FACILITIES,RESIDENTIAL NFS
000557NFS,WESLEYAN HEALTH CARE CENTER,729 WEST 35TH ST,IN,MARION,GRANT,46953,7656743371,RESIDENTIAL CARE FACILITIES,NON-FREE STANDING RESIDENTIAL CARE FACILITIES,RESIDENTIAL NFS
000576NFS,CHRISTIAN CARE RETIREMENT COMMUNITY,720 E DUSTMAN RD,IN,BLUFFTON,WELLS,46714,2605653000,RESIDENTIAL CARE FACILITIES,NON-FREE STANDING RESIDENTIAL CARE FACILITIES,RESIDENTIAL NFS
001120NFS,ASBURY TOWERS HEALTH CARE CENTER,102 W POPLAR ST,IN,GREENCASTLE,PUTNAM,46135,7656535148,RESIDENTIAL CARE FACILITIES,NON-FREE STANDING RESIDENTIAL CARE FACILITIES,RESIDENTIAL NFS
1121,BETHANY VILLAGE ASSISTED LIVING,3530 S SHELBY ST,IN,INDIANAPOLIS,MARION,46227,3177843066,RESIDENTIAL CARE FACILITIES,FREESTANDING RESIDENTIAL CARE FACILITIES,ALL NURSING HOMES
1123,CHARLES FORD MEMORIAL HOME INC,920 S MAIN ST,IN,NEW HARMONY,POSEY,47631,8126824685,RESIDENTIAL CARE FACILITIES,FREESTANDING RESIDENTIAL CARE FACILITIES,ALL NURSING HOMES
001125NFS,EVANSVILLE PROTESTANT HOME INC,3701 WASHINGTON AVE,IN,EVANSVILLE,VANDERBURGH,47714,8124763360,RESIDENTIAL CARE FACILITIES,NON-FREE STANDING RESIDENTIAL CARE FACILITIES,RESIDENTIAL NFS
001126NFS,FLATROCK RIVER LODGE,904 E 11TH ST,IN,RUSHVILLE,RUSH,46173,7659322974,RESIDENTIAL CARE FACILITIES,NON-FREE STANDING RESIDENTIAL CARE FACILITIES,RESIDENTIAL NFS
001127NFS,OTTERBEIN FRANKLIN SENIORLIFE COMM RES & COM CARE,1070 W JEFFERSON ST,IN,FRANKLIN,JOHNSON,46131,3177367185,RESIDENTIAL CARE FACILITIES,NON-FREE STANDING RESIDENTIAL CARE FACILITIES,RESIDENTIAL NFS
001128NFS,FRIENDS FELLOWSHIP COMMUNITY,2030 CHESTER BLVD,IN,RICHMOND,WAYNE,47374,7659626546,RESIDENTIAL CARE FACILITIES,NON-FREE STANDING RESIDENTIAL CARE FACILITIES,RESIDENTIAL NFS
001131NFS,HUBBARD HILL ESTATES INC,28070 CR 24,IN,ELKHART,ELKHART,46517,5742956260,RESIDENTIAL CARE FACILITIES,NON-FREE STANDING RESIDENTIAL CARE FACILITIES,RESIDENTIAL NFS
1135,KINGSTON RESIDENCE OF FORT WAYNE,7515 WINCHESTER RD,IN,FORT WAYNE,ALLEN,46819,2607471523,RESIDENTIAL CARE FACILITIES,FREESTANDING RESIDENTIAL CARE FACILITIES,ALL NURSING HOMES
1136,LAKE PARK RESIDENTIAL CARE,2075 RIPLEY ST,IN,LAKE STATION,LAKE,46405,2199629437,RESIDENTIAL CARE FACILITIES,FREESTANDING RESIDENTIAL CARE FACILITIES,ALL NURSING HOMES
001138NFS,LODGE OF THE WABASH,723 E RAMSEY RD,IN,VINCENNES,KNOX,47591,8128828787,RESIDENTIAL CARE FACILITIES,NON-FREE STANDING RESIDENTIAL CARE FACILITIES,RESIDENTIAL NFS
1140,MILLER BEACH TERRACE,4905 MELTON RD,IN,GARY,LAKE,46403,2199380124,RESIDENTIAL CARE FACILITIES,FREESTANDING RESIDENTIAL CARE FACILITIES,ALL NURSING HOMES
001141NFS,"MILTON HOME, THE",206 E MARION ST,IN,SOUTH BEND,ST JOSEPH,46601,5742330165,RESIDENTIAL CARE FACILITIES,NON-FREE STANDING RESIDENTIAL CARE FACILITIES,RESIDENTIAL NFS
1142,PINE KNOLL ASSISTED LIVING CENTER,607 WILSON CREEK RD,IN,LAWRENCEBURG,DEARBORN,47025,8125374422,RESIDENTIAL CARE FACILITIES,FREESTANDING RESIDENTIAL CARE FACILITIES,ALL NURSING HOMES
1143,PORTAGE MANOR HEALTH CARE FACILITY,3016 PORTAGE AVE,IN,SOUTH BEND,ST JOSEPH,46628,5742729100,RESIDENTIAL CARE FACILITIES,FREESTANDING RESIDENTIAL CARE FACILITIES,ALL NURSING HOMES
001144NFS,DIVERSICARE OF PROVIDENCE,4915 CHARLESTOWN RD,IN,NEW ALBANY,FLOYD,47150,8129455221,RESIDENTIAL CARE FACILITIES,NON-FREE STANDING RESIDENTIAL CARE FACILITIES,RESIDENTIAL NFS
001145NFS,NEW ALBANY NURSING AND REHABILITATION CENTER,201 E ELM ST,IN,NEW ALBANY,FLOYD,47150,8129459517,RESIDENTIAL CARE FACILITIES,NON-FREE STANDING RESIDENTIAL CARE FACILITIES,RESIDENTIAL NFS
1148,WOOD RIDGE ASSISTED LIVING,17650 GENERATIONS DR,IN,SOUTH BEND,ST JOSEPH,46635,5742711151,RESIDENTIAL CARE FACILITIES,FREESTANDING RESIDENTIAL CARE FACILITIES,ALL NURSING HOMES
001149NFS,MANOR CARE HEALTH SERVICES SUMMER TRACE,12999 N PENNSYLVANIA ST,IN,CARMEL,HAMILTON,46032,3178482448,RESIDENTIAL CARE FACILITIES,NON-FREE STANDING RESIDENTIAL CARE FACILITIES,RESIDENTIAL NFS
001152NFS,WESLEY MANOR HEALTH CENTER,1555 N MAIN ST,IN,FRANKFORT,CLINTON,46041,7656591811,RESIDENTIAL CARE FACILITIES,NON-FREE STANDING RESIDENTIAL CARE FACILITIES,RESIDENTIAL NFS
001153NFS,WHITE RIVER LODGE,3710 KENNY SIMPSON LN,IN,BEDFORD,LAWRENCE,47421,8122757006,RESIDENTIAL CARE FACILITIES,NON-FREE STANDING RESIDENTIAL CARE FACILITIES,RESIDENTIAL NFS
001156NFS,ROBIN RUN HEALTH CENTER,6370 ROBIN RUN W,IN,INDIANAPOLIS,MARION,46268,3172986255,RESIDENTIAL CARE FACILITIES,NON-FREE STANDING RESIDENTIAL CARE FACILITIES,RESIDENTIAL NFS
001198NFS,CROWN POINT CHRISTIAN VILLAGE,6685 EAST 117TH AVENUE,IN,CROWN POINT,LAKE,46307,2196620642,RESIDENTIAL CARE FACILITIES,NON-FREE STANDING RESIDENTIAL CARE FACILITIES,RESIDENTIAL NFS
001215NFS,CEDARS THE,14409 SUNRISE CT,IN,LEO,ALLEN,46765,2606272191,RESIDENTIAL CARE FACILITIES,NON-FREE STANDING RESIDENTIAL CARE FACILITIES,RESIDENTIAL NFS
002280NFS,RIVER POINTE HEALTH CAMPUS,3001 GALAXY DR,IN,EVANSVILLE,VANDERBURGH,47715,8124752822,RESIDENTIAL CARE FACILITIES,NON-FREE STANDING RESIDENTIAL CARE FACILITIES,RESIDENTIAL NFS
2392,TERRACE AT TOWNE CENTRE THE,7252 ARTHUR BLVD,IN,MERRILLVILLE,LAKE,46410,2197362900,RESIDENTIAL CARE FACILITIES,FREESTANDING RESIDENTIAL CARE FACILITIES,ALL NURSING HOMES
002512NFS,OAKWOOD HEALTH CAMPUS,1143 23RD ST,IN,TELL CITY,PERRY,47586,8125472333,RESIDENTIAL CARE FACILITIES,NON-FREE STANDING RESIDENTIAL CARE FACILITIES,RESIDENTIAL NFS
2627,BRENTWOOD AT HOBART,1420 ST MARY CIR,IN,HOBART,LAKE,46342,2199451968,RESIDENTIAL CARE FACILITIES,FREESTANDING RESIDENTIAL CARE FACILITIES,ALL NURSING HOMES
002628NFS,ST CHARLES HEALTH CAMPUS,3150 ST CHARLES ST,IN,JASPER,DUBOIS,47546,8126346570,RESIDENTIAL CARE FACILITIES,NON-FREE STANDING RESIDENTIAL CARE FACILITIES,RESIDENTIAL NFS
2656,BROOKDALE GRANGER,430 CLEVELAND RD,IN,GRANGER,ST JOSEPH,46530,5742439020,RESIDENTIAL CARE FACILITIES,FREESTANDING RESIDENTIAL CARE FACILITIES,ALL NURSING HOMES
002661NFS,GREENLEAF HEALTH CAMPUS,1201 E BEARDSLEY AVE,IN,ELKHART,ELKHART,46514,5742060086,RESIDENTIAL CARE FACILITIES,NON-FREE STANDING RESIDENTIAL CARE FACILITIES,RESIDENTIAL NFS
002662NFS,SOUTHFIELD VILLAGE,6450 MIAMI CIR,IN,SOUTH BEND,ST JOSEPH,46614,5742311000,RESIDENTIAL CARE FACILITIES,NON-FREE STANDING RESIDENTIAL CARE FACILITIES,RESIDENTIAL NFS
002667NFS,WATERFORD PLACE HEALTH CAMPUS,800 ST JOSEPH DR,IN,KOKOMO,HOWARD,46901,7652361239,RESIDENTIAL CARE FACILITIES,NON-FREE STANDING RESIDENTIAL CARE FACILITIES,RESIDENTIAL NFS
002668NFS,HOLY CROSS VILLAGE AT NOTRE DAME INC,54515 STATE ROAD 933 NORTH,IN,NOTRE DAME,ST JOSEPH,46556,5742871838,RESIDENTIAL CARE FACILITIES,NON-FREE STANDING RESIDENTIAL CARE FACILITIES,RESIDENTIAL NFS
002703NFS,HOMEWOOD HEALTH CAMPUS,2494 N LEBANON ST,IN,LEBANON,BOONE,46052,7654822076,RESIDENTIAL CARE FACILITIES,NON-FREE STANDING RESIDENTIAL CARE FACILITIES,RESIDENTIAL NFS
002724NFS,WOODMONT HEALTH CAMPUS,1325 ROCKPORT RD,IN,BOONVILLE,WARRICK,47601,8128974114,RESIDENTIAL CARE FACILITIES,NON-FREE STANDING RESIDENTIAL CARE FACILITIES,RESIDENTIAL NFS
2858,MORNING POINTE OF FRANKLIN,75 S MILFORD DR,IN,FRANKLIN,JOHNSON,46131,3177364665,RESIDENTIAL CARE FACILITIES,FREESTANDING RESIDENTIAL CARE FACILITIES,ALL NURSING HOMES
002910NFS,HERITAGE OF HUNTINGTON,1180 WEST 500 NORTH,IN,HUNTINGTON,HUNTINGTON,46750,2603552750,RESIDENTIAL CARE FACILITIES,NON-FREE STANDING RESIDENTIAL CARE FACILITIES,RESIDENTIAL NFS
002955NFS,SILVER OAKS HEALTH CAMPUS,2011 CHAPA STREET,IN,COLUMBUS,BARTHOLOMEW,47203,8123730787,RESIDENTIAL CARE FACILITIES,NON-FREE STANDING RESIDENTIAL CARE FACILITIES,RESIDENTIAL NFS
2999,HEARTH AT WINDERMERE,9745 OLYMPIA DR,IN,FISHERS,HAMILTON,46038,3175761925,RESIDENTIAL CARE FACILITIES,FREESTANDING RESIDENTIAL CARE FACILITIES,ALL NURSING HOMES
3000,KINGSTON AT DUPONT,1716 E DUPONT RD,IN,FORT WAYNE,ALLEN,46825,2604905111,RESIDENTIAL CARE FACILITIES,FREESTANDING RESIDENTIAL CARE FACILITIES,ALL NURSING HOMES
003237NFS,BRIDGEPOINTE HEALTH CAMPUS,1900 COLLEGE AVE,IN,VINCENNES,KNOX,47591,8128869870,RESIDENTIAL CARE FACILITIES,NON-FREE STANDING RESIDENTIAL CARE FACILITIES,RESIDENTIAL NFS
003240NFS,BROOKSIDE VILLAGE INC,1111 CHURCH AVE,IN,JASPER,DUBOIS,47546,8126347750,RESIDENTIAL CARE FACILITIES,NON-FREE STANDING RESIDENTIAL CARE FACILITIES,RESIDENTIAL NFS
3273,BROOKDALE FORT WAYNE,4730 E STATE BLVD,IN,FORT WAYNE,ALLEN,46815,2604840308,RESIDENTIAL CARE FACILITIES,FREESTANDING RESIDENTIAL CARE FACILITIES,ALL NURSING HOMES
3282,RITTENHOUSE VILLAGE AT NORTHSIDE,1251 W 96TH ST,IN,INDIANAPOLIS,MARION,46260,3175759200,RESIDENTIAL CARE FACILITIES,FREESTANDING RESIDENTIAL CARE FACILITIES,ALL NURSING HOMES
3283,WELLINGTON AT SOUTHPORT THE,7212 US HWY 31 S,IN,INDIANAPOLIS,MARION,46227,3178899822,RESIDENTIAL CARE FACILITIES,FREESTANDING RESIDENTIAL CARE FACILITIES,ALL NURSING HOMES
003342NFS,COVERED BRIDGE HEALTH CAMPUS,1675 W TIPTON ST,IN,SEYMOUR,JACKSON,47274,8125236405,RESIDENTIAL CARE FACILITIES,NON-FREE STANDING RESIDENTIAL CARE FACILITIES,RESIDENTIAL NFS
3376,TIPTON PLACE,460 FORKS OF THE WABASH WAY,IN,HUNTINGTON,HUNTINGTON,46750,2603562028,RESIDENTIAL CARE FACILITIES,FREESTANDING RESIDENTIAL CARE FACILITIES,ALL NURSING HOMES
3466,"WABASH BICKFORD COTTAGE OPCO, LLC",3037 W DIVISION RD,IN,WABASH,WABASH,46992,2605692000,RESIDENTIAL CARE FACILITIES,FREESTANDING RESIDENTIAL CARE FACILITIES,ALL NURSING HOMES
003575NFS,RIVER TERRACE HEALTH CARE CENTER,400 CAYLOR BLVD,IN,BLUFFTON,WELLS,46714,2608248940,RESIDENTIAL CARE FACILITIES,NON-FREE STANDING RESIDENTIAL CARE FACILITIES,RESIDENTIAL NFS
003624NFS,PROVIDENCE HEALTH CARE CENTER,1 SISTERS OF PROVIDENCE,IN,ST MARY OF THE WOODS,VIGO,47876,8125354001,RESIDENTIAL CARE FACILITIES,NON-FREE STANDING RESIDENTIAL CARE FACILITIES,RESIDENTIAL NFS
003673NFS,UNIVERSITY PLACE HEALTH CENTER AND ASSISTED LIVING,1750 LINDBERG RD,IN,WEST LAFAYETTE,TIPPECANOE,47906,7654645600,RESIDENTIAL CARE FACILITIES,NON-FREE STANDING RESIDENTIAL CARE FACILITIES,RESIDENTIAL NFS
3674,CRAWFORDSVILLE BICKFORD COTTAGE LLC,100 BICKFORD LN,IN,CRAWFORDSVILLE,MONTGOMERY,47933,7653622000,RESIDENTIAL CARE FACILITIES,FREESTANDING RESIDENTIAL CARE FACILITIES,ALL NURSING HOMES
003691NFS,WOODBRIDGE HEALTH CAMPUS,602 WOODBRIDGE AVE,IN,LOGANSPORT,CASS,46947,5747533223,RESIDENTIAL CARE FACILITIES,NON-FREE STANDING RESIDENTIAL CARE FACILITIES,RESIDENTIAL NFS
3902,HEARTH AT PRESTWICK,182 S CR 550 E,IN,AVON,HENDRICKS,46123,3177452766,RESIDENTIAL CARE FACILITIES,FREESTANDING RESIDENTIAL CARE FACILITIES,ALL NURSING HOMES
3915,BLOOM AT EAGLE CREEK,5045 W 52ND ST,IN,INDIANAPOLIS,MARION,46254,3172932929,RESIDENTIAL CARE FACILITIES,FREESTANDING RESIDENTIAL CARE FACILITIES,ALL NURSING HOMES
3916,BLOOM AT GERMAN CHURCH,2250 HARVEST MOON DR,IN,INDIANAPOLIS,MARION,46229,3172498902,RESIDENTIAL CARE FACILITIES,FREESTANDING RESIDENTIAL CARE FACILITIES,ALL NURSING HOMES
003924NFS,STONEBRIDGE HEALTH CAMPUS,3100 SHAWNEE DR S,IN,BEDFORD,LAWRENCE,47421,8122788195,RESIDENTIAL CARE FACILITIES,NON-FREE STANDING RESIDENTIAL CARE FACILITIES,RESIDENTIAL NFS
3984,WORTHINGTON PLACE,10799 ALLIANCE DR,IN,CAMBY,MARION,46113,3178566224,RESIDENTIAL CARE FACILITIES,FREESTANDING RESIDENTIAL CARE FACILITIES,ALL NURSING HOMES
4001,WINDSOR RIDGE,2700 WATERS EDGE PKWY,IN,JEFFERSONVILLE,CLARK,47130,8122844336,RESIDENTIAL CARE FACILITIES,FREESTANDING RESIDENTIAL CARE FACILITIES,ALL NURSING HOMES
4011,BLISS PLACE,3008 SHAWNEE DR S,IN,BEDFORD,LAWRENCE,47421,8122752468,RESIDENTIAL CARE FACILITIES,FREESTANDING RESIDENTIAL CARE FACILITIES,ALL NURSING HOMES
4016,MONROE PLACE,2770 S ADAMS RD,IN,BLOOMINGTON,MONROE,47403,8123318153,RESIDENTIAL CARE FACILITIES,FREESTANDING RESIDENTIAL CARE FACILITIES,ALL NURSING HOMES
4017,CHRISTINA PLACE,1435 CHRISTIAN BLVD,IN,FRANKLIN,JOHNSON,46131,3175356550,RESIDENTIAL CARE FACILITIES,FREESTANDING RESIDENTIAL CARE FACILITIES,ALL NURSING HOMES
4028,YORK PLACE,725 W 50TH ST,IN,MARION,GRANT,46953,7656770095,RESIDENTIAL CARE FACILITIES,FREESTANDING RESIDENTIAL CARE FACILITIES,ALL NURSING HOMES
004075NFS,THORNTON TERRACE HEALTH CAMPUS,188 THORNTON RD,IN,HANOVER,JEFFERSON,47243,8128668396,RESIDENTIAL CARE FACILITIES,NON-FREE STANDING RESIDENTIAL CARE FACILITIES,RESIDENTIAL NFS
004130NFS,RIVEROAKS HEALTH CAMPUS,1244 VAIL ST,IN,PRINCETON,GIBSON,47670,8123850794,RESIDENTIAL CARE FACILITIES,NON-FREE STANDING RESIDENTIAL CARE FACILITIES,RESIDENTIAL NFS
004268NFS,ASHFORD PLACE HEALTH CAMPUS,2200 N RILEY HWY,IN,SHELBYVILLE,SHELBY,46176,3173988422,RESIDENTIAL CARE FACILITIES,NON-FREE STANDING RESIDENTIAL CARE FACILITIES,RESIDENTIAL NFS
4352,JEWEL PLACE,607 VIRGINIA AVE,IN,MADISON,JEFFERSON,47250,8122730432,RESIDENTIAL CARE FACILITIES,FREESTANDING RESIDENTIAL CARE FACILITIES,ALL NURSING HOMES
4353,ELKHART PLACE,2024 COUNTY ROAD 24,IN,ELKHART,ELKHART,46517,5742959058,RESIDENTIAL CARE FACILITIES,FREESTANDING RESIDENTIAL CARE FACILITIES,ALL NURSING HOMES
4376,SEYMOUR PLACE,2288 NICHOLAS CT,IN,SEYMOUR,JACKSON,47274,8125238991,RESIDENTIAL CARE FACILITIES,FREESTANDING RESIDENTIAL CARE FACILITIES,ALL NURSING HOMES
4392,DIGBY PLACE,167 CR W 240 S,IN,LAFAYETTE,TIPPECANOE,47905,7654718552,RESIDENTIAL CARE FACILITIES,FREESTANDING RESIDENTIAL CARE FACILITIES,ALL NURSING HOMES
4417,FIVE STAR RESIDENCES OF NOBLESVILLE,7235 RIVERWALK WAY N,IN,NOBLESVILLE,HAMILTON,46062,3177700011,RESIDENTIAL CARE FACILITIES,FREESTANDING RESIDENTIAL CARE FACILITIES,ALL NURSING HOMES
4419,WHITLOCK PLACE,1719 S ELM ST,IN,CRAWFORDSVILLE,MONTGOMERY,47933,7653641880,RESIDENTIAL CARE FACILITIES,FREESTANDING RESIDENTIAL CARE FACILITIES,ALL NURSING HOMES
4426,ADDISON PLACE,2244 Q AVE,IN,NEW CASTLE,HENRY,47362,7655213220,RESIDENTIAL CARE FACILITIES,FREESTANDING RESIDENTIAL CARE FACILITIES,ALL NURSING HOMES
4428,LYND PLACE,2410 E MCGALLIARD RD,IN,MUNCIE,DELAWARE,47303,7652847670,RESIDENTIAL CARE FACILITIES,FREESTANDING RESIDENTIAL CARE FACILITIES,ALL NURSING HOMES
4440,CHANDLER PLACE,2879 S LIMA RD,IN,KENDALLVILLE,NOBLE,46755,2603491030,RESIDENTIAL CARE FACILITIES,FREESTANDING RESIDENTIAL CARE FACILITIES,ALL NURSING HOMES
4441,MCKINNEY PLACE,3901 HIGH STREET RD,IN,LOGANSPORT,CASS,46947,5747392134,RESIDENTIAL CARE FACILITIES,FREESTANDING RESIDENTIAL CARE FACILITIES,ALL NURSING HOMES
4442,BENNETT PLACE,3928 HORNE AVE,IN,NEW ALBANY,FLOYD,47150,8129481960,RESIDENTIAL CARE FACILITIES,FREESTANDING RESIDENTIAL CARE FACILITIES,ALL NURSING HOMES
4444,WALKER PLACE,2216 N RILEY HWY,IN,SHELBYVILLE,SHELBY,46176,3173923370,RESIDENTIAL CARE FACILITIES,FREESTANDING RESIDENTIAL CARE FACILITIES,ALL NURSING HOMES
4458,SETTLERS PLACE,3304 MONROE ST,IN,LA PORTE,LA PORTE,46350,2193267283,RESIDENTIAL CARE FACILITIES,FREESTANDING RESIDENTIAL CARE FACILITIES,ALL NURSING HOMES
4503,LAFAYETTE BICKFORD COTTAGE LLC,3633 REGAL VALLEY DR,IN,LAFAYETTE,TIPPECANOE,47901,7654770770,RESIDENTIAL CARE FACILITIES,FREESTANDING RESIDENTIAL CARE FACILITIES,ALL NURSING HOMES
004550NFS,MILL POND HEALTH CAMPUS,1014 MILL POND LANE,IN,GREENCASTLE,PUTNAM,46135,7656534397,RESIDENTIAL CARE FACILITIES,NON-FREE STANDING RESIDENTIAL CARE FACILITIES,RESIDENTIAL NFS
004671NFS,ST ANDREWS HEALTH CAMPUS,1400 LAMMERS PIKE,IN,BATESVILLE,RIPLEY,47006,8129345090,RESIDENTIAL CARE FACILITIES,NON-FREE STANDING RESIDENTIAL CARE FACILITIES,RESIDENTIAL NFS
4686,HAMILTON PLACE,2116 BUTLER RD,IN,FORT WAYNE,ALLEN,46815,2604710944,RESIDENTIAL CARE FACILITIES,FREESTANDING RESIDENTIAL CARE FACILITIES,ALL NURSING HOMES
004831NFS,MEADOW LAKES,200 MEADOW LAKE DR,IN,MOORESVILLE,MORGAN,46158,3178341791,RESIDENTIAL CARE FACILITIES,NON-FREE STANDING RESIDENTIAL CARE FACILITIES,RESIDENTIAL NFS
004902NFS,HAMPTON OAKS HEALTH CAMPUS,966 N WILSON RD,IN,SCOTTSBURG,SCOTT,47170,8127522694,RESIDENTIAL CARE FACILITIES,NON-FREE STANDING RESIDENTIAL CARE FACILITIES,RESIDENTIAL NFS
4903,BELL OAKS PLACE,4200 WYNTREE DR,IN,NEWBURGH,WARRICK,47630,8128580488,RESIDENTIAL CARE FACILITIES,FREESTANDING RESIDENTIAL CARE FACILITIES,ALL NURSING HOMES
4904,EMERALD PLACE,297 S 100 E,IN,WASHINGTON,DAVIESS,47501,8122545230,RESIDENTIAL CARE FACILITIES,FREESTANDING RESIDENTIAL CARE FACILITIES,ALL NURSING HOMES
5616,BRIDGE AT GARDEN PLAZA,8614 W 10TH  ST,IN,INDIANAPOLIS,MARION,46234,3172711020,RESIDENTIAL CARE FACILITIES,FREESTANDING RESIDENTIAL CARE FACILITIES,ALL NURSING HOMES
5657,SANDERS GLEN,334 S CHERRY ST,IN,WESTFIELD,HAMILTON,46074,3178670212,RESIDENTIAL CARE FACILITIES,FREESTANDING RESIDENTIAL CARE FACILITIES,ALL NURSING HOMES
5722,HEARTH AT STONES CROSSING LLC THE,2339 S STATE ROAD 135,IN,GREENWOOD,JOHNSON,46143,3175350422,RESIDENTIAL CARE FACILITIES,FREESTANDING RESIDENTIAL CARE FACILITIES,ALL NURSING HOMES
5729,CROWNPOINTE OF INDIANAPOLIS,7365 E 16TH ST,IN,INDIANAPOLIS,MARION,46219,3173512578,RESIDENTIAL CARE FACILITIES,FREESTANDING RESIDENTIAL CARE FACILITIES,ALL NURSING HOMES
5846,COVENTRY MEADOWS ASSISTED LIVING,7833 W JEFFERSON BLVD,IN,FORT WAYNE,ALLEN,46804,2604324848,RESIDENTIAL CARE FACILITIES,FREESTANDING RESIDENTIAL CARE FACILITIES,ALL NURSING HOMES
005954NFS,SPRINGHURST HEALTH CAMPUS,628 N MERIDIAN RD,IN,GREENFIELD,HANCOCK,46140,3174627067,RESIDENTIAL CARE FACILITIES,NON-FREE STANDING RESIDENTIAL CARE FACILITIES,RESIDENTIAL NFS
6489,CHATEAU OF BATESVILLE,44 CHATEAU BLVD,IN,BATESVILLE,RIPLEY,47006,8129328888,RESIDENTIAL CARE FACILITIES,FREESTANDING RESIDENTIAL CARE FACILITIES,ALL NURSING HOMES
9669,TANGLEWOOD TRACE,530 W TANGLEWOOD LN,IN,MISHAWAKA,ST JOSEPH,46545,5742774310,RESIDENTIAL CARE FACILITIES,FREESTANDING RESIDENTIAL CARE FACILITIES,ALL NURSING HOMES
9894,"WYNDMOOR OF CASTLETON, LLC",8480 CRAIG ST,IN,INDIANAPOLIS,MARION,46250,3178426564,RESIDENTIAL CARE FACILITIES,FREESTANDING RESIDENTIAL CARE FACILITIES,ALL NURSING HOMES
10064,KESSLERWOOD PLACE,5011 KESSLER BLVD E,IN,INDIANAPOLIS,MARION,46220,3172511300,RESIDENTIAL CARE FACILITIES,FREESTANDING RESIDENTIAL CARE FACILITIES,ALL NURSING HOMES
10065,EASTLAKE TERRACE,3109 E BRISTOL,IN,ELKHART,ELKHART,46514,5742664508,RESIDENTIAL CARE FACILITIES,FREESTANDING RESIDENTIAL CARE FACILITIES,ALL NURSING HOMES
10234,WILLOW LAKE PLACE,2725 LAKE CIRCLE DR,IN,INDIANAPOLIS,MARION,46268,3173349400,RESIDENTIAL CARE FACILITIES,FREESTANDING RESIDENTIAL CARE FACILITIES,ALL NURSING HOMES
10235,CHAPMAN PLACE,3110 E COLISEUM BLVD,IN,FORT WAYNE,ALLEN,46805,2604713110,RESIDENTIAL CARE FACILITIES,FREESTANDING RESIDENTIAL CARE FACILITIES,ALL NURSING HOMES
10409,KEYSTONE WOODS,2335 N MADISON AVE,IN,ANDERSON,MADISON,46011,7656428020,RESIDENTIAL CARE FACILITIES,FREESTANDING RESIDENTIAL CARE FACILITIES,ALL NURSING HOMES
10416,BROOKDALE CARMEL,301 EXECUTIVE DR,IN,CARMEL,HAMILTON,46032,3175800389,RESIDENTIAL CARE FACILITIES,FREESTANDING RESIDENTIAL CARE FACILITIES,ALL NURSING HOMES
10610,TRAIL CREEK PLACE- ASSISTED LIVING,1400 E COOLSPRING AVE,IN,MICHIGAN CITY,LA PORTE,46360,2198745500,RESIDENTIAL CARE FACILITIES,FREESTANDING RESIDENTIAL CARE FACILITIES,ALL NURSING HOMES
10667,BROOKDALE SOUTH BEND,17441 SR 23,IN,SOUTH BEND,ST JOSEPH,46635,5742732233,RESIDENTIAL CARE FACILITIES,FREESTANDING RESIDENTIAL CARE FACILITIES,ALL NURSING HOMES
10680,KEEPSAKE VILLAGE OF COLUMBUS,2564 FOXPOINTE DR,IN,COLUMBUS,BARTHOLOMEW,47201,8123720950,RESIDENTIAL CARE FACILITIES,FREESTANDING RESIDENTIAL CARE FACILITIES,ALL NURSING HOMES
10681,WYNDMOOR OF EVANSVILLE LLC,6521 GREENDALE DR,IN,EVANSVILLE,VANDERBURGH,47711,8128677900,RESIDENTIAL CARE FACILITIES,FREESTANDING RESIDENTIAL CARE FACILITIES,ALL NURSING HOMES
10682,"WYNDMOOR OF MARION, LLC",2452 W KEM RD,IN,MARION,GRANT,46952,7653844500,RESIDENTIAL CARE FACILITIES,FREESTANDING RESIDENTIAL CARE FACILITIES,ALL NURSING HOMES
010739NFS,SPRING MILL HEALTH CAMPUS,101 W 87TH AVE,IN,MERRILLVILLE,LAKE,46410,2197560744,RESIDENTIAL CARE FACILITIES,NON-FREE STANDING RESIDENTIAL CARE FACILITIES,RESIDENTIAL NFS
10757,BROOKDALE VALPARAISO,2601 VALPARAISO ST,IN,VALPARAISO,PORTER,46383,2195482230,RESIDENTIAL CARE FACILITIES,FREESTANDING RESIDENTIAL CARE FACILITIES,ALL NURSING HOMES
010823NFS,OAK GROVE CHRISTIAN RETIREMENT VILLAGE,221 W DIVISION ST,IN,DEMOTTE,JASPER,46310,2199877005,RESIDENTIAL CARE FACILITIES,NON-FREE STANDING RESIDENTIAL CARE FACILITIES,RESIDENTIAL NFS
10885,RIVERBEND,2715 CHARLESTOWN PIKE,IN,JEFFERSONVILLE,CLARK,47130,8122800965,RESIDENTIAL CARE FACILITIES,FREESTANDING RESIDENTIAL CARE FACILITIES,ALL NURSING HOMES
10886,ELMCROFT OF MUNCIE,1601 N MORRISON RD,IN,MUNCIE,DELAWARE,47304,7652894260,RESIDENTIAL CARE FACILITIES,FREESTANDING RESIDENTIAL CARE FACILITIES,ALL NURSING HOMES
10887,VIRGINIA PLACE,8253 VIRGINIA ST,IN,MERRILLVILLE,LAKE,46410,2197369383,RESIDENTIAL CARE FACILITIES,FREESTANDING RESIDENTIAL CARE FACILITIES,ALL NURSING HOMES
10888,BROOKDALE RICHMOND,3700 SOUTH A STREET,IN,RICHMOND,WAYNE,47374,7659393310,RESIDENTIAL CARE FACILITIES,FREESTANDING RESIDENTIAL CARE FACILITIES,ALL NURSING HOMES
10889,"WYNDMOOR OF PORTAGE, LLC",3444 SWANSON RD,IN,PORTAGE,PORTER,46368,2197634867,RESIDENTIAL CARE FACILITIES,FREESTANDING RESIDENTIAL CARE FACILITIES,ALL NURSING HOMES
10890,BRENTWOOD AT LAPORTE,2002 ANDREW AVE,IN,LA PORTE,LA PORTE,46350,2193251599,RESIDENTIAL CARE FACILITIES,FREESTANDING RESIDENTIAL CARE FACILITIES,ALL NURSING HOMES
010930NFS,TERRACE AT SOLARBRON THE,1701 MCDOWELL RD,IN,EVANSVILLE,VANDERBURGH,47712,8129850055,RESIDENTIAL CARE FACILITIES,NON-FREE STANDING RESIDENTIAL CARE FACILITIES,RESIDENTIAL NFS
10937,ASSISTED LIVING AT HARTSFIELD VILLAGE,10002 COLUMBIA AVE,IN,MUNSTER,LAKE,46321,2199340580,RESIDENTIAL CARE FACILITIES,FREESTANDING RESIDENTIAL CARE FACILITIES,ALL NURSING HOMES
011039NFS,MORNING BREEZE RETIREMENT COMMUNITY AND HEALTHCARE,950 N LAKEVIEW DR,IN,GREENSBURG,DECATUR,47240,8126627778,RESIDENTIAL CARE FACILITIES,NON-FREE STANDING RESIDENTIAL CARE FACILITIES,RESIDENTIAL NFS
011045NFS,BETHANY POINTE HEALTH CAMPUS,1707 BETHANY RD,IN,ANDERSON,MADISON,46012,7656221211,RESIDENTIAL CARE FACILITIES,NON-FREE STANDING RESIDENTIAL CARE FACILITIES,RESIDENTIAL NFS
11075,KOKOMO PLACE,3025 W SYCAMORE ST,IN,KOKOMO,HOWARD,46901,7654561490,RESIDENTIAL CARE FACILITIES,FREESTANDING RESIDENTIAL CARE FACILITIES,ALL NURSING HOMES
11076,BROOKDALE BLOOMINGTON,3802 SARE RD,IN,BLOOMINGTON,MONROE,47401,8123300885,RESIDENTIAL CARE FACILITIES,FREESTANDING RESIDENTIAL CARE FACILITIES,ALL NURSING HOMES
011150NFS,WATERFORD CROSSING,1332 WATERFORD CIR,IN,GOSHEN,ELKHART,46526,5745343920,RESIDENTIAL CARE FACILITIES,NON-FREE STANDING RESIDENTIAL CARE FACILITIES,RESIDENTIAL NFS
011151NFS,"RETREAT AT THE STRATFORD, THE",2460 GLEBE ST,IN,CARMEL,HAMILTON,46032,3177339560,RESIDENTIAL CARE FACILITIES,NON-FREE STANDING RESIDENTIAL CARE FACILITIES,RESIDENTIAL NFS
011187NFS,GLEN OAKS HEALTH CAMPUS,601 W CR 200 S,IN,NEW CASTLE,HENRY,47362,7655295796,RESIDENTIAL CARE FACILITIES,NON-FREE STANDING RESIDENTIAL CARE FACILITIES,RESIDENTIAL NFS
11274,RIVERWALK COMMUNITIES,401 S.E. 6TH STREET,IN,EVANSVILLE,VANDERBURGH,47713,8124251041,RESIDENTIAL CARE FACILITIES,FREESTANDING RESIDENTIAL CARE FACILITIES,ALL NURSING HOMES
011296NFS,NORTH RIDGE VILLAGE NURSING & REHABILITATION CENTE,600 TRAIL RIDGE RD,IN,ALBION,NOBLE,46701,2606361000,RESIDENTIAL CARE FACILITIES,NON-FREE STANDING RESIDENTIAL CARE FACILITIES,RESIDENTIAL NFS
11366,BLOOM AT KOKOMO,2800 S DIXON RD,IN,KOKOMO,HOWARD,46902,7654552828,RESIDENTIAL CARE FACILITIES,FREESTANDING RESIDENTIAL CARE FACILITIES,ALL NURSING HOMES
011387NFS,FOREST PARK HEALTH CAMPUS,2401 SOUTH L ST,IN,RICHMOND,WAYNE,47374,7659665705,RESIDENTIAL CARE FACILITIES,NON-FREE STANDING RESIDENTIAL CARE FACILITIES,RESIDENTIAL NFS
11389,LAKE CITY PLACE,425 CHINWORTH CT,IN,WARSAW,KOSCIUSKO,46580,5742673873,RESIDENTIAL CARE FACILITIES,FREESTANDING RESIDENTIAL CARE FACILITIES,ALL NURSING HOMES
11478,COUNTRY CHARM,3177 MERIDIAN PARKE DR,IN,GREENWOOD,JOHNSON,46142,3178825455,RESIDENTIAL CARE FACILITIES,FREESTANDING RESIDENTIAL CARE FACILITIES,ALL NURSING HOMES
011509NFS,VILLAS OF GUERIN WOODS,1002 SISTER BARBARA WAY,IN,GEORGETOWN,FLOYD,47122,8129511878,RESIDENTIAL CARE FACILITIES,NON-FREE STANDING RESIDENTIAL CARE FACILITIES,RESIDENTIAL NFS
11555,PRIMROSE RETIREMENT COMMUNITY OF KOKOMO,329 W RAINBOW DR,IN,KOKOMO,HOWARD,46901,7654551700,RESIDENTIAL CARE FACILITIES,FREESTANDING RESIDENTIAL CARE FACILITIES,ALL NURSING HOMES
11587,ROSEWALK AT LUTHERWOODS,1301 N RITTER AVE,IN,INDIANAPOLIS,MARION,46219,3173562760,RESIDENTIAL CARE FACILITIES,FREESTANDING RESIDENTIAL CARE FACILITIES,ALL NURSING HOMES
011596NFS,MORRISON WOODS HEALTH CAMPUS,4100 N MORRISON RD,IN,MUNCIE,DELAWARE,47304,7652869066,RESIDENTIAL CARE FACILITIES,NON-FREE STANDING RESIDENTIAL CARE FACILITIES,RESIDENTIAL NFS
11799,GREENBRIAR VILLAGE,8800 SPOON DR,IN,INDIANAPOLIS,MARION,46219,3178996777,RESIDENTIAL CARE FACILITIES,FREESTANDING RESIDENTIAL CARE FACILITIES,ALL NURSING HOMES
11804,HEARTH AT SYCAMORE VILLAGE LLC,611 W COUNTY LINE RD SOUTH,IN,FORT WAYNE,ALLEN,46814,2606254025,RESIDENTIAL CARE FACILITIES,FREESTANDING RESIDENTIAL CARE FACILITIES,ALL NURSING HOMES
11806,PRIMROSE RETIREMENT COMMUNITY OF ANDERSON,1118 W CROSS ST,IN,ANDERSON,MADISON,46011,7656435000,RESIDENTIAL CARE FACILITIES,FREESTANDING RESIDENTIAL CARE FACILITIES,ALL NURSING HOMES
11840,SUMMIT PLACE WEST,55 N MISSION DR,IN,INDIANAPOLIS,MARION,46214,3172442600,RESIDENTIAL CARE FACILITIES,FREESTANDING RESIDENTIAL CARE FACILITIES,ALL NURSING HOMES
011906NFS,COBBLESTONE CROSSINGS HEALTH CAMPUS,1850 E HOWARD WAYNE DR,IN,TERRE HAUTE,VIGO,47802,8122320406,RESIDENTIAL CARE FACILITIES,NON-FREE STANDING RESIDENTIAL CARE FACILITIES,RESIDENTIAL NFS
11914,CROWN POINTE SENIOR LIVING COMMUNITY,1034 CROWN POINTE BLVD,IN,GREENSBURG,DECATUR,47240,8126628888,RESIDENTIAL CARE FACILITIES,FREESTANDING RESIDENTIAL CARE FACILITIES,ALL NURSING HOMES
11970,VERMILLION PLACE,449 MAIN ST,IN,ANDERSON,MADISON,46016,7656227825,RESIDENTIAL CARE FACILITIES,FREESTANDING RESIDENTIAL CARE FACILITIES,ALL NURSING HOMES
12007,RIVER CROSSING ASSISTED LIVING,2400 MARKET ST,IN,CHARLESTOWN,CLARK,47111,8124061099,RESIDENTIAL CARE FACILITIES,FREESTANDING RESIDENTIAL CARE FACILITIES,ALL NURSING HOMES
12107,APPLE RIDGE ASSISTED LIVING AND MEMORY CARE,3320 EAST STATE BOULEVARD,IN,FORT WAYNE,ALLEN,46805,2604834343,RESIDENTIAL CARE FACILITIES,FREESTANDING RESIDENTIAL CARE FACILITIES,ALL NURSING HOMES
12129,CROWNPOINTE OF ANDERSON,2727 CROWNPOINTE CIRCLE,IN,ANDERSON,MADISON,46012,7656419995,RESIDENTIAL CARE FACILITIES,FREESTANDING RESIDENTIAL CARE FACILITIES,ALL NURSING HOMES
12141,SUNRISE ON OLD MERIDIAN,12130 OLD MERIDIAN ST,IN,CARMEL,HAMILTON,46032,3175690100,RESIDENTIAL CARE FACILITIES,FREESTANDING RESIDENTIAL CARE FACILITIES,ALL NURSING HOMES
12161,AZALEA HILLS,3700 LAFAYETTE PKWY,IN,FLOYDS KNOBS,FLOYD,47119,8129234888,RESIDENTIAL CARE FACILITIES,FREESTANDING RESIDENTIAL CARE FACILITIES,ALL NURSING HOMES
12180,RITTENHOUSE VILLAGE AT MICHIGAN CITY,4300 CLEVELAND RD,IN,MICHIGAN CITY,LA PORTE,46360,2198726800,RESIDENTIAL CARE FACILITIES,FREESTANDING RESIDENTIAL CARE FACILITIES,ALL NURSING HOMES
12181,RITTENHOUSE VILLAGE AT VALPARAISO,1300 VALE PARK RD,IN,VALPARAISO,PORTER,46383,2195312484,RESIDENTIAL CARE FACILITIES,FREESTANDING RESIDENTIAL CARE FACILITIES,ALL NURSING HOMES
12229,HEARTH AT JUDAY CREEK LLC,6330 N FIR RD,IN,GRANGER,ST JOSEPH,46530,5742435557,RESIDENTIAL CARE FACILITIES,FREESTANDING RESIDENTIAL CARE FACILITIES,ALL NURSING HOMES
12263,HEARTH AT TUDOR GARDENS LLC,11755  N MICHIGAN RD,IN,ZIONSVILLE,BOONE,46077,3178736300,RESIDENTIAL CARE FACILITIES,FREESTANDING RESIDENTIAL CARE FACILITIES,ALL NURSING HOMES
012285NFS,CREASY SPRINGS HEALTH CAMPUS,1750 S CREASY LN,IN,LAFAYETTE,TIPPECANOE,47905,7654476600,RESIDENTIAL CARE FACILITIES,NON-FREE STANDING RESIDENTIAL CARE FACILITIES,RESIDENTIAL NFS
12288,LAMPLIGHT INN OF FORT WAYNE,300 E WASHINGTON BLVD,IN,FORT WAYNE,ALLEN,46802,2604225511,RESIDENTIAL CARE FACILITIES,FREESTANDING RESIDENTIAL CARE FACILITIES,ALL NURSING HOMES
012305NFS,PRAIRIE LAKES HEALTH CAMPUS,9730 PRAIRIE LAKES BLVD EAST,IN,NOBLESVILLE,HAMILTON,46060,3177703644,RESIDENTIAL CARE FACILITIES,NON-FREE STANDING RESIDENTIAL CARE FACILITIES,RESIDENTIAL NFS
12309,CROWNPOINTE OF CARMEL,11610 TECHNOLOGY DR,IN,CARMEL,HAMILTON,46032,3178181786,RESIDENTIAL CARE FACILITIES,FREESTANDING RESIDENTIAL CARE FACILITIES,ALL NURSING HOMES
012355NFS,WHITE OAK HEALTH CAMPUS,814 S 6TH ST,IN,MONTICELLO,WHITE,47960,5745830324,RESIDENTIAL CARE FACILITIES,NON-FREE STANDING RESIDENTIAL CARE FACILITIES,RESIDENTIAL NFS
12394,SUGAR GROVE SENIOR LIVING,5865 SUGAR LN,IN,PLAINFIELD,HENDRICKS,46168,3178397900,RESIDENTIAL CARE FACILITIES,FREESTANDING RESIDENTIAL CARE FACILITIES,ALL NURSING HOMES
12396,RITTENHOUSE VILLAGE AT PORTAGE,6235 STERLING CREEK RD,IN,PORTAGE,PORTER,46368,2197642900,RESIDENTIAL CARE FACILITIES,FREESTANDING RESIDENTIAL CARE FACILITIES,ALL NURSING HOMES
012448NFS,WEST RIVER HEALTH CAMPUS,714 S EICKHOFF RD,IN,EVANSVILLE,VANDERBURGH,47712,8129859878,RESIDENTIAL CARE FACILITIES,NON-FREE STANDING RESIDENTIAL CARE FACILITIES,RESIDENTIAL NFS
12497,"SENIOR SUITES AT THE LELAND, LLC",900 SOUTH A STREET,IN,RICHMOND,WAYNE,47374,7659396500,RESIDENTIAL CARE FACILITIES,FREESTANDING RESIDENTIAL CARE FACILITIES,ALL NURSING HOMES
012523NFS,RIDGEWOOD HEALTH CAMPUS,181 CAMPUS DR,IN,LAWRENCEBURG,DEARBORN,47025,8125375700,RESIDENTIAL CARE FACILITIES,NON-FREE STANDING RESIDENTIAL CARE FACILITIES,RESIDENTIAL NFS
012565NFS,BLAIR RIDGE HEALTH CAMPUS,269 MEADOWVIEW DR,IN,PERU,MIAMI,46970,7654728049,RESIDENTIAL CARE FACILITIES,NON-FREE STANDING RESIDENTIAL CARE FACILITIES,RESIDENTIAL NFS
12582,"PARK PLACE II, LLC",4411 PARK PLACE DR,IN,FORT WAYNE,ALLEN,46845,2604802500,RESIDENTIAL CARE FACILITIES,FREESTANDING RESIDENTIAL CARE FACILITIES,ALL NURSING HOMES
012619NFS,VILLAGES AT HISTORIC SILVERCREST THE,1 SILVERCREST DRIVE,IN,NEW ALBANY,FLOYD,47150,8125426720,RESIDENTIAL CARE FACILITIES,NON-FREE STANDING RESIDENTIAL CARE FACILITIES,RESIDENTIAL NFS
012644NFS,HAMILTON TRACE OF FISHERS,11851 CUMBERLAND RD,IN,FISHERS,HAMILTON,46037,3178134444,RESIDENTIAL CARE FACILITIES,NON-FREE STANDING RESIDENTIAL CARE FACILITIES,RESIDENTIAL NFS
12688,"VANNONI LIVING CENTER, THE",500 LINCOLNWAY EAST,IN,MISHAWAKA,ST JOSEPH,46544,5748553937,RESIDENTIAL CARE FACILITIES,FREESTANDING RESIDENTIAL CARE FACILITIES,ALL NURSING HOMES
12706,AUTUMN HILLS ALZHEIMER'S SPECIAL CARE CENTER,3203 MOORES PIKE ROAD,IN,BLOOMINGTON,MONROE,47401,8123354655,RESIDENTIAL CARE FACILITIES,FREESTANDING RESIDENTIAL CARE FACILITIES,ALL NURSING HOMES
012766NFS,AVALON SPRINGS HEALTH CAMPUS,2400 SILHAVY ROAD,IN,VALPARAISO,PORTER,46383,2194621778,RESIDENTIAL CARE FACILITIES,NON-FREE STANDING RESIDENTIAL CARE FACILITIES,RESIDENTIAL NFS
12798,CROWNPOINTE OF GREENFIELD,831 SWOPE STREET,IN,GREENFIELD,HANCOCK,46140,3174679317,RESIDENTIAL CARE FACILITIES,FREESTANDING RESIDENTIAL CARE FACILITIES,ALL NURSING HOMES
012809NFS,APERION CARE MARION LLC,614 WEST 14TH STREET,IN,MARION,GRANT,46953,7656623701,RESIDENTIAL CARE FACILITIES,NON-FREE STANDING RESIDENTIAL CARE FACILITIES,RESIDENTIAL NFS
012854NFS,ASPEN PLACE HEALTH CAMPUS,2320 N MONTGOMERY ROAD,IN,GREENSBURG,DECATUR,47240,8125272222,RESIDENTIAL CARE FACILITIES,NON-FREE STANDING RESIDENTIAL CARE FACILITIES,RESIDENTIAL NFS
012931NFS,"HERITAGE OF FORT WAYNE, THE",5250 HERITAGE PARKWAY,IN,FORT WAYNE,ALLEN,46835,2602096279,RESIDENTIAL CARE FACILITIES,NON-FREE STANDING RESIDENTIAL CARE FACILITIES,RESIDENTIAL NFS
12936,ROSEGATE COMMONS ASSISTED LIVING,7525 ROSEGATE DRIVE,IN,INDIANAPOLIS,MARION,46237,3178890100,RESIDENTIAL CARE FACILITIES,FREESTANDING RESIDENTIAL CARE FACILITIES,ALL NURSING HOMES
012937NFS,WELLBROOKE OF WESTFIELD,937 E 186TH STREET,IN,WESTFIELD,HAMILTON,46074,3178048044,RESIDENTIAL CARE FACILITIES,NON-FREE STANDING RESIDENTIAL CARE FACILITIES,RESIDENTIAL NFS
12938,BICKFORD OF GREENWOOD,3021 STELLA DRIVE,IN,GREENWOOD,JOHNSON,46143,3178073077,RESIDENTIAL CARE FACILITIES,FREESTANDING RESIDENTIAL CARE FACILITIES,ALL NURSING HOMES
12940,BICKFORD OF CROWN POINT,140 E 107TH AVENUE,IN,CROWN POINT,LAKE,46307,2196630972,RESIDENTIAL CARE FACILITIES,FREESTANDING RESIDENTIAL CARE FACILITIES,ALL NURSING HOMES
012966NFS,HAMILTON POINTE HEALTH AND REHAB,3800 ELI PLACE,IN,NEWBURGH,WARRICK,47630,8128585300,RESIDENTIAL CARE FACILITIES,NON-FREE STANDING RESIDENTIAL CARE FACILITIES,RESIDENTIAL NFS
012974NFS,HEARTHSTONE HEALTH CAMPUS,3043 NORTH LINTEL DRIVE,IN,BLOOMINGTON,MONROE,47404,8123337622,RESIDENTIAL CARE FACILITIES,NON-FREE STANDING RESIDENTIAL CARE FACILITIES,RESIDENTIAL NFS
012993NFS,WELLBROOKE OF WABASH,20 JOHN KISSINGER DRIVE,IN,WABASH,WABASH,46992,2602740444,RESIDENTIAL CARE FACILITIES,NON-FREE STANDING RESIDENTIAL CARE FACILITIES,RESIDENTIAL NFS
013005NFS,ARLINGTON PLACE HEALTH CAMPUS,1635 N ARLINGTON AVE,IN,INDIANAPOLIS,MARION,46218,3173536000,RESIDENTIAL CARE FACILITIES,NON-FREE STANDING RESIDENTIAL CARE FACILITIES,RESIDENTIAL NFS
013017NFS,SPRENGER HEALTH CARE OF MISHAWAKA,60257 BODNAR BLVD,IN,MISHAWAKA,ST JOSEPH,46544,5742221234,RESIDENTIAL CARE FACILITIES,NON-FREE STANDING RESIDENTIAL CARE FACILITIES,RESIDENTIAL NFS
013019NFS,CLEARVISTA LAKE HEALTH CAMPUS,8405 CLEARVISTA PLACE,IN,INDIANAPOLIS,MARION,46256,3175787500,RESIDENTIAL CARE FACILITIES,NON-FREE STANDING RESIDENTIAL CARE FACILITIES,RESIDENTIAL NFS
13039,ALLISONVILLE MEADOWS ASSISTED LIVING,10410 ALLISONVILLE ROAD,IN,FISHERS,HAMILTON,46038,3174366400,RESIDENTIAL CARE FACILITIES,FREESTANDING RESIDENTIAL CARE FACILITIES,ALL NURSING HOMES
13045,ASTER PLACE,741 PARK EAST BLVD,IN,LAFAYETTE,TIPPECANOE,47905,7654463540,RESIDENTIAL CARE FACILITIES,FREESTANDING RESIDENTIAL CARE FACILITIES,ALL NURSING HOMES
13069,RESIDENCES AT DEER CREEK,401 EAST US 30,IN,SCHERERVILLE,LAKE,46375,2198640700,RESIDENTIAL CARE FACILITIES,FREESTANDING RESIDENTIAL CARE FACILITIES,ALL NURSING HOMES
013085NFS,WELLBROOKE OF AVON,10307 EAST COUNTY ROAD 100 NORTH,IN,INDIANAPOLIS,MARION,46234,3172732144,RESIDENTIAL CARE FACILITIES,NON-FREE STANDING RESIDENTIAL CARE FACILITIES,RESIDENTIAL NFS
013107NFS,WELLBROOKE OF CRAWFORDSVILLE,517 CONCORD ROAD,IN,CRAWFORDSVILLE,MONTGOMERY,47933,7653629122,RESIDENTIAL CARE FACILITIES,NON-FREE STANDING RESIDENTIAL CARE FACILITIES,RESIDENTIAL NFS
013144NFS,CEDAR CREEK HEALTH CAMPUS,18275 BURR STREET,IN,LOWELL,LAKE,46356,2196966750,RESIDENTIAL CARE FACILITIES,NON-FREE STANDING RESIDENTIAL CARE FACILITIES,RESIDENTIAL NFS
13149,MORNING VIEW NURSING AND REHABILITATION CENTER,475 NORTH NILES AVENUE,IN,SOUTH BEND,ST JOSEPH,46617,5742464123,RESIDENTIAL CARE FACILITIES,FREESTANDING RESIDENTIAL CARE FACILITIES,ALL NURSING HOMES
013153NFS,WELLBROOKE OF KOKOMO,2200 SOUTH DIXON ROAD,IN,KOKOMO,HOWARD,46902,7654554443,RESIDENTIAL CARE FACILITIES,NON-FREE STANDING RESIDENTIAL CARE FACILITIES,RESIDENTIAL NFS
13163,MEADOW BROOK SENIOR LIVING,11011 VILLAGE SQUARE LANE,IN,FISHERS,HAMILTON,46038,3178424215,RESIDENTIAL CARE FACILITIES,FREESTANDING RESIDENTIAL CARE FACILITIES,ALL NURSING HOMES
13164,TRADITIONS AT SOLANA,7721 BATTERY POINTE WAY,IN,INDIANAPOLIS,MARION,46240,3178600000,RESIDENTIAL CARE FACILITIES,FREESTANDING RESIDENTIAL CARE FACILITIES,ALL NURSING HOMES
013185NFS,ASPEN TRACE HEALTH & LIVING COMMUNITY,3154 SOUTH STATE ROAD 135,IN,GREENWOOD,JOHNSON,46143,3175353344,RESIDENTIAL CARE FACILITIES,NON-FREE STANDING RESIDENTIAL CARE FACILITIES,RESIDENTIAL NFS
013212NFS,"BARRINGTON OF CARMEL, THE",1335 S GUILFORD ROAD,IN,CARMEL,HAMILTON,46032,3178101800,RESIDENTIAL CARE FACILITIES,NON-FREE STANDING RESIDENTIAL CARE FACILITIES,RESIDENTIAL NFS
13217,BICKFORD OF CARMEL,5829  EAST 116TH STREET,IN,CARMEL,HAMILTON,46033,3178071500,RESIDENTIAL CARE FACILITIES,FREESTANDING RESIDENTIAL CARE FACILITIES,ALL NURSING HOMES
13236,NORTH WOODS VILLAGE AT EDISON LAKES,1409 E DAY ROAD,IN,MISHAWAKA,ST JOSEPH,46545,5742471866,RESIDENTIAL CARE FACILITIES,FREESTANDING RESIDENTIAL CARE FACILITIES,ALL NURSING HOMES
13264,TRADITIONS AT REAGAN PARK,1176 KINGWOOD DRIVE,IN,AVON,HENDRICKS,46123,3172710100,RESIDENTIAL CARE FACILITIES,FREESTANDING RESIDENTIAL CARE FACILITIES,ALL NURSING HOMES
13297,CARMEL SENIOR LIVING,13390 N ILLINOIS STREET,IN,CARMEL,HAMILTON,46032,3174514702,RESIDENTIAL CARE FACILITIES,FREESTANDING RESIDENTIAL CARE FACILITIES,ALL NURSING HOMES
013302NFS,WELLBROOKE OF SOUTH BEND,52565 STATE ROAD 933,IN,SOUTH BEND,ST JOSEPH,46637,5742477044,RESIDENTIAL CARE FACILITIES,NON-FREE STANDING RESIDENTIAL CARE FACILITIES,RESIDENTIAL NFS
13321,ASSISTED LIVING AT ROMWEBER FLATS,123 SOUTH DEPOT STREET,IN,BATESVILLE,RIPLEY,47006,8129323528,RESIDENTIAL CARE FACILITIES,FREESTANDING RESIDENTIAL CARE FACILITIES,ALL NURSING HOMES
13322,AUTUMN GLEN,98 NORTH 10TH STREET,IN,GREENCASTLE,PUTNAM,46135,7656536999,RESIDENTIAL CARE FACILITIES,FREESTANDING RESIDENTIAL CARE FACILITIES,ALL NURSING HOMES
13327,"APERION ESTATES PERU, LLC",1200 KITTY HAWK DRIVE,IN,PERU,MIAMI,46970,7656897305,RESIDENTIAL CARE FACILITIES,FREESTANDING RESIDENTIAL CARE FACILITIES,ALL NURSING HOMES
13328,CROWN SENIOR LIVING,7960 SHADELAND AVENUE NORTH,IN,INDIANAPOLIS,MARION,46250,3173764639,RESIDENTIAL CARE FACILITIES,FREESTANDING RESIDENTIAL CARE FACILITIES,ALL NURSING HOMES
13330,HERITAGE POINT ALZHEIMER'S SPECIAL CARE CENTER,1215 TRINITY PLACE,IN,MISHAWAKA,ST JOSEPH,46545,5742477400,RESIDENTIAL CARE FACILITIES,FREESTANDING RESIDENTIAL CARE FACILITIES,ALL NURSING HOMES
13331,"WATERFORD AT EDISON LAKES, THE",1025 PARK PLACE,IN,MISHAWAKA,ST JOSEPH,46545,5742471552,RESIDENTIAL CARE FACILITIES,FREESTANDING RESIDENTIAL CARE FACILITIES,ALL NURSING HOMES
013332NFS,"VILLAGES AT OAK RIDGE, THE",1694 TROY ROAD,IN,WASHINGTON,DAVIESS,47501,8122543800,RESIDENTIAL CARE FACILITIES,NON-FREE STANDING RESIDENTIAL CARE FACILITIES,RESIDENTIAL NFS
013335NFS,HARRISON'S CROSSING HEALTH CAMPUS,395 8TH AVENUE,IN,TERRE HAUTE,VIGO,47804,8122347111,RESIDENTIAL CARE FACILITIES,NON-FREE STANDING RESIDENTIAL CARE FACILITIES,RESIDENTIAL NFS
13347,OASIS AT 30TH,5651 E 30TH STREET,IN,INDIANAPOLIS,MARION,46218,3172979000,RESIDENTIAL CARE FACILITIES,FREESTANDING RESIDENTIAL CARE FACILITIES,ALL NURSING HOMES
13356,BROWNSBURG MEADOWS ASSISTED LIVING,7133 MEADOW TRAIL,IN,BROWNSBURG,HENDRICKS,46112,3178521977,RESIDENTIAL CARE FACILITIES,FREESTANDING RESIDENTIAL CARE FACILITIES,ALL NURSING HOMES
13367,CRESTWOOD VILLAGE SOUTH APARTMENTS LLC,8809 MADISON AVENUE,IN,INDIANAPOLIS,MARION,46227,3178853461,RESIDENTIAL CARE FACILITIES,FREESTANDING RESIDENTIAL CARE FACILITIES,ALL NURSING HOMES
13389,WYNDMOOR ASSISTED LIVING LLC,1465 EAST CROSSING BLVD,IN,TERRE HAUTE,VIGO,47802,8122989963,RESIDENTIAL CARE FACILITIES,FREESTANDING RESIDENTIAL CARE FACILITIES,ALL NURSING HOMES
13401,BRECKENRIDGE COMMONS,2009 NORTH HOSPITAL BLVD,IN,SULLIVAN,SULLIVAN,47882,8122682000,RESIDENTIAL CARE FACILITIES,FREESTANDING RESIDENTIAL CARE FACILITIES,ALL NURSING HOMES
013409NFS,STONECROFT HEALTH CAMPUS,363 SOUTH FIELDSTONE BLVD,IN,BLOOMINGTON,MONROE,47403,8128250551,RESIDENTIAL CARE FACILITIES,NON-FREE STANDING RESIDENTIAL CARE FACILITIES,RESIDENTIAL NFS
13439,PRIMROSE OF MISHAWAKA,820 FULMER ROAD,IN,MISHAWAKA,ST JOSEPH,46544,5742593211,RESIDENTIAL CARE FACILITIES,FREESTANDING RESIDENTIAL CARE FACILITIES,ALL NURSING HOMES
013444NFS,WELLBROOKE OF CARMEL,12315 PENNSYLVANIA STREET,IN,CARMEL,HAMILTON,46032,3175697200,RESIDENTIAL CARE FACILITIES,NON-FREE STANDING RESIDENTIAL CARE FACILITIES,RESIDENTIAL NFS
013452NFS,SYMPHONY OF CROWN POINT  LLC,1555 S MAIN STREET,IN,CROWN POINT,LAKE,46307,2193238700,RESIDENTIAL CARE FACILITIES,NON-FREE STANDING RESIDENTIAL CARE FACILITIES,RESIDENTIAL NFS
013455NFS,CUMBERLAND TRACE HEALTH & LIVING COMMUNITY,1925 REEVES ROAD,IN,PLAINFIELD,HENDRICKS,46168,3178387070,RESIDENTIAL CARE FACILITIES,NON-FREE STANDING RESIDENTIAL CARE FACILITIES,RESIDENTIAL NFS
13460,INDIANA MASONIC HOME INC,690 STATE STREET,IN,FRANKLIN,JOHNSON,46131,3177366141,RESIDENTIAL CARE FACILITIES,FREESTANDING RESIDENTIAL CARE FACILITIES,ALL NURSING HOMES
013462NFS,SYMPHONY OF DYER LLC,1532 CALUMET AVENUE,IN,DYER,LAKE,46311,2195154700,RESIDENTIAL CARE FACILITIES,NON-FREE STANDING RESIDENTIAL CARE FACILITIES,RESIDENTIAL NFS
13463,GEORGETOWN PLACE,1717 MAPLECREST ROAD,IN,FORT WAYNE,ALLEN,46815,2604936927,RESIDENTIAL CARE FACILITIES,FREESTANDING RESIDENTIAL CARE FACILITIES,ALL NURSING HOMES
013499NFS,"SPRINGS AT LAFAYETTE, THE",2402 SOUTH STREET,IN,LAFAYETTE,TIPPECANOE,47904,7654469229,RESIDENTIAL CARE FACILITIES,NON-FREE STANDING RESIDENTIAL CARE FACILITIES,RESIDENTIAL NFS
13510,WOODLAND TERRACE OF CARMEL,689 PRO MED LANE,IN,CARMEL,HAMILTON,46032,3176160858,RESIDENTIAL CARE FACILITIES,FREESTANDING RESIDENTIAL CARE FACILITIES,ALL NURSING HOMES
013535NFS,RIVER TERRACE HEALTH CAMPUS,120 PRESBYTERIAN AVE,IN,MADISON,JEFFERSON,47250,8122650080,RESIDENTIAL CARE FACILITIES,NON-FREE STANDING RESIDENTIAL CARE FACILITIES,RESIDENTIAL NFS
13555,GRAND EMERALD PLACE,4010 S IRONWOOD DR,IN,SOUTH BEND,ST JOSEPH,46614,5742912222,RESIDENTIAL CARE FACILITIES,FREESTANDING RESIDENTIAL CARE FACILITIES,ALL NURSING HOMES
013556NFS,COPPER TRACE HEALTH & LIVING COMMUNITY,1250 W 146TH STREET,IN,WESTFIELD,HAMILTON,46074,3178445050,RESIDENTIAL CARE FACILITIES,NON-FREE STANDING RESIDENTIAL CARE FACILITIES,RESIDENTIAL NFS
13578,CROWNPOINTE OF HARTFORD CITY,100 INDEPENDENCE PARKWAY,IN,HARTFORD CITY,BLACKFORD,47348,7653483250,RESIDENTIAL CARE FACILITIES,FREESTANDING RESIDENTIAL CARE FACILITIES,ALL NURSING HOMES
13582,CROWNPOINTE OF LEBANON,610 CROWNPOINTE DRIVE,IN,LEBANON,BOONE,46052,7654823436,RESIDENTIAL CARE FACILITIES,FREESTANDING RESIDENTIAL CARE FACILITIES,ALL NURSING HOMES
13612,NORTH WOODS VILLAGE AT INVERNESS LAKE,8075 GLENCARIN BOULEVARD,IN,FORT WAYNE,ALLEN,46804,2604201866,RESIDENTIAL CARE FACILITIES,FREESTANDING RESIDENTIAL CARE FACILITIES,ALL NURSING HOMES
13613,"OASIS ASSISTED LIVING, INC",4301 WASHINGTON AVE,IN,EVANSVILLE,VANDERBURGH,47714,8123033310,RESIDENTIAL CARE FACILITIES,FREESTANDING RESIDENTIAL CARE FACILITIES,ALL NURSING HOMES
013635NFS,"SPRINGS OF RICHMOND, THE",400 INDUSTRIES ROAD,IN,RICHMOND,WAYNE,47374,7659350135,RESIDENTIAL CARE FACILITIES,NON-FREE STANDING RESIDENTIAL CARE FACILITIES,RESIDENTIAL NFS
13642,WALNUT CREEK ALZHEIMER'S,525 BENTEE WES COURT,IN,EVANSVILLE,VANDERBURGH,47715,8124713100,RESIDENTIAL CARE FACILITIES,FREESTANDING RESIDENTIAL CARE FACILITIES,ALL NURSING HOMES
13687,LINCOLNSHIRE PLACE - FORT WAYNE,11911 DIEBOLD ROAD,IN,FORT WAYNE,ALLEN,46845,8477776933,RESIDENTIAL CARE FACILITIES,FREESTANDING RESIDENTIAL CARE FACILITIES,ALL NURSING HOMES
013688NFS,SYMPHONY OF CHESTERTON LLC,2775 VILLAGE POINT,IN,CHESTERTON,PORTER,46304,2193046700,RESIDENTIAL CARE FACILITIES,NON-FREE STANDING RESIDENTIAL CARE FACILITIES,RESIDENTIAL NFS
013694NFS,"SPRINGS OF MOORESVILLE, THE",302 NORTH JOHNSON ROAD,IN,MOORESVILLE,MORGAN,46158,3178319033,RESIDENTIAL CARE FACILITIES,NON-FREE STANDING RESIDENTIAL CARE FACILITIES,RESIDENTIAL NFS
013702NFS,HARRISON SPRINGS HEALTH CAMPUS,871 PACER DRIVE NW,IN,CORYDON,HARRISON,47112,8127380317,RESIDENTIAL CARE FACILITIES,NON-FREE STANDING RESIDENTIAL CARE FACILITIES,RESIDENTIAL NFS
013703NFS,NORTH RIVER HEALTH CAMPUS,811 E BASELINE ROAD,IN,EVANSVILLE,VANDERBURGH,47725,8128677256,RESIDENTIAL CARE FACILITIES,NON-FREE STANDING RESIDENTIAL CARE FACILITIES,RESIDENTIAL NFS
013704NFS,ORCHARD POINTE HEALTH CAMPUS,702 SAWYER ROAD,IN,KENDALLVILLE,NOBLE,46755,2603473333,RESIDENTIAL CARE FACILITIES,NON-FREE STANDING RESIDENTIAL CARE FACILITIES,RESIDENTIAL NFS
13719,ROSE SENIOR LIVING CARMEL,1285 FAIRFAX MANOR DRIVE,IN,CARMEL,HAMILTON,46032,3172498830,RESIDENTIAL CARE FACILITIES,FREESTANDING RESIDENTIAL CARE FACILITIES,ALL NURSING HOMES
13733,JOURNEY SENIOR LIVING OF MERRILLVILLE LLC,7900 RHODE ISLAND STREET,IN,MERRILLVILLE,LAKE,46410,2195254123,RESIDENTIAL CARE FACILITIES,FREESTANDING RESIDENTIAL CARE FACILITIES,ALL NURSING HOMES
13766,GENTRY PARK ,901 S HASTINGS DR,IN,BLOOMINGTON,MONROE,47401,8126681200,RESIDENTIAL CARE FACILITIES,FREESTANDING RESIDENTIAL CARE FACILITIES,ALL NURSING HOMES
13801,SILVER BIRCH OF HAMMOND,5620 SOHL AVENUE,IN,HAMMOND,LAKE,46320,2199379085,RESIDENTIAL CARE FACILITIES,FREESTANDING RESIDENTIAL CARE FACILITIES,ALL NURSING HOMES
13811,PRIMROSE MEMORY CARE OF ANDERSON,2101 N MADISON AVENUE,IN,ANDERSON,MADISON,46011,7656410050,RESIDENTIAL CARE FACILITIES,FREESTANDING RESIDENTIAL CARE FACILITIES,ALL NURSING HOMES
13824,HI JILL'S HOUSE LLC,751 E TAMARACK TRAIL,IN,BLOOMINGTON,MONROE,47408,8127877692,RESIDENTIAL CARE FACILITIES,FREESTANDING RESIDENTIAL CARE FACILITIES,ALL NURSING HOMES
13825,CLARENDALE OF SCHERERVILLE,7770 BURR STREET,IN,SCHERERVILLE,LAKE,46375,2193228855,RESIDENTIAL CARE FACILITIES,FREESTANDING RESIDENTIAL CARE FACILITIES,ALL NURSING HOMES
13838,GI-XXXIV SUMMERS POINTE OPERATOR LLC,1 SUNSET DRIVE,IN,WINCHESTER,RANDOLPH,47394,7655847676,RESIDENTIAL CARE FACILITIES,FREESTANDING RESIDENTIAL CARE FACILITIES,ALL NURSING HOMES
13841,CLARKSVILLE SENIOR LIVING LLC,400 HUNTER STATION ROAD,IN,SELLERSBURG,CLARK,47172,8127485258,RESIDENTIAL CARE FACILITIES,FREESTANDING RESIDENTIAL CARE FACILITIES,ALL NURSING HOMES
13846,PRIMROSE OF NEWBURGH,9800 LINCOLN AVE,IN,NEWBURGH,WARRICK,47630,8125730088,RESIDENTIAL CARE FACILITIES,FREESTANDING RESIDENTIAL CARE FACILITIES,ALL NURSING HOMES
13847,MCCORDSVILLE SENIOR LIVING LLC,6311 W CR 900 N,IN,MCCORDSVILLE,HANCOCK,46055,3173359900,RESIDENTIAL CARE FACILITIES,FREESTANDING RESIDENTIAL CARE FACILITIES,ALL NURSING HOMES
13880,1717 SENIOR LIVING LLC,1703 W 86TH STREET,IN,INDIANAPOLIS,MARION,46260,3178762916,RESIDENTIAL CARE FACILITIES,FREESTANDING RESIDENTIAL CARE FACILITIES,ALL NURSING HOMES
13896,WOODLAND TERRACE OF NEW PALESTINE LLC,4400 TERRACE DRIVE,IN,NEW PALESTINE,HANCOCK,46163,3173538311,RESIDENTIAL CARE FACILITIES,FREESTANDING RESIDENTIAL CARE FACILITIES,ALL NURSING HOMES
13933,ANTHOLOGY OF MERIDIAN HILLS,8549 N MERIDIAN STREET,IN,INDIANAPOLIS,MARION,46260,3172532020,RESIDENTIAL CARE FACILITIES,FREESTANDING RESIDENTIAL CARE FACILITIES,ALL NURSING HOMES
13945,"ENCLAVE SENIOR LIVING AT SAXONY, THE",12950 TALBLICK STREET,IN,FISHERS,HAMILTON,46037,3177733854,RESIDENTIAL CARE FACILITIES,FREESTANDING RESIDENTIAL CARE FACILITIES,ALL NURSING HOMES
13946,"VILLAS OF HOLLY BROOK INDIANA, LLC",1941 W US HIGHWAY 40,IN,BRAZIL,CLAY,47834,8124202243,RESIDENTIAL CARE FACILITIES,FREESTANDING RESIDENTIAL CARE FACILITIES,ALL NURSING HOMES
13978,SAINT ANNE -  VICTORY NOLL,25 VICTORY NOLL DRIVE,IN,HUNTINGTON,HUNTINGTON,46750,2602246848,RESIDENTIAL CARE FACILITIES,FREESTANDING RESIDENTIAL CARE FACILITIES,ALL NURSING HOMES
13994,"MANSION ON MAIN, THE",1420 EAST MAIN STREET,IN,NEW ALBANY,FLOYD,47150,8129141161,RESIDENTIAL CARE FACILITIES,FREESTANDING RESIDENTIAL CARE FACILITIES,ALL NURSING HOMES
14002,EVERGREEN VILLAGE AT BLOOMINGTON,3607 SOUTH HEIRLOOM DRIVE,IN,BLOOMINGTON,MONROE,47401,8123362718,RESIDENTIAL CARE FACILITIES,FREESTANDING RESIDENTIAL CARE FACILITIES,ALL NURSING HOMES
14015,FIVE STAR RESIDENCES OF LAFAYETTE,250 SHENANDOAH DRIVE,IN,LAFAYETTE,TIPPECANOE,47905,7654494475,RESIDENTIAL CARE FACILITIES,FREESTANDING RESIDENTIAL CARE FACILITIES,ALL NURSING HOMES
14016,FIVE STAR RESIDENCES OF CLEARWATER,4519 EAST 82ND STREET,IN,INDIANAPOLIS,MARION,46250,3178492244,RESIDENTIAL CARE FACILITIES,FREESTANDING RESIDENTIAL CARE FACILITIES,ALL NURSING HOMES
14017,FIVE STAR RESIDENCES OF FORT WAYNE,2601 COVINGTON COMMONS DRIVE,IN,FORT WAYNE,ALLEN,46804,2604321932,RESIDENTIAL CARE FACILITIES,FREESTANDING RESIDENTIAL CARE FACILITIES,ALL NURSING HOMES
14018,FIVE STAR RESIDENCES OF BANTA POINTE,6510 U.S. 31 SOUTH,IN,INDIANAPOLIS,MARION,46227,3177834663,RESIDENTIAL CARE FACILITIES,FREESTANDING RESIDENTIAL CARE FACILITIES,ALL NURSING HOMES
14019,FIVE STAR RESIDENCES OF NORTHWOODS,2501 FRIENDSHIP BLVD,IN,KOKOMO,HOWARD,46901,7654540001,RESIDENTIAL CARE FACILITIES,FREESTANDING RESIDENTIAL CARE FACILITIES,ALL NURSING HOMES
14034,SILVER BIRCH OF MUNCIE,2500 W KILGORE AVENUE,IN,MUNCIE,DELAWARE,47304,7652540329,RESIDENTIAL CARE FACILITIES,FREESTANDING RESIDENTIAL CARE FACILITIES,ALL NURSING HOMES
14045,"HARRISON AT EAGLE VALLEY, THE",3060 VALLEY FARMS ROAD,IN,INDIANAPOLIS,MARION,46214,3172911112,RESIDENTIAL CARE FACILITIES,FREESTANDING RESIDENTIAL CARE FACILITIES,ALL NURSING HOMES
14052,SILVER BIRCH OF MICHIGAN CITY,4400 EAST MICHIGAN BLVD,IN,MICHIGAN CITY,LA PORTE,46360,2198796115,RESIDENTIAL CARE FACILITIES,FREESTANDING RESIDENTIAL CARE FACILITIES,ALL NURSING HOMES
14059,ANSON SENIOR LIVING,6800 CENTRAL BOULEVARD,IN,ZIONSVILLE,BOONE,46077,3179730220,RESIDENTIAL CARE FACILITIES,FREESTANDING RESIDENTIAL CARE FACILITIES,ALL NURSING HOMES
14062,HELLENIC SENIOR LIVING OF INDIANAPOLIS,8601 SOUTH SHELBY STREET,IN,INDIANAPOLIS,MARION,46227,3178854446,RESIDENTIAL CARE FACILITIES,FREESTANDING RESIDENTIAL CARE FACILITIES,ALL NURSING HOMES
14079,DEMAREE CROSSING ASSISTED LIVING AND MEMORY CARE,1255 DEMAREE ROAD,IN,GREENWOOD,JOHNSON,46143,3173168380,RESIDENTIAL CARE FACILITIES,FREESTANDING RESIDENTIAL CARE FACILITIES,ALL NURSING HOMES
14080,SUGAR FORK CROSSING,1745 EAST 67TH STREET,IN,ANDERSON,MADISON,46013,7652339360,RESIDENTIAL CARE FACILITIES,FREESTANDING RESIDENTIAL CARE FACILITIES,ALL NURSING HOMES
14090,CROWNPOINTE OF PORTLAND,745 PATRIOT DRIVE,IN,PORTLAND,JAY,47371,2607263577,RESIDENTIAL CARE FACILITIES,FREESTANDING RESIDENTIAL CARE FACILITIES,ALL NURSING HOMES
14094,WICKSHIRE WEST LAFAYETTE,3575 SENIOR PLACE,IN,WEST LAFAYETTE,TIPPECANOE,47906,7654641805,RESIDENTIAL CARE FACILITIES,FREESTANDING RESIDENTIAL CARE FACILITIES,ALL NURSING HOMES
14109,WICKSHIRE FORT HARRISON,8025 DOUBLEDAY DRIVE,IN,INDIANAPOLIS,MARION,46216,3175462845,RESIDENTIAL CARE FACILITIES,FREESTANDING RESIDENTIAL CARE FACILITIES,ALL NURSING HOMES
14113,HERITAGE PARK COMMONS,2002 HERITAGE PARK DRIVE,IN,FORT WAYNE,ALLEN,46805,2604849557,RESIDENTIAL CARE FACILITIES,FREESTANDING RESIDENTIAL CARE FACILITIES,ALL NURSING HOMES
14137,SILVER BIRCH OF KOKOMO,408 S WASHINGTON STREET,IN,KOKOMO,HOWARD,46901,7658687266,RESIDENTIAL CARE FACILITIES,FREESTANDING RESIDENTIAL CARE FACILITIES,ALL NURSING HOMES
14148,"GLASSWATER CREEK OF LAFAYETTE, LLC",208 BECK LANE,IN,LAFAYETTE,TIPPECANOE,47909,7654771140,RESIDENTIAL CARE FACILITIES,FREESTANDING RESIDENTIAL CARE FACILITIES,ALL NURSING HOMES
14166,HELLENIC SENIOR LIVING OF NEW ALBANY,2632 GRANT LINE ROAD,IN,NEW ALBANY,FLOYD,47150,8129449048,RESIDENTIAL CARE FACILITIES,FREESTANDING RESIDENTIAL CARE FACILITIES,ALL NURSING HOMES
14168,GRAND VALLEY GARDENS ASSISTED LIVING FACILITY,1151 S HUBERT CIRCLE WEST,IN,MARTINSVILLE,MORGAN,46151,7655588200,RESIDENTIAL CARE FACILITIES,FREESTANDING RESIDENTIAL CARE FACILITIES,ALL NURSING HOMES
14178,BELVEDERE SENIOR HOUSING,343 E 90TH DRIVE,IN,MERRILLVILLE,LAKE,46410,2197692145,RESIDENTIAL CARE FACILITIES,FREESTANDING RESIDENTIAL CARE FACILITIES,ALL NURSING HOMES
14213,HERITAGE WOODS OF NOBLESVILLE,9600 E 146TH STREET,IN,NOBLESVILLE,HAMILTON,46060,3173306061,RESIDENTIAL CARE FACILITIES,FREESTANDING RESIDENTIAL CARE FACILITIES,ALL NURSING HOMES
14238,SILVER BIRCH OF EVANSVILLE,475 S GOVERNOR STREET,IN,EVANSVILLE,VANDERBURGH,47713,8122544133,RESIDENTIAL CARE FACILITIES,FREESTANDING RESIDENTIAL CARE FACILITIES,ALL NURSING HOMES
14241,HELLENIC SENIOR LIVING OF ELKHART,2528 BYPASS ROAD,IN,ELKHART,ELKHART,46514,5743891776,RESIDENTIAL CARE FACILITIES,FREESTANDING RESIDENTIAL CARE FACILITIES,ALL NURSING HOMES
14253,GRAND BROOK MEMORY CARE OF FISHERS,9796 EAST 131ST STREET,IN,FISHERS,HAMILTON,46038,3179142357,RESIDENTIAL CARE FACILITIES,FREESTANDING RESIDENTIAL CARE FACILITIES,ALL NURSING HOMES
14260,SILVER BIRCH OF MISHAWAKA,3630 HICKORY ROAD,IN,MISHAWAKA,ST JOSEPH,46545,5742527225,RESIDENTIAL CARE FACILITIES,FREESTANDING RESIDENTIAL CARE FACILITIES,ALL NURSING HOMES
14279,OASIS AT 56TH,4940 WEST 56TH STREET,IN,INDIANAPOLIS,MARION,46254,3172973115,RESIDENTIAL CARE FACILITIES,FREESTANDING RESIDENTIAL CARE FACILITIES,ALL NURSING HOMES
14291,SILVER BIRCH OF TERRE HAUTE,650 LAFAYETTE AVENUE,IN,TERRE HAUTE,VIGO,47807,8122370123,RESIDENTIAL CARE FACILITIES,FREESTANDING RESIDENTIAL CARE FACILITIES,ALL NURSING HOMES
14316,SILVER BIRCH OF FORT WAYNE,7125 S HANNA STREET,IN,FORT WAYNE,ALLEN,46816,2604478811,RESIDENTIAL CARE FACILITIES,FREESTANDING RESIDENTIAL CARE FACILITIES,ALL NURSING HOMES
14376,GRAND BROOK MEMORY CARE OF ZIONSVILLE,11870 SANDY DRIVE,IN,ZIONSVILLE,BOONE,46077,3179750049,RESIDENTIAL CARE FACILITIES,FREESTANDING RESIDENTIAL CARE FACILITIES,ALL NURSING HOMES
14377,HERITAGE WOODS OF NEWBURGH,4211 GRIMM ROAD,IN,NEWBURGH,WARRICK,47630,8128539810,RESIDENTIAL CARE FACILITIES,FREESTANDING RESIDENTIAL CARE FACILITIES,ALL NURSING HOMES
14383,LEGACY LIVING OF JASPER LLC,1850 WEST STATE ROAD 56,IN,JASPER,DUBOIS,47546,8125590200,RESIDENTIAL CARE FACILITIES,FREESTANDING RESIDENTIAL CARE FACILITIES,ALL NURSING HOMES
14410,GLASSWATER CREEK OF PLAINFIELD,10480 GLASSWATER LANE,IN,PLAINFIELD,HENDRICKS,46168,3178395808,RESIDENTIAL CARE FACILITIES,FREESTANDING RESIDENTIAL CARE FACILITIES,ALL NURSING HOMES
14419,BRIGHTSTAR SENIOR LIVING OF FORT WAYNE,11430 COLDWATER ROAD,IN,FORT WAYNE,ALLEN,46845,2602342929,RESIDENTIAL CARE FACILITIES,FREESTANDING RESIDENTIAL CARE FACILITIES,ALL NURSING HOMES
14426,GRAND BROOK MEMORY CARE OF GREENWOOD,2444 SOUTH STATE ROAD 135,IN,GREENWOOD,JOHNSON,46143,3174991310,RESIDENTIAL CARE FACILITIES,FREESTANDING RESIDENTIAL CARE FACILITIES,ALL NURSING HOMES
14463,LINCOLNSHIRE PLACE - MUNCIE,1600 N MORRISON ROAD,IN,MUNCIE,DELAWARE,47304,7655872714,RESIDENTIAL CARE FACILITIES,FREESTANDING RESIDENTIAL CARE FACILITIES,ALL NURSING HOMES
14469,RESIDENCES AT COFFEE CREEK,2300 VILLAGE POINT,IN,CHESTERTON,PORTER,46304,2199215200,RESIDENTIAL CARE FACILITIES,FREESTANDING RESIDENTIAL CARE FACILITIES,ALL NURSING HOMES
14512,EVERGREEN VILLAGE AT FORT WAYNE,12523 AUBURN ROAD,IN,FORT WAYNE,ALLEN,46845,2606372830,RESIDENTIAL CARE FACILITIES,FREESTANDING RESIDENTIAL CARE FACILITIES,ALL NURSING HOMES
14519,VIVERA SENIOR LIVING OF COLUMBUS,1971 STATE STREET,IN,COLUMBUS,BARTHOLOMEW,47201,8123760698,RESIDENTIAL CARE FACILITIES,FREESTANDING RESIDENTIAL CARE FACILITIES,ALL NURSING HOMES
14548,TIMBER CREEK VILLAGE,990 PROGRESS PARKWAY,IN,SHELBYVILLE,SHELBY,46176,2178219539,RESIDENTIAL CARE FACILITIES,FREESTANDING RESIDENTIAL CARE FACILITIES,ALL NURSING HOMES
14553,SILVER BIRCH AT COOK ROAD,3731 WEST COOK ROAD,IN,FORT WAYNE,ALLEN,46818,2604478811,RESIDENTIAL CARE FACILITIES,FREESTANDING RESIDENTIAL CARE FACILITIES,ALL NURSING HOMES
14576,CEDARHURST OF FORT WAYNE,9210 MAYSVILLE ROAD,IN,FORT WAYNE,ALLEN,46815,2602355957,RESIDENTIAL CARE FACILITIES,FREESTANDING RESIDENTIAL CARE FACILITIES,ALL NURSING HOMES
14602,SANCTUARY AT ST PAUL'S,3602 SOUTH IRONWOOD DRIVE,IN,SOUTH BEND,ST JOSEPH,46614,5742849000,RESIDENTIAL CARE FACILITIES,FREESTANDING RESIDENTIAL CARE FACILITIES,ALL NURSING HOMES
14623,TOWNE PARK ASSISTED LIVING,503 S MURPHY AVE,IN,BRAZIL,CLAY,47834,8124204100,RESIDENTIAL CARE FACILITIES,FREESTANDING RESIDENTIAL CARE FACILITIES,ALL NURSING HOMES
14910,LAKE MEADOWS SENIOR ASSISTED LIVING,11570 E 126TH STREET,IN,FISHERS,HAMILTON,46037,3175274475,RESIDENTIAL CARE FACILITIES,FREESTANDING RESIDENTIAL CARE FACILITIES,ALL NURSING HOMES
14224,HELLENIC SENIOR LIVING OF MISHAWAKA,1540 SOUTH LOGAN STREET,IN,MISHAWAKA,ST JOSEPH,46544,5742578629,RESIDENTIAL CARE FACILITIES,FREESTANDING RESIDENTIAL CARE FACILITIES,ALL NURSING HOMES
15179,COLUMBUS SENIOR LIVING LLC,4300 WEST GOELLER BLVD,IN,COLUMBUS,BARTHOLOMEW,47201,8125520500,RESIDENTIAL CARE FACILITIES,FREESTANDING RESIDENTIAL CARE FACILITIES,ALL NURSING HOMES