State Facility Type 1 Literal,Facility Name,Licensee,Address,City,State,Zip,Phone Number,County,Capacity,Ownership Type,License Number
PERSONAL CARE HOMES,ABINGTON MANOR AT MORGAN HILL,"CEDAR PARK ASSISTED LIVING, LLC","215 CEDAR PARK BOULEVARD,",EASTON,PA,18042,6108290100,NORTHAMPTON,75,PROFIT,219620
PERSONAL CARE HOMES,ABINGTON MANOR AT MORGAN HILL-MEMORY CARE VILLAGE,MORGAN HILL SENIOR LIVING LLC,"5 CEDAR PARK BOULEVARD,",EASTON,PA,18042,6104389400,NORTHAMPTON,50,PROFIT,226140
PERSONAL CARE HOMES,ABODE CARE OF MONROEVILLE,ABODE CARE OF MONROEVILLE LLC,"2560 STROSCHEIN ROAD,",MONROEVILLE,PA,15146,3479571340,ALLEGHENY,66,PROFIT,451191
PERSONAL CARE HOMES,ABOVE & BEYOND,ABOVE AND BEYOND INCORPORATED,"514 NORTH 22ND STREET,",ALLENTOWN,PA,18104,6104322122,LEHIGH,36,PROFIT,217510
PERSONAL CARE HOMES,ABOVE & BEYOND AT THE KNIGHTS,ABOVE AND BEYOND AT THE KNIGHTS LLC,"1545 GREENLEAF STREET,",ALLENTOWN,PA,18102,6104347433,LEHIGH,150,PROFIT,226470
PERSONAL CARE HOMES,ABOVE & BEYOND MOUNTAIN VIEW,ABOVE AND BEYOND INCOPORATED,"2232 SW TWENTYNINTH STREET,",ALLENTOWN,PA,18103,6107974651,LEHIGH,150,PROFIT,221140
PERSONAL CARE HOMES,ACADIA ACQUISITION 1,ACADIA ACQUISITION INC,"1604/1614 BENTLEY RIDGE BLVD,",LANCASTER,PA,17602,7175177893,LANCASTER,6,PROFIT,331380
PERSONAL CARE HOMES,ACADIA ACQUISITION 2,ACADIA ACQUISITION INC,"306/312 BENTLEY RIDGE BLVD,",LANCASTER,PA,17602,7175179836,LANCASTER,6,PROFIT,331430
PERSONAL CARE HOMES,ACADIA ACQUISITION 3,ACADIA ACQUISITION INC,"1104/1114 BENTLEY RIDGE BLVD.,",LANCASTER,PA,17602,7174359329,LANCASTER,6,PROFIT,331440
PERSONAL CARE HOMES,ACADIA ACQUISITION 4,ACADIA ACQUISITION INC,"950 BENTLEY RIDGE BOULEVARD,",LANCASTER,PA,17602,7172083229,LANCASTER,8,PROFIT,331450
PERSONAL CARE HOMES,ACADIA ACQUISITION 5,ACADIA ACQUISITION INC,"649/653 PATRIOT DRIVE,",LANCASTER,PA,17601,7173979070,LANCASTER,5,PROFIT,331470
PERSONAL CARE HOMES,ACCOLADE PERSONAL CARE HOME,BETTRE ESTATES LLC,"101 SOUTH BROAD STREET,",NEW FREEDOM,PA,17349,7172270945,YORK,17,PROFIT,335250
PERSONAL CARE HOMES,ACCOLADES SENIOR CARE,ACCOLADES SENIOR CARE LLC,"246 MELROSE AVENUE,",EAST LANSDOWNE,PA,19050,6106232233,DELAWARE,45,PROFIT,135710
PERSONAL CARE HOMES,ACTION RECOVERY,MOUNT TREXLER MANOR CORPORATION,"5201 ST. JOSEPH'S ROAD,",LIMESPORT,PA,18060,6109659021,LEHIGH,8,PROFIT,226870
PERSONAL CARE HOMES,ACTION RECOVERY,MOUNT TREXLER MANOR CORPORATION,"5201 ST. JOSEPHS ROAD,",LIMEPORT,PA,18060,6109659021,LEHIGH,8,PROFIT,227290
PERSONAL CARE HOMES,ADULT LIVING AT ROSEBROOK,ROSEBROOK OPCO LLC,"723 SOUTH PIKE ROAD,",SARVER,PA,16055,7242954300,BUTLER,100,PROFIT,449610
PERSONAL CARE HOMES,ADULT PERSONAL CARE HOME,SHARON AHEARN,"44 BROAD STREET,",PITTSTON,PA,18640,5702992383,LUZERNE,8,PROFIT,243860
PERSONAL CARE HOMES,ADVANCED PERSONAL CARE HOME,ADVANCED PERSONAL CARE HOME INC,"245 CENTER STREET, PO BOX 5,",CLARKSVILLE,PA,15322,7243770662,GREENE,39,PROFIT,440480
PERSONAL CARE HOMES,ALC FAMILY CARE,ALC FAMILY CARE INC,"897 HOBBIE ROAD,",WAPWALLOPEN,PA,18660,5703793673,LUZERNE,18,PROFIT,228380
PERSONAL CARE HOMES,ALEXANDRIA MANOR,ALEXANDRIA MANOR OF ALLENTOWN INC,"7 SOUTH NEW STREET,",NAZARETH,PA,18064,6107594060,NORTHAMPTON,93,PROFIT,210640
PERSONAL CARE HOMES,ALEXANDRIA MANOR II,ALEXANDRIA MANOR OF ALLENTOWN INC,"313 S. WALNUT ST.,",BATH,PA,18014,6108373500,NORTHAMPTON,78,PROFIT,205260
PERSONAL CARE HOMES,ALEXANDRIA MANOR OF ALLENTOWN - BETHLEHEM CAMPUS,"ALEXANDRIA MANOR OF ALLENTOWN, INC.","3534 LINDEN STREET,",BETHLEHEM,PA,18017,6108673060,NORTHAMPTON,58,PROFIT,214560
PERSONAL CARE HOMES,ALLEGHENY PLACE,GRAINGER AID OPCO LLC,"10960 FRANKSTOWN ROAD,",PENN HILLS,PA,15235,4122417080,ALLEGHENY,47,PROFIT,444890
PERSONAL CARE HOMES,ALLEGRIA AT THE OAKS,BENSALEM PCH LLC,"6400 HULMEVILLE ROAD,",BENSALEM,PA,19020,2157529140,BUCKS,95,PROFIT,143670
PERSONAL CARE HOMES,ALLIANCE ADULT LIVING,ALLIANCE ADULT LIVING LLC,"1036 PENNSYLVANIA AVENUE,",MATAMORAS,PA,18336,5704093198,PIKE,6,PROFIT,226110
PERSONAL CARE HOMES,ALLIANCE SENIOR HOME,ALLIANCE SENIOR HOME LLC,"104 PENNSYLVANIA AVENUE,",MATAMORAS,PA,18336,5704915302,PIKE,8,PROFIT,227330
PERSONAL CARE HOMES,ALLIED SERVICES CENTER CITY RESIDENCE,ALLIED SERVICES PERSONAL CARE INC,"80 EAST NORTHAMPTON STREET,",WILKES-BARRE,PA,18701,5703481329,LUZERNE,80,NON-PROFIT,228090
PERSONAL CARE HOMES,ALLIED SERVICES MEADE STREET RESIDENCE,ALLIED SERVICES PERSONAL CARE INC,"260 SOUTH MEADE STREET,",WILKES-BARRE,PA,18702,5703481329,LUZERNE,76,NON-PROFIT,228120
PERSONAL CARE HOMES,ALLIED TERRACE,ALLIED SERVICES PERSONAL CARE INC,"100 TERRACE LANE,",SCRANTON,PA,18508,5703414659,LACKAWANNA,84,NON-PROFIT,200250
PERSONAL CARE HOMES,ALWAYS ON CARE,ALWAYS ON CARE LLC,"600 NORTH LAUREL STREET,",HAZELTON,PA,18201,9083490574,LUZERNE,26,PROFIT,230060
PERSONAL CARE HOMES,AM/PM PERSONAL CARE HOME,"AM PM PERSONAL CARE HOME, INC.","P.O. BOX 123,555 ADRIAN ROAD,",DELANCEY,PA,15733,8149392676,JEFFERSON,32,PROFIT,407360
PERSONAL CARE HOMES,AMBER HOUSE AT HARMON HOUSE CARE CENTER,HARMON HOUSE CARE CENTER LLC,"601 SOUTH CHURCH STREET,",MT. PLEASANT,PA,15666,7245471890,WESTMORELAND,70,PROFIT,429140
PERSONAL CARE HOMES,AMERICAN HOUSE T/A HOTEL LEBANON,HOTEL LEBANON CORPORATION,"23-25 SOUTH NINTH STREET,",LEBANON,PA,17042,7172726678,LEBANON,74,PROFIT,344040
PERSONAL CARE HOMES,AMITY PLACE,DOUGLASSVILLE AID II OPCO LLC,"139 OLD SWEDE ROAD,",DOUGLASSVILLE,PA,19518,6103857600,BERKS,100,PROFIT,226560
PERSONAL CARE HOMES,AMITY SERENITY PINES PERSONAL CARE HOME,AMITY SERENITY PINES PERSONAL CARE HOME LLC,"223 JONES DRIVE,",BRIDGEVILLE,PA,15017,8558797733,ALLEGHENY,26,PROFIT,448030
PERSONAL CARE HOMES,AMITY SLIPPERY ROCK PERSONAL CARE HOME,AMITY SENIOR LIVING LLC,"276 RALSTON ROAD,",SLIPPERY ROCK,PA,16057,7247945680,BUTLER,20,PROFIT,444380
PERSONAL CARE HOMES,ANDSHER PERSONAL CARE HOME,ANDSHER PERSONAL CARE HOME INC,"20 NORTH KENNEDY DRIVE,",MCADOO,PA,18237,5709291777,SCHUYLKILL,27,PROFIT,242510
PERSONAL CARE HOMES,ANGEL'S FAMILY MANOR PERSONAL CARE HOME,ANGELS FAMILY MANOR PERSONAL CARE HOME INC,"218 NORTH MAIN AVENUE,",SCRANTON,PA,18504,5703415012,LACKAWANNA,53,PROFIT,210620
PERSONAL CARE HOMES,ANGELS 211 LLC,ANGELS 211 LLC,"211 GARNIER STREET,",SHARPSBURG,PA,15215,4127848344,ALLEGHENY,40,PROFIT,445810
PERSONAL CARE HOMES,ANN'S CHOICE,ANNS CHOICE INC,"16000 ANN'S CHOICE WAY,",WARMINSTER,PA,18974,2154433801,BUCKS,44,NON-PROFIT,129010
PERSONAL CARE HOMES,ANN'S GROVE PERSONAL CARE HOME,"ANN'S GROVE PERSONAL CARE HOME, INC.","601 SUGAR HOLLOW ROAD,",TUNKHANNOCK,PA,18657,5708361381,WYOMING,22,PROFIT,208250
PERSONAL CARE HOMES,ANNA'S HOUSE,CITIZENS ACTING TOGETHER CAN HELP INC,"1208-1212 SOUTH 15TH STREET,",PHILADELPHIA,PA,19146,2155516540,PHILADELPHIA,16,NON-PROFIT,140300
PERSONAL CARE HOMES,ANNALISA'S A TOUCH OF HOME,LELO MANAGEMENT LLC,"414 PERRY ROAD,",PERRYOPOLIS,PA,15473,7247364100,FAYETTE,49,PROFIT,443441
PERSONAL CARE HOMES,ANTHOLOGY OF KING OF PRUSSIA,CA SENIOR VALLEY FORGE OPERATOR LLC,"350 GUTHRIE ROAD,",KING OF PRUSSIA,PA,19406,4849567300,MONTGOMERY,128,PROFIT,147880
PERSONAL CARE HOMES,ANTHOLOGY OF MCCANDLESS,CA SENIOR MCCANDLESS II OPERATOR LLC,"8651 CAREY LANE,",PITTSBURGH,PA,15237,4123927000,ALLEGHENY,94,PROFIT,449980
PERSONAL CARE HOMES,APPLE BLOSSOM SENIOR LIVING,BRODHEAD SENIOR LIVING LLC,"125 APPLE BLOSSOM WAY,",MOON TOWNSHIP,PA,15108,4123758400,ALLEGHENY,150,PROFIT,450720
PERSONAL CARE HOMES,APPLE BLOSSOM SENIOR LIVING,BRODHEAD SENIOR LIVING LLC,"115 APPLE BLOSSOM WAY,",MOON TOWNSHIP,PA,15108,4123758400,ALLEGHENY,40,PROFIT,450730
PERSONAL CARE HOMES,APRONTREE PERSONAL CARE HOME,BETTY K. SHATZER,"18015 PATH VALLEY ROAD,",SPRING RUN,PA,17262,7173497329,FRANKLIN,21,PROFIT,360120
PERSONAL CARE HOMES,ARBOR TERRACE WILLISTOWN,SHP V WILLISTOWN LLC,"1713 WEST CHESTER PIKE,",WEST CHESTER,PA,19382,6107251713,CHESTER,104,PROFIT,142450
PERSONAL CARE HOMES,ARBOR TERRACE EXTON,CSH EXTON LESSEE LLC,"100 OAKLANDS BOULEVARD,",EXTON,PA,19341,4142659360,CHESTER,99,PROFIT,147930
PERSONAL CARE HOMES,ARBOUR SQUARE AT WEST CHESTER,WARD SENIOR CARE LLC,"1201 WARD AVENUE,",WEST CHESTER,PA,19380,4844019800,CHESTER,94,PROFIT,144100
PERSONAL CARE HOMES,ARBUTUS PARK MANOR,ARBUTUS PARK MANOR INC,"207 OTTAWA STREET,",JOHNSTOWN,PA,15904,8142668621,CAMBRIA,35,NON-PROFIT,300060
PERSONAL CARE HOMES,ARC HOUSING OF LAWRENCE COUNTY,LAWRENCE COUNTY ASSOCIATION FOR RESPONSIBLE CARE,"1111 1/2 SOUTH CASCADE STREET,",NEW CASTLE,PA,16101,7246588615,LAWRENCE,29,NON-PROFIT,467060
PERSONAL CARE HOMES,ARCADIA AT LIMERICK POINTE,ARCADIA AT LIMERICK POINTE LLC,"51 WEST ARCADIA DRIVE,",LIMERICK,PA,19468,6109811904,MONTGOMERY,110,PROFIT,147950
PERSONAL CARE HOMES,ARDEN COURTS OF ALLENTOWN,ARDEN COURTS OF ALLENTOWN PA LLC,"5151 HAMILTON BOULEVARD,",ALLENTOWN,PA,18106,6103669010,LEHIGH,56,PROFIT,217870
PERSONAL CARE HOMES,ARDEN COURTS OF JEFFERSON HILLS,ARDEN COURTS OF JEFFERSON HILLS PA LLC,"380 WRAY LARGE ROAD,",JEFFERSON HILLS,PA,15025,4123840300,ALLEGHENY,60,PROFIT,435510
PERSONAL CARE HOMES,ARDEN COURTS OF KING OF PRUSSIA,ARDEN COURTS OF KING OF PRUSSIA PA LLC,"620 WEST VALLEY FORGE ROAD,",KING OF PRUSSIA,PA,19406,6103371214,MONTGOMERY,64,PROFIT,129950
PERSONAL CARE HOMES,ARDEN COURTS OF MONROEVILLE,ARDEN COURTS OF MONROEVILLE PA LLC,"120 WYNGATE DRIVE,",MONROEVILLE,PA,15146,4123801300,ALLEGHENY,56,PROFIT,435520
PERSONAL CARE HOMES,ARDEN COURTS OF NORTH HILLS,ARDEN COURTS NORTH HILLS OF PITTSBURGH PA LLC,"1125 PERRY HIGHWAY,",PITTSBURGH,PA,15237,4123697887,ALLEGHENY,56,PROFIT,435530
PERSONAL CARE HOMES,ARDEN COURTS OF OLD ORCHARD,OLD ORCHARD HEALTH CARE CENTER - EASTON PA LLC,"4098 FREEMANSBURG AVENUE,",EASTON,PA,18045,4843735135,NORTHAMPTON,64,PROFIT,226040
PERSONAL CARE HOMES,ARDEN COURTS OF SUSQUEHANNA,ARDEN COURTS SUSQUEHANNA OF HARRISBURG PA LLC,"2625 AILANTHUS LANE,",HARRISBURG,PA,17110,7175407018,DAUPHIN,64,PROFIT,324310
PERSONAL CARE HOMES,ARDEN COURTS OF WARMINSTER,ARDEN COURTS WARMINSTER OF HATBORO PA LLC,"779 WEST COUNTY LINE ROAD,",HATBORO,PA,19040,2159575182,BUCKS,60,PROFIT,129960
PERSONAL CARE HOMES,ARDEN COURTS OF YARDLEY,ARDEN COURTS OF YARDLEY PA LLC,"493 STONY HILL ROAD,",YARDLEY,PA,19067,2153216166,BUCKS,66,PROFIT,129970
PERSONAL CARE HOMES,ARK MANOR,ARK MANOR LLC,"105 SANDRA DRIVE,",DELMONT,PA,15626,7244686200,WESTMORELAND,70,PROFIT,446860
PERSONAL CARE HOMES,AROTIN'S HUMMINGBIRD ESTATE,AROTINS HUMMINGBIRD ESTATE INC,"400 PARK AVENUE,",PATTON,PA,16668,8145238195,CAMBRIA,15,PROFIT,333070
PERSONAL CARE HOMES,ARTIS SENIOR LIVING OF HUNTINGDON VALLEY,ARTIS SENIOR LIVING OF LOWER MORELAND LLC,"2085 LIEBERMAN DRIVE,",HUNTINGDON VALLEY,PA,19006,2675712699,MONTGOMERY,72,PROFIT,142790
PERSONAL CARE HOMES,ARTIS SENIOR LIVING OF SOUTH HILLS,ARTIS SENIOR LIVING OF BETHEL PARK LLC,"1001 HIGBEE DRIVE,",BETHEL PARK,PA,15102,4125958917,ALLEGHENY,72,PROFIT,449160
PERSONAL CARE HOMES,ARTIS SENIOR LIVING OF WEST SHORE,ARTIS SENIOR LIVING OF LEMOYNE LLC,"150 NORTH 12TH STREET,",LEMOYNE,PA,17043,7174098921,CUMBERLAND,64,PROFIT,333700
PERSONAL CARE HOMES,ARTIS SENIOR LIVING OF YARDLEY,ARTIS SENIOR LIVING OF LOWER MAKEFIELD LLC,"765 STONY HILL ROAD,",YARDLEY,PA,19067,2673925945,BUCKS,72,PROFIT,146500
PERSONAL CARE HOMES,ARTMAN LUTHERAN HOME,ARTMAN LUTHERAN HOME,"250 BETHLEHEM PIKE,",AMBLER,PA,19002,2156439926,MONTGOMERY,136,NON-PROFIT,127780
PERSONAL CARE HOMES,ASBURY HEALTH CENTER,ASBURY HEALTH CENTER INC,"700 BOWER HILL ROAD,",PITTSBURGH,PA,15243,4123411030,ALLEGHENY,120,NON-PROFIT,429670
PERSONAL CARE HOMES,ASBURY PLACE,ASBURY PLACE INC,"760 BOWER HILL ROAD,",PITTSBURGH,PA,15243,4125715660,ALLEGHENY,42,NON-PROFIT,431550
PERSONAL CARE HOMES,ASBURY VILLAS,ASBURY VILLAS,"730 BOWER HILL ROAD,",PITTSBURGH,PA,15243,4125715380,ALLEGHENY,100,NON-PROFIT,429980
PERSONAL CARE HOMES,AT HOME AT PARKLAND - BUILDING 1,AT HOME PALLIATIVE AND HOSPICE FOUNDATION,"4315 WASHINGTON STREET,",SCHNECKSVILLE,PA,18078,6108208301,LEHIGH,24,NON-PROFIT,226100
PERSONAL CARE HOMES,AT HOME PALLIATIVE AND HOSPICE FOUNDATION-BUILDING 2,AT HOME PALLIATIVE AND HOSPICE FOUNDATION,"4315 WASHINGTON STREET,",SCHNECKSVILLE,PA,18078,6108208301,LEHIGH,23,NON-PROFIT,225780
PERSONAL CARE HOMES,ATRIA AT CRANBERRY WOODS,FDG CB OPCO LLC,"3020 FAIRPORT LANE,",CRANBERRY TOWNSHIP,PA,16066,7242418750,BUTLER,115,PROFIT,452680
PERSONAL CARE HOMES,ATRIA BETHLEHEM,WG BETHLEHEM SH LLC,"1745 WEST MACADA ROAD,",BETHLEHEM,PA,18017,6103170700,NORTHAMPTON,150,PROFIT,222810
PERSONAL CARE HOMES,ATRIA CENTER CITY,WG CENTER CITY SH LLC,"150 NORTH 20TH STREET,",PHILADELPHIA,PA,19103,2155645455,PHILADELPHIA,165,PROFIT,136570
PERSONAL CARE HOMES,ATRIA LAFAYETTE HILL,SQR OPCO LLC,"9303 RIDGE PIKE,",PHILADELPHIA,PA,19128,2677687779,PHILADELPHIA,170,PROFIT,146650
PERSONAL CARE HOMES,ATRIA MCCANDLESS,CA SENIOR MCCANDLESS OPERATOR LLC,"8870 DUNCAN AVENUE,",PITTSBURGH,PA,15237,4125367001,ALLEGHENY,211,PROFIT,452171
PERSONAL CARE HOMES,ATRIA SOUTH HILLS,WG SOUTH HILLS SH LLC,"5300 CLAIRTON BOULEVARD,",PITTSBURGH,PA,15236,4128841200,ALLEGHENY,139,PROFIT,442840
PERSONAL CARE HOMES,AUTUMN COMMONS,RALPH T POWER,"1050 WEST GRANT AVENUE,",DUQUESNE,PA,15110,4124699669,ALLEGHENY,21,PROFIT,431630
PERSONAL CARE HOMES,AUTUMN HOUSE EAST,SENIOR CARE ON EAST MARKET LLC,"2618 EAST MARKET STREET,",YORK,PA,17402,7177555911,YORK,150,PROFIT,334260
PERSONAL CARE HOMES,AUTUMN HOUSE OF YORK,SENIOR CARE ON MARKET ST LLC,"914 WEST MARKET STREET,",YORK,PA,17401,7178457214,YORK,132,PROFIT,332350
PERSONAL CARE HOMES,AUTUMN LANE PERSONAL CARE - HOME OF ROBINSON TWP.,DF CORPORATION,"5793 STEUBENVILLE PIKE,",MCKEES ROCKS,PA,15136,4127880442,ALLEGHENY,7,PROFIT,432880
PERSONAL CARE HOMES,AUTUMN LANE PERSONAL CARE HOME OF MOON TWP.,D.F. CORP.,"1757 BRODHEAD ROAD,",MOON TOWNSHIP,PA,15108,7244578338,ALLEGHENY,8,PROFIT,432870
PERSONAL CARE HOMES,BACK TO BASICS PERSONAL CARE,SHERRY STOCKDALE,"215 SLAUGHTERHOUSE ROAD,",DAYTON,PA,16222,8142578699,ARMSTRONG,16,PROFIT,427180
PERSONAL CARE HOMES,BAPTIST HOMES,BAPTIST HOMES SOCIETY,"489 CASTLE SHANNON BOULEVARD,",PITTSBURGH,PA,15234,4125636550,ALLEGHENY,58,NON-PROFIT,429590
PERSONAL CARE HOMES,BARCLAY FRIENDS,BARCLAY FRIENDS,"700 NORTH FRANKLIN STREET,",WEST CHESTER,PA,19380,6106965211,CHESTER,75,NON-PROFIT,146820
PERSONAL CARE HOMES,BARNABAS COURT AT BREVILLIER VILLAGE,BALL PAVILION INC,"5416 EAST LAKE ROAD,",ERIE,PA,16511,8148998600,ERIE,120,NON-PROFIT,453060
PERSONAL CARE HOMES,BARNES PLACE,BARNES AID OPCO LLC,"2021 JAMES STREET,",LATROBE,PA,15650,7245378005,WESTMORELAND,68,PROFIT,444880
PERSONAL CARE HOMES,BAYBERRY PLACE,BAYBERRY AID OPCO LLC,"101 LITTLE DRIVE,",LOWER BURRELL,PA,15068,7243397626,WESTMORELAND,48,PROFIT,444910
PERSONAL CARE HOMES,BEAUMONT AT BRYN MAWR,BEAUMONT RETIREMENT COMMUNITY INC,"601 NORTH ITHAN AVENUE,",BRYN MAWR,PA,19010,6105267000,MONTGOMERY,18,NON-PROFIT,127930
PERSONAL CARE HOMES,BEAVER FALLS PCH,BEAVER FALLS PCH LLC,"300 PINE STREET,",BEAVER FALLS,PA,15010,7248471093,BEAVER,81,PROFIT,451300
PERSONAL CARE HOMES,BEAVER MEADOWS,HAP SENIOR CARE,"5130 TUSCARAWAS ROAD,",BEAVER,PA,15009,7244951600,BEAVER,83,NON-PROFIT,418010
PERSONAL CARE HOMES,BEECHWOOD CENTER 1,"WOODS SERVICES, INC.","585 BEECHWOOD CIRCLE,",LANGHORNE,PA,19047,2157504001,BUCKS,8,NON-PROFIT,126770
PERSONAL CARE HOMES,BEECHWOOD CENTER 10,WOODS SERVICES,"588 BEECHWOOD CIRCLE,",LANGHORNE,PA,19047,2157504299,BUCKS,8,NON-PROFIT,141480
PERSONAL CARE HOMES,BEECHWOOD CENTER 2,"WOODS SERVICES, INC.","589 BEECHWOOD CIRCLE,",LANGHORNE,PA,19047,2157504001,BUCKS,8,NON-PROFIT,129640
PERSONAL CARE HOMES,BEECHWOOD CENTER 3,"WOODS SERVICES, INC.","587 BEECHWOOD CIRCLE,",LANGHORNE,PA,19047,2157504001,BUCKS,8,NON-PROFIT,129650
PERSONAL CARE HOMES,BEECHWOOD CENTER 4,"WOODS SERVICES, INC.","586 BEECHWOOD CIRCLE,",LANGHORNE,PA,19047,2157504001,BUCKS,8,NON-PROFIT,129660
PERSONAL CARE HOMES,BEECHWOOD CENTER 5,"WOODS SERVICES, INC.","135 WEST RICHARDSON AVENUE,",LANGHORNE,PA,19047,2157504001,BUCKS,7,NON-PROFIT,129670
PERSONAL CARE HOMES,BEECHWOOD CENTER 6,"WOODS SERVICES, INC.","166 BRENDWOOD DRIVE,",LANGHORNE,PA,19047,2157504001,BUCKS,5,NON-PROFIT,129680
PERSONAL CARE HOMES,BEECHWOOD CENTER 7,"WOODS SERVICES, INC.","228 SOUTH BELLEVUE AVENUE,",LANGHORNE,PA,19047,2157504001,BUCKS,8,NON-PROFIT,129690
PERSONAL CARE HOMES,BEECHWOOD CENTER 8,WOODS SERVICES INC,"94 OAKWOOD DRIVE,",LANGHORNE,PA,19047,2157504000,BUCKS,8,NON-PROFIT,140600
PERSONAL CARE HOMES,BEECHWOOD CENTER 9,WOODS SERVICES INC,"92 OAKWOOD DRIVE,",LANGHORNE,PA,19047,2157504299,BUCKS,8,NON-PROFIT,140830
PERSONAL CARE HOMES,BEECHWOOD COURT AT LAFAYETTE MANOR,LAFAYETTE MANOR INC LMI,"145 LAFAYETTE MANOR ROAD,",UNIONTOWN,PA,15401,7244346024,FAYETTE,64,PROFIT,409610
PERSONAL CARE HOMES,BELLE REVE SENIOR LIVING CENTER,CARE HSL BELLE REVE OPCO LLC,"404 EAST HARFORD STREET,",MILFORD,PA,18337,5704099191,PIKE,65,PROFIT,225130
PERSONAL CARE HOMES,BERKS LEISURE LIVING,BERKS LEISURE LIVING INC,"1399 FAIRVIEW DRIVE,",LEESPORT,PA,19533,6109168833,BERKS,49,PROFIT,205690
PERSONAL CARE HOMES,"BERKSHIRE COMMONS, GENESIS HEALTHCARE",5485 PERKIOMEN AVENUE OPERATIONS LLC,"5485 PERKIOMEN AVENUE,",READING,PA,19606,6107793993,BERKS,75,PROFIT,221990
PERSONAL CARE HOMES,BERRY'S PERSONAL CARE CENTER - BUILDING I,"BERRY'S PERSONAL CARE CENTER, INC.","68 LEXI STREET,",MIFFLINTOWN,PA,17059,7174362170,JUNIATA,28,PROFIT,342180
PERSONAL CARE HOMES,BERRY'S PERSONAL CARE CENTER - BUILDING II,"BERRY'S PERSONAL CARE CENTER, INC.","68 LEXI STREET,",MIFFLINTOWN,PA,17059,7174362170,JUNIATA,31,PROFIT,342190
PERSONAL CARE HOMES,BERRY'S PERSONAL CARE CENTER - BUILDING III,"BERRY'S PERSONAL CARE CENTER, INC.","68 LEXI STREET,",MIFFLINTOWN,PA,17059,7174362170,JUNIATA,7,PROFIT,342200
PERSONAL CARE HOMES,BEST PERSONAL CARE,BETTY ANN BEST,"5646-42 BALTIMORE AVENUE,",PHILADELPHIA,PA,19143,2157475590,PHILADELPHIA,12,PROFIT,141021
PERSONAL CARE HOMES,BETHANY PLACE,PREMIER QUALITY ENTERPRISE INC,"1305 WAYNE AVENUE,",INDIANA,PA,15701,7243490400,INDIANA,45,PROFIT,443980
PERSONAL CARE HOMES,BETHANY VILLAGE,BETHANY VILLAGE INC,"150 NOBLE LANE,",BETHANY,PA,18431,5702513463,WAYNE,70,PROFIT,203570
PERSONAL CARE HOMES,BETHESDA COURT,MT AIRY MANOR LLC,"6200 ARDLEIGH STREET,",PHILADELPHIA,PA,19138,2158441889,PHILADELPHIA,144,PROFIT,129861
PERSONAL CARE HOMES,BETHLEHEM MANOR,BETHLEHEM MANOR SENIOR LIVING LLC,"815 PENNSYLVANIA AVENUE,",BETHLEHEM,PA,18018,6108418888,LEHIGH,75,PROFIT,226840
PERSONAL CARE HOMES,BETHLEHEM MANOR MEMORY CARE,BETHLEHEM MANOR MEMORY CARE LLC,"310-316 EAST MARKET STREET,",BETHLEHEM,PA,18018,6109728888,NORTHAMPTON,60,PROFIT,229720
PERSONAL CARE HOMES,BEY'S PERSONAL CARE HOME,CALLAWE BEY,"8807 BRICELYN STREET,",PITTSBURGH,PA,15221,4123710992,ALLEGHENY,8,PROFIT,430913
PERSONAL CARE HOMES,BICKFORD OF PRESQUE ISLE BAY,BICKFORD OF ERIE LLC,"1012 WEST BAYFRONT PARKWAY,",ERIE,PA,16507,9137823200,ERIE,138,PROFIT,449200
PERSONAL CARE HOMES,BIRCHES AT ARBOUR SQUARE,CARE HSL HARLEYSVILLE OPCO LLC,"691 MAIN STREET,",HARLEYSVILLE,PA,19438,2155413700,MONTGOMERY,85,PROFIT,142660
PERSONAL CARE HOMES,BIRDSBORO LODGE,CHANGING TRENDS R E CORP,"6740 DANIEL BOONE ROAD,",BIRDSBORO,PA,19508,6105750851,BERKS,23,PROFIT,227030
PERSONAL CARE HOMES,BISHOP MORROW HOME,BISHOP MORROW PERSONAL CARE HOME INC,"118 PARK ROAD,",LEECHBURG,PA,15656,7248452828,ARMSTRONG,8,NON-PROFIT,426530
PERSONAL CARE HOMES,BLAIR PERSONAL CARE HOMES-HOME 1,BLAIR PERSONAL CARE HOMES INC,"1031 MERCER ROAD,",BEAVER FALLS,PA,15010,7248432209,BEAVER,17,PROFIT,447820
PERSONAL CARE HOMES,BLAIR PERSONAL CARE HOMES-HOME 2,BLAIR PERSONAL CARE HOMES INC,"1031 MERCER ROAD,",BEAVER FALLS,PA,15010,7248432209,BEAVER,15,PROFIT,447830
PERSONAL CARE HOMES,BLAIR PERSONAL CARE HOMES-HOME 3,BLAIR PERSONAL CARE HOMES INC,"1031 MERCER ROAD,",BEAVER FALLS,PA,15010,7248432209,BEAVER,15,PROFIT,447840
PERSONAL CARE HOMES,BLAIR PERSONAL CARE HOMES-HOME 4,"BLAIR PERSONAL CARE HOMES, INC.","1031 MERCER ROAD,",BEAVER FALLS,PA,15010,7248432209,BEAVER,15,PROFIT,447850
PERSONAL CARE HOMES,BLUE BELL PLACE,WATERMARK OPERATOR LLC,"777 DEKALB PIKE,",BLUE BELL,PA,19422,6102776443,MONTGOMERY,99,PROFIT,132800
PERSONAL CARE HOMES,BRANDYWINE LIVING AT HAVERFORD ESTATES,WELL BL OPCO LLC,"731 OLD BUCK LANE,",HAVERFORD,PA,19041,6105271800,DELAWARE,118,PROFIT,144330
PERSONAL CARE HOMES,BRANDYWINE LIVING AT LONGWOOD,WELL BL OPCO LLC,"301 VICTORIA GARDENS DRIVE,",KENNETT SQUARE,PA,19348,4847346200,CHESTER,92,PROFIT,144301
PERSONAL CARE HOMES,BRANDYWINE LIVING AT UPPER PROVIDENCE,WELL BL OPCO LLC,"1133 BLACK ROCK ROAD,",PHOENIXVILLE,PA,19460,6109333250,MONTGOMERY,132,PROFIT,144310
PERSONAL CARE HOMES,BRANDYWINE SENIOR LIVING AT DRESHER ESTATES,AB DRESHER OPERATOR LLC,"1405 NORTH LIMEKILN PIKE,",DRESHER,PA,19025,2155914000,MONTGOMERY,112,PROFIT,144240
PERSONAL CARE HOMES,BRANDYWINE SENIOR LIVING AT SENIOR SUITES,AB EAST NORRITON OPERATOR LLC,"2101 NEW HOPE STREET,",EAST NORRITON,PA,19401,6102726200,MONTGOMERY,245,PROFIT,144250
PERSONAL CARE HOMES,BRERETON MANOR,ALVARIUM PERSONAL CARE LLC,"3028 ANCHOR ROAD,",WASHINGTON BORO,PA,17582,7178722403,LANCASTER,35,NON-PROFIT,335150
PERSONAL CARE HOMES,BRETHREN VILLAGE - TERRACE CROSSING,BRETHREN VILLAGE,"3001 LITITZ PIKE,",LANCASTER,PA,17543,7175692657,LANCASTER,98,NON-PROFIT,328270
PERSONAL CARE HOMES,BRETHREN VILLAGE - VILLAGE MANOR,BRETHREN VILLAGE,"3001 LITITZ PIKE,",LITITZ,PA,17543,7175692657,LANCASTER,114,NON-PROFIT,321750
PERSONAL CARE HOMES,BRIARWOOD SENIOR LIVING,GOLDENCARE AT NEWFOUNDLAND LLC,"878 MAIN STREET,",NEWFOUNDLAND,PA,18445,5709557768,WAYNE,26,PROFIT,229710
PERSONAL CARE HOMES,BRIGHTVIEW DEVON,BRIGHTVIEW WAYNE LLC,"301 EAST CONESTOGA ROAD,",WAYNE,PA,19087,4845190097,CHESTER,95,PROFIT,144590
PERSONAL CARE HOMES,BRIGHTVIEW EAST NORRITON,BH BRIGHTVIEW EAST NORRITON OPCO LLC,"300 EAST GERMANTOWN PIKE,",EAST NORRITON,PA,19401,6102397700,MONTGOMERY,90,PROFIT,140750
PERSONAL CARE HOMES,BRISTOL HOUSE MEMORY CARE,BRISTOL HOUSE MEMORY CARE LLC,"2527 BRISTOL ROAD,",WARRINGTON,PA,18976,2154911501,BUCKS,48,PROFIT,144581
PERSONAL CARE HOMES,BROAD STREET RESIDENCE,SHELLEY R. SMITH,"5224-26 NORTH BROAD STREET,",PHILADELPHIA,PA,19141,2153242370,PHILADELPHIA,24,PROFIT,176360
PERSONAL CARE HOMES,BROOKDALE BLOOMSBURG,EMERITUS CORPORATION,"420 SHAFFER ROAD,",BLOOMSBURG,PA,17815,5703876868,COLUMBIA,67,PROFIT,211200
PERSONAL CARE HOMES,BROOKDALE DUBLIN,BROOKDALE SENIOR LIVING COMMUNITIES INC,"160 ELEPHANT ROAD,",DUBLIN,PA,18917,2152491700,BUCKS,26,PROFIT,127350
PERSONAL CARE HOMES,BROOKDALE GRANDON FARMS,EMERITUS CORPORATION,"1100 GRANDON WAY,",MECHANICSBURG,PA,17055,7177304033,CUMBERLAND,120,PROFIT,316120
PERSONAL CARE HOMES,BROOKDALE GRAYSON VIEW,EMERITUS CORPORATION,"29 GRAYSON VIEW COURT,",SELINSGROVE,PA,17870,5703742923,SNYDER,95,PROFIT,227930
PERSONAL CARE HOMES,BROOKDALE HARRISBURG,EMERITUS CORPORATION,"3560 NORTH PROGRESS AVENUE,",HARRISBURG,PA,17110,7176714700,DAUPHIN,65,PROFIT,316110
PERSONAL CARE HOMES,BROOKDALE LATROBE,EMERITUS CORPORATION,"500 BROWERS DRIVE,",LATROBE,PA,15650,7245375255,WESTMORELAND,150,PROFIT,428530
PERSONAL CARE HOMES,BROOKDALE MT. LEBANON,BROOKDALE LIVING COMMUNITIES OF PENNSYLVANIA-ML INC,"1050 MCNEILLY ROAD,",PITTSBURGH,PA,15226,4123432200,ALLEGHENY,80,PROFIT,432360
PERSONAL CARE HOMES,BROOKDALE MURRYSVILLE,BROOKDALE SENIOR LIVING COMMUNITIES INC,"5300 OLD WILLIAM PENN HIGHWAY,",EXPORT,PA,15632,7243273655,WESTMORELAND,42,PROFIT,428680
PERSONAL CARE HOMES,BROOKDALE NORTHAMPTON,BROOKDALE SENIOR LIVING COMMUNITIES INC,"65 RICHBORO-NEWTOWN ROAD,",RICHBORO,PA,18954,2153576565,BUCKS,120,PROFIT,127140
PERSONAL CARE HOMES,BROOKDALE PENN HILLS,BROOKDALE SENIOR LIVING COMMUNITIES INC,"7151 SALTSBURG ROAD,",PITTSBURGH,PA,15235,4127983400,ALLEGHENY,26,PROFIT,431590
PERSONAL CARE HOMES,BROOKLINE VILLAGE & COTTAGE SENIOR LIVING,BROOKLINE AT MIFFLINTOWN LLC,"92 VILLAGE DRIVE,",MIFFLINTOWN,PA,17059,7174369312,JUNIATA,28,PROFIT,302270
PERSONAL CARE HOMES,BROOKSIDE AT CROSS KEYS VILLAGE,THE BRETHREN HOME COMMUNITY,"225 VILLAGE DRIVE,",NEW OXFORD,PA,17350,7176245422,ADAMS,36,NON-PROFIT,333180
PERSONAL CARE HOMES,BROOKSIDE MANOR PERSONAL CARE HOME,SHARON L MAHAN,"1026 LINE ROAD,",PORTAGE,PA,15946,8147368505,CAMBRIA,16,PROFIT,363920
PERSONAL CARE HOMES,BROOKSIDE SENIOR LIVING,"BROOKSIDE ASSISTED LIVING, INC.","49 BROOKSIDE LANE,",BROOKVILLE,PA,15825,8148493924,JEFFERSON,50,PROFIT,411130
PERSONAL CARE HOMES,BROOKVIEW PERSONAL CARE CENTER,MENNO HAVEN INC,"2075 SCOTLAND AVENUE,",CHAMBERSBURG,PA,17201,7172612322,FRANKLIN,130,NON-PROFIT,336710
PERSONAL CARE HOMES,BUFFALO VALLEY PERSONAL CARE,DIAKON LUTHERAN SOCIAL MINISTRIES,"305 E TRESSLER BLVD,",LEWISBURG,PA,17837,5705244451,UNION,50,NON-PROFIT,202120
PERSONAL CARE HOMES,BUTLER STREET SENIOR LIVING,BUTLER STREET SENIOR LIVING LLC,"3251 BUTLER STREET,",HARRISBURG,PA,17103,5164961505,DAUPHIN,90,PROFIT,337031
PERSONAL CARE HOMES,BUTTONWOOD FARM,SPIRIT OF GHEEL,"14 BUTTONWOOD LANE,P.O.BOX 610,",KIMBERTON,PA,19442,6104957871,CHESTER,7,NON-PROFIT,107900
PERSONAL CARE HOMES,C A R E,ELIZABETH ROSE LOWRY,"109 WILLIAMS ROAD,",MAINESBURG,PA,16932,5705498100,TIOGA,18,PROFIT,203260
PERSONAL CARE HOMES,C L MANOR,CHERYL L. THOMAS,"P.O. BOX 237, 140 MAIN STREET,",MCGRANN,PA,16236,7247639960,ARMSTRONG,8,PROFIT,426800
PERSONAL CARE HOMES,C.A.T.C.H. PERSONAL CARE HOME,"C.A.T.C.H., INC.","521-23 SNYDER AVENUE,",PHILADELPHIA,PA,19148,2157550068,PHILADELPHIA,15,NON-PROFIT,172560
PERSONAL CARE HOMES,CALVARY FELLOWSHIP HOMES,CALVARY FELLOWSHIP HOMES INC,"502 ELIZABETH DRIVE,",LANCASTER,PA,17601,7173930711,LANCASTER,46,NON-PROFIT,321740
PERSONAL CARE HOMES,CAMBRIDGE CORRY,CAMBRIDGE CORRY LLC,"771 EAST COLUMBUS AVENUE,",CORRY,PA,16407,8146644691,ERIE,36,PROFIT,449270
PERSONAL CARE HOMES,CAMBRIDGE CREEKSIDE,CAMBRIDGE CREEKSIDE LLC,"1275 LINCOLN AVENUE,",CHARLEROI,PA,15022,7244891562,WASHINGTON,30,PROFIT,449470
PERSONAL CARE HOMES,CAMBRIDGE EBENSBURG,CAMBRIDGE EBENSBURG LLC,"4848 ADMIRAL PEARY HIGHWAY,",EBENSBURG,PA,15931,3024383755,CAMBRIA,64,PROFIT,335340
PERSONAL CARE HOMES,CAMBRIDGE FALLS,CAMBRIDGE FALLS LLC,"599 NORWOOD DRIVE,",WAMPUM,PA,16175,7243121277,BEAVER,70,PROFIT,450650
PERSONAL CARE HOMES,CAMBRIDGE HILLSIDE,CAMBRIDGE HILLSIDE LLC,"400 FOURTH STREET,",CHARLEROI,PA,15022,7244835818,WASHINGTON,44,PROFIT,449460
PERSONAL CARE HOMES,CAMBRIDGE POINTE,CAMBRIDGE POINTE LLC,"160 CHAPEL ROAD,",BEAVER,PA,15009,7247286257,BEAVER,30,PROFIT,450370
PERSONAL CARE HOMES,CAMBRIDGE RIVERVIEW,CAMBRIDGE RIVERVIEW LLC,"100 NARROWS ROAD,",LARKSVILLE,PA,18651,7243121277,LUZERNE,52,PROFIT,228800
PERSONAL CARE HOMES,CAMBRIDGE VILLAGE PERSONAL CARE HOME,CAMBRIDGE VILLAGE ASSOCIATES,"1600 DARLINGTON ROAD,",BEAVER FALLS,PA,15010,7248461400,BEAVER,100,PROFIT,401620
PERSONAL CARE HOMES,CAMBRIDGE WARREN L.L.C,CAMBRIDGE WARREN LLC,"706 PENNSYLVANIA AVENUE WEST,",WARREN,PA,16365,7243121277,WARREN,75,PROFIT,413410
PERSONAL CARE HOMES,CANTERBURY PLACE,CANTERBURY PLACE,"310 FISK STREET,",PITTSBURGH,PA,15201,4126229000,ALLEGHENY,78,NON-PROFIT,429490
PERSONAL CARE HOMES,CARELINK COMMUNITY SUPPORT SERVICES-TORREY HOUSE,CARELINK COMMUNITY SUPPORT SERVICES OF PENNSYLVANIA,"3520 DARBY ROAD,",HAVERFORD,PA,19041,6105277131,DELAWARE,17,NON-PROFIT,100070
PERSONAL CARE HOMES,CARITAS,HUMAN SERVICES CENTER,"2882 OLD PRINCETON ROAD,",NEW CASTLE,PA,16101,7249242892,LAWRENCE,11,NON-PROFIT,441330
PERSONAL CARE HOMES,CARMELLA'S HOUSE,IDELLE CORPORATION,"P.O. BOX 73, CEMETERY ROAD,",CRABTREE,PA,15624,7248374811,WESTMORELAND,8,PROFIT,428820
PERSONAL CARE HOMES,CARRIAGE COURTS,PRESBYTERIAN HOMES INC,"210 BIG SPRING ROAD,",NEWVILLE,PA,17241,7177768200,CUMBERLAND,64,NON-PROFIT,310220
PERSONAL CARE HOMES,CARRIAGE MANOR PERSONAL CARE HOME,CARRIAGE MANOR LLC,"3102 ELLWOOD ROAD,",NEWCASTLE,PA,16101,7246542466,LAWRENCE,48,PROFIT,447641
PERSONAL CARE HOMES,CATHEDRAL VILLAGE,CATHEDRAL VILLAGE,"600 E. CATHEDRAL ROAD,",PHILADELPHIA,PA,19128,2159848628,PHILADELPHIA,50,NON-PROFIT,129530
PERSONAL CARE HOMES,CEDAR MANOR,QUALITY CARING INC,"2593 BEN FRANKLIN HIGHWAY,",EDINBURG,PA,16116,7246548050,LAWRENCE,32,PROFIT,450500
PERSONAL CARE HOMES,CHAMBERS POINTE PERSONAL CARE CENTER,MENNO-HAVEN INC,"1425 PHILADELPHIA AVENUE,",CHAMBERSBURG,PA,17201,7172610220,FRANKLIN,133,NON-PROFIT,327690
PERSONAL CARE HOMES,"CHANDLER HALL HEALTH SERVICES, INC. - HICKS",CHANDLER HALL HEALTH SERVICES INC,"99 BARCLAY STREET,",NEWTOWN,PA,18940,2158604000,BUCKS,36,NON-PROFIT,129870
PERSONAL CARE HOMES,"CHANDLER HALL HEALTH SERVICES, INC. - JORDANS-PHELPS",CHANDLER HALL HEALTH SERVICES INC,"99 BARCLAY STREET,",NEWTOWN,PA,18940,2158604000,BUCKS,60,NON-PROFIT,129890
PERSONAL CARE HOMES,CHAPEL POINTE AT CARLISLE,"THE ALLIANCE HOME OF CARLISLE, PA, INC.","770 SOUTH HANOVER STREET,",CARLISLE,PA,17013,7172491363,CUMBERLAND,61,NON-PROFIT,343370
PERSONAL CARE HOMES,CHAPEL RIDGE,BRADFORD ECUMENICAL HOME INC,"200 ST. FRANCIS DRIVE,",BRADFORD,PA,16701,8143688499,MCKEAN,112,NON-PROFIT,426420
PERSONAL CARE HOMES,"CHELTEN CHRISTIAN CRUSADE FOR ALL PEOPLE, INC.",CHELTEN CHRISTIAN CRUSADE FOR ALL PEOPLE INC,"3635 NORTH 22ND STREET,",PHILADELPHIA,PA,19140,2152276423,PHILADELPHIA,14,NON-PROFIT,141670
PERSONAL CARE HOMES,CHELTEN CHRISTIAN CRUSADE II,CHELTEN CHRISTIAN CRUSADE FOR ALL PEOPLE INC,"4518 NORTH BROAD STREET,",PHILADELPHIA,PA,19141,2158496614,PHILADELPHIA,14,NON-PROFIT,123280
PERSONAL CARE HOMES,CHESTNUT KNOLL,GAHC3 BOYERTOWN PA ALF TRS SUB LLC,"120 WEST FIFTH STREET,",BOYERTOWN,PA,19512,6104738066,BERKS,119,PROFIT,226130
PERSONAL CARE HOMES,CHESTNUT MANOR,CHESTNUT MANOR LLC,"4926 CHESTNUT STREET,",PHILADELPHIA,PA,19139,2157476327,PHILADELPHIA,13,PROFIT,101880
PERSONAL CARE HOMES,CHESTNUT RIDGE RETIREMENT LIVING,VS WALLINGFORD LLC,"2700 CHESTNUT PARKWAY,",CHESTER,PA,19013,6104470710,DELAWARE,130,PROFIT,141410
PERSONAL CARE HOMES,CHRISSY'S COZY COUNTRY HOME,CHRISSY S COZY COUNTRY HOME LLC,"137 FAIRVIEW AVENUE,",CONFLUENCE,PA,15424,8143955121,SOMERSET,25,PROFIT,334292
PERSONAL CARE HOMES,CHRIST THE KING MANOR,CHRIST THE KING MANOR INC,"1100 WEST LONG AVENUE,",DUBOIS,PA,15801,8143713180,CLEARFIELD,60,NON-PROFIT,448640
PERSONAL CARE HOMES,CHRIST'S HOME RETIREMENT COMMUNITY,CHRIST'S HOME,"1 SHEPHERD'S WAY, SUITE 100,",WARMINSTER,PA,18974,2159562270,BUCKS,50,NON-PROFIT,139960
PERSONAL CARE HOMES,CHRISTAL CARE SERVICES,OBASI A CHUKWUNENYE,"4242-1B OLD YORK ROAD,",PHILADELPHIA,PA,19140,2154569007,PHILADELPHIA,30,PROFIT,137453
PERSONAL CARE HOMES,CHRISTIAN LIFE SERVICES,CHRISTIAN LIFE SERVICES INC,"3408 -10 NORTH 19TH STREET,",PHILADELPHIA,PA,19140,2152296158,PHILADELPHIA,44,NON-PROFIT,132790
PERSONAL CARE HOMES,"CHRISTIAN RESI. OPP. & SOCIAL SVCS. (C.R.O.S.S., INC.)","CHRISTIAN RESIDENTIAL OPPORTUNITIES & SOCIAL SERVICES, INC.","712 PINOLA ROAD,",SHIPPENSBURG,PA,17257,7175301788,FRANKLIN,8,NON-PROFIT,344260
PERSONAL CARE HOMES,CHURCH OF GOD HOME,"CHURCH OF GOD HOME, INC.","801 NORTH HANOVER STREET,",CARLISLE,PA,17013,7172495322,CUMBERLAND,64,NON-PROFIT,343610
PERSONAL CARE HOMES,CLARION SENIOR LIVING,GUARDIAN ELDER CARE AT CLARION LLC,"999 HEIDRICK STREET,",CLARION,PA,16214,8142266284,CLARION,40,PROFIT,447970
PERSONAL CARE HOMES,CLARISES PERSONAL CARE RESIDENCE,CLARISES PERSONAL CARE RESIDENCE INC,"514 EAST ROOSEVELT BOULEVARD,",PHILADELPHIA,PA,19120,2154578774,PHILADELPHIA,9,PROFIT,134090
PERSONAL CARE HOMES,CLARKE PERSONAL CARE HOME,MARJORIE CARASQUERO,"4701 NORTH 13TH STREET,",PHILADELPHIA,PA,19141,2154553080,PHILADELPHIA,12,PROFIT,114060
PERSONAL CARE HOMES,CLARKS SUMMIT SENIOR LIVING,SNH PENN TENANT LLC,"950 MORGAN HIGHWAY,",CLARKS SUMMIT,PA,18411,5705868080,LACKAWANNA,120,PROFIT,228210
PERSONAL CARE HOMES,CLEN-MOORE PLACE,GREER AID OPCO LLC,"22 WEST CLEN MOORE BOULEVARD,",NEW CASTLE,PA,16105,7246560132,LAWRENCE,47,PROFIT,444930
PERSONAL CARE HOMES,CLOSE TO HOME,LINDA L STULL,"P.O. BOX 46, 724 LINCOLN STREET",BOLIVAR,PA,15923,7246760405,WESTMORELAND,8,PROFIT,428550
PERSONAL CARE HOMES,CLOVERDALE PERSONAL CARE HOME,CAROL A. ASSAD AND ANDREW ASSAD,"206 WESTWOOD AVENUE,",MASONTOWN,PA,15461,7245830620,FAYETTE,24,PROFIT,438900
PERSONAL CARE HOMES,COCALICO CHRISTIAN HOME,WEAVERLAND MENNONITE HOMES,"316 NORTH FIFTH STREET,",DENVER,PA,17517,7173361788,LANCASTER,15,NON-PROFIT,322060
PERSONAL CARE HOMES,COLE MANOR,HENDORN INC,"101 MAPLE STREET,",COUDERSPORT,PA,16915,8142747677,POTTER,30,NON-PROFIT,242630
PERSONAL CARE HOMES,COLONIAL COURTYARD AT BEDFORD,TITHONUS BEDFORD LP,"220 DONAHUE MANOR ROAD,",BEDFORD,PA,15522,8146240100,BEDFORD,83,PROFIT,329480
PERSONAL CARE HOMES,COLONIAL COURTYARD AT TYRONE,TITHONUS TYRONE LP,"5546 EAST PLEASANT VALLEY BLVD,",TYRONE,PA,16686,8146865970,BLAIR,70,PROFIT,329490
PERSONAL CARE HOMES,COLONIAL GARDENS GUEST HOUSE,R LYNN AND LINDA MUELLER,"121 STEPPLAND ROAD,",BUTLER,PA,16002,7245865121,BUTLER,35,PROFIT,445700
PERSONAL CARE HOMES,COLONIAL WOODS,WHEELER CARE CENTERS INC,"1710 CREEK ROAD,",GLENMORE,PA,19343,6109424242,CHESTER,31,PROFIT,198230
PERSONAL CARE HOMES,COMFORTS OF HOME,THOMAS SMITH,"1619 LISTONBURG ROAD,",CONFLUENCE,PA,15424,8143955812,SOMERSET,18,PROFIT,331130
PERSONAL CARE HOMES,COMMONWEALTH SENIOR LIVING AT HARRISBURG,IVQ HARRISBURG OPCO LP,"150 KEMPTON AVENUE,",HARRISBURG,PA,17111,7175587771,DAUPHIN,96,PROFIT,335050
PERSONAL CARE HOMES,COMMONWEALTH SENIOR LIVING AT WILLOW GROVE,MCAP WILLOW GROVE OPERATOR LLC,"1120 YORK ROAD,",WILLOW GROVE,PA,19090,2158300433,MONTGOMERY,122,PROFIT,139940
PERSONAL CARE HOMES,COMMUNITY RESIDENTIAL UNIT,WILKES-BARRE COMMUNITY RESIDENTIAL UNIT LLC,"320 SOUTH FRANKLIN STREET,",WILKES-BARRE,PA,18702,5708294926,LUZERNE,8,PROFIT,221790
PERSONAL CARE HOMES,COMMUNITY SERVICES GROUP,COMMUNITY SERVICES GROUP INC,"532 W. SAYLOR STREET,",ATLAS,PA,17851,5703392360,NORTHUMBERLAND,20,PROFIT,208130
PERSONAL CARE HOMES,COMMUNITY SERVICES GROUP PERSONAL CARE HOME,COMMUNITY SERVICES GROUP INC,"176 SR 901,",COAL TOWNSHIP,PA,17866,7172857121,NORTHUMBERLAND,16,PROFIT,226690
PERSONAL CARE HOMES,CONCORDIA AT REBECCA RESIDENCE,REBECCA RESIDENCE,"3746 CEDAR RIDGE ROAD,",ALLISON PARK,PA,15101,7244440600,ALLEGHENY,65,NON-PROFIT,430070
PERSONAL CARE HOMES,CONCORDIA AT RIDGEWOOD PLACE,CONCORDIA LUTHERAN HEALTH & HUMAN CARE,"1460 RENTON ROAD,",PITTSBURGH,PA,15239,4127981855,ALLEGHENY,75,NON-PROFIT,430040
PERSONAL CARE HOMES,CONCORDIA AT THE CEDARS,CONCORDIA LUTHERAN MINISTRIES OF PITTSBURGH,"4363 NORTHERN PIKE,",MONROEVILLE,PA,15146,4123733900,ALLEGHENY,87,NON-PROFIT,446240
PERSONAL CARE HOMES,CONCORDIA AT THE ORCHARD,CONCORDIA LUTHERAN HEALTH & HUMAN CARE,"104 CONCORDIA WAY,",BUTLER,PA,16001,7242854490,BUTLER,60,NON-PROFIT,425060
PERSONAL CARE HOMES,CONCORDIA LUTHERAN HEALTH AND HUMAN CARE - LUND BUILDING,CONCORDIA LUTHERAN HEALTH AND HUMAN CARE,"134 MARWOOD ROAD,",CABOT,PA,16023,7243521571,BUTLER,220,NON-PROFIT,447620
PERSONAL CARE HOMES,CONCORDIA LUTHERAN MINISTRIES - OERTEL BUILDING,CONCORDIA LUTHERAN HEALTH AND HUMAN CARE,"615 NORTH PIKE ROAD,",CABOT,PA,16023,7243521571,BUTLER,60,NON-PROFIT,424070
PERSONAL CARE HOMES,CONCORDIA OF CRANBERRY,CONCORDIA LUTHERAN MINISTRIES OF PITTSBURGH,"10 ADAMS RIDGE BOULEVARD,",MARS,PA,16046,7247794300,BUTLER,84,NON-PROFIT,442580
PERSONAL CARE HOMES,CONCORDIA OF FOX CHAPEL,CONCORDIA LUTHERAN MINISTRIES OF PITTSBURGH,"931 ROUTE 910,",CHESWICK,PA,15024,4127675808,ALLEGHENY,61,NON-PROFIT,442470
PERSONAL CARE HOMES,CONCORDIA OF FRANKLIN PARK,CONCORDIA LUTHERAN MINISTRIES OF PITTSBURGH,"1600 GEORGETOWN DRIVE,",SEWICKLEY,PA,15143,7249351075,ALLEGHENY,100,NON-PROFIT,443630
PERSONAL CARE HOMES,CONCORDIA OF THE SOUTH HILLS,CONCORDIA LUTHERAN MINISTRIES OF PITTSBURGH,"1300 BOWER HILL ROAD,",MT. LEBANON,PA,15243,4122781300,ALLEGHENY,70,NON-PROFIT,441450
PERSONAL CARE HOMES,CONCORDIA OF WEXFORD,CONCORDIA LUTHERAN MINISTRIES OF PITTSBURGH,"125 BROWN ROAD,",WEXFORD,PA,15090,7249351266,ALLEGHENY,56,NON-PROFIT,443620
PERSONAL CARE HOMES,CONYNGHAM CARE CENTER,NORTHEAST COUNSELING SERVICES,"63 S.HUNTER HIGHWAY,PO BOX 473,",DRUMS,PA,18222,5707357590,LUZERNE,20,NON-PROFIT,221750
PERSONAL CARE HOMES,CORNERSTONE LIVING,CORNERSTONE LIVING MANAGEMENT LLC,"4605 WERLEYS CORNER ROAD,",NEW TRIPOLI,PA,18066,6102983300,LEHIGH,40,PROFIT,227910
PERSONAL CARE HOMES,CORNERSTONE OF CLAYSBURG,CORNERSTONE OF CLAYSBURG LLC,"969 BEDFORD STREET,",CLAYSBURG,PA,16625,8143175121,BLAIR,24,PROFIT,333270
PERSONAL CARE HOMES,CORNWALL MANOR,CORNWALL MANOR,"P.O. BOX 125,",CORNWALL,PA,17016,7172732647,LEBANON,35,NON-PROFIT,342880
PERSONAL CARE HOMES,COUNTRY ACRES PERSONAL CARE HOME,COUNTRY ACRES PERSONAL CARE HOME INC,"2017 MEADVILLE ROAD,",TITUSVILLE,PA,16354,8148273708,VENANGO,33,PROFIT,411770
PERSONAL CARE HOMES,"COUNTRY COMFORT ALTERNATIVE LIVING, INC.",COUNTRY COMFORT ALTERNATIVE LIVING INC,"10546 RIVER ROAD,",NEW COLUMBIA,PA,17856,5705681090,UNION,20,PROFIT,202050
PERSONAL CARE HOMES,COUNTRY MANOR,COUNTRY MANOR PCH LP,"111 ALTMEYER DRIVE,",KITTANNING,PA,16201,7245457434,ARMSTRONG,50,PROFIT,446290
PERSONAL CARE HOMES,COUNTRY MANOR LIVING,COUNTRY MANOR LIVING INC,"170 PHILLIPS ST., PO BOX 430,",JEROME,PA,15937,8144792355,SOMERSET,62,PROFIT,321440
PERSONAL CARE HOMES,COUNTRY MEADOWS OF ALLENTOWN,COUNTRY MEADOWS OF ALLENTOWN LLC,"430 NORTH KROCKS ROAD,",ALLENTOWN,PA,18106,6103956521,LEHIGH,118,PROFIT,226930
PERSONAL CARE HOMES,COUNTRY MEADOWS OF ALLENTOWN,COUNTRY MEADOWS OF ALLENTOWN LLC,"420 NORTH KROCKS ROAD,",ALLENTOWN,PA,18106,6103956521,LEHIGH,100,PROFIT,226940
PERSONAL CARE HOMES,COUNTRY MEADOWS OF BETHLEHEM,COUNTRY MEADOWS OF NORTHAMPTON ASSOCIATES LP,"4011 GREEN POND ROAD,",BETHLEHEM,PA,18020,6106916600,NORTHAMPTON,140,PROFIT,219300
PERSONAL CARE HOMES,COUNTRY MEADOWS OF BETHLEHEM III,COUNTRY MEADOWS OF NORTHAMPTON ASSOCIATES LP,"4007 GREEN POND ROAD,",BETHLEHEM,PA,18020,6106915454,NORTHAMPTON,100,PROFIT,232880
PERSONAL CARE HOMES,COUNTRY MEADOWS OF BETHLEHEM V,COUNTRY MEADOWS OF NORTHAMPTON ASSOCIATES LP,"4025 GREEN POND ROAD,",BETHLEHEM,PA,18020,6108824110,NORTHAMPTON,126,PROFIT,200750
PERSONAL CARE HOMES,COUNTRY MEADOWS OF HERSHEY,COUNTRY MEADOWS OF HERSHEY ASSOCIATES,"451 SAND HILL ROAD,",HERSHEY,PA,17033,7175336996,DAUPHIN,190,PROFIT,342830
PERSONAL CARE HOMES,COUNTRY MEADOWS OF LEADER HEIGHTS,COUNTRY MEADOWS ASSOCIATES,"2760 PINE GROVE ROAD,",YORK,PA,17403,7177415118,YORK,215,PROFIT,350800
PERSONAL CARE HOMES,COUNTRY MEADOWS OF SOUTH HILLS I,COUNTRY MEADOWS ASSOCIATES,"3560 WASHINGTON PIKE,",BRIDGEVILLE,PA,15017,4122572855,ALLEGHENY,100,PROFIT,430660
PERSONAL CARE HOMES,COUNTRY MEADOWS OF SOUTH HILLS II,COUNTRY MEADOWS ASSOCIATES,"3570 WASHINGTON PIKE,",BRIDGEVILLE,PA,15017,4122574566,ALLEGHENY,200,PROFIT,430810
PERSONAL CARE HOMES,COUNTRY MEADOWS OF WEST SHORE,COUNTRY MEADOWS OF WEST SHORE LLC,"4837 EAST TRINDLE ROAD,",MECHANICSBURG,PA,17050,7179753434,CUMBERLAND,180,PROFIT,333520
PERSONAL CARE HOMES,COUNTRY MEADOWS OF WEST SHORE,COUNTRY MEADOWS OF WEST SHORE LLC,"4905 EAST TRINDLE ROAD,",MECHANICSBURG,PA,17050,7179753434,CUMBERLAND,180,PROFIT,333530
PERSONAL CARE HOMES,COUNTRY MEADOWS OF WYOMISSING I,COUNTRY MEADOWS ASSOCIATES,"1800 TULPEHOCKEN ROAD,",WYOMISSING,PA,19610,6103740300,BERKS,80,PROFIT,205010
PERSONAL CARE HOMES,COUNTRY MEADOWS OF WYOMISSING II,COUNTRY MEADOWS ASSOCIATES,"1802 TULPEHOCKEN ROAD,",WYOMISSING,PA,19610,6103749966,BERKS,166,PROFIT,205040
PERSONAL CARE HOMES,COUNTRY MEADOWS OF YORK,COUNTRY MEADOWS OF YORK LLC,"1920 TROLLEY ROAD,",YORK,PA,17408,7177641190,YORK,215,PROFIT,333540
PERSONAL CARE HOMES,COUNTRY SPRINGS,CLARVIEW REST HOME INC,"14691 ROUTE 68,",SLIGO,PA,16255,8147453276,CLARION,48,NON-PROFIT,471890
PERSONAL CARE HOMES,COUNTRY TERRACE,BROAD ACRES NURSING HOME ASSOCIATION,"1919 SHUMWAY HILL ROAD,",WELLSBORO,PA,16901,5707245683,TIOGA,60,NON-PROFIT,235010
PERSONAL CARE HOMES,COUNTRY VIEW MANOR,CVM PERSONAL CARE INC,"12 FRIENDLY DRIVE,",QUARRYVILLE,PA,17566,7172843350,LANCASTER,24,PROFIT,334270
PERSONAL CARE HOMES,COUNTRYSIDE PERSONAL CARE HOME,RUSTIC PROPERTY HOLDINGS LLC,"1841 STOYSTOWN ROAD,",FRIEDENS,PA,15541,8144441722,SOMERSET,35,PROFIT,335270
PERSONAL CARE HOMES,CREEK MEADOWS,SENIOR CARE CONSULTANT SERVICES LLC,"1630 ELLWOOD CITY ROAD,",ZELIENOPLE,PA,16063,7244527378,BEAVER,23,PROFIT,446372
PERSONAL CARE HOMES,CRESCENT VIEW PERSONAL CARE,ODD FELLOWS HOME OF PENNSYLVANIA INC,"999 WEST HARRISBURG PIKE,",MIDDLETOWN,PA,17057,7179443351,DAUPHIN,64,NON-PROFIT,343360
PERSONAL CARE HOMES,CROSBY'S BOARDING HOME,JOHN CROSBY,"371 PRINDLE STREET,",SHARON,PA,16146,7243461449,MERCER,8,PROFIT,437761
PERSONAL CARE HOMES,CROSS KEYS VILLAGE - THE BRETHREN HOME COMMUNITY,THE BRETHREN HOME COMMUNITY INC,"2990 CARLISLE PIKE,",NEW OXFORD,PA,17350,7176245286,ADAMS,104,NON-PROFIT,342870
PERSONAL CARE HOMES,CROSSLANDS,"KENDAL-CROSSLANDS COMMUNITIES, INC.","1660 EAST STREET ROAD,",KENNETT SQUARE,PA,19348,6103881441,CHESTER,51,NON-PROFIT,100980
PERSONAL CARE HOMES,CRYSTAL WATERS,"CRYSTAL WATERS, INC.","4639 ROUTE 119,HWY NORTH,",HOME,PA,15747,7244656454,INDIANA,66,PROFIT,427650
PERSONAL CARE HOMES,CUMBERLAND CROSSINGS RETIREMENT COMMUNITY,DIAKON LUTHERAN SOCIAL MINISTRIES,"1 LONGSDORF WAY, A,B & C WINGS,",CARLISLE,PA,17015,7172459941,CUMBERLAND,59,NON-PROFIT,317310
PERSONAL CARE HOMES,CUMBERLAND VISTA,"C.R.O.S.S.,INC.","1073 YORK ROAD,",DILLSBURG,PA,17019,7174322822,CUMBERLAND,8,NON-PROFIT,310280
PERSONAL CARE HOMES,DAVENPORT HALL,KAREN ADAMS DAVENPORT,"321 WASHINGTON AVENUE,",CHARLEROI,PA,15022,7244837029,WASHINGTON,32,PROFIT,442340
PERSONAL CARE HOMES,DAVIS BOARDING HOME I,CATHERINE DAVIS,"723 BARCLAY STREET,",CHESTER,PA,19013,6108767033,DELAWARE,8,PROFIT,140460
PERSONAL CARE HOMES,DAVIS' COUNTRY CARE PERSONAL CARE HOME,ANGELA R. DAVIS,"169 HOOVER ROAD,",TEMPLETON,PA,16259,7245456436,ARMSTRONG,8,PROFIT,427010
PERSONAL CARE HOMES,DAVIS' PERSONAL CARE HOME II,"DAVIS' PERSONAL CARE HOME II, INC","1128 WEST THIRD STREET,",CHESTER,PA,19013,6108741993,DELAWARE,16,PROFIT,141430
PERSONAL CARE HOMES,DAY'S PERSONAL CARE HOME,DAY'S PERSONAL CARE HOME INC,"18 NORMAN AVENUE,",WASHINGTON,PA,15301,7242060885,WASHINGTON,8,PROFIT,419120
PERSONAL CARE HOMES,DAYLESFORD CROSSING,BERWYN REAL ESTATE LP,"1450 EAST LANCASTER AVENUE,",PAOLI,PA,19301,6106404000,CHESTER,100,PROFIT,141540
PERSONAL CARE HOMES,DAYSPRING PERSONAL CARE HOME,ROPER & MARCIA HOUSTON,"93 DAYSPRING LANE,",MORRISDALE,PA,16858,8143456590,CLEARFIELD,13,PROFIT,448650
PERSONAL CARE HOMES,DEER MEADOWS RESIDENCES,DEER MEADOWS OPERATING II LLC,"8301 ROOSEVELT BOULEVARD,",PHILADELPHIA,PA,19152,2156247575,PHILADELPHIA,182,PROFIT,141260
PERSONAL CARE HOMES,DELAWARE VALLEY PERSONAL CARE CENTER,DELAWARE VALLEY PERSONAL CARE OPERATING COMPANY LLC,"109 RIVERS EDGE DRIVE,",MATAMORES,PA,18336,5704911002,PIKE,100,PROFIT,230130
PERSONAL CARE HOMES,DENEANE'S PERSONAL CARE HOME,DENEANE SMITH,"142 FAIRVIEW AVENUE,",CONFLUENCE,PA,15424,8143953159,SOMERSET,18,PROFIT,321520
PERSONAL CARE HOMES,DEVEREUX PA ADULT SERVICES PCH - HILLCREST COTTAGE,DEVEREUX FOUNDATION INC,"229 LEOPARD ROAD,",BERWYN,PA,19312,6102966800,CHESTER,21,NON-PROFIT,198140
PERSONAL CARE HOMES,DEVEREUX PA ADULT SERVICES PCH - HILLTOP COTTAGE,DEVEREUX FOUNDATION INC,"237 LEOPARD ROAD,",BERWYN,PA,19312,6102966800,CHESTER,18,NON-PROFIT,198190
PERSONAL CARE HOMES,"DEVEREUX POCONO CENTER, DREHER MANOR","DEVEREUX FOUNDATION, INC.","1547 MILL CREEK ROAD,",NEWFOUNDLAND,PA,18445,5708396186,WAYNE,24,NON-PROFIT,235260
PERSONAL CARE HOMES,DEVINE INN,DEVINE INN INC,"120 GRANT STREET, P.O.BOX 8,",SALISBURY,PA,15558,8146624502,SOMERSET,24,PROFIT,321550
PERSONAL CARE HOMES,DEVONHOUSE OF ALLENTOWN,DEVONHOUSE MANAGEMENT INC,"1930 BEVIN DRIVE,",ALLENTOWN,PA,18103,6109671100,LEHIGH,100,PROFIT,216530
PERSONAL CARE HOMES,DIVINITY MANOR,DIVINITY MANOR LLC,"932-34 NORTH 42ND STREET,",PHILADELPHIA,PA,19104,2152223035,PHILADELPHIA,30,PROFIT,138740
PERSONAL CARE HOMES,DONAHUE & WOLFORD'S CALIFORNIA MANOR,"ROMONA & KEVIN DONAHUE, KELLY & JOHN WOLFORD","3527 CALIFORNIA AVENUE,",PITTSBURGH,PA,15212,4127666508,ALLEGHENY,17,PROFIT,432530
PERSONAL CARE HOMES,DONAHUE'S PERSONAL CARE I,KEVIN & ROMONA DONAHUE,"1610 HYBLA STREET,",PITTSBURGH,PA,15212,4127616421,ALLEGHENY,17,PROFIT,430341
PERSONAL CARE HOMES,DOROTHY M. TARTAGLIO HOME,UPMC BEHAVIORAL HEALTH OF THE ALLEGHENIES,"1911 TWELFTH AVENUE,",ALTOONA,PA,16601,8149430414,BLAIR,13,NON-PROFIT,360310
PERSONAL CARE HOMES,DOWN ON THE FARM ADULT DAYCARE,COLONIAL MANOR ADULT HOME INC,"2308 EAST MAIN STREET,",DOUGLASSVILLE,PA,19518,6103856175,BERKS,20,PROFIT,204970
PERSONAL CARE HOMES,DREAMCATCHERS PERSONAL CARE HOME,TERRI L GELZHISER,"1 COLD SPRING ROAD,",PITTSBURGH,PA,15237,4125121763,ALLEGHENY,14,PROFIT,449992
PERSONAL CARE HOMES,DUBOIS VILLAGE,DUBOIS CONTINUUM OF CARE COMMUNITY INC,"282 SOUTH EIGHTH STREET,",DUBOIS,PA,15801,8143755483,CLEARFIELD,118,NON-PROFIT,448670
PERSONAL CARE HOMES,DUNLEVY MANOR,TLC HEALTHCARE LLC,"2218 ROUTE 88,",DUNLEVY,PA,15432,7243265611,WASHINGTON,24,PROFIT,447542
PERSONAL CARE HOMES,DUNWOODY VILLAGE,DUNWOODY VILLAGE INC,"3500 WEST CHESTER PIKE,",NEWTOWN SQUARE,PA,19073,6103594400,DELAWARE,81,NON-PROFIT,145250
PERSONAL CARE HOMES,EAGLE RIDGE PERSONAL CARE HOME,EAGLE RIDGE PERSONAL CARE HOME LLC,"2997 RENOVO ROAD,",MILL HALL,PA,17751,5707483162,CLINTON,27,PROFIT,227130
PERSONAL CARE HOMES,EAGLE VALLEY PERSONAL CARE HOME,EAGLE VALLEY PERSONAL CARE HOME INC,"500 FRONT STREET,",MILESBURG,PA,16853,8143553417,CENTRE,60,PROFIT,227430
PERSONAL CARE HOMES,EAGLE VIEW PERSONAL CARE HOME,EAGLE VIEW PERSONAL CARE HOME LLC,"150 JACK PINE LANE,",BELLEFONTE,PA,16823,8142803995,CENTRE,4,PROFIT,232430
PERSONAL CARE HOMES,EAGLEVIEW LANDING,EAGLEVIEW LANDING LP,"650 STOCKTON DRIVE,",EXTON,PA,19341,6104582588,CHESTER,121,PROFIT,146980
PERSONAL CARE HOMES,EAST DEER PERSONAL CARE HOME,EAST DEER PERSONAL CARE HOME INC,"967 FREEPORT ROAD,",CREIGHTON,PA,15030,7242249997,ALLEGHENY,60,PROFIT,430780
PERSONAL CARE HOMES,EASTERN COMFORT I,EASTERN COMFORT I INC,"2040 NORTHAMPTON ST.,",EASTON,PA,18042,6109233630,NORTHAMPTON,16,PROFIT,205490
PERSONAL CARE HOMES,EASTERN COMFORT II,EASTERN COMFORT II INC,1493 EAST EMMAUS AVE.,ALLENTOWN,PA,18102,6103517361,LEHIGH,8,PROFIT,216700
PERSONAL CARE HOMES,EASTERN COMFORT III,EASTERN COMFORT III INC,"206 DIAMOND STREET,",SLATINGTON,PA,18018,6109004074,LEHIGH,20,PROFIT,216770
PERSONAL CARE HOMES,EASTON HOME,"PRESBYTERIAN HOMES, INC.","1022 NORTHAMPTON STREET,",EASTON,PA,18042,6102505000,NORTHAMPTON,61,NON-PROFIT,200550
PERSONAL CARE HOMES,EASY LIVING COUNTRY ESTATES,DS REALTY VENTURES LLC,"ONE EASY LIVING DRIVE,",HUNKER,PA,15639,7249251159,WESTMORELAND,60,PROFIT,442630
PERSONAL CARE HOMES,ECUMENICAL COMMUNITY OF HARRISBURG,ECUMENICAL COMMUNITIES INC,"624 WILHELM ROAD,",HARRISBURG,PA,17111,7175619915,DAUPHIN,88,NON-PROFIT,353610
PERSONAL CARE HOMES,ECUMENICAL RETIREMENT COMMUNITY OF HARRISBURG II,"THE ECUMENICAL COMMUNITIES, INC.","601 WILHELM ROAD,",HARRISBURG,PA,17111,7175619982,DAUPHIN,104,NON-PROFIT,362150
PERSONAL CARE HOMES,ECUMENICAL RETIREMENT COMMUNITY OF HARRISBURG III,THE ECUMENICAL COMMUNITY,"3525 CANBY STREET,",HARRISBURG,PA,17109,7175612590,DAUPHIN,136,NON-PROFIT,310210
PERSONAL CARE HOMES,EDGEWOOD HEIGHTS,WRC PENNSYLVANIA MEMORIAL HOME,"612 KECK AVENUE,",NEW BETHLEHEM,PA,16242,8142752790,CLARION,71,NON-PROFIT,440970
PERSONAL CARE HOMES,EICHER'S FAMILY HOME CARE,CONNIE S EICHER,"704 CAMP ACHIEVEMENT ROAD,",NORMALVILLE,PA,15469,7244553612,FAYETTE,42,PROFIT,446740
PERSONAL CARE HOMES,ELAN GARDENS,ELAN GARDENS INC,"465 VENARD ROAD,",CLARKS SUMMIT,PA,18411,5705854400,LACKAWANNA,75,NON-PROFIT,243750
PERSONAL CARE HOMES,ELIZABETH SETON MEMORY CARE CENTER,ELIZABETH SETON CARE CENTER,"129 DEPAUL CENTER ROAD,",GREENSBURG,PA,15601,7248537948,WESTMORELAND,24,NON-PROFIT,445770
PERSONAL CARE HOMES,ELIZABETHTOWN PERSONAL CARE,ELIZABETHTOWN OPCO LLC,"141 HEISEY AVENUE,",ELIZABETHTOWN,PA,17022,7173671831,LANCASTER,39,PROFIT,336940
PERSONAL CARE HOMES,ELM TERRACE GARDENS,ELM TERRACE GARDENS,"660 N. BROAD ST., 3RD & 4TH FL,",LANSDALE,PA,19446,2153615600,MONTGOMERY,250,NON-PROFIT,127830
PERSONAL CARE HOMES,ELMCROFT OF ALLISON PARK,EC OPCO ALLISON PARK LLC,"2224 WALTERS ROAD,",ALLISON PARK,PA,15101,4124876925,ALLEGHENY,95,PROFIT,449000
PERSONAL CARE HOMES,ELMCROFT OF ALTOONA,EC OPCO ALTOONA LLC,"170 RED FOX DRIVE,",DUNCANSVILLE,PA,16635,8146958425,BLAIR,66,PROFIT,333730
PERSONAL CARE HOMES,ELMCROFT OF BERWICK,EC OPCO BERWICK LLC,"2050 WEST FRONT STREET,",BERWICK,PA,18603,5707593155,COLUMBIA,76,PROFIT,227170
PERSONAL CARE HOMES,ELMCROFT OF BRIDGEVILLE,EC OPCO LAKEMONT FARMS LLC,"3275 WASHINGTON PIKE,",BRIDGEVILLE,PA,15017,4122210202,ALLEGHENY,140,PROFIT,450810
PERSONAL CARE HOMES,ELMCROFT OF CHIPPEWA,EC OPCO CHIPPEWA LLC,"104 PAPPAN BUSINESS DRIVE,",BEAVER FALLS,PA,15010,7248913333,BEAVER,85,PROFIT,449010
PERSONAL CARE HOMES,ELMCROFT OF DILLSBURG,EC OPCO DILLSBURG LLC,"153 LOGAN ROAD,",DILLSBURG,PA,17019,7175021000,YORK,80,PROFIT,333790
PERSONAL CARE HOMES,ELMCROFT OF LEBANON,EC OPCO LEBANON PA LLC,"860 NORMAN DRIVE,",LEBANON,PA,17042,7172280909,LEBANON,65,PROFIT,333760
PERSONAL CARE HOMES,ELMCROFT OF LEWISBURG,EC OPCO LEWISBURG LLC,"2421 OLD TURNPIKE ROAD,",LEWISBURG,PA,17837,5705247999,UNION,73,PROFIT,227200
PERSONAL CARE HOMES,ELMCROFT OF LOYALSOCK,EC OPCO LOYALSOCK LLC,"2985 FOUR MILE DRIVE,",MONTOURSVILLE,PA,17754,5703682076,LYCOMING,90,PROFIT,227190
PERSONAL CARE HOMES,ELMCROFT OF MID VALLEY,EC OPCO MID VALLEY LLC,"89 STURGES ROAD, PO BOX 116,",PECKVILLE,PA,18452,5703839090,LACKAWANNA,50,PROFIT,227180
PERSONAL CARE HOMES,ELMCROFT OF READING,EC OPCO READING LLC,"9 COLIN COURT,",READING,PA,19606,6103702211,BERKS,70,PROFIT,227160
PERSONAL CARE HOMES,ELMCROFT OF REEDSVILLE,EC OPCO REEDSVILLE LLC,"55 CARRIAGE HOUSE LANE,",REEDSVILLE,PA,17084,7176679380,MIFFLIN,72,PROFIT,333780
PERSONAL CARE HOMES,ELMCROFT OF SHIPPENSBURG,EC OPCO SHIPPENSBURG LLC,"129 WALNUT BOTTOM ROAD,",SHIPPENSBURG,PA,17257,7175301400,CUMBERLAND,62,PROFIT,333750
PERSONAL CARE HOMES,ELMCROFT OF STATE COLLEGE,EC OPCO SC LLC,"150 FARMSTEAD LANE,",STATE COLLEGE,PA,16803,8142357675,CENTRE,60,PROFIT,233740
PERSONAL CARE HOMES,ELMCROFT OF YORK,EC OPCO YORK LLC,"2405 KNOB HILL ROAD,",YORK,PA,17403,7178129777,YORK,75,PROFIT,334980
PERSONAL CARE HOMES,ELMWOOD GARDENS OF PRESBYTERIAN SENIOR CARE,THE PRESBYTERIAN HOMES IN THE PRESBY OF LAKE ERIE,"2628 ELMWOOD AVENUE,",ERIE,PA,16508,8149201220,ERIE,35,NON-PROFIT,447650
PERSONAL CARE HOMES,ELWYN - FRIENDSHIP HALL,ELWYN OF PENNSYLVANIA AND DELAWARE,"64 EAST OLD BALTIMORE PIKE,",ELWYN,PA,19063,6106270925,DELAWARE,8,NON-PROFIT,122890
PERSONAL CARE HOMES,ELWYN - HARMONY HALL,ELWYN OF PENNSYLVANIA AND DELAWARE,"111 ELWYN ROAD,",ELWYN,PA,19063,6108917683,DELAWARE,16,NON-PROFIT,190850
PERSONAL CARE HOMES,ELWYN - RAINBOW HOUSE,ELWYN OF PENNSYLVANIA AND DELAWARE,"66 EAST OLD BALTIMORE PIKE,",ELWYN,PA,19063,6105658026,DELAWARE,6,NON-PROFIT,122670
PERSONAL CARE HOMES,ELWYN - SPRING HAVEN,ELWYN OF PENNSYLVANIA AND DELAWARE,"111 ELWYN ROAD,",ELWYN,PA,19063,6108912350,DELAWARE,8,NON-PROFIT,123040
PERSONAL CARE HOMES,ELWYN - WHITEHOUSE,ELWYN OF PENNSYLVANIA AND DELAWARE,"111 ELWYN ROAD,",ELWYN,PA,19603,6108912450,DELAWARE,5,NON-PROFIT,122980
PERSONAL CARE HOMES,EMERALD REHAB AND HEALTHCARE CENTER,EMERALD OPERATOR LLC,"320 MARKET STREET,",ELIZABETHTOWN,PA,17022,9086211184,LANCASTER,26,PROFIT,337080
PERSONAL CARE HOMES,EMMANUEL HOME,EMMANUEL HOME,"800 PRIESTLY AVENUE,",NORTHUMBERLAND,PA,17857,5704730500,NORTHUMBERLAND,38,NON-PROFIT,200530
PERSONAL CARE HOMES,ENHANCED PERSONAL CARE HOME,STAIRWAYS BEHAVIORAL HEALTH,"118 EAST 26TH STREET,",ERIE,PA,16504,8143153703,ERIE,8,NON-PROFIT,446460
PERSONAL CARE HOMES,ENHANCED PERSONAL CARE HOME,STAIRWAYS BEHAVIORAL HEALTH,"432 WEST 3RD STREET,",ERIE,PA,16507,8143152602,ERIE,8,NON-PROFIT,446470
PERSONAL CARE HOMES,EPHRATA MANOR,UNITED CHURCH OF CHRIST HOMES INC,"99 BETHANY ROAD,",EPHRATA,PA,17522,7177384940,LANCASTER,48,NON-PROFIT,321880
PERSONAL CARE HOMES,EPWORTH MANOR SENIOR LIVING,"GUARDIAN ELDER CARE AT TYRONE I, LLC","925 SOUTH LINCOLN AVENUE,",TYRONE,PA,16686,8146862659,BLAIR,54,PROFIT,328420
PERSONAL CARE HOMES,ERICKSON'S HERITAGE HOUSE,ERICKSON'S HERITAGE HOUSE LLC,"30 EAST STREET,",NORTH EAST,PA,16428,8147259045,ERIE,36,PROFIT,442241
PERSONAL CARE HOMES,EVANS RETIREMENT CENTER,"EVANS RETIREMENT CENTER, INC.","220 EAST RACE STREET,",FLEETWOOD,PA,19522,6109447257,BERKS,28,PROFIT,205500
PERSONAL CARE HOMES,EVANS' PERSONAL CARE HOME,JACK AND CHERYL EVANS SENSANBAUGHER,"503 CENTENNIAL AVENUE,",NEW GALILEE,PA,16141,7243361028,BEAVER,8,PROFIT,417370
PERSONAL CARE HOMES,EVENING STAR PERSONAL CARE HOME,EVENING STAR LLC,"200 CALDWELL AVENUE,",WILMERDING,PA,15148,4128231654,ALLEGHENY,19,PROFIT,447150
PERSONAL CARE HOMES,EVERGREEN ESTATES RETIREMENT COMMUNITY,EVERGREEN ESTATES HOLDINGS LLC,"1300 EAST KING STREET,",LANCASTER,PA,17602,7173942208,LANCASTER,125,PROFIT,331930
PERSONAL CARE HOMES,EVERGREEN I,EVERGREEN PERSONAL CARE HOMES INC,"141 EVERGREEN AVENUE,",PITTSBURGH,PA,15209,4128218869,ALLEGHENY,36,PROFIT,431221
PERSONAL CARE HOMES,EVERGREEN PERSONAL CARE HOME,EVERGREEN PERSONAL CARE HOMES INC,"822-824 IDLEWOOD AVENUE,",PITTSBURGH,PA,15106,4122791607,ALLEGHENY,31,PROFIT,433240
PERSONAL CARE HOMES,EXTON SENIOR LIVING,SNH PENN TENANT LLC,"600 NORTH POTTSTOWN PIKE,",EXTON,PA,19341,6105940200,CHESTER,100,PROFIT,145100
PERSONAL CARE HOMES,EYER'S MANOR,CYPRESS COMMUNITIES LLC,"3196 RIDGE ROAD,",NORTHUMBERLAND,PA,17857,5704739472,NORTHUMBERLAND,34,PROFIT,226480
PERSONAL CARE HOMES,FAIR HAVENS,WILLOWS PERSONAL CARE HOME INC,"3101 GRANDVIEW ROAD,",HANOVER,PA,17331,7176370703,YORK,40,PROFIT,315170
PERSONAL CARE HOMES,FAIR OAKS OF PITTSBURGH,CONGREGATIONAL HOMES INC,"2200 WEST LIBERTY AVENUE,",PITTSBURGH,PA,15226,4123449915,ALLEGHENY,120,NON-PROFIT,429500
PERSONAL CARE HOMES,FAIRFIELD HEALTH MANAGEMENT,FAIRFIELD HEALTH MANAGEMENT LLC,"235 FRANKLIN STREET,",FAIRFIELD,PA,17320,5408423558,ADAMS,25,PROFIT,334550
PERSONAL CARE HOMES,FAIRFIELD PERSONAL CARE HOME,T A RAHM,"27 KYLE AVENUE,",FAIRCHANCE,PA,15436,7245649794,FAYETTE,8,PROFIT,404450
PERSONAL CARE HOMES,FAIRMOUNT HOMES - FARM CREST,FAIRMOUNT HOMES,"1100 FARM CREST DRIVE,",EPHRATA,PA,17522,7173541823,LANCASTER,38,NON-PROFIT,321980
PERSONAL CARE HOMES,FAIRMOUNT HOMES - WHEAT RIDGE,FAIRMOUNT HOMES,"333 WHEAT RIDGE DRIVE,",EPHRATA,PA,17522,7173541800,LANCASTER,36,NON-PROFIT,321960
PERSONAL CARE HOMES,FAITH FRIENDSHIP VILLA OF MOUNTVILLE,FAITH FRIENDSHIP MINISTRIES INC,"128 WEST MAIN STREET,",MOUNTVILLE,PA,17554,7172855596,LANCASTER,74,NON-PROFIT,322020
PERSONAL CARE HOMES,FAITHFUL LIVING,JAI JALARAM CARE LP,"2015 NORTH READING ROAD,",DENVER,PA,17517,7173684109,LANCASTER,75,PROFIT,322580
PERSONAL CARE HOMES,FAMILY AND FRIENDS (STONE RIDGE BUILDING),TEC CORP,"112 CAFFERTY ROAD,",PIPERSVILLE,PA,18947,2152978282,BUCKS,28,PROFIT,136330
PERSONAL CARE HOMES,FAMILY PINES PERSONAL CARE HOME,LINDA E. BRANDON,"P.O.BOX 455, 11293 ROUTE 422,",ELDERTON,PA,15736,7243544195,ARMSTRONG,8,PROFIT,426710
PERSONAL CARE HOMES,FAVERS RESIDENTIAL CARE HOME,FAVERS RESIDENTIAL CARE HOME INC,"574 TEECE AVENUE,",PITTSBURGH,PA,15202,4127662814,ALLEGHENY,14,PROFIT,449130
PERSONAL CARE HOMES,FAWN PERSONAL CARE HOME INC,FAWN PERSONAL CARE HOME INC,"282 SHAWNDEROSA DRIVE,",TARENTUM,PA,15084,7242244400,ALLEGHENY,16,PROFIT,446390
PERSONAL CARE HOMES,FELLOWSHIP TERRACE,BIBLE FELLOWSHIP CHURCH HOMES INC,"3010 FELLOWSHIP DRIVE,",WHITEHALL,PA,18052,6107694300,LEHIGH,165,NON-PROFIT,216480
PERSONAL CARE HOMES,FITZMAURICE COMMUNITY SERVICES,FITZMAURICE COMMUNITY SERVICES INC,"212 CARBON STREET,",LEHIGHTON,PA,18235,5704246223,CARBON,8,NON-PROFIT,245450
PERSONAL CARE HOMES,"FITZMAURICE COMMUNITY SERVICES, INC.",FITZMAURICE COMMUNITY SERVICES INC,"5 ELM STREET,",STROUDSBURG,PA,18360,5704246223,MONROE,8,NON-PROFIT,209540
PERSONAL CARE HOMES,FLORAL CREEK,600 TOWNSHIP LINE RD SENIOR HOUSING I OPCO LLC,"600 TOWNSHIP LINE ROAD,",YARDLEY,PA,19067,2154973003,BUCKS,48,PROFIT,136260
PERSONAL CARE HOMES,FORBES ROAD RESIDENCE,FORBES PERSONAL CARE LLC,"6655 FRANKSTOWN AVENUE,",PITTSBURGH,PA,15206,4126653232,ALLEGHENY,44,PROFIT,443200
PERSONAL CARE HOMES,FOREST CITY PERSONAL CARE,FCNRC LP,"911 DELAWARE STREET,",FOREST CITY,PA,18421,5707852273,SUSQUEHANNA,36,PROFIT,223490
PERSONAL CARE HOMES,FOREST HILLS PERSONAL CARE HOME,FOREST HILLS CARE SERVICES LLC,"313 HUMBERT ROAD,",SIDMAN,PA,15955,8144877535,CAMBRIA,50,PROFIT,334150
PERSONAL CARE HOMES,FOULKEWAYS AT GWYNEDD,FOULKEWAYS AT GWYNEDD,"1120 MEETING HOUSE ROAD,",GWYNEDD,PA,19436,2156432200,MONTGOMERY,112,NON-PROFIT,127740
PERSONAL CARE HOMES,FOUR GRANDS PERSONAL CARE HOME,ANNA BAPTISTE,"5136 NORTH BROAD STREET,",PHILADELPHIA,PA,19141,2154552324,PHILADELPHIA,10,PROFIT,192390
PERSONAL CARE HOMES,FOXDALE VILLAGE,FOXDALE VILLAGE CORPORATION,"500 EAST MARYLYN AVENUE,",STATE COLLEGE,PA,16801,8142383322,CENTRE,64,NON-PROFIT,245650
PERSONAL CARE HOMES,FRANCISCAN MANOR,SNH PENN TENANT LLC,"71 DARLINGTON ROAD,",BEAVER FALLS,PA,15010,7248911150,BEAVER,119,PROFIT,450550
PERSONAL CARE HOMES,FRANKLIN HOUSE PERSONAL CARE HOME,FRANKLIN HOUSE PERSONAL CARE HOME INC,"1236 FRANKLIN AVENUE,",PITTSBURGH,PA,15221,4123714166,ALLEGHENY,8,PROFIT,431331
PERSONAL CARE HOMES,FREDERICK LIVING - ASPEN VILLAGE,FREDERICK MENNONITE COMMUNITY,"2849 BIG ROAD,",ZIEGLERVILLE,PA,19492,6107547878,MONTGOMERY,31,NON-PROFIT,132580
PERSONAL CARE HOMES,FREDERICK LIVING - MAGNOLIA HOUSE,FREDERICK MENNONITE COMMUNITY,"2849 BIG ROAD,",ZIEGLERVILLE,PA,19492,6107547878,MONTGOMERY,104,NON-PROFIT,127720
PERSONAL CARE HOMES,FREY VILLAGE,DIAKON LUTHERAN SOCIAL MINISTRIES,"1020 NORTH UNION STREET,",MIDDLETOWN,PA,17057,7179301200,DAUPHIN,40,NON-PROFIT,343510
PERSONAL CARE HOMES,FRIENDS BOARDING HOME,FRIENDS BOARDING HOME OF BUCKS QUARTERLY MEETING,"50 SOUTH CONGRESS STREET,",NEWTOWN,PA,18940,2159683346,BUCKS,25,NON-PROFIT,126690
PERSONAL CARE HOMES,FRIENDS BOARDING HOME OF WESTERN QUARTERLY MEETING,FRIENDS BOARDING HOME OF WESTERN QUARTERLY MEETING,"147 WEST STATE STREET,",KENNETT SQUARE,PA,19348,6104442577,CHESTER,68,NON-PROFIT,140020
PERSONAL CARE HOMES,FRITZINGERTOWN SENIOR LIVING COMMUNITY,LAKEWOOD SENIOR LIVING-DRUMS LLC,"159 SOUTH OLD TURNPIKE ROAD,",DRUMS,PA,18222,5707884178,LUZERNE,164,PROFIT,201660
PERSONAL CARE HOMES,FULMERS PERSONAL CARE HOME,THOMAS AND DIANE FULMER,"201 WOODWARD AVENUE,",LOCK HAVEN,PA,17745,5707481829,CLINTON,89,PROFIT,227100
PERSONAL CARE HOMES,GARDEN SPOT VILLAGE,GARDEN SPOT VILLAGE,"433 S. KINZER AVENUE,",NEW HOLLAND,PA,17557,7173556000,LANCASTER,110,NON-PROFIT,321940
PERSONAL CARE HOMES,GARDEN VIEW MANOR,MERCY LIFE CENTER CORPORATION,"441 SWISSVALE AVENUE,",PITTSBURGH,PA,15221,4123424602,ALLEGHENY,56,NON-PROFIT,440690
PERSONAL CARE HOMES,GARDEN WAY PLACE,BENTLEY AID OPCO LLC,"2400 GARDEN WAY,",HERMITAGE,PA,16148,7243471964,MERCER,47,PROFIT,444920
PERSONAL CARE HOMES,GATESIDE,DEVEREUX FOUNDATION,"830 MAPLE AVENUE,",BERWYN,PA,19312,6102966800,CHESTER,4,NON-PROFIT,142150
PERSONAL CARE HOMES,GAUDENZIA NEW BEGINNINGS,"GAUDENZIA, INC.","1300 SPRING GARDEN STREET,",PHILADELPHIA,PA,19123,2154409669,PHILADELPHIA,18,NON-PROFIT,176280
PERSONAL CARE HOMES,GENERATIONS ELDER CARE,GENERATIONS ELDER CARE INC,"165 DEARTH ROAD,",UNIONTOWN,PA,15401,7242452922,FAYETTE,30,PROFIT,444800
PERSONAL CARE HOMES,GEORGE'S PERSONAL CARE HOME,PARACLETE GROUP LLC,"108 WATER STREET,",NEW STANTON,PA,15672,7249259708,WESTMORELAND,18,PROFIT,440570
PERSONAL CARE HOMES,GETZ PERSONAL CARE HOME,GETZ PERSONAL CARE HOME INC,"1026 SCENIC DRIVE,",KUNKLETOWN,PA,18058,5706291334,MONROE,60,PROFIT,240500
PERSONAL CARE HOMES,GHEEL HOUSE,SPIRIT OF GHEEL,"P.O. BOX 610, 10 HOLLOW ROAD,",KIMBERTON,PA,19442,6104957871,CHESTER,8,NON-PROFIT,144320
PERSONAL CARE HOMES,GILLILAND MANOR,PRESBYTERIAN HOMES INC,"210 BIG SPRING ROAD,",NEWVILLE,PA,17241,7175028840,CUMBERLAND,45,NON-PROFIT,300680
PERSONAL CARE HOMES,GLEN MILLS SENIOR LIVING,SNH PENN TENANT LLC,"242 BALTIMORE PIKE,",GLEN MILLS,PA,19342,,DELAWARE,100,PROFIT,145110
PERSONAL CARE HOMES,GLENCREST MANOR,GLENCREST MANOR INC,"115 GLENCREST ROAD,",COATESVILLE,PA,19320,6103847543,CHESTER,13,PROFIT,197800
PERSONAL CARE HOMES,GLENMAURA SENIOR LIVING,GLENMAURA SENIOR LIVING AT MONTAGE LLC,"11 GLENMAURA NATIONAL BLVD,",MOOSIC,PA,18507,5705915800,LACKAWANNA,100,PROFIT,228450
PERSONAL CARE HOMES,GLUCO LODGE,PACONA CORPORATION,"1127 KEMMERTOWN ROAD,",STROUDSBURG,PA,18360,5709927270,MONROE,51,PROFIT,241720
PERSONAL CARE HOMES,GOLDEN HEIGHTS PERSONAL CARE HOME,GOLDEN HEIGHTS OPCO LLC,"3522 ROUTE 130,",IRWIN,PA,15642,7247443200,WESTMORELAND,75,PROFIT,450300
PERSONAL CARE HOMES,GRACE MANOR AT NORTH PARK,MOS GRACE MGT LLC,"9565 BABCOCK BOULEVARD,",ALLISON PARK,PA,15101,9739869629,ALLEGHENY,60,PROFIT,450850
PERSONAL CARE HOMES,GRACE MANSION,CATHOLIC SENIOR HOUSING & HEALTH CARE SERVICES INC,"1200 SPRING STREET,",BETHLEHEM,PA,18018,6108656748,LEHIGH,28,NON-PROFIT,216430
PERSONAL CARE HOMES,GRACE PARK,GRACE PARK LTD.,"1170 WEST MAIN STREET,",STROUDSBURG,PA,18360,5704248166,MONROE,82,PROFIT,207360
PERSONAL CARE HOMES,GRACIOUS LIVING ESTATES,RELENTLESS ASSETS NO.1 LLC,"10543 PA ROUTE 29,",MONTROSE,PA,18801,5702783414,SUSQUEHANNA,65,PROFIT,224860
PERSONAL CARE HOMES,GRAND AT CASTLE SHANNON,GRAND AT CASTLE SHANNON LLC,"3768 WILLOW AVENUE,",CASTLE SHANNON,PA,15234,4125634444,ALLEGHENY,38,PROFIT,448881
PERSONAL CARE HOMES,GRAND AT FAYETTE D/B/A COUNTRY CARE MANOR,GRAND AT FAYETTE LLC,"205 COLDREN ROAD,",FAYETTE CITY,PA,15438,7243264909,FAYETTE,75,PROFIT,449590
PERSONAL CARE HOMES,GRAND VIEW MANOR,"ASSURED CARE, INC.","129 HOUCK ROAD,",FLEETWOOD,PA,19522,6109441800,BERKS,54,PROFIT,215010
PERSONAL CARE HOMES,GRANDVIEW ESTATES MEMORY CARE LLC,GRANDVIEW ESTATES MEMORY CARE LLC,"1151 SCENERY DRIVE,",ELIZABETH,PA,15037,4124054022,ALLEGHENY,26,PROFIT,449920
PERSONAL CARE HOMES,GRANDVIEW ESTATES OF ELIZABETH,HEALING HEARTS LLC,"1151 SCENERY DRIVE,",ELIZABETH,PA,15037,4128724856,ALLEGHENY,45,PROFIT,448060
PERSONAL CARE HOMES,GRAY'S CREEKSIDE MANOR,MARY LOU GRAY,"100 WEST MAIN STREET, BOX 68,",WORTHINGTON,PA,16262,7242973677,ARMSTRONG,17,PROFIT,426840
PERSONAL CARE HOMES,GRAYSTONE MANOR ALTOONA,GRAYSTONE MANOR ALTOONA LLC,"2611 8TH AVENUE,",ALTOONA,PA,16602,8149443340,BLAIR,85,PROFIT,336860
PERSONAL CARE HOMES,GRAYSTONE MANOR AT BELLMEADE,"GRAYSTONE MANOR BELLMEADE, LLC","1929 EAST PLEASANT VALLEY BLVD,",ALTOONA,PA,16602,8149422423,BLAIR,75,PROFIT,332220
PERSONAL CARE HOMES,GREEN ACRES PERSONAL CARE HOME,GREEN ACRES ENTERPRISES INC,"1460 BUFFALO LODGE ROAD,",ROSSITER,PA,15772,8149389283,INDIANA,12,PROFIT,427350
PERSONAL CARE HOMES,GREEN HILLS MANOR,HERITAGE CAMPUS OPCO LLC,"10 TRANQUILITY LANE,",READING,PA,19067,4845778673,BERKS,80,PROFIT,229080
PERSONAL CARE HOMES,GREEN RIDGE MANOR,GREEN RIDGE MANOR INC,"1530 SANDERSON AVENUE,",SCRANTON,PA,18509,5709610300,LACKAWANNA,62,PROFIT,225220
PERSONAL CARE HOMES,GREENFIELD OF PERKIOMEN VALLEY,GREENFIELD OF PERKIOMEN VALLEY LLC,"300 PERKIOMEN AVENUE,",SCHWENKSVILLE,PA,19473,6102871822,MONTGOMERY,120,PROFIT,137350
PERSONAL CARE HOMES,GREY'S COLONIAL ACRES,GREY'S COLONIAL ACRES LLC,"272 COLONIAL ROAD,",KITTANNING,PA,16201,7247832121,ARMSTRONG,38,PROFIT,446400
PERSONAL CARE HOMES,GREY'S COLONIAL GARDENS,GREYS COLONIAL GARDENS LLC,"630 GLADE RUN ROAD,",KITTANNING,PA,16201,7245434739,ARMSTRONG,20,PROFIT,450020
PERSONAL CARE HOMES,GREY'S COLONIAL MANOR,GREYS COLONIAL MANOR LLC,"13259 US ROUTE 422,",KITTANNING,PA,16201,7244588727,ARMSTRONG,27,PROFIT,450010
PERSONAL CARE HOMES,GREYSTONE COUNTRY ESTATES,GREYSTONE COUNTRY ESTATES INC,"424 DELAWARE ROAD,",FREDONIA,PA,16124,7244754237,MERCER,45,PROFIT,470980
PERSONAL CARE HOMES,GRIFFITH HOUSE,"CHRISTIAN RESIDENTIAL OPPORTUNITIES & SOCIAL SERVICES, INC.","1345 APPLE WAY,",ST. THOMAS,PA,17252,7173692910,FRANKLIN,6,NON-PROFIT,363350
PERSONAL CARE HOMES,GROVE MANOR I,GROVE MANOR,"435 NORTH BROAD STREET,",GROVE CITY,PA,16127,7244587800,MERCER,40,NON-PROFIT,451310
PERSONAL CARE HOMES,GROVES FAMILY PERSONAL CARE HOME LLC,GROVES FAMILY PERSONAL CARE HOME LLC,"443 EAST SMITH STREET,",CORRY,PA,16407,8146648855,ERIE,26,PROFIT,447410
PERSONAL CARE HOMES,GUARDIAN ANGEL PERSONAL CARE HOME,ALBRECHT INC,"1710 MAPLE AVENUE,",COAL TOWNSHIP,PA,17866,5706447860,NORTHUMBERLAND,20,PROFIT,202080
PERSONAL CARE HOMES,GUY AND MARY FELT MANOR,GUY AND MARY FELT MANOR INC,"110 EAST FOURTH STREET,",EMPORIUM,PA,15834,8144863736,CAMERON,10,NON-PROFIT,231190
PERSONAL CARE HOMES,H & M PERSONAL CARE HOME,H AND M PERSONAL CARE HOME INC,"590 BOGGS SCHOOL ROAD,",MOON TOWNSHIP,PA,15108,7244577398,ALLEGHENY,18,PROFIT,448480
PERSONAL CARE HOMES,HALCYON SENIOR LIVING,HALCYON SENIOR LIVING LLC,"528 DEWEY AVENUE,",BRIDGEVILLE,PA,15017,7404918721,ALLEGHENY,88,PROFIT,451090
PERSONAL CARE HOMES,HALLSWORTH HOUSE,NASUN INC,"1575 GRAND BOULEVARD,",MONESSEN,PA,15062,7246848170,WESTMORELAND,63,PROFIT,428970
PERSONAL CARE HOMES,HANEY'S PERSONAL CARE HOME,NANCY S HANEY,"330 CARMICHAELS STREET,",RICES LANDING,PA,15357,7245925449,GREENE,8,PROFIT,467350
PERSONAL CARE HOMES,HARBOUR SENIOR LIVING OF MONROEVILLE,SL MONROEVILLE LLC,"2589 MOSSIDE BOULEVARD,",MONROEVILLE,PA,15146,4123802589,ALLEGHENY,126,PROFIT,441740
PERSONAL CARE HOMES,HARBOUR SENIOR LIVING OF SOUTH HILLS,SL SOUTH HILLS LLC,"1320 GREENTREE ROAD,",PITTSBURGH,PA,15220,4125711300,ALLEGHENY,96,PROFIT,441750
PERSONAL CARE HOMES,HARMONY AT HERSHEY,HERSHEY OPERATIONS LLC,"75 EAST CANAL STREET,",HERSHEY,PA,17033,7177075610,DAUPHIN,129,PROFIT,337410
PERSONAL CARE HOMES,HARMONY AT STATE COLLEGE,STATE COLLEGE OPERATIONS LLC,"121 HAVERSHIRE BOULEVARD,",STATE COLLEGE,PA,16803,8148264706,CENTRE,125,PROFIT,228030
PERSONAL CARE HOMES,HARMONY AT WEST SHORE,HAMPDEN OPERATIONS LLC,"1910 TECHNOLOGY PARKWAY,",MECHANICSBURG,PA,17050,7174021200,CUMBERLAND,115,PROFIT,333810
PERSONAL CARE HOMES,HARMONY HAUS SENIOR LIVING,EJ MARK PROPERTIES LLC,"1329-1339 MERCHANT STREET,",AMBRIDGE,PA,15003,7243188211,BEAVER,43,PROFIT,450180
PERSONAL CARE HOMES,HARMONY HOUSE MANOR,HARMONY HOUSE MANOR INC,"601 LAMBERD AVENUE,",JOHNSTOWN,PA,15904,8142661607,CAMBRIA,84,PROFIT,314390
PERSONAL CARE HOMES,HARMONYCREST PERSONAL CARE SERVICES LLC,HARMONYCREST PERSONAL CARE SERVICES LLC,"485 WALNUT ROAD,",BIRDSBORO,PA,19508,6107433635,BERKS,13,NON-PROFIT,224760
PERSONAL CARE HOMES,HARRISON HOUSE,HARRISON HOUSE PERSONAL CARE HOME,"712 HARRISON AVENUE,",SCRANTON,PA,18510,5703462045,LACKAWANNA,54,PROFIT,236160
PERSONAL CARE HOMES,HARRISON SENIOR LIVING OF COATESVILLE,HARRISON SENIOR LIVING OF COATESVILLE LLC,"300 STRODE AVENUE,",COATESVILLE,PA,19320,6103846310,CHESTER,80,PROFIT,105660
PERSONAL CARE HOMES,HARRY & JEANNETTE WEINBERG TERRACE,JEWISH ASSOCIATION ON AGING,"5757 BARTLETT STREET,",PITTSBURGH,PA,15217,4124215757,ALLEGHENY,115,NON-PROFIT,429810
PERSONAL CARE HOMES,HASKINS HOUSE,PENSTATE BEST CARE INC,"1009 RHOADS AVENUE,",SECANE,PA,19018,6106233624,DELAWARE,22,PROFIT,138550
PERSONAL CARE HOMES,HAVERILLA PERSONAL CARE HOME,HAVERILLA PERSONAL CARE HOME INC,"775 STONETOWN ROAD,",ROSSITER,PA,15772,8149383399,INDIANA,24,PROFIT,427930
PERSONAL CARE HOMES,HAYES MANOR,HAYES MANOR INC,"2210 BELMONT AVENUE,",PHILADELPHIA,PA,19131,2154731552,PHILADELPHIA,65,NON-PROFIT,142230
PERSONAL CARE HOMES,HEARTHSTONE RETIREMENT HOME,GEORGE H NEAL MEMORIAL HOME FOR THE AGED,"102 SOUTH POTOMAC STREET,",WAYNESBORO,PA,17268,7177626313,FRANKLIN,30,NON-PROFIT,328560
PERSONAL CARE HOMES,HEARTLAND RETIREMENT PERSONAL CARE HOME,HEARTLAND RETIREMENT PERSONAL CARE HOME INC,"46 ELEMENTARY LANE, BOX 210,",WOOLRICH,PA,17779,5707696007,CLINTON,48,PROFIT,227120
PERSONAL CARE HOMES,HEATHER COURT,LEEDS HEALTH CARE SERVICES INC,"281 IRONSTONE DRIVE,",NORTHUMBERLAND,PA,17857,5704738356,NORTHUMBERLAND,48,PROFIT,227060
PERSONAL CARE HOMES,HEATHER GLEN SENIOR LIVING,HEATHER GLEN SENIOR LIVING LLC,"415 BLUE BARN ROAD,",ALLENTOWN,PA,18104,6108414478,LEHIGH,120,PROFIT,226820
PERSONAL CARE HOMES,HEATHERWOOD RETIREMENT COMMUNITY,HEATHERWOOD RETIREMENT INVESTORS LLC,"3180 HORSESHOE PIKE,",HONEY BROOK,PA,19344,6102739301,CHESTER,50,PROFIT,104550
PERSONAL CARE HOMES,HEATHERWOOD RETIREMENT COMMUNITY,HEATHERWOOD RETIREMENT INVESTORS LLC,"3180 HORSESHOE PIKE,",HONEY BROOK,PA,19344,6102739301,CHESTER,49,PROFIT,131210
PERSONAL CARE HOMES,HELEN'S PLACE FOR PERSONAL CARE,HELEN'S PLACE FOR PERSONAL CARE,"474 STAMBAUGH AVENUE,",SHARON,PA,16146,7249311222,MERCER,15,NON-PROFIT,446870
PERSONAL CARE HOMES,HELPING HAND RESCUE MISSION - MAIN BUILDING,HELPING HAND RESCUE MISSION INC,"112 MISSION LANE,",LILLY,PA,15938,8147369286,CAMBRIA,47,NON-PROFIT,300360
PERSONAL CARE HOMES,HENDERSON HOUSE,ROSALIE J DAPICE,"P.O.B. 6363,528-30 PRESSLEY ST,",PITTSBURGH,PA,15212,4122310350,ALLEGHENY,25,PROFIT,430950
PERSONAL CARE HOMES,HERITAGE HILL SENIOR COMMUNITY,CARE HSL HERITAGE HILL OPCO LLC,"800 SIXTH STREET,",WEATHERLY,PA,18255,5704274500,CARBON,143,PROFIT,225120
PERSONAL CARE HOMES,HERITAGE HILLS RETIREMENT COMMUNITY,HERITAGE HILLS RETIREMENT COMMUNITY INC,"2256 SHANKS CHURCH ROAD,",GREENCASTLE,PA,17225,7175930334,FRANKLIN,36,PROFIT,301690
PERSONAL CARE HOMES,HERITAGE MANOR SENIOR LIVING,HERITAGE MANOR SENIOR LIVING LLC,"4220 SAW MILL RUN BOULEVARD,",PITTSBURGH,PA,15227,4128828400,ALLEGHENY,76,PROFIT,446020
PERSONAL CARE HOMES,HERITAGE MEADOWS PERSONAL CARE HOME,HERITAGE MEADOWS PERSONAL CARE HOME LLC,"11796 STATE ROUTE PA 85N,",KITTANNING,PA,16201,7245459668,ARMSTRONG,26,PROFIT,448350
PERSONAL CARE HOMES,HERITAGE MILLS PERSONAL CARE CENTER,HERITAGE MILLS PERSONAL CARE CENTER LLC,"846 EAST WICONISCO AVENUE,",TOWER CITY,PA,17980,7175231257,SCHUYLKILL,60,PROFIT,226360
PERSONAL CARE HOMES,HERITAGE SPRINGS MEMORY CARE,HERITAGE SPRINGS MEMORY CARE INC,"327 FARLEY CIRCLE,",LEWISBURG,PA,17837,5705223669,UNION,64,PROFIT,225980
PERSONAL CARE HOMES,HERITAGE SPRINGS MONTOURSVILLE I,HERITAGE SPRINGS MONTOURSVILLE I INC,"878 OLD CEMENT ROAD,",MUNCY,PA,17756,5708545885,LYCOMING,60,PROFIT,228250
PERSONAL CARE HOMES,HERSHEY MILL HOME,VINEYARD OF THE LORD INC,"3828 COLUMBIA AVENUE,",MOUNTVILLE,PA,17554,7172853358,LANCASTER,39,NON-PROFIT,322030
PERSONAL CARE HOMES,HIDDEN MEADOWS ON THE RIDGE,HIDDEN MEADOWS OPCO LLC,"340 FARMERS LANE,",SELLERSVILLE,PA,18960,2152576701,BUCKS,60,PROFIT,145230
PERSONAL CARE HOMES,HIDDEN MEADOWS ON THE RIDGE THE LAURELS,HIDDEN MEADOWS OPCO LLC,"340 FARMERS LANE,",SELLERSVILLE,PA,18960,2152576701,BUCKS,50,PROFIT,145240
PERSONAL CARE HOMES,HIGHGATE AT PAOLI POINTE,600 PAOLI POINTE DRIVE OPERATIONS LLC,"600 PAOLI POINTE DRIVE,",PAOLI,PA,19301,6102967100,CHESTER,124,PROFIT,136100
PERSONAL CARE HOMES,HIGHLAND OAKS AT WATER RUN,WRC PENNSYLVANIA MEMORIAL HOME,"300 WATER RUN ROAD,",CLARION,PA,16214,8142263799,CLARION,72,NON-PROFIT,447680
PERSONAL CARE HOMES,HIGHLAND PARK SENIOR LIVING,HIGHLAND PARK SENIOR LIVING LLC,"874 SCHECHTER DRIVE,",WILKES-BARRE TOWNS,PA,18702,5709704600,LUZERNE,160,PROFIT,226300
PERSONAL CARE HOMES,HILL FARM ESTATE,HILL FARM OPERATING LLC,"200 KAUFFMAN ROAD,",ANNVILLE,PA,17003,7178675176,LEBANON,65,PROFIT,332560
PERSONAL CARE HOMES,HILLSIDE ESTATES SUITES,HILLSIDE ESTATES SUITES INC,"1526 INDEPENDENCE AVENUE,",CONNELLSVILLE,PA,15425,7246284060,FAYETTE,20,PROFIT,447040
PERSONAL CARE HOMES,HILLSIDE MANOR,HILLSIDE MANOR LLC,"123 HAMILTON AVENUE,",TURTLE CREEK,PA,15145,4128231800,ALLEGHENY,63,PROFIT,448840
PERSONAL CARE HOMES,HILLSIDE MANOR PERSONAL CARE HOME,HILLSIDE MANOR PERSONAL CARE HOME INC,"177 OLIVER ROAD,",UNIONTOWN,PA,15401,7244392273,FAYETTE,76,PROFIT,467990
PERSONAL CARE HOMES,HILLSIDE PERSONAL CARE,"HILLSIDE REST HOME, INC.","1175 OLD WAYNESBORO PIKE,",FAIRFIELD,PA,17320,7177942163,ADAMS,48,PROFIT,348750
PERSONAL CARE HOMES,HILLVIEW CHATEAU SENIOR LIVING,GUARDIAN ELDER CARE AT ALTOONA LLC,"700 SOUTH CAYUGA AVENUE,",ALTOONA,PA,16602,8149446561,BLAIR,24,PROFIT,332910
PERSONAL CARE HOMES,HILLVIEW HOME,HILLVIEW HOME INC,"615 CORNELL STREET,",CORAOPOLIS,PA,15108,4122645154,ALLEGHENY,22,PROFIT,430230
PERSONAL CARE HOMES,HOLCOMB BEHAVIORAL HEALTH SYSTEMS,HOLCOMB ASSOCIATES INC,"1021 CHERRY TREE ROAD,",ASTON,PA,19014,6103649846,DELAWARE,8,NON-PROFIT,106930
PERSONAL CARE HOMES,HOLLIDAYSBURG VETERANS' HOME,HOLLIDAYSBURG VETERANS HOME,"P.O.BOX 319,",HOLLIDAYSBURG,PA,16648,8146965290,BLAIR,167,NON-PROFIT,343600
PERSONAL CARE HOMES,HOLY FAMILY HOME,LITTLE SISTERS OF THE POOR,"5300 CHESTER AVENUE,",PHILADELPHIA,PA,19143,2157295153,PHILADELPHIA,22,NON-PROFIT,144930
PERSONAL CARE HOMES,HOLY REDEEMER ST. JOSEPH MANOR,HOLY REDEEMER HEALTH SYSTEM,"1616 HUNTINGDON PIKE,",MEADOWBROOK,PA,19046,2159384000,MONTGOMERY,69,NON-PROFIT,127940
PERSONAL CARE HOMES,HOME 2 ME,"HOME 2 ME, INC.","600 SLIPPERY ROCK ROAD,",SLIPPERY ROCK,PA,16057,7247945585,BUTLER,22,PROFIT,466150
PERSONAL CARE HOMES,HOMELAND CENTER,"HOME FOR THE FRIENDLESS, INC.","1901 NORTH FIFTH STREET,",HARRISBURG,PA,17102,7172217900,DAUPHIN,56,NON-PROFIT,342800
PERSONAL CARE HOMES,HOMESTEAD VILLAGE,HOMESTEAD VILLAGE INC,"1800 VILLAGE CIRCLE,",LANCASTER,PA,17604,7173974831,LANCASTER,100,NON-PROFIT,321840
PERSONAL CARE HOMES,HOMEWOOD AT MARTINSBURG,HOMEWOOD AT MARTINSBURG INC,"437 GIVLER DRIVE,",MARTINSBURG,PA,16662,8147933728,BLAIR,101,NON-PROFIT,360110
PERSONAL CARE HOMES,HOMEWOOD AT PLUM CREEK,HOMEWOOD AT HANOVER INC,"425 WESTMINSTER AVENUE,",HANOVER,PA,17331,7176374166,YORK,149,NON-PROFIT,358910
PERSONAL CARE HOMES,"HORIZON PERSONAL CARE HOME, INC.",HORIZON PERSONAL CARE HOME INC,"9 SOUTH MORGANTOWN STREET,",FAIRCHANCE,PA,15436,7245640352,FAYETTE,28,PROFIT,413830
PERSONAL CARE HOMES,HORTON PERSONAL CARE HOME,CHARLETTE HORTON,"2465 SUNSET AVENUE,",PITTSBURGH,PA,15212,4123238040,ALLEGHENY,8,PROFIT,433570
PERSONAL CARE HOMES,HOUSE OF CARE,HOUSE OF CARE,"515 WEST BEAVER AVENUE,",STATE COLLEGE,PA,16801,8142375517,CENTRE,5,NON-PROFIT,227640
PERSONAL CARE HOMES,HUDSON'S HELPING HANDS HOME CARE,HUDSONS HELPING HANDS HOME CARE LLC,"121 MEADOW VIEW LANE,",EBENSBURG,PA,15931,8149487943,CAMBRIA,18,PROFIT,335551
PERSONAL CARE HOMES,HUNTER COTTAGE,HUNTER COTTAGE LLC,"58 EAST COTTAGE PLACE,",YORK,PA,17401,7177580333,YORK,18,PROFIT,334430
PERSONAL CARE HOMES,HUNTER'S PERSONAL CARE,LINDA HUNTER,"1916 MAIN STREET,",ALIQUIPPA,PA,15001,7243781205,BEAVER,21,PROFIT,419470
PERSONAL CARE HOMES,I & A RESIDENTIAL SERVICES - BLDG. D,I & A RESIDENTIAL SERVICES INC,"13462 STATE ROUTE 422,",KITTANNING,PA,16201,7244637830,ARMSTRONG,4,NON-PROFIT,426540
PERSONAL CARE HOMES,I & A RESIDENTIAL SERVICES - BUILDING C,I & A RESIDENTIAL SERVICES INC,"286 HOOD SCHOOL ROAD,",INDIANA,PA,15701,7244652972,INDIANA,5,NON-PROFIT,427270
PERSONAL CARE HOMES,"I & A RESIDENTIAL SERVICES, BUILDING A",I & A RESIDENTIAL SERVICES INC,"111 EAST PIKE,",INDIANA,PA,15701,7244637338,INDIANA,5,NON-PROFIT,427230
PERSONAL CARE HOMES,IDA P. WEITZ PERSONAL CARE HOME,JENNIFER M MAYHUE,"3500 MEADOW RUN ROAD,",BEAR CREEK,PA,18702,5704723197,LUZERNE,18,PROFIT,223140
PERSONAL CARE HOMES,INDEPENDENCE COURT OF ERIE,NATIONAL HEALTH MANAGEMENT LLC,"41 WEST GORE ROAD,",ERIE,PA,16509,8148644867,ERIE,144,PROFIT,451181
PERSONAL CARE HOMES,INDEPENDENCE COURT OF MONROEVILLE,NATIONAL HEALTH MANAGEMENT LLC,"279 CENTER ROAD,",MONROEVILLE,PA,15146,4123733030,ALLEGHENY,115,PROFIT,430770
PERSONAL CARE HOMES,INDEPENDENCE COURT OF QUAKERTOWN,NATIONAL HEALTH MANAGEMENT LLC,"1660 PARK AVENUE,",QUAKERTOWN,PA,18951,2155387050,BUCKS,120,PROFIT,127030
PERSONAL CARE HOMES,INDIANA SQUARE PERSONAL CARE HOME,PREMIER QUALITY ENTERPRISE INC,"1703 WARREN ROAD,",INDIANA,PA,15701,7244712140,INDIANA,50,PROFIT,447440
PERSONAL CARE HOMES,"INNE AT RIDDLE VILLAGE, THE",RIDDLE VILLAGE INC,"1048 WEST BALTIMORE PIKE,",MEDIA,PA,19063,6108913777,DELAWARE,76,NON-PROFIT,192510
PERSONAL CARE HOMES,INSINGER'S BOARDING HOME,INSINGER'S PERSONAL CARE HOME INC,"673 CAMPBELL STREET,",WILLIAMSPORT,PA,17701,5703222597,LYCOMING,20,PROFIT,202100
PERSONAL CARE HOMES,INSINGER'S PERSONAL CARE-SOUTH,RONALD E INSINGER,"6 EAST CENTRAL AVENUE,",SOUTH WILLIAMSPORT,PA,17702,5703222017,LYCOMING,38,PROFIT,202090
PERSONAL CARE HOMES,INSINGERS PERSONAL CARE HOMES WEST,INSINGERS PERSONAL CARE HOMES WEST INC,"124 EMERY STREET,",WILLIAMSPORT,PA,17701,5703370676,LYCOMING,29,PROFIT,227450
PERSONAL CARE HOMES,JAMESON PLACE,"JAMESON CARE CENTER, INC.","3345 WILMINGTON ROAD,",NEW CASTLE,PA,16105,7245983434,LAWRENCE,71,NON-PROFIT,401280
PERSONAL CARE HOMES,JEAN MCVEY II,JEAN MCVEY,"103 LINCOLN STREET,",UNIONTOWN,PA,15401,7244373128,FAYETTE,8,PROFIT,402690
PERSONAL CARE HOMES,JEWART'S WHISPERING PINES MANOR,LUCINDA AND RANDALL JEWART,"P.O. BOX 249, 8 WEST CHURCH ST.",SAGAMORE,PA,16250,7247837049,ARMSTRONG,8,PROFIT,426851
PERSONAL CARE HOMES,JO-ELLA'S PERSONAL CARE AND RESPITE CENTER,JO-ELLA'S PERSONAL CARE AND RESPITE CENTER INC,"200 SPRUCE STREET,",SCOTTDALE,PA,15683,7248874295,WESTMORELAND,8,PROFIT,429150
PERSONAL CARE HOMES,JOHN PAUL II MANOR,BISHOP PELCZAR MANOR,"856 CAMBRIA STREET,",CRESSON,PA,16630,8148867961,CAMBRIA,50,NON-PROFIT,303180
PERSONAL CARE HOMES,JOHNSON PERSONAL CARE,JOHNSON PERSONAL CARE LLC,"502-504 WEST SEVENTH STREET,",CHESTER,PA,19013,6108722903,DELAWARE,16,PROFIT,143660
PERSONAL CARE HOMES,JOHNSON PERSONAL CARE HOME,RODNEY JOHNSON,"2219 WEST TIOGA STREET,",PHILADELPHIA,PA,19140,2152271380,PHILADELPHIA,17,PROFIT,133610
PERSONAL CARE HOMES,JOHNSON'S PERSONAL CARE HOME,NANETTE JOHNSON,"222 SALISBURY STREET,",MEYERSDALE,PA,15552,8146345160,SOMERSET,15,PROFIT,321370
PERSONAL CARE HOMES,JOYCE'S HAVEN,"JOYCE'S HAVEN, INC.","4306-08 GERMANTOWN AVENUE,",PHILADELPHIA,PA,19140,2154574333,PHILADELPHIA,8,NON-PROFIT,128880
PERSONAL CARE HOMES,JUNIPER VILLAGE AT BROOKLINE - SENIOR LIVING,JUNIPER VILLAGE AT STATE COLLEGE OPERATIONS III LLC,"1930 CLIFFSIDE DRIVE,",STATE COLLEGE,PA,16801,8142383193,CENTRE,174,PROFIT,231310
PERSONAL CARE HOMES,JUNIPER VILLAGE AT BROOKLINE - WELLSPRING MEMORY CARE,JUNIPER VILLAGE AT STATE COLLEGE OPERATIONS I LLC,"610 WEST WHITEHALL ROAD,",STATE COLLEGE,PA,16801,8142343141,CENTRE,38,PROFIT,241300
PERSONAL CARE HOMES,JUNIPER VILLAGE AT BUCKS COUNTY SENIOR LIVING,JUNIPER VILLAGE AT BENSALEM OPERATIONS LLC,"3200 BENSALEM BOULEVARD,",BENSALEM,PA,19020,2157522370,BUCKS,60,PROFIT,142460
PERSONAL CARE HOMES,JUNIPER VILLAGE AT FOREST HILLS,JUNIPER VILLAGE AT FOREST HILLS LLC,"107 FALL RUN ROAD,",PITTSBURGH,PA,15221,4122449901,ALLEGHENY,100,PROFIT,433780
PERSONAL CARE HOMES,JUNIPER VILLAGE AT LEBANON I,JUNIPER VILLAGE AT LEBANON LLC,"1125 BIRCH ROAD,",LEBANON,PA,17042,7172728782,LEBANON,70,PROFIT,330050
PERSONAL CARE HOMES,JUNIPER VILLAGE AT LEBANON II,JUNIPER VILLAGE AT LEBANON LLC,"101 HEARTHSTONE LANE,",LEBANON,PA,17042,7172728782,LEBANON,25,PROFIT,330060
PERSONAL CARE HOMES,JUNIPER VILLAGE AT MEADVILLE,CORDIA COMMONS AT MEADVILLE LLC,"455 CHESTNUT STREET,","MEADVILLE,",PA,16335,8143334400,CRAWFORD,90,PROFIT,410190
PERSONAL CARE HOMES,JUNIPER VILLAGE AT MOUNT JOY,JUNIPER VILLAGE AT MOUNT JOY LLC,"607 HEARTHSTONE LANE,",MOUNT JOY,PA,17552,7174929692,LANCASTER,72,PROFIT,330040
PERSONAL CARE HOMES,JUST LIKE HOME PERSONAL CARE,"JUST LIKE HOME PERSONAL CARE, LLC","506 GALLITZIN ROAD,",CRESSON,PA,16630,8148840186,CAMBRIA,14,PROFIT,324960
PERSONAL CARE HOMES,KADIMA REHABILITATION & NURSING AT CAMPBELLTOWN,CAMPBELLTOWN REHABILITATION & NURSING LLC,"2880 HORSESHOE PIKE,",PALMYRA,PA,17078,7178382231,LEBANON,24,PROFIT,334510
PERSONAL CARE HOMES,KAYSIM-COURT MANOR,KAYSIM HOUSING GROUP INC,"5909-19 WAYNE AVENUE,",PHILADELPHIA,PA,19144,2156515908,PHILADELPHIA,81,PROFIT,109660
PERSONAL CARE HOMES,KEEPER OF THE FLAME - MOREWOOD,KEEPER OF THE FLAME INC,"101 MOREWOOD AVE, 1ST FLOOR,",BLAIRSVILLE,PA,15717,7244594700,INDIANA,33,PROFIT,427890
PERSONAL CARE HOMES,KELLY'S II PERSONAL CARE HOME,KELLY S II PERSONAL CARE HOME INC,"141 UNITY CEMETERY ROAD,",LATROBE,PA,15650,7248045916,WESTMORELAND,8,PROFIT,448400
PERSONAL CARE HOMES,KELLY'S PERSONAL CARE,DARLENE KELLY,"140 GREENDALE DRIVE,",GREENSBURG,PA,15601,7248507997,WESTMORELAND,8,PROFIT,429180
PERSONAL CARE HOMES,KENDAL AT LONGWOOD,"KENDAL-CROSSLANDS COMMUNITIES, INC.","P.O. BOX 100, CUMBERLAND HOUSE,",KENNETT SQUARE,PA,19348,6103885010,CHESTER,62,NON-PROFIT,185730
PERSONAL CARE HOMES,KETTERING PERSONAL CARE,VALERIE KETTERING,"374 HARRISON STREET,",SHARON,PA,16146,7243463714,MERCER,8,PROFIT,471530
PERSONAL CARE HOMES,KEYSTONE COMMUNITY MH,KEYSTONE HUMAN SERVICES,"1009 OLD NOBLESTOWN ROAD,",OAKDALE,PA,15071,7243073085,ALLEGHENY,8,NON-PROFIT,438760
PERSONAL CARE HOMES,KEYSTONE HOSPICE,KEYSTONE HOSPICE,"8765 STENTON AVENUE,",WYNDMOOR,PA,19038,2158362440,MONTGOMERY,20,NON-PROFIT,127970
PERSONAL CARE HOMES,KEYSTONE HUMAN SERVICES,KEYSTONE HUMAN SERVICES,"759 CRAWFORD ROAD,",PITTSBURGH,PA,15237,4123541006,ALLEGHENY,8,NON-PROFIT,447390
PERSONAL CARE HOMES,KEYSTONE MENTAL HEALTH SERVICES - MCKINLEY ST. PCH,"KEYSTONE SERVICE SYSTEMS, INC.","1280 MCKINLEY STREET,",CHAMBERSBURG,PA,17201,7172610515,FRANKLIN,8,NON-PROFIT,320340
PERSONAL CARE HOMES,KEYSTONE VILLA AT DOUGLASSVILLE PERSONAL CARE,HSL DOUGLASSVILLE SUBTENANT LLC,"1152 BEN FRANKLIN HIGHWAY EAST,",DOUGLASSVILLE,PA,19518,6103852000,BERKS,168,PROFIT,227680
PERSONAL CARE HOMES,KEYSTONE VILLA AT EPHRATA,HSL EPHRATA SUBTENANT LLC,"100 NORTH STATE STREET,",EPHRATA,PA,17522,7174666330,LANCASTER,100,PROFIT,334660
PERSONAL CARE HOMES,KEYSTONE VILLA AT FLEETWOOD,HSL BLANDON SUBTENANT LLC,"501 HOCH ROAD,",BLANDON,PA,19510,4846378300,BERKS,65,PROFIT,227700
PERSONAL CARE HOMES,KHS MENTAL HEALTH SERVICES - BEAVER CREEK SCR,KEYSTONE SERVICE SYSTEMS INC,"676 BEAVER CREEK ROAD,",HANOVER,PA,17331,5702861757,ADAMS,8,NON-PROFIT,334800
PERSONAL CARE HOMES,KHS MENTAL HEALTH SERVICES - SCR CUMBERLAND ST,KEYSTONE SERVICE SYSTEMS INC,"341 CUMBERLAND STREET,",LEBANON,PA,17042,7176824071,LEBANON,8,NON-PROFIT,336720
PERSONAL CARE HOMES,KHS MENTAL HEALTH SERVICES - SCR RAGGED EDGE RD,KEYSTONE SERVICE SYSTEMS INC,"400 RAGGED EDGE ROAD,",CHAMBERSBURG,PA,17202,5702861757,FRANKLIN,8,NON-PROFIT,336460
PERSONAL CARE HOMES,KHS MENTAL HEALTH SERVICES-CHAMBERS ST. SPECIALIZED PC,KEYSTONE SERVICE SYSTEMS INC,"1025 CHAMBERS STREET,",HARRISBURG,PA,17113,7179391979,DAUPHIN,8,NON-PROFIT,304830
PERSONAL CARE HOMES,KHS MENTAL HEALTH SERVICES-GARDNERS SCR,KEYSTONE SERVICE SYSTEMS INC,"221 OLD STATE ROAD,",GARDNERS,PA,17324,7174868888,CUMBERLAND,8,NON-PROFIT,315070
PERSONAL CARE HOMES,KHS MENTAL HEALTH SERVICES-GREEN STREET SPECIALIZED PC,KEYSTONE SERVICE SYSTEMS INC,"2900 GREEN STREET,",HARRISBURG,PA,17110,7175588450,DAUPHIN,8,NON-PROFIT,328780
PERSONAL CARE HOMES,KHS MENTAL HEALTH SERVICES-QUEEN ST SPECIALIZED PC,KEYSTONE SERVICE SYSTEMS INC,"2033 SOUTH QUEEN STREET,",YORK,PA,17402,7175588450,YORK,8,NON-PROFIT,329500
PERSONAL CARE HOMES,KHS MENTAL HEALTH SERVICES-REYNOLDS LANE SPECIALIZED PC,KEYSTONE SERVICE SYSTEMS INC,"5250 REYNOLDS LANE,",HARRISBURG,PA,17111,7175580906,DAUPHIN,8,NON-PROFIT,316580
PERSONAL CARE HOMES,KHS MENTAL HEALTH SERVICES-SILVER SPRING SPECIALIZED PC,KEYSTONE SERVICE SYSTEMS INC,"427 HOGESTOWN ROAD,",MECHANICSBURG,PA,17050,7177665157,CUMBERLAND,8,NON-PROFIT,305710
PERSONAL CARE HOMES,KHS MENTAL HEATLTH SERVICES MARKET ST SPECIALIZED COMM RES,KEYSTONE SERVICE SYSTEMS INC,"1926 EAST MARKET STREET,",YORK,PA,17402,7177552103,YORK,8,NON-PROFIT,312380
PERSONAL CARE HOMES,KING'S PERSONAL CARE HOME,RAYALENE KING,"390 MOUNTAIN ROAD,",UNIONTOWN,PA,15401,7245649788,FAYETTE,16,PROFIT,410050
PERSONAL CARE HOMES,KINGSTON MANOR PERSONAL CARE CENTER,KINGSTON MANOR PCH LLC,"700 THIRD AVENUE,",KINGSTON,PA,18704,5702833660,LUZERNE,122,PROFIT,225570
PERSONAL CARE HOMES,KINKORA PYTHIAN HOME,KNIGHTS OF PYTHIAS,"25 COVE ROAD,",DUNCANNON,PA,17020,7178344887,PERRY,65,NON-PROFIT,342990
PERSONAL CARE HOMES,KIRKLAND VILLAGE,"PRESBYTERIAN HOMES, INC.","1 KIRKLAND VILLAGE,",BETHLEHEM,PA,18017,6106914500,NORTHAMPTON,64,NON-PROFIT,220500
PERSONAL CARE HOMES,KNICKERBOCKER VILLA,"KNICKERBOCKER ACQUISITION, LLC","304 SOUTH SECOND STREET,",CLEARFIELD,PA,16830,8147651933,CLEARFIELD,70,PROFIT,448700
PERSONAL CARE HOMES,LA CASA PERSONAL CARE HOME,LAURA B SEGERS AND JOEL W SEGERS,"1502 E. WASHINGTON STREET,",NEW CASTLE,PA,16101,7246547824,LAWRENCE,13,PROFIT,402110
PERSONAL CARE HOMES,LABOR OF LOVE - BUILDING 3,LABOR OF LOVE INC,"1140 NORTH 63RD STREET,",PHILADELPHIA,PA,19151,2159212935,PHILADELPHIA,12,PROFIT,101890
PERSONAL CARE HOMES,LABOR OF LOVE-BUILDING 1,LABOR OF LOVE INC,"2029 NORTH 62ND STREET,",PHILADELPHIA,PA,19151,2159212935,PHILADELPHIA,11,PROFIT,145570
PERSONAL CARE HOMES,LABOR OF LOVE-BUILDING 2,LABOR OF LOVE INC,"2037 NORTH 62ND STREET,",PHILADELPHIA,PA,19151,2159212935,PHILADELPHIA,10,PROFIT,116370
PERSONAL CARE HOMES,LAKEVIEW AT TEL HAI PERSONAL CARE,TEL HAI RETIREMENT COMMUNITY,"PO BOX 190,4200 TEL HAI CIRCLE,",HONEY BROOK,PA,19344,6102739333,CHESTER,100,NON-PROFIT,173640
PERSONAL CARE HOMES,LAKEVIEW PERSONAL CARE,EMBASSY DARLINGTON LLC,"498 LISBON ROAD,",DARLINGTON,PA,16115,7244956139,BEAVER,92,PROFIT,451610
PERSONAL CARE HOMES,LAKEVIEW SENIOR LIVING,LAKEVIEW SENIOR CARE AND LIVING CENTER LLC,"15 WEST WILLOW STREET,","SMETHPORT,",PA,16749,8148875716,MCKEAN,28,PROFIT,426510
PERSONAL CARE HOMES,LANDIS HOMES RETIREMENT COMMUNITY,LANDIS HOMES RETIREMENT COMMUNITY,"1001 EAST OREGON ROAD,",LITITZ,PA,17543,7175693271,LANCASTER,124,NON-PROFIT,321770
PERSONAL CARE HOMES,LANE AVENUE PERSONAL CARE HOME,WILBRI INC,"206 LANE AVENUE,",PUNXSUTAWNEY,PA,15767,8149382572,JEFFERSON,42,PROFIT,424090
PERSONAL CARE HOMES,"LASOSKY'S PERSONAL CARE HOME, INC.",LASOSKYS PERSONAL CARE HOME INC,"23 MAIN STREET,",CLARKSVILLE,PA,15322,7243772680,WASHINGTON,25,PROFIT,418580
PERSONAL CARE HOMES,LATROBE MANOR,LATROBE MANOR LLC,"501 SOUTH ALEXANDRIA STREET,",LATROBE,PA,15650,7245373334,WESTMORELAND,38,PROFIT,451030
PERSONAL CARE HOMES,LAUREL CENTER,125 HOLLY ROAD OPERATIONS LLC,"125 HOLLY ROAD,",HAMBURG,PA,19526,6105622284,BERKS,38,PROFIT,222020
PERSONAL CARE HOMES,LAUREL VIEW VILLAGE,"ALLEGHENY CHRISTIAN MINISTRIES, INC.","2000 CAMBRIDGE DRIVE,",DAVIDSVILLE,PA,15928,8142882724,SOMERSET,107,NON-PROFIT,321350
PERSONAL CARE HOMES,LAURELBROOKE PERSONAL CARE,WRC PENNSYLVANIA MEMORIAL HOME,"133 LAURELBROOKE DRIVE,",BROOKVILLE,PA,15825,8148493615,JEFFERSON,50,NON-PROFIT,424630
PERSONAL CARE HOMES,LEAH'S VICTORIAN COTTAGE I,LEAH C ILGENFRITZ,"511 PARK AVENUE,",SCOTTDALE,PA,15683,7248873920,WESTMORELAND,30,PROFIT,429350
PERSONAL CARE HOMES,LEBANON VALLEY BRETHREN HOME,LEBANON VALLEY BRETHREN HOME,"1200 GRUBB STREET,",PALMYRA,PA,17078,7178385406,LEBANON,58,NON-PROFIT,342960
PERSONAL CARE HOMES,LEBANON VALLEY HOME,UNITED CHURCH OF CHRIST HOMES INC,"550 EAST MAIN STREET,",ANNVILLE,PA,17003,7178674467,LEBANON,40,NON-PROFIT,347800
PERSONAL CARE HOMES,LEGACY GARDENS OF BRISTOL,LEGACY AT BRISTOL INC,"2022 BATH ROAD,",BRISTOL,PA,19007,2157818700,BUCKS,26,PROFIT,131080
PERSONAL CARE HOMES,LEGACY PLACE COTTAGES,JAH-JIREH HOMES OF AMERICA - ALLENTOWN,"2051 BEVIN DRIVE,",ALLENTOWN,PA,18103,4848603900,LEHIGH,48,NON-PROFIT,225510
PERSONAL CARE HOMES,LEGEND PERSONAL CARE AND MEMORY CARE OF ALLENTOWN,ALLENTOWN PCH LLC,"6043 LOWER MACUNGIE ROAD,",MACUNGIE,PA,18062,6104260223,LEHIGH,100,PROFIT,227320
PERSONAL CARE HOMES,LEGEND PERSONAL CARE AND MEMORY CARE OF LANCASTER,LANCASTER PCH LLC,"31 MILLERSVILLE ROAD,",LANCASTER,PA,17603,7172088655,LANCASTER,100,PROFIT,333060
PERSONAL CARE HOMES,LEGEND PERSONAL CARE AND MEMORY CARE OF LITITZ,LITITZ PCH LLC,"80 WEST MILLPORT ROAD,",LITITZ,PA,17543,7172834255,LANCASTER,100,PROFIT,332980
PERSONAL CARE HOMES,LEHIGH COMMONS,1680 SPRING CREEK ROAD OPERATIONS LLC,"1680 SPRING CREEK ROAD,",MACUNGIE,PA,18062,6105308089,LEHIGH,80,PROFIT,222050
PERSONAL CARE HOMES,LEIGHTON PLACE,WILLIAMSPORT AID II OPCO LLC,"1251 RURAL AVENUE,",WILLIAMSPORT,PA,17701,5703221125,LYCOMING,65,PROFIT,226600
PERSONAL CARE HOMES,LEISURE LIVING RETIREMENT HOME,LEISURE LIVING RETIREMENT HOME LLC,"29169 GREAT COVE ROAD,",FT. LITTLETON,PA,17223,7179873082,FULTON,38,PROFIT,315520
PERSONAL CARE HOMES,LIBERTY SQUARE PERSONAL CARE,PERSONACORP INC,"86 MAIN STREET,",STOUCHSBURG,PA,19567,6105891679,BERKS,19,PROFIT,205720
PERSONAL CARE HOMES,LIFE'S PROMISE PERSONAL CARE HOME,LIFE S PROMISE PCH INC,"2053 STATE ROUTE 711,",LIGONIER,PA,15658,7243228814,WESTMORELAND,18,PROFIT,448390
PERSONAL CARE HOMES,LIGHTHOUSE PERSONAL CARE HOME,MILDRED A CALLAHAN,"1007 PARK STREET,",MCKEESPORT,PA,15132,4128961806,ALLEGHENY,19,PROFIT,433230
PERSONAL CARE HOMES,LIGONIER GARDENS,THE BETHLEN HOME OF HUNGARIAN REFORMED FEDERATION OF AMERIC,"2018 ROUTE 30 EAST,",LIGONIER,PA,15658,7242383517,WESTMORELAND,71,NON-PROFIT,428050
PERSONAL CARE HOMES,LINCOLN CHRISTIAN HOME,WEAVERLAND MENNONITE HOMES,"1307 APPLE STREET,",EPHRATA,PA,17522,7177330080,LANCASTER,93,NON-PROFIT,329380
PERSONAL CARE HOMES,LINDEN VILLAGE MANOR CARE HEALTH SERVICES,MANOR CARE LINDEN VILLAGE OF LEBANON PA LLC,"100 TUCK STREET,",LEBANON,PA,17042,7172747400,LEBANON,64,PROFIT,324270
PERSONAL CARE HOMES,LINT'S PERSONAL CARE HOME,ALWAYS CARE LLC,"697 VANDERBILT ROAD,",CONNELLSVILLE,PA,15425,7246268112,FAYETTE,41,PROFIT,443952
PERSONAL CARE HOMES,LIZA'S HOUSE,ELITE CARE GROUP LLP,"1357 BLUE MOUNTAIN DRIVE,",DANIELSVILLE,PA,18038,6107601970,NORTHAMPTON,30,PROFIT,214770
PERSONAL CARE HOMES,LOCUST GROVE PERSONAL CARE,WEST MIFFLIN OPERATING LP,"4043 IRENE STREET,",WEST MIFFLIN,PA,15122,4124617210,ALLEGHENY,120,PROFIT,443410
PERSONAL CARE HOMES,LOGAN PLACE,LOGAN AID OPCO LLC,"180 CRAIGDELL ROAD,",LOWER BURRELL,PA,15068,7243340529,WESTMORELAND,47,PROFIT,444940
PERSONAL CARE HOMES,LONGWOOD AT OAKMONT PERSONAL CARE CENTER,LONGWOOD AT OAKMONT INC,"500 ROUTE 909,",VERONA,PA,15147,4128264800,ALLEGHENY,40,NON-PROFIT,441390
PERSONAL CARE HOMES,LONGWOOD AT OAKMONT PERSONAL CARE CENTER,LONGWOOD AT OAKMONT INC,"500 ROUTE 909,",VERONA,PA,15147,4128264800,ALLEGHENY,49,NON-PROFIT,429900
PERSONAL CARE HOMES,LOWRIE PLACE,LOWRIE AID OPCO LLC,"100 STERLING VILLAGE DRIVE,",BUTLER,PA,16001,7242872171,BUTLER,47,PROFIT,444960
PERSONAL CARE HOMES,LOYALHANNA HEALTH CARE ASSOCIATES,LOYALHANNA HEALTH CARE ASSOCIATES,"543 MCFARLAND ROAD,",LATROBE,PA,15650,7245375500,WESTMORELAND,84,PROFIT,446590
PERSONAL CARE HOMES,LUTHER CREST RETIREMENT COMMUNITY,DIAKON LUTHERAN SOCIAL MINISTRIES,"COMMONS, 800 HAUSMAN ROAD,",ALLENTOWN,PA,18104,6106821262,LEHIGH,71,NON-PROFIT,216290
PERSONAL CARE HOMES,LUTHERAN COMMUNITY AT TELFORD,LUTHERAN COMMUNITY AT TELFORD,"235 NORTH WASHINGTON STREET,",TELFORD,PA,18969,2157239819,BUCKS,125,NON-PROFIT,126720
PERSONAL CARE HOMES,LUTHERAN HOME AT KANE/RESIDENTIAL CARE CENTER,LUTHERAN HOME AT KANE,"100 HIGH POINT DRIVE,",KANE,PA,16735,8148378770,MCKEAN,33,NON-PROFIT,426450
PERSONAL CARE HOMES,LUTHERAN SENIOR LIFE PASSAVANT COMMUNITY,PASSAVANT RETIREMENT AND HEALTH CENTER,"103 BURGESS DRIVE,",ZELIENOPLE,PA,16063,7244525400,BUTLER,68,NON-PROFIT,446120
PERSONAL CARE HOMES,LYNN HAVEN PERSONAL CARE HOME,RENEE STUCKICH,"119 WALNUT STREET, PO BOX 484,",BLACK LICK,PA,15716,7242489600,INDIANA,36,PROFIT,445160
PERSONAL CARE HOMES,LYTLE'S PERSONAL CARE HOME LLC,LYTLES PERSONAL CARE HOME LLC,"4508 NATIONAL PIKE,",MARKLEYSBURG,PA,15459,8142790961,FAYETTE,30,PROFIT,443910
PERSONAL CARE HOMES,M.H.A. ENHANCED PERSONAL CARE HOME,MENTAL HEALTH ASSOCIATION OF WASHINGTON COUNTY,"200 SPRING STREET,",BENTLEYVILLE,PA,15314,7242393775,WASHINGTON,12,NON-PROFIT,424150
PERSONAL CARE HOMES,MAGNOLIA MANOR,VINEYARD OF THE LORD INC,"6 REES DRIVE,",WILLOW STREET,PA,17584,7174641237,LANCASTER,16,NON-PROFIT,331340
PERSONAL CARE HOMES,MAGNOLIA PLACE OF SAXONBURG,MAGNOLIA PLACE MANAGEMENT LLC,"100 BELLA COURT,",SAXONBURG,PA,16056,7243522827,BUTLER,84,PROFIT,450900
PERSONAL CARE HOMES,MAGNOLIAS OF CHAMBERSBURG - BUILDING 1,"TITHONUS CHAMBERSBURG, LP","735 NORLAND AVENUE,",CHAMBERSBURG,PA,17201,7172646000,FRANKLIN,26,PROFIT,307670
PERSONAL CARE HOMES,MAGNOLIAS OF CHAMBERSBURG - BUILDING 2,TITHONUS CHAMBERSBURG LP,"745 NORLAND AVENUE,",CHAMBERSBURG,PA,17201,7172646000,FRANKLIN,26,PROFIT,307690
PERSONAL CARE HOMES,MAGNOLIAS OF LANCASTER,"TITHONUS LANCASTER, LP","1870 ROHRESTOWN ROAD,",LANCASTER,PA,17601,7175601100,LANCASTER,38,PROFIT,322590
PERSONAL CARE HOMES,MAHONING RIVERSIDE MANOR,MAHONING RIVERSIDE MANOR,"98 FOUNDRY STREET,",PUNXSUTAWNEY,PA,15767,8149381745,JEFFERSON,44,PROFIT,406810
PERSONAL CARE HOMES,MAIDENCREEK PLACE,READING AID II OPCO LLC,"105 DRIES ROAD,",READING,PA,19605,6109267600,BERKS,75,PROFIT,226580
PERSONAL CARE HOMES,MANATAWNY MANOR,DIAKON LUTHERAN SOCIAL MINISTRIES,"30 OLD SCHUYLKILL ROAD,",POTTSTOWN,PA,19465,6107053700,CHESTER,124,NON-PROFIT,104360
PERSONAL CARE HOMES,MANCHESTER COMMONS OF PRESBYTERIAN SENIOR CARE,THE PRESBYTERIAN HOMES IN THE PRESBY OF LAKE ERIE,"6351 WEST LAKE ROAD,",ERIE,PA,16505,8148389191,ERIE,80,NON-PROFIT,450560
PERSONAL CARE HOMES,MAPLE LEAF PERSONAL CARE HOME,GRACE CARE INC,"149 EAST SUNBURY STREET,",SHAMOKIN,PA,17872,5706483895,NORTHUMBERLAND,30,PROFIT,210790
PERSONAL CARE HOMES,MAPLE SHADE MEADOWS SENIOR LIVING,MAPLE SHADE MEADOWS LP,"50 EAST LOCUST STREET,",NESQUEHONING,PA,18240,5706695500,CARBON,104,PROFIT,204000
PERSONAL CARE HOMES,MAPLE VALLEY PERSONAL CARE HOME,MAPLE VALLEY PERSONAL CARE HOME INC,"2212 ANTHONY RUN ROAD,",INDIANA,PA,15701,7244654343,INDIANA,40,PROFIT,427690
PERSONAL CARE HOMES,MAPLE WINDS PERSONAL CARE,MAPLE WINDS HEALTHCARE AND REHABILITATION CENTER LLC,"4112 SPRINGHILL ROAD,",PORTAGE,PA,15946,8147366000,CAMBRIA,22,PROFIT,333250
PERSONAL CARE HOMES,MAPLEWOOD PERSONAL CARE HOME,MCDOWELL INC,"461 MAPLEWOOD AVENUE,",AMBRIDGE,PA,15003,7242664485,BEAVER,37,PROFIT,458370
PERSONAL CARE HOMES,MARIA HALL,"MARIA HALL, INC.","190 MARIA HALL DR., 3RD FLOOR,",DANVILLE,PA,17821,5702751120,MONTOUR,36,NON-PROFIT,215210
PERSONAL CARE HOMES,MARIA JOSEPH MANOR,SISTERS OF SAINTS CYRIL AND METHODIUS,"1707 MONTOUR BOULEVARD,",DANVILLE,PA,17821,5702754221,MONTOUR,95,NON-PROFIT,200320
PERSONAL CARE HOMES,MARIAN MANOR CORPORATION,MARIAN MANOR CORPORATION,"2695 WINCHESTER DRIVE,",PITTSBURGH,PA,15220,4124404321,ALLEGHENY,57,NON-PROFIT,429610
PERSONAL CARE HOMES,MARION MANOR SENIOR LIVING,GUARDIAN ELDER CARE AT CURWENSVILLE LLC,"1223 SCHOFIELD ST, EXTENSION,",CURWENSVILLE,PA,16833,8142368333,CLEARFIELD,40,PROFIT,448690
PERSONAL CARE HOMES,MARIS GROVE,MARIS GROVE INC,"500 MARIS GROVE WAY,",GLEN MILLS,PA,19342,6103874630,DELAWARE,66,NON-PROFIT,134660
PERSONAL CARE HOMES,MARISSA'S CORNER PERSONAL CARE,CLARENCE AND CAROL SCHMUCK,"1404 THIRD AVENUE,",YORK,PA,17403,7178552188,YORK,13,PROFIT,319260
PERSONAL CARE HOMES,MARQUIS GARDENS PLACE,MARQUIS AID OPCO LLC,"660 CHERRY TREE LANE,",UNIONTOWN,PA,15401,7244307258,FAYETTE,47,PROFIT,444950
PERSONAL CARE HOMES,"MARTHA'S MANOR, INC.",MARTHAS MANOR INC,"124 COSEY LANE,",LILLY,PA,15938,8148865180,CAMBRIA,25,PROFIT,322940
PERSONAL CARE HOMES,MARTIN'S CARE HOME,MARTINS CARE HOME INC,"522 WEST MAIN STREET,",ROCKWOOD,PA,15557,8149263062,SOMERSET,18,PROFIT,321540
PERSONAL CARE HOMES,MASONIC VILLAGE AT ELIZABETHTOWN,MASONIC VILLAGES OF THE GRAND LODGE OF PENNSYLVANIA,"ONE MASONIC DRIVE,",ELIZABETHTOWN,PA,17022,7173671121,LANCASTER,135,NON-PROFIT,330080
PERSONAL CARE HOMES,MASONIC VILLAGE AT SEWICKLEY-STAR POINTS BUILDING,MASONIC VILLAGES OF THE GRAND LODGE OF PENNSYLVANIA,"1000 MASONIC DRIVE,",SEWICKLEY,PA,15143,4127411400,ALLEGHENY,64,NON-PROFIT,444390
PERSONAL CARE HOMES,MASONIC VILLAGE OF LAFAYETTE HILL,MASONIC VILLAGES OF THE GRAND LODGE OF PENNSYLVANIA,"801 RIDGE PIKE,",LAFAYETTE HILL,PA,19444,6108256100,MONTGOMERY,51,NON-PROFIT,138700
PERSONAL CARE HOMES,MASONIC VILLAGE OF WARMINSTER,MASONIC VILLAGES OF THE GRAND LODGE OF PENNSYLVANIA,"850 NORRISTOWN ROAD,",WARMINSTER,PA,18974,2156722500,BUCKS,19,NON-PROFIT,138710
PERSONAL CARE HOMES,MCCALLUM ASSISTED LIFE,WILMATT INC,"7141 MCCALLUM STREET,",PHILADELPHIA,PA,19119,2152422991,PHILADELPHIA,48,PROFIT,144450
PERSONAL CARE HOMES,MCCLOUD'S PERSONAL CARE,SHELLEY R SMITH,"1518 WEST HAINES STREET,",PHILADELPHIA,PA,19126,2152241752,PHILADELPHIA,8,PROFIT,145660
PERSONAL CARE HOMES,MCCULLOUGH PLACE,MCCULLOUGH AID OPCO LLC,"500 CHENEY OAK DRIVE,",JOHNSTOWN,PA,15905,8142552213,CAMBRIA,55,PROFIT,330640
PERSONAL CARE HOMES,MCMAHON CARE,MCMAHON CARE LLC,"73 PINE STREET,",HILLSGROVE,PA,18619,5709244506,SULLIVAN,10,PROFIT,227480
PERSONAL CARE HOMES,MCVEY PERSONAL CARE HOME,JEAN MCVEY,"235 NORTH GALLATIN AVENUE,",UNIONTOWN,PA,15401,7244373235,FAYETTE,8,PROFIT,460240
PERSONAL CARE HOMES,MEADOW GLEN AT PHOEBE RICHLAND,PHOEBE RICHLAND HEALTH CARE CENTER,"108 SOUTH MAIN STREET,",RICHLANDTOWN,PA,18955,2673714539,BUCKS,100,NON-PROFIT,142250
PERSONAL CARE HOMES,MEADOW RIDGE AT WILLOW VALLEY,WILLOW VALLEY COMMUNITIES,"925 WILLOW VALLEY LAKES DRIVE,",WILLOW STREET,PA,17584,7174908100,LANCASTER,156,NON-PROFIT,322050
PERSONAL CARE HOMES,MEADOW VIEW AT GARDEN SPOT VILLAGE,GARDEN SPOT VILLAGE,"800 KRAYBILL AVENUE,",NEW HOLLAND,PA,17557,7173556136,LANCASTER,50,NON-PROFIT,336630
PERSONAL CARE HOMES,MEADOWOOD,MEADOWOOD CORPORATION,"P.O.BOX 670, 3205 SKIPPACK PIKE",WORCESTER,PA,19490,6105841000,MONTGOMERY,76,NON-PROFIT,127870
PERSONAL CARE HOMES,MEADOWS LIVING CENTER AT COUNTRY MEADOWS OF BETHLEHEM,COUNTRY MEADOWS OF NORTHAMPTON ASSOCIATES LP,"4005 GREEN POND ROAD,",BETHLEHEM,PA,18020,6108823190,NORTHAMPTON,64,PROFIT,237880
PERSONAL CARE HOMES,MELODY MANOR,MELODY MANOR PCH LLC,"413 NORTH MCKEAN STREET,",KITTANNING,PA,16201,7245451564,ARMSTRONG,43,PROFIT,446760
PERSONAL CARE HOMES,MEMORY MEADOWS PERSONAL CARE HOME,ROSS' MEMORY MEADOWS ASSISTED LIVING FACILITY LLC,"321 GODFREY ROAD,",LEECHBURG,PA,15656,7242360136,ARMSTRONG,8,PROFIT,447050
PERSONAL CARE HOMES,MENNO HAVEN MEMORY CARE - 1,MENNO HAVEN INC,"700 NORTH PENN HALL DRIVE,",CHAMBERSBURG,PA,17201,7172610220,FRANKLIN,15,NON-PROFIT,335120
PERSONAL CARE HOMES,MENNO HAVEN MEMORY CARE - 2,MENNO HAVEN INC,"702 NORTH PENN HALL DRIVE,",CHAMBERSBURG,PA,17201,7172610220,FRANKLIN,15,NON-PROFIT,335130
PERSONAL CARE HOMES,MERAKEY MONTGOMERY COUNTY,MERAKEY MONTGOMERY COUNTY,"478 BETHLEHEM PIKE,",FORT WASHINGTON,PA,19034,2156414935,MONTGOMERY,8,NON-PROFIT,127950
PERSONAL CARE HOMES,MERAKEY PENNSYLVANIA,MERAKEY PENNSYLVANIA,"1460 PEIFFERS LANE,",STEELTON,PA,17113,7174413700,DAUPHIN,6,NON-PROFIT,310360
PERSONAL CARE HOMES,MERAKEY PENNSYLVANIA,MERAKEY PENNSYLVANIA,"1071 PAGE ROAD,",HARRISBURG,PA,17111,7172436033,DAUPHIN,8,NON-PROFIT,321000
PERSONAL CARE HOMES,MERAKEY PENNSYLVANIA,MERAKEY PENNSYLVANIA,"515 DELAWARE AVENUE,",BETHLEHEM,PA,18015,6108668331,LEHIGH,16,NON-PROFIT,224010
PERSONAL CARE HOMES,MERAKEY PENNSYLVANIA,MERAKEY PENNSYLVANIA,"108 CEDARWOOD CIRCLE,",RUSSELLTON,PA,15076,4122471091,ALLEGHENY,10,NON-PROFIT,438420
PERSONAL CARE HOMES,MERCY BEHAVIORAL HEALTH - MUNHALL MANOR,MERCY LIFE CENTER CORPORATION,"2514 MAIN STREET,",MUNHALL,PA,15120,4124618392,ALLEGHENY,16,NON-PROFIT,434730
PERSONAL CARE HOMES,MERCY CENTER PERSONAL CARE HOME,MERCY CENTER NURSING UNIT INC,"P.O. BOX 370, LAKE STREET,",DALLAS,PA,18612,5706752131,LUZERNE,92,NON-PROFIT,237530
PERSONAL CARE HOMES,MERRILL GARDENS AT GLEN MILLS,BH GLEN MILLS MANAGEMENT PA LLC,"52 BALTIMORE PIKE,",GLEN MILLS,PA,19342,6103585220,DELAWARE,120,PROFIT,146700
PERSONAL CARE HOMES,MESSIAH LIFEWAYS AT MESSIAH VILLAGE,MESSIAH HOME INC,"100 MT. ALLEN DRIVE,",MECHANICSBURG,PA,17055,7176974666,CUMBERLAND,238,NON-PROFIT,342910
PERSONAL CARE HOMES,MICHAUX MANOR LIVING CENTER,DALT PROPERTIES INC,"11302 SOUTH MOUNTAIN ROAD,",FAYETTEVILLE,PA,17222,7177495000,FRANKLIN,65,PROFIT,343870
PERSONAL CARE HOMES,MID-VALLEY MANOR PERSONAL CARE CENTER,MID-VALLEY MANOR PCH LLC,"65 STURGES ROAD,",PECKVILLE,PA,18452,5703839855,LACKAWANNA,90,PROFIT,225660
PERSONAL CARE HOMES,MIFFLIN COURT,450 EAST PHILADELPHIA AVENUE OPERATIONS LLC,"450 EAST PHILADELHIA AVENUE,",SHILLINGTON,PA,19607,6107961600,BERKS,67,PROFIT,222060
PERSONAL CARE HOMES,MILLER PERSONAL CARE AT 19TH AND CHEW,PHOEBE HOME INCORPORATED,"1925 TURNER STREET,",ALLENTOWN,PA,18104,6107945231,LEHIGH,60,NON-PROFIT,216170
PERSONAL CARE HOMES,MILLER PERSONAL CARE HOME,MICHAEL R. MILLER,"1216 PERKIOMEN AVENUE,",READING,PA,19602,6103749203,BERKS,18,PROFIT,205130
PERSONAL CARE HOMES,MILTON DEVELOPMENTAL SERVICES,MILTON DEVELOPMENTAL SERVICES INC,"58 WALNUT STREET, P.O. BOX 416,",MILTON,PA,17847,5707427535,NORTHUMBERLAND,18,PROFIT,213730
PERSONAL CARE HOMES,MILTON DEVELOPMENTAL SERVICES II,MILTON DEVELOPMENTAL SERVICES INC,"60 WALNUT STREET, P.O. BOX 416,",MILTON,PA,17847,5707429849,NORTHUMBERLAND,24,PROFIT,202150
PERSONAL CARE HOMES,MINELLI'S KOZY COMFORT LIVING,MINELLIS KOZY COMFORT LIVING INC,"1640 NORTH MAIN AVENUE,",SCRANTON,PA,18508,5703425499,LACKAWANNA,27,PROFIT,201000
PERSONAL CARE HOMES,MOLNAR'S PERSONAL CARE HOME,GEORGETTA A MOLNAR,"258 PLUMMER ROAD,",MCCLELLANDTOWN,PA,15458,7247373062,FAYETTE,8,PROFIT,449930
PERSONAL CARE HOMES,MON VALLEY CARE CENTER,CPSR ASSOCIATES LLC,"200 STOOPS DRIVE,",MONONGAHELA,PA,15063,7243101111,WASHINGTON,41,PROFIT,418160
PERSONAL CARE HOMES,MONARCH MEADOW,MONARCH MEADOW LLC,"490 COOLSPRING STREET,",UNIONTOWN,PA,15401,8142887807,FAYETTE,49,PROFIT,449440
PERSONAL CARE HOMES,MOOREHEAD PLACE,MOOREHEAD AID OPCO LLC,"116 MADISON CIRCLE,",INDIANA,PA,15701,7244659606,INDIANA,47,PROFIT,444900
PERSONAL CARE HOMES,MORAVIAN HALL SQUARE PERSONAL CARE RESIDENCES,MORNINGSTAR SENIOR LIVING INC,"175 WEST NORTH STREET,",NAZARETH,PA,18064,6107461000,NORTHAMPTON,104,NON-PROFIT,226280
PERSONAL CARE HOMES,MORAVIAN KING'S DAUGHTERS AND SONS HOME,MORAVIAN UNION OF KING'S DAUGHTERS & SONS OF BETHLEHEM PA,"61 WEST MARKET STREET,",BETHLEHEM,PA,18018,6108675382,NORTHAMPTON,16,NON-PROFIT,242140
PERSONAL CARE HOMES,MORAVIAN MANOR,MORAVIAN MANORS INC,"300 WEST LEMON STREET,",LITITZ,PA,17543,7176260214,LANCASTER,25,NON-PROFIT,321760
PERSONAL CARE HOMES,MORAVIAN VILLAGE II OF BETHLEHEM,MORAVIAN VILLAGE OF BETHLEHEM,"526 WOOD STREET,",BETHLEHEM,PA,18018,6106254885,NORTHAMPTON,250,NON-PROFIT,215690
PERSONAL CARE HOMES,MORNING GLORY SENIOR LIVING,MORNING GLORY SENIOR LIVING INC,419 N. QUEEN STREET,LITTLESTOWN,PA,17340,7173599990,ADAMS,12,PROFIT,312800
PERSONAL CARE HOMES,MORNING STAR MANOR,"MORNING STAR MANOR, INC.","306 WEST MAIN STREET,",PEN ARGYL,PA,18072,6108635998,NORTHAMPTON,25,PROFIT,245091
PERSONAL CARE HOMES,MORRIS-PACE PERSONAL CARE,MORRIS-PACE ASSISTED LIVING INC,"416 READING AVENUE,",WEST READING,PA,19611,6103719590,BERKS,63,PROFIT,215900
PERSONAL CARE HOMES,MOUNT CARMEL PERSONAL CARE COMMUNITY,MCNRC LP,"2616 LOCUST GAP HIGHWAY,",MOUNT CARMEL,PA,17851,5703392501,NORTHUMBERLAND,26,PROFIT,222780
PERSONAL CARE HOMES,MOUNT TREXLER MANOR,MOUNT TREXLER MANOR CORPORATION,"5201 ST. JOSEPH RD, PO BOX 1001",LIMEPORT,PA,18060,6109659021,LEHIGH,74,PROFIT,216630
PERSONAL CARE HOMES,MOUNTAIN TOP SENIOR LIVING,GUARDIAN ELDER CARE AT MOUNTAIN TOP I LLC,"185 SOUTH MOUNTAIN BOULEVARD,",MOUNTAIN TOP,PA,18707,5704746377,LUZERNE,34,PROFIT,221670
PERSONAL CARE HOMES,MOUNTAIN VIEW SENIOR LIVING,MOUNTAIN VIEW SENIOR LIVING LLC,"132 NATURE PARK ROAD,",GREENSBURG,PA,15601,7248370690,WESTMORELAND,130,PROFIT,450890
PERSONAL CARE HOMES,MRS. BUSH'S PERSONAL CARE HOME I,"MRS. BUSH'S PERSONAL CARE HOME, INC.","PO BOX 327,302 KUNKLETOWN ROAD,",KUNKLETOWN,PA,18058,6103813713,MONROE,70,PROFIT,228350
PERSONAL CARE HOMES,MRS. BUSH'S PERSONAL CARE HOME II,"MRS. BUSH'S PERSONAL CARE HOME, INC.","110 COUNTRY VIEW LANE,",KUNKLETOWN,PA,18058,6103813713,MONROE,9,PROFIT,242320
PERSONAL CARE HOMES,MS CARE LLC PERSONAL CARE HOME,MS CARE LLC,"2105 GRANDVIEW AVENUE,",MCKEESPORT,PA,15132,4123471715,ALLEGHENY,29,PROFIT,448450
PERSONAL CARE HOMES,MT WOLF MANOR,MT WOLF MANOR LLC,"1054 SECOND STREET,",MT WOLF,PA,17347,7177819064,YORK,15,PROFIT,336000
PERSONAL CARE HOMES,MT. ASSISI PLACE,MT. ASSISI PLACE LLC,"934 FOREST AVENUE,",BELLEVUE,PA,15202,4127611999,ALLEGHENY,81,PROFIT,450201
PERSONAL CARE HOMES,NAZARETH MEMORY CENTER AT MARIA JOSEPH,MARIA JOSEPH MANOR INC,"15 SCHOOLHOUSE ROAD,",DANVILLE,PA,17821,5702758701,MONTOUR,24,NON-PROFIT,211150
PERSONAL CARE HOMES,NELSON'S GOLDEN YEARS,"NELSON GOLDEN YEARS, INC.","137 OKLAHOMA CEMETERY ROAD,",DUBOIS,PA,15801,8143717740,CLEARFIELD,60,PROFIT,448680
PERSONAL CARE HOMES,NEURORESTORATIVE PENNSYLVANIA,MENTOR ABI LLC,"BUILDING 1, 6816 WEST LAKE RD,",FAIRVIEW,PA,16415,8144741977,ERIE,26,PROFIT,442041
PERSONAL CARE HOMES,NEURORESTORATIVE PENNSYLVANIA,MENTOR ABI LLC,"BUILDING 2, 6816 WEST LAKE RD,",FAIRVIEW,PA,16415,8144741977,ERIE,16,PROFIT,442050
PERSONAL CARE HOMES,NEURORESTORATIVE PENNSYLVANIA,MENTOR ABI LLC,"4155 ROXBURY DRIVE,",ERIE,PA,16506,8144741977,ERIE,6,PROFIT,446960
PERSONAL CARE HOMES,NEURORESTORATIVE PENNSYLVANIA,MENTOR ABI LLC,"10589 NORTH EDGEWOOD DRIVE,",LAKE CITY,PA,16423,8144741977,ERIE,5,PROFIT,447960
PERSONAL CARE HOMES,NEURORESTORATIVE PENNSYLVANIA,MENTOR ABI LLC,"1331 DUTCH ROAD,",FAIRVIEW,PA,16415,8144741977,ERIE,5,PROFIT,448180
PERSONAL CARE HOMES,NEURORESTORATIVE PENNSYLVANIA,MENTOR ABI LLC,"6816 WEST LAKE ROAD,",FAIRVIEW,PA,16415,8144741977,ERIE,8,PROFIT,446630
PERSONAL CARE HOMES,NEURORESTORATIVE PENNSYLVANIA,MENTOR ABI LLC,"6726 WALNUT CREEK DRIVE,",FAIRVIEW,PA,16415,8144741977,ERIE,4,PROFIT,446950
PERSONAL CARE HOMES,NEURORESTORATIVE PENNSYLVANIA,MENTOR ABI LLC,"6816 WEST LAKE ROAD,",FAIRVIEW,PA,16415,8144741977,ERIE,8,PROFIT,447100
PERSONAL CARE HOMES,NEW HOPE GRACIOUS PERSONAL CARE,NEW HOPE GRACIOUS SENIOR COMMUNITY,"300 UNION AVENUE,",AVALON,PA,15202,4127614673,ALLEGHENY,85,PROFIT,432100
PERSONAL CARE HOMES,NEW LIFE PERSONAL CARE,"NEW LIFE PERSONAL CARE HOME, INC.","2521 VERSAILLES AVENUE,",MCKEESPORT,PA,15132,4126787455,ALLEGHENY,18,PROFIT,431210
PERSONAL CARE HOMES,NEW MANOR PERSONAL CARE BOARDING HOME,IRENE NELSON,"2211 WEST VENANGO STREET,",PHILADELPHIA,PA,19140,2152258340,PHILADELPHIA,16,PROFIT,115530
PERSONAL CARE HOMES,NEW OPTIONS I,RESOURCES FOR HUMAN DEVELOPMENT INC,"1419-21 POWELL STREET,",NORRISTOWN,PA,19401,6102920225,MONTGOMERY,12,NON-PROFIT,128040
PERSONAL CARE HOMES,NEW VISIONS INC,NEW VISIONS OF SOUTH CENTRAL PA INC,"103 DEERVIEW DRIVE,",NEWVILLE,PA,17241,7177763322,CUMBERLAND,7,NON-PROFIT,328700
PERSONAL CARE HOMES,NEWHAVEN COURT AT CLEARVIEW,TITHONUS BUTLER LP,"100 NEWHAVEN LANE,",BUTLER,PA,16001,7244778713,BUTLER,115,PROFIT,423460
PERSONAL CARE HOMES,NEWHAVEN COURT AT LINDWOOD,TITHONUS GREENSBURG LP,"100 FREEDOM WAY,",GREENSBURG,PA,15601,7248532502,WESTMORELAND,128,PROFIT,429360
PERSONAL CARE HOMES,NEWSEASONS AT NEW BRITAIN,SNH PENN TENANT LLC,"800 MANOR DRIVE,",CHALFONT,PA,18914,2159978700,BUCKS,100,PROFIT,145080
PERSONAL CARE HOMES,NIPPENOSE VALLEY VILLAGE,NIPPENOSE VALLEY VILLAGE INC,"7190 SOUTH STATE ROUTE 44 HWY,",WILLIAMSPORT,PA,17701,5707452400,LYCOMING,59,PROFIT,226700
PERSONAL CARE HOMES,NORBERT RESIDENTIAL CARE FACILITY,NORBERT INC,"2413 ST. NORBERT DRIVE,",PITTSBURGH,PA,15234,4128855202,ALLEGHENY,102,PROFIT,430510
PERSONAL CARE HOMES,NORMANDIE RIDGE,ALBRIGHT CARE SERVICES,"1700 NORMANDIE DRIVE,",YORK,PA,17408,7177646262,YORK,66,NON-PROFIT,351320
PERSONAL CARE HOMES,NORTH PENN MANOR,"NORTH PENN MANOR, INC.","240 NORTH SHERMAN STREET,",WILKES-BARRE,PA,18702,5708228866,LUZERNE,80,PROFIT,220320
PERSONAL CARE HOMES,NORTH RIDGE CENTER PERSONAL CARE,CR NAYLOR INC,"99 NORTHRIDGE DRIVE,",MCALISTERVILLE,PA,17049,7174633413,JUNIATA,24,PROFIT,329230
PERSONAL CARE HOMES,NORTH STRABANE RETIREMENT VILLAGE,NORTH STRABANE RETIREMENT VILLAGE LLC,"200 TANDEM VILLAGE ROAD,",CANONSBURG,PA,15317,7247460600,WASHINGTON,90,PROFIT,448722
PERSONAL CARE HOMES,NORTHVIEW ESTATES,NORTHVIEW ESTATES LIMITED PARTNERSHIP,"945 BORDER AVENUE,",ELLWOOD CITY,PA,16117,7247581200,LAWRENCE,75,PROFIT,404990
PERSONAL CARE HOMES,NOTTINGHAM VILLAGE RETIREMENT CENTER,LEEDS HEALTH CARE SERVICES INC,"60 NEITZ ROAD, PO BOX 32,",NORTHUMBERLAND,PA,17857,5704738356,NORTHUMBERLAND,90,PROFIT,202130
PERSONAL CARE HOMES,OAK LANE PERSONAL CARE HOME,GLOBAL HEALTH CARE SERVICES LLC,"1407-1409 72ND AVENUE,",PHILADELPHIA,PA,19126,2155497988,PHILADELPHIA,15,PROFIT,135290
PERSONAL CARE HOMES,OAK LEAF MANOR NORTH,SENIOR CARE OLM NORTH LLC,"2901 HARRISBURG PIKE,",LANDISVILLE,PA,17538,7178984663,LANCASTER,135,PROFIT,333280
PERSONAL CARE HOMES,OAK LEAF MANOR PERSONAL CARE RETIREMENT HOME,SENIOR CARE - OLM SOUTH LLC,"2101 WABANK ROAD,",MILLERSVILLE,PA,17551,7178729100,LANCASTER,82,PROFIT,333260
PERSONAL CARE HOMES,OAKLEAF PERSONAL CARE HOME,OAKLEAF INC,"3800 OAKLEAF ROAD,",PITTSBURGH,PA,15227,4128818194,ALLEGHENY,65,PROFIT,431460
PERSONAL CARE HOMES,OAKWOOD COURT,HATFIELD MENNONITE HOMES INC,"275 DOCK DRIVE,",LANSDALE,PA,19446,2153684438,MONTGOMERY,80,NON-PROFIT,127960
PERSONAL CARE HOMES,OAKWOOD RESIDENCE,OAKWOOD RESIDENCE LLC,"2109 RED LION ROAD,",PHILADELPHIA,PA,19115,2156737000,PHILADELPHIA,89,PROFIT,132560
PERSONAL CARE HOMES,OAKWOOD TERRACE,PREMIER OAKWOOD TERRACE OPERATING LLC,"400 GLEASON DRIVE,",MOOSIC,PA,18507,5704513171,LACKAWANNA,58,PROFIT,226610
PERSONAL CARE HOMES,OIL CITY SENIOR LIVING,GUARDIAN ELDER CARE AT OIL CITY LLC,"1293 GRANDVIEW ROAD,",OIL CITY,PA,16301,8146788829,VENANGO,22,PROFIT,447980
PERSONAL CARE HOMES,OLD FORGE MANOR PERSONAL CARE CENTER,OLD FORGE MANOR PCH LLC,"246 SOUTH MAIN STREET,",OLD FORGE,PA,18518,5704510788,LACKAWANNA,50,PROFIT,225590
PERSONAL CARE HOMES,OLIVIA VILLAGE,HFA INC,"13771 SOUTH EAGLE VALLEY ROAD,",TYRONE,PA,16686,8146841005,BLAIR,33,PROFIT,319170
PERSONAL CARE HOMES,"ORCHARD MANOR, INC.",ORCHARD MANOR INC,"20 ORCHARD DRIVE,",GROVE CITY,PA,16127,7244587760,MERCER,24,PROFIT,419600
PERSONAL CARE HOMES,ORION PERSONAL CARE,ORION PERSONAL CARE CORPORATION,"2191 FERGUSON ROAD,",ALLISON PARK,PA,15101,4124929789,ALLEGHENY,25,PROFIT,431260
PERSONAL CARE HOMES,ORRSTOWN PERSONAL CARE HOME,ORRSTOWN PERSONAL CARE HOME,"3329 ORRSTOWN ROAD,",ORRSTOWN,PA,17244,7175308700,FRANKLIN,30,PROFIT,309380
PERSONAL CARE HOMES,ORTH HOME,ORTH HOME INC,"6941 OLD YORK ROAD,",PHILADELPHIA,PA,19126,2159242415,PHILADELPHIA,35,PROFIT,143470
PERSONAL CARE HOMES,OUR FAMILY'S HOME,OUR FAMILYS HOME INC,"1126 ROSS AVENUE,",FORD CITY,PA,16226,7247637170,ARMSTRONG,45,PROFIT,444290
PERSONAL CARE HOMES,OUR HOME OF HOPE,OUR HOME OF HOPE INC,"223-225 CHERRY STREET,",COLUMBIA,PA,17512,7176847060,LANCASTER,30,NON-PROFIT,333220
PERSONAL CARE HOMES,OUR HOUSE-WILL SEE YOU HOME-I,CONFER HOME HEALTH SERVICES LLC,"327 HOWARD STREET,",SOUTH WILLIAMSPORT,PA,17702,5703238829,LYCOMING,8,PROFIT,214030
PERSONAL CARE HOMES,OUR LADY OF THE ALLEGHENIES RESIDENCE,GARVEY MANOR NURSING HOME,"1037 SOUTH LOGAN BOULEVARD,",HOLLIDAYSBURG,PA,16648,8146955571,BLAIR,54,NON-PROFIT,316410
PERSONAL CARE HOMES,OUR ORANGEVILLE MANOR PERSONAL CARE HOME,OUR ORANGEVILLE MANOR INC,"210 MILL STREET, PO BOX 157,",ORANGEVILLE,PA,17859,5706835951,COLUMBIA,36,PROFIT,223930
PERSONAL CARE HOMES,OUTLOOK MANOR,MERCY LIFE CENTER CORPORATION,"3560 OUTLOOK DRIVE,",WEST MIFFLIN,PA,15122,4123260012,ALLEGHENY,12,NON-PROFIT,430080
PERSONAL CARE HOMES,OVERLOOK GREEN,SNH PENN TENANT LLC,"5250 MEADOWGREEN DRIVE,",PITTSBURGH,PA,15236,4128818300,ALLEGHENY,128,PROFIT,450570
PERSONAL CARE HOMES,PALMYRA HERITAGE HOUSE,PALMYRA HEALTHCARE MANAGEMENT LLC,"616 WEST MAIN STREET,",PALMYRA,PA,17078,7178389000,LEBANON,36,PROFIT,333910
PERSONAL CARE HOMES,PARADISE MANOR,SYDLYNN INC,"206 EAST LINCOLN AVENUE,",HATFIELD,PA,19440,2158552697,MONTGOMERY,37,PROFIT,144460
PERSONAL CARE HOMES,PARAMOUNT SENIOR LIVING AT BETHEL PARK,PARAMOUNT SENIOR LIVING AT BETHEL PARK LLC,"5785 BAPTIST ROAD,",BETHEL PARK,PA,15102,4128333500,ALLEGHENY,125,PROFIT,440881
PERSONAL CARE HOMES,PARAMOUNT SENIOR LIVING AT CHAMBERSBURG ROAD,PARAMOUNT SENIOR LIVING AT FAYETTEVILLE LLC,"6375 CHAMBERSBURG ROAD,",FAYETTEVILLE,PA,17222,7173522721,ADAMS,100,PROFIT,333830
PERSONAL CARE HOMES,PARAMOUNT SENIOR LIVING AT CRANBERRY,PARAMOUNT SENIOR LIVING AT SEVEN FIELDS LLC,"500 SEVEN FIELDS BOULEVARD,",SEVEN FIELDS,PA,16046,7247795020,BUTLER,92,PROFIT,405150
PERSONAL CARE HOMES,PARAMOUNT SENIOR LIVING AT LANCASTER COUNTY,PARAMOUNT SENIOR LIVING AT MAYTOWN LLC,"2760 MAYTOWN ROAD,",MAYTOWN,PA,17550,7174260033,LANCASTER,116,PROFIT,333900
PERSONAL CARE HOMES,PARAMOUNT SENIOR LIVING AT PETERS TOWNSHIP,PARAMOUNT SENIOR LIVING AT PETERS TOWNSHIP LLC,"240 CEDAR HILL DRIVE,",MCMURRAY,PA,15317,7249691040,WASHINGTON,120,PROFIT,443460
PERSONAL CARE HOMES,PARAMOUNT SENIOR LIVING AT SOUTH HILLS,PARAMOUNT HEALTH RESOURCES LLC,"100 KNOEDLER ROAD,",PITTSBURGH,PA,15236,4126503100,ALLEGHENY,127,PROFIT,433410
PERSONAL CARE HOMES,PARAMOUNT SENIOR LIVING AT STONEBROOK,PARAMOUNT SENIOR LIVING AT FAYETTEVILLE LLC,"6361 CHAMBERSBURG ROAD,",FAYETTEVILLE,PA,17222,7173522721,ADAMS,44,PROFIT,333840
PERSONAL CARE HOMES,PARK CREEK PLACE - MEMORY CARE,NORTH WALES 1089 MC BG OPCO LLC,"1089 HORSHAM ROAD,",NORTH WALES,PA,19454,2155400520,MONTGOMERY,48,PROFIT,142560
PERSONAL CARE HOMES,PARK CREEK PLACE - PERSONAL CARE,NORTH WALES 1091 PCH BG OPCO LLC,"1091 HORSHAM ROAD,",NORTH WALES,PA,19454,2155429670,MONTGOMERY,72,PROFIT,142570
PERSONAL CARE HOMES,PARKER PERSONAL CARE FACILITY,PARKER PERSONAL CARE INC,"103 SEWARD STREET,",PARKER,PA,16049,7243994356,ARMSTRONG,40,NON-PROFIT,426560
PERSONAL CARE HOMES,PARKLAND MANOR,PARKLAND MANOR LLC,"4636 CRACKERSPORT ROAD,",ALLENTOWN,PA,18104,6104033333,LEHIGH,70,PROFIT,228230
PERSONAL CARE HOMES,PARKSIDE SUITES/PARKSIDE AT NORTH EAST,MILLCREEK MANOR,"2 GIBSON STREET,",NORTH EAST,PA,16428,8148444295,ERIE,70,NON-PROFIT,446560
PERSONAL CARE HOMES,PASSAVANT MEMORIAL HOMES KOHLER HALL,PASSAVANT MEMORIAL HOMES,"641 RENO STREET,",ROCHESTER,PA,15074,7247750448,BEAVER,8,NON-PROFIT,449770
PERSONAL CARE HOMES,PASSAVANT RETIREMENT & HEALTH CENTER - NEWHAVEN COURT,PASSAVANT RETIREMENT AND HEALTH CENTER,"100 BURGESS DRIVE,",ZELIENOPLE,PA,16063,7244522894,BUTLER,164,NON-PROFIT,424060
PERSONAL CARE HOMES,PAUL'S RUN,PAULS RUN INC,"9896 BUSTLETON AVENUE,",PHILADELPHIA,PA,19115,2159343000,PHILADELPHIA,170,NON-PROFIT,176990
PERSONAL CARE HOMES,PAULA TEACHER & ASSOCIATES,PAULA TEACHER AND ASSOCIATES INC,"206 SAGERVILLE ROAD,",HARRISON CITY,PA,15636,7242960296,WESTMORELAND,10,PROFIT,448160
PERSONAL CARE HOMES,PAULIN PERSONAL CARE HOME,PAULIN PERSONAL CARE HOME INC,"119 WEST LINCOLN AVENUE,",MCDONALD,PA,15057,7249263526,WASHINGTON,20,PROFIT,470000
PERSONAL CARE HOMES,PAXTON STREET HOME BENEVOLENT SOCIETY,PAXTON STREET HOME BENEVOLENT SOCIETY INC,"2001 PAXTON STREET,",HARRISBURG,PA,17111,7172365508,DAUPHIN,85,NON-PROFIT,342010
PERSONAL CARE HOMES,PEACE'S PERSONAL CARE HOME,WENDY JO PEACE,"429 UNION STREET, P.O. BOX 536,","BIG RUN,",PA,15715,8144275265,JEFFERSON,16,PROFIT,406550
PERSONAL CARE HOMES,PEACH TREE MANOR,MICHAEL SINGLETON AND ROBIN SINGLETON,"125 NORTH PEACH STREET,",PHILADELPHIA,PA,19139,2672923203,PHILADELPHIA,5,PROFIT,192301
PERSONAL CARE HOMES,PEACH TREE MANOR,ROBIN AND MICHAEL SINGLETON,"5130 SPRUCE STREET,",PHILADELPHIA,PA,19139,2672923203,PHILADELPHIA,18,PROFIT,116530
PERSONAL CARE HOMES,PENN ASSISTED CARE,PENN ASSISTED CARE LLC,"68 MAIN STREET,",PENNSBURG,PA,18073,2677722232,MONTGOMERY,33,PROFIT,139050
PERSONAL CARE HOMES,PENN HIGHLANDS JEFFERSON MANOR P. C.,JEFFCO HEALTH SERVICES INC,"417 RT. 28,",BROOKVILLE,PA,15825,8148492071,JEFFERSON,48,NON-PROFIT,406240
PERSONAL CARE HOMES,PENNSWOOD VILLAGE PERSONAL CARE HOME,PENNSWOOD VILLAGE,"1382 NEWTOWN-LANGHORNE ROAD,",NEWTOWN,PA,18940,2159689110,BUCKS,41,NON-PROFIT,126750
PERSONAL CARE HOMES,PENNSYLVANIA SOLDIERS AND SAILORS HOME,PENNSYLVANIA SOLDIERS AND SAILORS HOME,"560 E. 3RD STREET, P.O.B 6239,",ERIE,PA,16512,8148714531,ERIE,100,STATE,448290
PERSONAL CARE HOMES,PENNWOOD NURSING AND REHABILITATION CENTER,PENNWOOD NURSING AND REHABILITATION CENTER LLC,"909 WEST STREET,",PITTSBURGH,PA,15221,4122437800,ALLEGHENY,22,PROFIT,450190
PERSONAL CARE HOMES,PERONI PERSONAL CARE HOME,ANTHONY J PERONI,"111 EASY STREET,",UNIONTOWN,PA,15401,7244371880,FAYETTE,33,PROFIT,426270
PERSONAL CARE HOMES,PERRY SOUTH PERSONAL CARE HOME,PERRY SOUTH PERSONAL CARE HOME LTD,"1129 TWEED STREET,",PITTSBURGH,PA,15204,4127779828,ALLEGHENY,8,PROFIT,433730
PERSONAL CARE HOMES,PERSONAL CARE AT BLUE RIDGE,THE MEADOWS AT HARRISBURG FOR PERSONAL CARE LLC,"10 HOUSE AVENUE,",CAMP HILL,PA,17011,7177631679,CUMBERLAND,31,PROFIT,333140
PERSONAL CARE HOMES,PERSONAL CARE AT EVERGREEN,PERSONAL CARE AT EVERGREEN INC,"25 GLADE AVENUE,",WAYNESBURG,PA,15370,7246274125,GREENE,44,PROFIT,400900
PERSONAL CARE HOMES,PERSONAL CARE AT EVERGREEN,PERSONAL CARE AT EVERGREEN INC,"336 NORTH MAIN STREET,",WASHINGTON,PA,15301,7242224227,WASHINGTON,48,PROFIT,405780
PERSONAL CARE HOMES,PERSONAL CARE/MEMORY CARE @ THE PARK,GDL FARMS CORPORATION,"3455 DAVISVILLE ROAD,",HATBORO,PA,19040,2156593900,MONTGOMERY,113,NON-PROFIT,127900
PERSONAL CARE HOMES,PETER BECKER COMMUNITY,PETER BECKER COMMUNITY,"800 MAPLE AVENUE, 1ST FLOOR,",HARLEYSVILLE,PA,19438,2152569501,MONTGOMERY,68,NON-PROFIT,127730
PERSONAL CARE HOMES,PHILADELPHIA PROTESTANT HOME,PHILADELPHIA PROTESTANT HOME,"6500 TABOR ROAD, MIDWAY MANOR,",PHILADELPHIA,PA,19111,2156978000,PHILADELPHIA,188,NON-PROFIT,144500
PERSONAL CARE HOMES,PHOEBE BERKS VILLAGE,"PHOEBE BERKS HEALTH CARE CENTER, INC.","1 READING DRIVE,",WERNERSVILLE,PA,19565,6109278200,BERKS,91,NON-PROFIT,205360
PERSONAL CARE HOMES,PHOEBE WYNCOTE,WYNCOTE CHURCH HOME,"208 FERNBROOK AVENUE,",WYNCOTE,PA,19095,2154612100,MONTGOMERY,45,NON-PROFIT,137290
PERSONAL CARE HOMES,PICKERING MANOR,COMMUNITY WELFARE COUNCIL OF NEWTOWN INC,"226 NORTH LINCOLN AVENUE,",NEWTOWN,PA,18940,2159683878,BUCKS,25,NON-PROFIT,126860
PERSONAL CARE HOMES,PICKERING MANOR PERSONAL CARE NEIGHBORHOOD,COMMUNITY WELFARE COUNCIL OF NEWTOWN INC,"226 NORTH LINCOLN AVENUE,",NEWTOWN,PA,18940,2159683878,BUCKS,17,NON-PROFIT,146830
PERSONAL CARE HOMES,PINE MANOR HOME,AMERISTAR LLC,"687 GREENBRIAR ROAD,",YORK,PA,17404,7177642989,YORK,29,PROFIT,334780
PERSONAL CARE HOMES,PINE RUN LAKEVIEW,DOYLESTOWN HOSPITAL DBA PINE RUN LAKEVIEW,"2425 LOWER STATE ROAD,",DOYLESTOWN,PA,18901,2154897117,BUCKS,107,PROFIT,127340
PERSONAL CARE HOMES,PINE VIEW PERSONAL CARE FACILITY,"PINE VIEW PERSONAL CARE FACILITY, INC.","1113 PINE VIEW LANE,",VANDERGRIFT,PA,15690,7245683631,ARMSTRONG,28,PROFIT,426690
PERSONAL CARE HOMES,"PISANO, JOHN A. AND SHIRLEY PERSONAL CARE HOME","JOHN A. AND SHIRLEY PISANO, JR.","P.O.BOX 144, 670 STONETOWN RD.,",ROSSITER,PA,15772,8149382256,INDIANA,4,PROFIT,427430
PERSONAL CARE HOMES,PITTSTON HEAVENLY MANOR,PITTSTON HEAVENLY MANOR INC,"51 NORTH MAIN STREET,",PITTSTON,PA,18640,5706550272,LUZERNE,55,PROFIT,218690
PERSONAL CARE HOMES,PLEASANT RIDGE MATURE LIVING,"PLEASANT RIDGE MATURE LIVING, LLC","981 PLEASANT HILL ROAD,",LEECHBURG,PA,15656,7248450933,WESTMORELAND,75,PROFIT,429400
PERSONAL CARE HOMES,PLEASANT VIEW COMMUNITIES,PLEASANT VIEW RETIREMENT COMMUNITY,"544 NORTH PENRYN ROAD,",MANHEIM,PA,17545,7176652445,LANCASTER,174,NON-PROFIT,321850
PERSONAL CARE HOMES,PLUSH MILLS,SENIOR LIVING NP LLC,"501 PLUSH MILL ROAD,",WALLINGFORD,PA,19086,6106901630,DELAWARE,79,PROFIT,131040
PERSONAL CARE HOMES,PLYMOUTH MANOR PERSONAL CARE CENTER,PLYMOUTH MANOR PERSONAL CARE CENTER LLC,"120 MARTZ MANOR,",PLYMOUTH,PA,18651,5707792730,LUZERNE,40,PROFIT,225870
PERSONAL CARE HOMES,POLK PERSONAL CARE CENTER,CHARLES P & MARGARET E POLK FOUNDATION,"301 NORTH STREET,",MILLERSBURG,PA,17061,7176922613,DAUPHIN,85,NON-PROFIT,306870
PERSONAL CARE HOMES,POND VIEW MANOR,THANHOF INC,"1115 MYRTLE ROAD, P.O. BOX 67,",WALNUTPORT,PA,18088,6107601932,NORTHAMPTON,8,PROFIT,245000
PERSONAL CARE HOMES,PRESBYTERIAN HOME,PRESBYTERIAN HOME IN THE PRESBYTERY OF HUNTINGDON,"220 NEWRY STREET,",HOLLIDAYSBURG,PA,16648,8146934000,BLAIR,50,NON-PROFIT,343400
PERSONAL CARE HOMES,PRESBYTERIAN HOME AT WILLIAMSPORT,PRESBYTERIAN HOMES INC,"810 LOUISA STREET,",WILLIAMSPORT,PA,17701,5706018350,LYCOMING,27,NON-PROFIT,200540
PERSONAL CARE HOMES,PROVIDENCE PLACE OF PINE GROVE,PROVIDENCE PLACE OF PINE GROVE ASSOCIATES,"24 HIKES HOLLOW ROAD,",PINE GROVE,PA,17963,5703454999,SCHUYLKILL,93,PROFIT,225500
PERSONAL CARE HOMES,PROVIDENCE PLACE OF POTTSVILLE,PROVIDENCE PLACE OF POTTSVILLE ASSOCIATES,"2200 FIRST AVENUE,",POTTSVILLE,PA,17901,5706286950,SCHUYLKILL,192,PROFIT,203970
PERSONAL CARE HOMES,PROVIDENCE POINT,BAPTIST HOMES SOCIETY,"200 ADAMS AVENUE,",PITTSBURGH,PA,15243,4124893560,ALLEGHENY,84,NON-PROFIT,441430
PERSONAL CARE HOMES,QUADRANGLE PERSONAL CARE,SH OPCO THE QUADRANGLE LLC,"3300 DARBY ROAD,",HAVERFORD,PA,19041,6106423000,DELAWARE,143,PROFIT,146760
PERSONAL CARE HOMES,QUALITY ASSISTED CARE,QUALITY ASSISTED CARE INC,"3411 NORTH 17TH STREET,",PHILADELPHIA,PA,19140,2152234475,PHILADELPHIA,15,PROFIT,193050
PERSONAL CARE HOMES,QUALITY LIFE SERVICES - APOLLO,WEST HAVEN MANOR LP,"153 GOODVIEW DRIVE,",APOLLO,PA,15613,7247273102,WESTMORELAND,80,PROFIT,442380
PERSONAL CARE HOMES,QUALITY LIFE SERVICES - CHICORA,CHICORA MEDICAL CENTER LIMITED PARTNERSHIP,"160 MEDICAL CENTER ROAD,",CHICORA,PA,16025,7244452000,BUTLER,26,PROFIT,405530
PERSONAL CARE HOMES,QUALITY LIFE SERVICES - MERCER,COUNTRYSIDE CONVALESCENT HOME LIMITED PARTNERSHIP,"8221 LAMOR ROAD,",MERCER,PA,16137,7246625860,MERCER,36,PROFIT,460500
PERSONAL CARE HOMES,QUALITY LIFE SERVICES - SARVER,FAIR WINDS MANOR LP,"126 IRON BRIDGE ROAD,",SARVER,PA,16055,7243531531,BUTLER,30,PROFIT,434760
PERSONAL CARE HOMES,QUALITY LIFE SERVICES - SUGAR CREEK,SUGAR CREEK REST LIMITED PARTNERSHIP,109 PERSONAL CARE LANE,WORTHINGTON,PA,16262,7244452863,ARMSTRONG,47,PROFIT,426810
PERSONAL CARE HOMES,QUALITY LIFE SERVICES - WESTMONT,WESTMONT WOODS LP,"787 GOUCHER STREET,",JOHNSTOWN,PA,15905,8142555539,CAMBRIA,34,PROFIT,332380
PERSONAL CARE HOMES,QUARRYVILLE PRESBYTERIAN RETIREMENT COMMUNITY,QUARRYVILLE PRESBYTERIAN RETIREMENT COMMUNITY,"LONG AND THOMPSON BUILDINGS,",QUARRYVILLE,PA,17566,7177867321,LANCASTER,100,NON-PROFIT,321800
PERSONAL CARE HOMES,QUARTERS AT THE SHOOK,THE SHOOK HOME,"55 SOUTH SECOND STREET,",CHAMBERSBURG,PA,17201,7172646815,FRANKLIN,45,NON-PROFIT,355540
PERSONAL CARE HOMES,QUINCY RETIREMENT COMMUNITY,QUINCY RETIREMENT COMMUNITY,"6596 ORPHANAGE ROAD,",QUINCY,PA,17247,7177492300,FRANKLIN,52,PROFIT,306520
PERSONAL CARE HOMES,RAINBOW REFLECTION,RAINBOW REFLECTIONS ASSOCIATES LLC,"2114 WEST TIOGA STREET,",PHILADELPHIA,PA,19140,2672731736,PHILADELPHIA,16,PROFIT,105800
PERSONAL CARE HOMES,REASTHEAVEN 1,REASTHEAVEN 1 LLC,"45 SOUTH MT. VERNON AVENUE,",UNIONTOWN,PA,15401,7245504225,FAYETTE,35,PROFIT,447662
PERSONAL CARE HOMES,REASTHEAVEN 2,REASTHEAVEN 2 LLC,"166 NORTH GALATIN AVENUE,",UNIONTOWN,PA,15401,7244399411,FAYETTE,22,PROFIT,447781
PERSONAL CARE HOMES,REBECCA'S AT EVERETT,REBECCA S PERSONAL CARE HOME INC,"118 MASTERS AVENUE,",EVERETT,PA,15537,8146522834,BEDFORD,37,PROFIT,324070
PERSONAL CARE HOMES,REBECCA'S PERSONAL CARE HOME,DAVID M & REBECCA L GROVES,"47 WEST STREET,",NORTH EAST,PA,16428,8147252678,ERIE,42,PROFIT,464360
PERSONAL CARE HOMES,REBEKAH MANOR WELLNESS COMMUNITY,REBEKAH MANOR WELLNESS COMMUNITY INC,"1912 PHILADELPHIA AVENUE,",NORTHERN CAMBRIA,PA,15714,8149485500,CAMBRIA,37,PROFIT,312890
PERSONAL CARE HOMES,REBEKAH MANOR WELLNESS COMMUNITY,REBEKAH MANOR WELLNESS COMMUNITY INC,"1000 WASHINGTON AVENUE,",PORTAGE,PA,15946,8147369504,CAMBRIA,37,PROFIT,326920
PERSONAL CARE HOMES,RED ROSE MANOR,GMK LIMITED,"38 COTTAGE AVENUE,",LANCASTER,PA,17602,7173948999,LANCASTER,30,PROFIT,326530
PERSONAL CARE HOMES,REDSTONE HIGHLANDS,REDSTONE PRESBYTERIAN SENIORCARE,"4 GARDEN CENTER DRIVE,",GREENSBURG,PA,15601,7248328400,WESTMORELAND,61,NON-PROFIT,443360
PERSONAL CARE HOMES,REDSTONE HIGHLANDS,REDSTONE PRESBYTERIAN SENIORCARE,"12921 REDSTONE DRIVE,",NORTH HUNTINGDON,PA,15642,7248645811,WESTMORELAND,44,NON-PROFIT,443370
PERSONAL CARE HOMES,REDSTONE HIGHLANDS,REDSTONE PRESBYTERIAN SENIORCARE,"4949 CLINE HOLLOW ROAD,",MURRYSVILLE,PA,15668,7247339494,WESTMORELAND,48,NON-PROFIT,443380
PERSONAL CARE HOMES,REFORMED PRESBYTERIAN HOME,REFORMED PRESBYTERIAN WOMEN'S ASSOCIATION,"2344 PERRYSVILLE AVENUE,",PITTSBURGH,PA,15214,4123214139,ALLEGHENY,56,NON-PROFIT,429660
PERSONAL CARE HOMES,REGENCY SUITES/REGENCY AT SOUTH SHORE,MILLCREEK MANOR,"322 WASHINGTON PLACE,",ERIE,PA,16505,8144542222,ERIE,70,NON-PROFIT,446570
PERSONAL CARE HOMES,REMED,REMED RECOVERY CARE CENTERS,"137 SPRUCE LANE,",PAOLI,PA,19301,6109932827,CHESTER,5,PROFIT,138330
PERSONAL CARE HOMES,REMED,"REMED RECOVERY CARE CENTERS, LLC","139 SPRUCE LANE,",PAOLI,PA,19301,4845959300,CHESTER,5,PROFIT,134360
PERSONAL CARE HOMES,REMED - DEVON ROAD,REMED,"84 DEVON ROAD,",PAOLI,PA,19301,6102962442,CHESTER,8,PROFIT,101020
PERSONAL CARE HOMES,REMED - GIBSONIA,REMED RECOVERY CARE CENTERS,"3043 EAST BARDONNER ROAD,",GIBSONIA,PA,15044,7244448009,ALLEGHENY,8,PROFIT,432760
PERSONAL CARE HOMES,REMED KING STREET,REMED RECOVERY CARE CENTERS,"198 WEST KING STREET,",MALVERN,PA,19355,4845959300,CHESTER,5,PROFIT,115730
PERSONAL CARE HOMES,REMED RECOVERY CARE CENTERS,REMED RECOVERY CARE CENTERS LLC,"1152 NORTH NEW STREET,",WEST CHESTER,PA,19380,6103443983,CHESTER,8,PROFIT,106230
PERSONAL CARE HOMES,REMED RECOVERY CARE CENTERS,REMED RECOVERY CARE CENTERS,"2 HARVEY LANE,",MALVERN,PA,19335,4845959300,CHESTER,8,PROFIT,128470
PERSONAL CARE HOMES,REMED RECOVERY CARE CENTERS,REMED RECOVERY CARE CENTERS LLC,"350 PAOLI PIKE,",MALVERN,PA,19355,4845959300,CHESTER,8,PROFIT,131580
PERSONAL CARE HOMES,REMED RECOVERY CARE CENTERS,REMED RECOVERY CARE CENTERS LLC,"934 NORTH CHESTER ROAD,",WEST CHESTER,PA,19380,4845959300,CHESTER,8,PROFIT,141160
PERSONAL CARE HOMES,REMED RECOVERY CARE CENTERS,REMED RECOVERY CARE CENTERS LLC,"100 BRISTOL LANE,",IRWIN,PA,15642,4845959300,WESTMORELAND,8,PROFIT,449970
PERSONAL CARE HOMES,REMED RECOVERY CARE CENTERS,REMED RECOVERY CARE CENTERS,"103 AQUA DRIVE,",PITTSBURGH,PA,15238,4845959300,ALLEGHENY,8,PROFIT,440260
PERSONAL CARE HOMES,REMED RECOVERY CARE CENTERS,REMED RECOVERY CARE CENTERS LLC,"709 FAIRVIEW ROAD,",FOX CHAPEL,PA,15238,4845959300,ALLEGHENY,8,PROFIT,446450
PERSONAL CARE HOMES,REMED-CAMPBELL LANE,REMED,"5 CAMPBELL LANE,",PHOENIXVILLE,PA,19460,6109335912,CHESTER,8,PROFIT,104970
PERSONAL CARE HOMES,REMED-STATE ROAD,REMED,"1420 STATE ROAD,",PHOENIXVILLE,PA,19460,4845959300,CHESTER,6,PROFIT,101950
PERSONAL CARE HOMES,RENAISSANCE HOME FORKS,RENAISSANCE HOME FORKS LLC,"2222 SULLIVAN TRAIL,",EASTON,PA,18040,6105150500,NORTHAMPTON,61,PROFIT,226920
PERSONAL CARE HOMES,RENAISSANCE HOME NORTHAMPTON,RENAISSANCE HOME NORTHAMPTON LLC,"1001 WASHINGTON AVENUE,",NORTHAMPTON,PA,18067,6102621010,NORTHAMPTON,60,PROFIT,227010
PERSONAL CARE HOMES,RENAISSANCE HOME PINEBROOK,RENAISSANCE HOME PINEBROOK LLC,"2 WOODBRIDGE ROAD,",ORWIGSBURG,PA,17961,5703668544,SCHUYLKILL,68,PROFIT,227550
PERSONAL CARE HOMES,RENEWED LIFE HAVEN,HAND IN HAND CHRISTIAN COUNSELING LLC,"16871 CRAIG ROAD,",SAEGERTOWN,PA,16433,8147636096,CRAWFORD,15,PROFIT,451220
PERSONAL CARE HOMES,RESPICENTER INCORPORATED,RESPICENTER INCORPORATED,"545 WEST HIGH STREET,",WAYNESBURG,PA,15370,7248521300,GREENE,20,PROFIT,449520
PERSONAL CARE HOMES,REST ASSURED RESIDENTIAL LIVING CENTER,BROOKE GROVE FOUNDATION INC,"1137 SHIRLEY'S HOLLOW ROAD,",MEYERSDALE,PA,15552,8146340567,SOMERSET,33,NON-PROFIT,321320
PERSONAL CARE HOMES,RHODES ESTATES,RHODES ESTATES LIMITED PARTNERSHIP,"318 RHODES PLACE,",NEW CASTLE,PA,16101,7246568000,LAWRENCE,90,PROFIT,474050
PERSONAL CARE HOMES,RICHARDSON GROUP SENIOR CITIZENS LIVING QUARTER,"RICHARDSON GROUP SENIOR CITIZENS LIVING QUARTER, INC.","1754 BRIDGE STREET,BUILDING II,",PHILADELPHIA,PA,19124,2157435522,PHILADELPHIA,16,PROFIT,133060
PERSONAL CARE HOMES,"RICHARDSON GROUP, SENIOR CITIZENS LIVING QUARTERS","RICHARDSON GROUP, SENIOR CITIZENS LIVING QUARTERS, INC.","1750 BRIDGE STREET,",PHILADELPHIA,PA,19124,2157435522,PHILADELPHIA,4,PROFIT,100510
PERSONAL CARE HOMES,RICHLAND CHRISTIAN HOME,"RICHLAND CHRISTIAN HOME, INC","211 SOUTH RACE ST, PO BOX 735,",RICHLAND,PA,17087,7176281530,LEBANON,23,NON-PROFIT,328910
PERSONAL CARE HOMES,RIDGE VIEW PERSONAL CARE HOME,RIDGE VIEW PERSONAL CARE HOME INC,"117 SHAFFER LANE,",HOLLIDAYSBURG,PA,16648,8146950536,BLAIR,36,PROFIT,334950
PERSONAL CARE HOMES,RIDGEVIEW RESIDENTIAL CARE,"P.A.L., INC.","122 RIDGEVIEW STREET,",YOUNGWOOD,PA,15697,7249250212,WESTMORELAND,40,PROFIT,428580
PERSONAL CARE HOMES,RIDGEWOOD AT SHENANGO VALLEY,PARTNERS IN SENIOR CARE INC,"ONE ELSTON WAY,",HERMITAGE,PA,16148,7243470998,MERCER,52,NON-PROFIT,403020
PERSONAL CARE HOMES,RIDGMONT,WRC PENNSYLVANIA MEMORIAL HOME,"163 RIDGMONT DRIVE,",RIDGWAY,PA,15853,8147726608,ELK,54,NON-PROFIT,440950
PERSONAL CARE HOMES,RILE'S HOME-AIDE HAVEN,RILES HOME AIDE HAVEN INC,"409 EAST LINCOLN AVENUE,",MYERSTOWN,PA,17067,7178667989,LEBANON,6,PROFIT,328540
PERSONAL CARE HOMES,RITTENHOUSE VILLAGE AT LEHIGH VALLEY,1263 S CEDAR CREST BLVD SENIOR LIVING I OPCO LLC,"1263 S CEDAR CREST BOULEVARD,",ALLENTOWN,PA,18103,6104339220,LEHIGH,110,PROFIT,223010
PERSONAL CARE HOMES,RITTENHOUSE VILLAGE AT MUHLENBERG,DISCOVERY READING LEASING LLC,"2900 LAWN TERRACE,",READING,PA,19605,6102088890,BERKS,104,PROFIT,228020
PERSONAL CARE HOMES,RIVERCLIFF TERRACE,RIVERCLIFF TERRACE INC,"120 ALLEGHENY AVENUE,",KITTANNING,PA,16201,7245487409,ARMSTRONG,34,PROFIT,426610
PERSONAL CARE HOMES,RIVERCLIFF TERRACE ANNEX,RIVERCLIFF TERRACE INC,"322 NORTH MCKEAN STREET,",KITTANNING,PA,16201,7245435923,ARMSTRONG,28,PROFIT,426930
PERSONAL CARE HOMES,RIVERSTONE MANOR,RIVERSTONE MANOR LLC,"ONE MAIN STREET,",WALNUTPORT,PA,18088,6107670575,NORTHAMPTON,72,PROFIT,223940
PERSONAL CARE HOMES,RIVERVIEW HOME,"CITY OF PHILADELPHIA, OFFICE OF HOMELESS SERVICES","7979 STATE ROAD,",PHILADELPHIA,PA,19136,2156858317,PHILADELPHIA,107,NON-PROFIT,144730
PERSONAL CARE HOMES,RIVERVIEW MANOR,ALBRIGHT CARE SERVICES,"3201 RIVER ROAD,",LEWISBURG,PA,17837,5705226204,UNION,100,NON-PROFIT,202980
PERSONAL CARE HOMES,RIVERVIEW RIDGE,300 COURTRIGHT STREET OPERATIONS LLC,"300 COURTRIGHT AVENUE,",WILKES-BARRE,PA,18702,5708250538,LUZERNE,114,PROFIT,222070
PERSONAL CARE HOMES,ROBINSON PERSONAL CARE HOME,HUGH ROBINSON,"4104 WEST GIRARD AVENUE,",PHILADELPHIA,PA,19104,2153865670,PHILADELPHIA,20,PROFIT,198810
PERSONAL CARE HOMES,ROCHESTER VILLA,ROCHESTER VILLA INC,"174 VIRGINIA AVENUE,",ROCHESTER,PA,15074,7247756400,BEAVER,105,PROFIT,466180
PERSONAL CARE HOMES,ROCKWELL RETIREMENT & COMMUNITY ARTS CENTER,COMMONWEALTH REAL ESTATE INVESTORS,"32 SOUTH TURBOT AVENUE,",MILTON,PA,17847,5707424100,NORTHUMBERLAND,224,PROFIT,202670
PERSONAL CARE HOMES,ROSE HAVEN PERSONAL CARE HOME,ROSE HAVEN MANAGEMENT COMPANY INC,"132 HAVEN DRIVE,",INDIANA,PA,15701,7244637673,INDIANA,43,PROFIT,427760
PERSONAL CARE HOMES,"ROSE OF SHARON HOME, INC.",ROSE OF SHARON HOME INC,"135 MAIN STREET, PO BOX 336,",SAINT MICHAEL,PA,15951,8144954642,CAMBRIA,30,PROFIT,332060
PERSONAL CARE HOMES,ROSE TREE PLACE,"WATERMARK OPERATOR, LLC","500 SANDY BANK ROAD,",MEDIA,PA,19063,6105651405,DELAWARE,149,PROFIT,132810
PERSONAL CARE HOMES,ROSEWOOD OF THE OHIO VALLEY,ROSEWOOD OF THE OHIO VALLEY LLC,"814 CHARTIERS AVENUE,",MCKEES ROCKS,PA,15136,7248140667,ALLEGHENY,74,PROFIT,448020
PERSONAL CARE HOMES,ROSEWOOD PERSONAL CARE HOME,ROSEWOOD PERSONAL CARE AND RETIREMENT COMMUNITY INC,"122 CARWYN DRIVE,",JOHNSTOWN,PA,15904,8142692338,CAMBRIA,55,PROFIT,309060
PERSONAL CARE HOMES,ROXBOROUGH HOME FOR WOMEN,ROXBOROUGH HOME FOR WOMEN INC,"601 EAST LEVERINGTON AVENUE,",PHILADELPHIA,PA,19128,2154826615,PHILADELPHIA,30,NON-PROFIT,141560
PERSONAL CARE HOMES,RURAL VALLEY MANOR,PATRICIA A. AND DANIEL J. HILL,"521 MAIN STREET,",RURAL VALLEY,PA,16249,7247836552,ARMSTRONG,15,PROFIT,426910
PERSONAL CARE HOMES,RUTH M. SMITH CENTER,RUTH M. SMITH CENTER,"407 SOUTH MAIN STREET,",SHEFFIELD,PA,16347,8149683238,WARREN,10,NON-PROFIT,445950
PERSONAL CARE HOMES,RUTH M. SMITH CENTER,RUTH M. SMITH CENTER,"407 SOUTH MAIN STREET,",SHEFFIELD,PA,16347,8149683238,WARREN,15,NON-PROFIT,445960
PERSONAL CARE HOMES,RUTH M. SMITH CENTER,RUTH M. SMITH CENTER,"407 SOUTH MAIN STREET,",SHEFFIELD,PA,16347,8149683238,WARREN,15,NON-PROFIT,445980
PERSONAL CARE HOMES,RYDAL PARK PERSONAL CARE,HUMANGOOD PENNSYLVANIA,"1515 THE FAIRWAY,",RYDAL,PA,19046,2153766278,MONTGOMERY,72,NON-PROFIT,138120
PERSONAL CARE HOMES,SACRED HEART SENIOR LIVING BY SAUCON CREEK,SACRED HEART ASSISTED LIVING BY SAUCON CREEK LLC,"4851 SAUCON CREEK ROAD,",CENTER VALLEY,PA,18034,6108142700,LEHIGH,85,PROFIT,216750
PERSONAL CARE HOMES,SACRED HEART SENIOR LIVING BY SAUCON CREEK II,SACRED HEART ASSISTED LIVING BY SAUCON CREEK LLC,"4801 SAUCON CREEK ROAD,",CENTER VALLEY,PA,18034,6108142700,LEHIGH,36,PROFIT,220800
PERSONAL CARE HOMES,SACRED HEART SENIOR LIVING BY THE CREEK,"SACRED HEART ASSISTED LIVING, LLC","602 EAST 21ST STREET,",NORTHAMPTON,PA,18067,6102624300,NORTHAMPTON,124,PROFIT,201360
PERSONAL CARE HOMES,SACRED HEART SENIOR LIVING BY THE CREEK - II,"SACRED HEART ASSISTED LIVING, LLC","602 B EAST 21ST ST., 2ND FLOOR,",NORTHAMPTON,PA,18067,6102624300,NORTHAMPTON,31,PROFIT,215770
PERSONAL CARE HOMES,SACRED HEART VILLA,SACRED HEART VILLA INC,"51 SEMINARY AVENUE,",READING,PA,19605,6109295751,BERKS,100,NON-PROFIT,206190
PERSONAL CARE HOMES,"SAINT BENEDICT MANOR, INC.",SAINT BENEDICT MANOR INC,"600 THEATRE ROAD, BOX 57,",ST. BENEDICT,PA,15773,8143448981,CAMBRIA,44,PROFIT,303420
PERSONAL CARE HOMES,SAINT JOHN XXIII HOME,ROMAN CATHOLIC DIOCESE OF ERIE,"2250 SHENANGO VALLEY FREEWAY,",HERMITAGE,PA,16148,7249813200,MERCER,98,NON-PROFIT,447600
PERSONAL CARE HOMES,SAINT MARY'S AT ASBURY RIDGE,SAINT MARY'S HOME OF ERIE,"4855 WEST RIDGE ROAD,",ERIE,PA,16506,8148365300,ERIE,164,NON-PROFIT,413420
PERSONAL CARE HOMES,"SAINT MARY'S EAST (BUILDINGS 1,2,4,AND 5)",SAINT MARY'S HOME OF ERIE,"607 EAST 26TH STREET,",ERIE,PA,16504,8144590621,ERIE,131,NON-PROFIT,447630
PERSONAL CARE HOMES,SALISBURY BEHAVIORAL HEALTH,SALISBURY BEHAVIORAL HEALTH LLC,"513 LEHIGH STREET,",ALLENTOWN,PA,18103,6104324335,LEHIGH,20,PROFIT,216740
PERSONAL CARE HOMES,SALISBURY BEHAVIORAL HEALTH,SALISBURY BEHAVIORAL HEALTH LLC,"1482 CHERRY LANE,",EAST STROUDSBURG,PA,18301,5704217668,MONROE,28,PROFIT,212130
PERSONAL CARE HOMES,SALISBURY BEHAVIORAL HEALTH 1,SALISBURY BEHAVIORAL HEALTH LLC,"626 EASTON ROAD,",GLENSIDE,PA,19038,2158867147,MONTGOMERY,9,PROFIT,128320
PERSONAL CARE HOMES,SALISBURY BEHAVIORAL HEALTH LLC,SALISBURY BEHAVIORAL HEALTH LLC,"2538 GYPSY LANE,",CHELTENHAM TOWNSHI,PA,19038,2158852908,MONTGOMERY,4,PROFIT,128340
PERSONAL CARE HOMES,SALISBURY BEHAVIORAL HEALTH LLC,SALISBURY BEHAVIORAL HEALTH LLC,"1075 EASTON ROAD,",ROSLYN,PA,19001,2158845566,MONTGOMERY,13,PROFIT,128200
PERSONAL CARE HOMES,SANATOGA COURT,227 EVERGREEN ROAD OPERATIONS LLC,"227 EVERGREEN ROAD,",POTTSTOWN,PA,19464,6107180900,MONTGOMERY,85,PROFIT,136140
PERSONAL CARE HOMES,SARAH REED SENIOR LIVING,SARAH A REED RETIREMENT CENTER,"227 WEST 22ND STREET,",ERIE,PA,16502,8148782600,ERIE,100,NON-PROFIT,447610
PERSONAL CARE HOMES,SAUCON VALLEY MANOR,SAUCON VALLEY MANOR INC.,"1050 MAIN STREET,",HELLERTOWN,PA,18055,6107488888,NORTHAMPTON,213,PROFIT,205810
PERSONAL CARE HOMES,SAUCON VALLEY MANOR II,SAUCON VALLEY MANOR II LLC,"1050 MAIN STREET,",HELLERTOWN,PA,18055,6107488888,NORTHAMPTON,99,PROFIT,230070
PERSONAL CARE HOMES,SAXONY HEALTH CENTER,SAXONY2 LLC,"223 PITTSBURGH STREET,",SAXONBURG,PA,16056,7243529445,BUTLER,56,PROFIT,449430
PERSONAL CARE HOMES,SAYRE PERSONAL CARE CENTER,SAYRE PERSONAL CARE CENTER LLC,"1001 NORTH ELMER AVENUE,",SAYRE,PA,18840,5709692188,BRADFORD,60,PROFIT,226290
PERSONAL CARE HOMES,SCENIC VIEW PERSONAL CARE,SCENIC VIEW PERSONAL CARE LLC,"1305 CHURCH DRIVE,",PALMERTON,PA,18071,6106817800,CARBON,22,PROFIT,228760
PERSONAL CARE HOMES,SCHENLEY GARDENS,VINCENTIAN DE MARILLAC,"3890 BIGELOW BOULEVARD,",PITTSBURGH,PA,15213,4125087807,ALLEGHENY,164,NON-PROFIT,449860
PERSONAL CARE HOMES,SCHOOLYARD SQUARE,SCHOOLYARD SQUARE,"11 HIGH STREET,",PINE GROVE,PA,17963,5703454075,SCHUYLKILL,48,PROFIT,225760
PERSONAL CARE HOMES,SCHREFFLER MANOR,"ALLEGHENY LUTHERAN SOCIAL MINISTRIES, INC.","200 RACHEL DRIVE,",PLEASANT GAP,PA,16823,8143592782,CENTRE,55,NON-PROFIT,256340
PERSONAL CARE HOMES,SCOGGINS PERSONAL CARE BOARDING HOME,EVADNEY SCOGGINS,"1245 WEST TIOGA STREET,",PHILADELPHIA,PA,19140,2152239068,PHILADELPHIA,26,PROFIT,140150
PERSONAL CARE HOMES,SCRANTON MANOR PERSONAL CARE CENTER,SCRANTON MANOR PCH LLC,"819 JEFFERSON AVENUE,",SCRANTON,PA,18510,5703465951,LACKAWANNA,67,PROFIT,225580
PERSONAL CARE HOMES,SENIOR CARE PLAZA,SENIOR CARE PLAZA ASSOCIATES INC,"624 LYSLE BOULEVARD,",MCKEESPORT,PA,15132,4126641969,ALLEGHENY,100,PROFIT,431061
PERSONAL CARE HOMES,SENIOR COMMONS AT POWDER MILL,GAHC3 YORK PA ALF TRS SUB LLC,"1775 POWDER MILL ROAD,",YORK,PA,17403,7177410961,YORK,166,PROFIT,332100
PERSONAL CARE HOMES,SENIOR SUPPORT SERVICES I,SENIOR SUPPORT SERVICES INC,"1712 TERMON AVENUE,",PITTSBURGH,PA,15212,4123673709,ALLEGHENY,14,PROFIT,442290
PERSONAL CARE HOMES,SENIOR SUPPORT SERVICES II,SENIOR SUPPORT SERVICES INC,"125 NORTH BALPH AVENUE,",PITTSBURGH,PA,15202,4127613425,ALLEGHENY,13,PROFIT,430140
PERSONAL CARE HOMES,SERENITY GARDENS AT MOUNT CARMEL,SENIOR CARE OF KULPMONT LLC,"135 VERMONT DRIVE,",KULPMONT,PA,17834,5703733000,NORTHUMBERLAND,85,PROFIT,226790
PERSONAL CARE HOMES,SHADY REST OF PITTSBURGH,SHADY REST OF PITTSBURGH LLC,"4026 OHIO RIVER BOULEVARD,",PITTSBURGH,PA,15212,4127667066,ALLEGHENY,17,PROFIT,446540
PERSONAL CARE HOMES,SHARON'S PERSONAL CARE HOME,SMEM 1957 LLC,"1441 BALTIMORE PIKE,",HANOVER,PA,17331,7176321414,YORK,23,PROFIT,332390
PERSONAL CARE HOMES,SHELBOURNE PERSONAL CARE,CHERRY HILL CORPORATION,"296 DINNERBELL ROAD,",BUTLER,PA,16002,7243603000,BUTLER,60,PROFIT,445660
PERSONAL CARE HOMES,SHENANGO PRESBYTERIAN HOME,SHENANGO PRESBYTERIAN SENIORCARE,"238 SOUTH MARKET STREET,",NEW WILMINGTON,PA,16142,7249463516,LAWRENCE,46,NON-PROFIT,440340
PERSONAL CARE HOMES,SHERWOOD OAKS,PITTSBURGH LIFETIME CARE COMMUNITY,"100 & 500 NORMAN DRIVE,",CRANBERRY TOWNSHIP,PA,16066,7247768100,BUTLER,77,NON-PROFIT,457760
PERSONAL CARE HOMES,SHERWOOD RETIREMENT & PERSONAL CARE HOME,SHERWOOD RETIREMENT AND PERSONAL CARE HOME INC,"3995 ROUTE 414,",CANTON,PA,17724,5706738961,BRADFORD,27,PROFIT,203550
PERSONAL CARE HOMES,SHIRLEY HOME FOR THE AGED,SHIRLEY HOME FOR THE AGED INC,"17050 COUNTRY VIEW LANE,",SHIRLEYSBURG,PA,17260,8144473781,HUNTINGDON,42,NON-PROFIT,343970
PERSONAL CARE HOMES,SIEMON'S HERITAGE PERSONAL CARE CENTER,"ENVOY OF SOMERSET, LLC","166 SIEMON DRIVE,",SOMERSET,PA,15501,8144441844,SOMERSET,58,PROFIT,328820
PERSONAL CARE HOMES,SILVAFOX PERSONAL CARE HOME,SILVAFOX PERSONAL CARE HOMES LLC,"115 VESTA STREET, BOX 148,",ELCO,PA,15434,7243305035,WASHINGTON,18,PROFIT,451200
PERSONAL CARE HOMES,SILVER CREEK TERRACE,ELK HAVEN NURSING HOME ASSOCIATION INC,"791 JOHNSONBURG ROAD,",ST. MARYS,PA,15857,8148342273,ELK,80,NON-PROFIT,426020
PERSONAL CARE HOMES,SIMPSON HOUSE,SIMPSON HOUSE INC,"BELMONT AVENUE & MONUMENT ROAD,",PHILADELPHIA,PA,19131,2158783600,PHILADELPHIA,84,NON-PROFIT,189210
PERSONAL CARE HOMES,SKYLINE MANOR,ELWYN OF PENNSYLVANIA AND DELAWARE,"76 SKYLINE DRIVE,",GLEN MILLS,PA,19342,6104590110,DELAWARE,6,NON-PROFIT,134870
PERSONAL CARE HOMES,"SMIGOVSKY, JENNIE PERSONAL CARE HOME",JENNIE SMIGOVSKY,"522 FIRST STREET, P.O.BOX 129,",ISABELLA,PA,15447,7247857762,FAYETTE,14,PROFIT,451160
PERSONAL CARE HOMES,SMITH HEALTH CARE LTD,SMITH HEALTH CARE LTD,"453 SOUTH MAIN ROAD,",MOUNTAIN TOP,PA,18707,5708683664,LUZERNE,93,PROFIT,229230
PERSONAL CARE HOMES,SMITH'S PERSONAL CARE HOME,DOLORES L SMITH SHARER,"47 FRONT STREET, P.O. BOX 65,",WYALUSING,PA,18853,5707463736,BRADFORD,34,PROFIT,238780
PERSONAL CARE HOMES,SOUDERTON MENNONITE HOMES,SOUDERTON MENNONITE HOMES,"207 WEST SUMMIT STREET,",SOUDERTON,PA,18964,2157239881,MONTGOMERY,154,NON-PROFIT,127760
PERSONAL CARE HOMES,SOUTH FORK WELCOME HOME,SUSAN PANICK AND TAMMY MENNECKE-HASKINS,"316 MAIN STREET,",SOUTH FORK,PA,15956,8144959500,CAMBRIA,18,PROFIT,329960
PERSONAL CARE HOMES,SOUTH MOUNTAIN MEMORY CARE,SOUTH MOUNTAIN MEMORY CARE LLC,"201 SOUTH SEVENTH STREET,",EMMAUS,PA,18049,6109657662,LEHIGH,28,PROFIT,227210
PERSONAL CARE HOMES,SOUTHEASTERN VETERANS' CENTER,DEPARTMENT OF MILITARY AND VETERANS' AFFAIRS,"ONE VETERANS' DRIVE, 4TH FLOOR,",SPRING CITY,PA,19475,6109482569,CHESTER,54,NON-PROFIT,138370
PERSONAL CARE HOMES,SOUTHMINSTER PLACE,PRESBYTERIAN SENIOR CARE INC,"880 SOUTH MAIN STREET,",WASHINGTON,PA,15301,7242235756,WASHINGTON,90,NON-PROFIT,415930
PERSONAL CARE HOMES,SPANG CREST MANOR,LUTHERCARE,"945 DUKE STREET,",LEBANON,PA,17042,7172741495,LEBANON,18,NON-PROFIT,320840
PERSONAL CARE HOMES,SPIRITRUST LUTHERAN THE VILLAGE AT GETTYSBURG,SPIRITRUST LUTHERAN,"1075 OLD HARRISBURG ROAD,",GETTYSBURG,PA,17325,7173346204,ADAMS,20,NON-PROFIT,344420
PERSONAL CARE HOMES,SPIRITRUST LUTHERAN THE VILLAGE AT KELLY DRIVE,SPIRITRUST LUTHERAN,"750 KELLY DRIVE,",YORK,PA,17404,7178482585,YORK,85,NON-PROFIT,350640
PERSONAL CARE HOMES,SPIRITRUST LUTHERAN THE VILLAGE AT LUTHER RIDGE,SPIRITRUST LUTHERAN,"2735 LUTHER DRIVE,",CHAMBERSBURG,PA,17202,7172645700,FRANKLIN,48,NON-PROFIT,352980
PERSONAL CARE HOMES,SPIRITRUST LUTHERAN THE VILLAGE AT SHREWSBURY,SPIRITRUST LUTHERAN,"800 BOLLINGER DRIVE,",SHREWSBURY,PA,17361,7172273000,YORK,68,NON-PROFIT,310270
PERSONAL CARE HOMES,SPIRITRUST LUTHERAN THE VILLAGE AT UTZ TERRACE,SPIRITRUST LUTHERAN,"2100 UTZ TERRACE,",HANOVER,PA,17331,7176370633,YORK,46,NON-PROFIT,322850
PERSONAL CARE HOMES,SPRANKLE PERSONAL CARE HOME,JUDY A SPRANKLE,"144 CARE HOME LANE, HORATIO ST,",PUNXSUTAWNEY,PA,15767,8149388249,JEFFERSON,31,PROFIT,407210
PERSONAL CARE HOMES,SPRING MILL POINTE,HUMANGOOD PENNSYLVANIA,"2002 JOSHUA ROAD,",LAFAYETTE HILL,PA,19444,6108284848,MONTGOMERY,107,NON-PROFIT,127920
PERSONAL CARE HOMES,SPRING MILL SENIOR LIVING,KAPG PHOENIXVILLE SENIOR HOUSING OPCO LLC,"3000 BALFOUR CIRCLE,",PHOENIXVILLE,PA,19460,6107261286,CHESTER,98,PROFIT,146320
PERSONAL CARE HOMES,SPRING VILLAGE AT POCONO,BFG POCONO MASTER TENENT LLC,"329 EAST BROWN STREET,",EAST STROUDSBURG,PA,18301,5704264000,MONROE,105,PROFIT,227040
PERSONAL CARE HOMES,SPRINGFIELD CROSSINGS,SPRINGFIELD PCH LLC,"463 WEST SPROUL ROAD,",SPRINGFIELD,PA,19064,6105442200,DELAWARE,84,PROFIT,146510
PERSONAL CARE HOMES,SPRINGHILL SENIOR LIVING COMMUNITY,ASBURY ATLANTIC INC,"2323 EDINBORO ROAD,",ERIE,PA,16509,8148607000,ERIE,44,NON-PROFIT,425550
PERSONAL CARE HOMES,ST. ANNE'S RETIREMENT COMMUNITY,ST ANNE'S RETIREMENT COMMUNITY INC,"3952 COLUMBIA AVENUE,",COLUMBIA,PA,17512,7172855443,LANCASTER,75,NON-PROFIT,321790
PERSONAL CARE HOMES,ST. JOHN SPECIALTY CARE CENTER,ST JOHN LUTHERAN CARE CENTER,"500 WITTENBERG WAY, P.O.BOX 928",MARS,PA,16046,7246251571,BUTLER,36,NON-PROFIT,448330
PERSONAL CARE HOMES,ST. JOHN'S HERR ESTATE,LUTHERCARE INC,"200 LUTHER LANE,",COLUMBIA,PA,17512,7176840678,LANCASTER,46,NON-PROFIT,321870
PERSONAL CARE HOMES,ST. JUDE'S HAVEN PERSONAL CARE HOME,ST JUDES HAVEN INC,"1072 MT. AIRY DRIVE,",JOHNSTOWN,PA,15904,8142692244,CAMBRIA,17,PROFIT,307870
PERSONAL CARE HOMES,ST. LEONARD'S HOME,"ST. LEONARD'S HOME, INC","601 NORTH MONTGOMERY STREET,",HOLLIDAYSBURG,PA,16648,8146959581,BLAIR,28,NON-PROFIT,340040
PERSONAL CARE HOMES,ST. MARTHA VILLA FOR INDEPENDENT & RETIREMENT LIVING,470 MANOR OPERATING LLC,"490 MANOR AVENUE,",DOWNINGTOWN,PA,19335,6108735300,CHESTER,135,PROFIT,141080
PERSONAL CARE HOMES,ST. MARY VILLA FOR INDEPENDENT & RETIREMENT LIVING,701 LANSDALE OPERATING LLC,"701 LANSDALE AVENUE,",LANSDALE,PA,19446,2153680900,MONTGOMERY,90,PROFIT,141070
PERSONAL CARE HOMES,ST. MARY'S VILLA RESIDENCE,ST. MARY'S VILLA NURSING HOME,"ONE PIONEER PLACE,",MOSCOW,PA,18444,5708425274,LACKAWANNA,68,NON-PROFIT,203900
PERSONAL CARE HOMES,ST. STEPHEN'S LIVING CENTER,ST STEPHENS LIVING CENTER LLC,"1075 CHESTNUT STREET,",NANTY GLO,PA,15943,8147498799,CAMBRIA,44,PROFIT,327360
PERSONAL CARE HOMES,STABON MANOR PERSONAL CARE HOME,"STABON MANOR PERSONAL CARE HOME, INC.","1555 HAAK STREET,",READING,PA,19602,6103732272,BERKS,160,PROFIT,205120
PERSONAL CARE HOMES,STAIRWAYS,STAIRWAYS BEHAVIORAL HEALTH INC,"810 WALNUT STREET,",ERIE,PA,16502,8148782124,ERIE,27,NON-PROFIT,407590
PERSONAL CARE HOMES,STANDISH'S,STANDISH S ASSISTED LIVING INC,"158 CHESTNUT RIDGE ROAD,",WASHINGTON,PA,15301,7242298801,WASHINGTON,7,NON-PROFIT,406300
PERSONAL CARE HOMES,STAR HILL REST HOME,"MARIAN ZACHARIAS, SHERRY MURPHY","935 STAR HILL ROAD,",MONROE TOWNSHIP,PA,18618,5706393200,WYOMING,23,PROFIT,229760
PERSONAL CARE HOMES,STATE STREET HOUSE,COMMUNITY COUNSELING CENTER OF MERCER COUNTY,"252 EAST STATE STREET,",SHARON,PA,16146,7249816195,MERCER,16,NON-PROFIT,443600
PERSONAL CARE HOMES,STERLING HOME,STERLING HOME LLC,"1318 ARCH STREET,",MCKEESPORT,PA,15132,3479785151,ALLEGHENY,42,PROFIT,452691
PERSONAL CARE HOMES,STERLING HOUSE,STERLING HOUSE LLC,"432 EAST TULPEHOCKEN STREET,",PHILADELPHIA,PA,19144,2154851985,PHILADELPHIA,10,PROFIT,142920
PERSONAL CARE HOMES,STEWARD PLACE,PRESBYTERIAN HOMES INC,"7 EAST LOCUST STREET,",OXFORD,PA,19363,6109982400,CHESTER,84,NON-PROFIT,100630
PERSONAL CARE HOMES,STONERIDGE POPLAR RUN,STONERIDGE RETIREMENT LIVING,"450 EAST LINCOLN AVENUE,","MYERSTOWN,",PA,17067,7178663208,LEBANON,36,NON-PROFIT,308990
PERSONAL CARE HOMES,SUCCESS REHABILITATION AT ROCK RIDGE,"SUCCESS REHABILITATION, INC.","5666 CLYMER ROAD,",QUAKERTOWN,PA,18951,2155383488,BUCKS,35,PROFIT,127300
PERSONAL CARE HOMES,SUGAR VALLEY LODGE (HICKORY ACRES BUILDING),SUGAR VALLEY LODGE INC,"190 SUGAR VALLEY LANE,",FRANKLIN,PA,16323,8143460352,VENANGO,27,NON-PROFIT,447701
PERSONAL CARE HOMES,SUGAR VALLEY LODGE (POLK),SUGAR VALLEY LODGE INC,"196 CHURCH STREET,",POLK,PA,16342,8143460350,VENANGO,15,NON-PROFIT,445490
PERSONAL CARE HOMES,SUGAR VALLEY LODGE (SILVER OAK BUILDING),SUGAR VALLEY LODGE INC,"158 SUGAR VALLEY LANE,",FRANKLIN,PA,16323,8143460352,VENANGO,15,NON-PROFIT,447710
PERSONAL CARE HOMES,SUGAR VALLEY LODGE (WHISPERING PINES BUILDING),SUGAR VALLEY LODGE INC,"178 SUGAR VALLEY LANE,",FRANKLIN,PA,16323,8143460352,VENANGO,15,NON-PROFIT,447720
PERSONAL CARE HOMES,SUITES AT ROUSE,BOARD OF DIRECTORS OF THE ROUSE ESTATE,"615 ROUSE AVENUE,",YOUNGSVILLE,PA,16371,8145631650,WARREN,120,NON-PROFIT,469000
PERSONAL CARE HOMES,SUN VALLEY ACRES,SUN VALLEY ACRES LLC,"108 SCHRADER AVENUE,PO BOX 139,",GLEN CAMPBELL,PA,15742,8148452100,INDIANA,30,PROFIT,447940
PERSONAL CARE HOMES,SUNNY CREST HOME,SUNNY CREST HOME INC,"2587 VALLEY VIEW ROAD,",MORGANTOWN,PA,19543,6102865000,LANCASTER,71,NON-PROFIT,321920
PERSONAL CARE HOMES,SUNRISE OF ABINGTON,SZR ABINGTON AL OPCO LLC,"1841 SUSQUEHANNA ROAD,",ABINGTON,PA,19001,2155768899,MONTGOMERY,110,PROFIT,144880
PERSONAL CARE HOMES,SUNRISE OF BLUE BELL,SZR BLUE BELL AL OPCO LIMITED PARTNERSHIP,"795 PENLLYN PIKE,",BLUE BELL,PA,19422,2156192777,MONTGOMERY,100,PROFIT,144870
PERSONAL CARE HOMES,SUNRISE OF EXTON,AL ONE PA INVESTMENTS OPCO LLC,"200 SUNRISE BOULEVARD,",EXTON,PA,19341,6105940455,CHESTER,106,PROFIT,144890
PERSONAL CARE HOMES,SUNRISE OF GRANITE RUN,SZR GRANITE RUN AL OPCO LLC,"247 NORTH MIDDLETOWN ROAD,",MEDIA,PA,19063,6105663535,DELAWARE,115,PROFIT,144900
PERSONAL CARE HOMES,SUNRISE OF HAVERFORD,SZR HAVERFORD AL OPCO LLC,"217 WEST MONTGOMERY AVENUE,",HAVERFORD,PA,19041,6108969777,DELAWARE,98,PROFIT,144920
PERSONAL CARE HOMES,SUNRISE OF LAFAYETTE HILL,WELLTOWER OPCO GROUP LLC,"429 RIDGE PIKE,",LAFAYETTE HILL,PA,19444,6109403888,MONTGOMERY,105,PROFIT,143240
PERSONAL CARE HOMES,SUNRISE OF MCCANDLESS,WELLTOWER OPCO GROUP LLC,"900 LINCOLN CLUB DRIVE,",PITTSBURGH,PA,15237,4124411241,ALLEGHENY,153,PROFIT,448800
PERSONAL CARE HOMES,SUNRISE OF NEWTOWN SQUARE,WELLTOWER OPCO GROUP LLC,"333 SOUTH NEWTOWN STREET ROAD,",NEWTOWN SQUARE,PA,19073,6103255400,DELAWARE,104,PROFIT,143260
PERSONAL CARE HOMES,SUNRISE OF NORTH WALES,SHI-III SAGE HORSHAM LLC,"1419 HORSHAM ROAD,",NORTH WALES,PA,19454,2674608100,MONTGOMERY,92,PROFIT,142490
PERSONAL CARE HOMES,SUNRISE OF PAOLI,WELLTOWER OPCO GROUP LLC,"324 WEST LANCASTER AVENUE,",MALVERN,PA,19355,6102519994,CHESTER,110,PROFIT,143251
PERSONAL CARE HOMES,SUNRISE OF UPPER ST. CLAIR,WELLTOWER OPCO GROUP LLC,"500 VILLAGE DRIVE,",UPPER ST. CLAIR,PA,15241,4128312200,ALLEGHENY,94,PROFIT,448820
PERSONAL CARE HOMES,SUNRISE OF WESTTOWN,AL ONE PA INVESTMENTS OPCO LLC,"1045 WILMINGTON PIKE,",WEST CHESTER,PA,19382,6103994464,CHESTER,110,PROFIT,144940
PERSONAL CARE HOMES,SUNRISE SENIOR LIVING OF DRESHER,HCRI SUN III TENANT LP,"1650 SUSQUEHANNA ROAD,",DRESHER,PA,19025,2152831123,MONTGOMERY,105,PROFIT,128410
PERSONAL CARE HOMES,SUNRISE SENIOR LIVING OF LOWER MAKEFIELD,MS LOWER MAKEFIELD SH LLC,"631 STONY HILL ROAD,",YARDLEY,PA,19067,2153218200,BUCKS,95,PROFIT,138090
PERSONAL CARE HOMES,SUNSET RIDGE PERSONAL CARE HOME,MORKEL INC,"466 HIGH STREET,",DERRY,PA,15627,7246943105,WESTMORELAND,16,PROFIT,428830
PERSONAL CARE HOMES,SUSAN DOWHOWER PERSONAL CARE HOME,SUSAN DOWHOWER PERSONAL CARE HOME LLC,"120 SOUTH 10TH STREET,",LEBANON,PA,17042,7172741474,LEBANON,36,PROFIT,334840
PERSONAL CARE HOMES,SUSAN'S VICTORIAN COTTAGE,SUSAN JONES,"111 HYDRANGEA LANE,",MT. PLEASANT,PA,15666,7244238706,WESTMORELAND,16,PROFIT,428900
PERSONAL CARE HOMES,SYCAMORE ESTATE,"SYCAMORE ESTATE, INC.","717 DUQUESNE BOULEVARD,",DUQUESNE,PA,15110,4124666787,ALLEGHENY,49,PROFIT,430850
PERSONAL CARE HOMES,SYMPHONY SQUARE AT BALA CYNWYD,BALA CYNWYD OPERATING LP,"35 OLD LANCASTER ROAD,",BALA CYNWYD,PA,19004,6106606560,MONTGOMERY,64,PROFIT,147760
PERSONAL CARE HOMES,T.L.C. ADULT CARE CENTER,TLC ADULT CARE CENTER INC,"9 RIO VISTA DRIVE,",WEST NEWTON,PA,15089,7248723000,WESTMORELAND,30,PROFIT,428200
PERSONAL CARE HOMES,TABOR MANOR,MANOR PERSONAL CARE INC,"6730 TABOR AVENUE,",PHILADELPHIA,PA,19111,2157286111,PHILADELPHIA,51,PROFIT,116980
PERSONAL CARE HOMES,TAPESTRY SENIOR LIVING MOON TOWNSHIP,TAPESTRY MOON LLC,"550 CHERRINGTON PARKWAY,",CORAOPOLIS,PA,15108,4125079999,ALLEGHENY,49,PROFIT,450100
PERSONAL CARE HOMES,TAYLOR'S PERSONAL CARE HOME,TAYLORS PERSONAL CARE HOME LLC,"2113-15 WEST HUNTING PARK AVE,",PHILADELPHIA,PA,19140,2152219033,PHILADELPHIA,37,PROFIT,138540
PERSONAL CARE HOMES,TENDER PERSONAL CARE HOME,TENDER PERSONAL CARE HOME LLC,"626 WEST MARKET STREET,",YORK,PA,17401,7178459999,YORK,14,PROFIT,332680
PERSONAL CARE HOMES,THE ADAMS HOUSE,KAREN ADAMS,"314 FALLOWFIELD AVENUE,",CHARLEROI,PA,15022,7244837171,WASHINGTON,21,PROFIT,413710
PERSONAL CARE HOMES,THE ARBORS AT ST BARNABAS - GIBSONIA,THE ARBORS AT ST BARNABAS INC,"5827 MERIDIAN ROAD,",GIBSONIA,PA,15044,7244430700,ALLEGHENY,56,NON-PROFIT,441590
PERSONAL CARE HOMES,THE ARBORS AT ST. BARNABAS,THE ARBORS AT ST BARNABAS INC,"85 CHARITY PLACE,",VALENCIA,PA,16059,7246254000,BUTLER,229,NON-PROFIT,423090
PERSONAL CARE HOMES,THE ARBORS AT ST. BARNABAS III,FOSNIGHT PERSONAL CARE HOMES INC,"6005 VALENCIA ROAD,",GIBSONIA,PA,15044,7246251530,ALLEGHENY,85,PROFIT,431570
PERSONAL CARE HOMES,THE ARBORS AT WASHINGTON PLACE,THE WASHINGTON PLACE ST. BARNABAS INC,"5847 MERIDIAN ROAD,",GIBSONIA,PA,15044,7244446288,ALLEGHENY,46,NON-PROFIT,448990
PERSONAL CARE HOMES,"THE ATRIUM, A CHOICE COMMUNITY","SENIOR CHOICE, INC.","216 MAIN STREET,",JOHNSTOWN,PA,15901,8145355347,CAMBRIA,92,NON-PROFIT,300220
PERSONAL CARE HOMES,THE BIRCHES AT NEWTOWN,CARE HSL NEWTOWN OPCO LLC,"70 DURHAM ROAD,",NEWTOWN,PA,18940,2154977400,BUCKS,120,PROFIT,142300
PERSONAL CARE HOMES,THE BIRCHES AT SHENANDOAH MANOR,SMNRC LP,"101 EAST WASHINGTON STREET,",SHENANDOAH,PA,17976,5704621908,SCHUYLKILL,23,PROFIT,222790
PERSONAL CARE HOMES,THE BRIDGES AT BENT CREEK,CREEK SENIOR CARE LLC,"2100 BENT CREEK BOULEVARD,",MECHANICSBURG,PA,17050,7177951100,CUMBERLAND,130,PROFIT,333550
PERSONAL CARE HOMES,THE BRIDGES AT WARWICK,WARWICK BRIDGES LLC,"1600 ALMSHOUSE ROAD,",JAMISON,PA,18929,2152697745,BUCKS,130,PROFIT,143160
PERSONAL CARE HOMES,THE BRUNSWICK AT ATTLEBORO,THE BRUNSWICK RESIDENCES INC,"310 EAST WINCHESTER AVENUE,",LANGHORNE,PA,19047,2157529730,BUCKS,116,PROFIT,139250
PERSONAL CARE HOMES,THE BRUNSWICK AT LONGSTOWN,THE BRUNSWICK RESIDENCES INC,"2830 CAROL ROAD,",YORK,PA,17402,7177557600,YORK,125,PROFIT,330310
PERSONAL CARE HOMES,THE BRYN MAWR TERRACE,THE BRYN MAWR TERRACE,"773 EAST HAVERFORD ROAD,",BRYN MAWR,PA,19010,4843805400,DELAWARE,33,NON-PROFIT,128490
PERSONAL CARE HOMES,THE BUEHRLE CENTER,DIAKON LUTHERAN SOCIAL MINISTRIES,"ONE SOUTH HOME AVENUE,",TOPTON,PA,19562,6106821400,BERKS,92,NON-PROFIT,214960
PERSONAL CARE HOMES,THE CARING PLACE - P.C.,GROVE MANOR,"103 NORTH 13TH STREET,",FRANKLIN,PA,16323,8144377024,VENANGO,32,NON-PROFIT,468690
PERSONAL CARE HOMES,THE CAROLYN CROXTON SLANE RESIDENCE-HOSPICE OF CENTRAL PA,HOSPICE OF CENTRAL PENNSYLVANIA INC,"1701 LINGLESTOWN ROAD,",HARRISBURG,PA,17110,7172360000,DAUPHIN,6,NON-PROFIT,362220
PERSONAL CARE HOMES,THE CHANDLER ESTATE IV,"THE CHANDLER ESTATE, INC.","1569 TEELS ROAD,",PEN ARGYL,PA,18072,6108631569,NORTHAMPTON,48,PROFIT,239980
PERSONAL CARE HOMES,THE COMMUNITY AT HOLY FAMILY MANOR,THE COMMUNITY AT HOLY FAMILY MANOR INC,"301 NAZARETH WAY,",PITTSBURGH,PA,15229,4129316996,ALLEGHENY,54,NON-PROFIT,430100
PERSONAL CARE HOMES,THE COMMUNITY AT PHOENIXVILLE,THE COMMUNITY AT PHOENIXVILLE LLC,"833 SOUTH MAIN STREET,",PHOENIXVILLE,PA,19460,6109333331,CHESTER,32,PROFIT,144221
PERSONAL CARE HOMES,THE COMMUNITY AT ROCKHILL,THE COMMUNITY AT ROCKHILL,"3250 STATE ROAD,",SELLERSVILLE,PA,18960,2152572751,BUCKS,74,NON-PROFIT,126870
PERSONAL CARE HOMES,THE CONNELLY HOUSE,THE CONNELLY HOUSE LLC,"511 B STREET,",SHARON,PA,16146,7249888299,MERCER,8,PROFIT,449400
PERSONAL CARE HOMES,THE CORRIGAN HOUSE,THE CORRIGAN HOUSE INC,"350 HAZLE TOWNSHIP BOULEVARD,",HAZLE TOWNSHIP,PA,18202,5704531690,LUZERNE,38,PROFIT,201380
PERSONAL CARE HOMES,THE DEVON SENIOR LIVING,FIVE STAR QUALITY CARE NS OPERATOR LLC,"445 NORTH VALLEY FORGE ROAD,",DEVON,PA,19333,6102632300,CHESTER,84,PROFIT,132060
PERSONAL CARE HOMES,THE FAIDLEY HOUSE,TFH HEALTHCARE LLC,"1378 FOURTH STREET,",MONONGAHELA,PA,15063,7243103674,WASHINGTON,28,PROFIT,449580
PERSONAL CARE HOMES,THE FOUNTAINS AT INDIANA,THE FOUNTAINS AT INDIANA LLC,"2698 WEST PIKE ROAD,",INDIANA,PA,15701,7244645399,INDIANA,32,PROFIT,448540
PERSONAL CARE HOMES,THE FOUNTAINS AT INDIANA,THE FOUNTAINS AT INDIANA LLC,"2720 WEST PIKE ROAD,",INDIANA,PA,15701,7244652861,INDIANA,40,PROFIT,452980
PERSONAL CARE HOMES,THE GARDEN AT PINE RUN HEALTH CENTER,DOYLESTOWN HOSPITAL,"777 FERRY ROAD,",DOYLESTOWN,PA,18901,2153405154,BUCKS,40,NON-PROFIT,133110
PERSONAL CARE HOMES,THE GARDENS AT FREEDOM VILLAGE,CCRC-BRANDYWINE LLC,"25 FREEDOM BOULEVARD,",WEST BRANDYWINE,PA,19320,4842882300,CHESTER,73,PROFIT,126000
PERSONAL CARE HOMES,THE GARDENS AT STEVENS,MAYBROOK-P DENVER OPCO LLC,"400 LANCASTER AVENUE,",STEVENS,PA,17578,7173363878,LANCASTER,26,PROFIT,332660
PERSONAL CARE HOMES,THE GLEN AT WILLOW VALLEY,WILLOW VALLEY COMMUNITIES,"675 WILLOW VALLEY SQUARE,",LANCASTER,PA,17602,7174646816,LANCASTER,76,NON-PROFIT,321910
PERSONAL CARE HOMES,THE GRAND RESIDENCE AT UPPER ST. CLAIR,GRAND RESIDENCE OF UPPER ST CLAIR INC,"45 MCMURRAY ROAD,",UPPER ST. CLAIR,PA,15241,4128332500,ALLEGHENY,85,PROFIT,432320
PERSONAL CARE HOMES,THE GROVE AT HARMONY,MAYBROOK-C EVERGREEN OPCO LLC,"191 EVERGREEN MILL ROAD,",HARMONY,PA,16037,7244526970,BUTLER,44,PROFIT,447570
PERSONAL CARE HOMES,THE GROVES,SAFE AND SOUND INC,"103 W. MAIN STREET,",EPHRATA,PA,17522,7177332040,LANCASTER,15,PROFIT,322270
PERSONAL CARE HOMES,THE HAVEN AT NORTH HILLS,THE HAVEN AT NORTH HILLS LLC,"1 WINDSOR WAY,",PITTSBURGH,PA,15237,4123646411,ALLEGHENY,90,PROFIT,449380
PERSONAL CARE HOMES,THE HAVEN AT SPRINGWOOD,HAVEN AT SPRINGWOOD OPCO LLC,"2321 FREEDOM WAY,",YORK,PA,17402,7177419919,YORK,123,PROFIT,335030
PERSONAL CARE HOMES,THE HAWTHORNE HOME,ALVARIUM PERSONAL CARE LLC,"1501 MINERAL SPRING ROAD,",READING,PA,19602,6103759696,BERKS,48,NON-PROFIT,227630
PERSONAL CARE HOMES,THE HEIGHTS AT WINDY HILL VILLAGE,PRESBYTERIAN HOMES OF THE PRESBYTERY OF HUNTINGDON,"250 DOGWOOD DRIVE,",PHILIPSBURG,PA,16866,8143428466,CENTRE,18,NON-PROFIT,227780
PERSONAL CARE HOMES,THE HERITAGE AT ST. PAUL HOMES,ST PAUL HOMES,"339 EAST JAMESTOWN ROAD,",GREENVILLE,PA,16125,7245894601,MERCER,125,NON-PROFIT,424570
PERSONAL CARE HOMES,THE HICKMAN,THE HICKMAN FRIENDS SENIOR COMMUNITY OF WEST CHESTER,"400 N. WALNUT STREET,",WEST CHESTER,PA,19380,4847606300,CHESTER,125,NON-PROFIT,140930
PERSONAL CARE HOMES,THE HIGHLANDS AT WYOMISSING PERSONAL CARE FACILITY,THE HIGHLANDS AT WYOMISSING INC,"2000 CAMBRIDGE AVENUE,",WYOMISSING,PA,19610,6107752300,BERKS,75,NON-PROFIT,205350
PERSONAL CARE HOMES,THE HILLSIDE SENIOR LIVING COMMUNITY,CSM MONTOURSVILLE LLC,"2725 FOUR MILE DRIVE,",MONTOURSVILLE,PA,17754,5704781017,LYCOMING,60,PROFIT,228300
PERSONAL CARE HOMES,THE INN AT FREEDOM VILLAGE,CCRC-BRANDYWINE LLC,"25 FREEDOM BOULEVARD,",WEST BRANDYWINE,PA,19320,6103835100,CHESTER,25,PROFIT,118750
PERSONAL CARE HOMES,THE INN AT HORSHAM CENTER FOR JEWISH LIFE,1425 HORSHAM SNF OPERATIONS LLC,"1425 HORSHAM ROAD,",NORTH WALES,PA,19454,2153713000,MONTGOMERY,58,PROFIT,147060
PERSONAL CARE HOMES,THE INN AT THE WATERMARK,WATERMARK LOGAN LLC,"TWO FRANKLIN TOWN BOULEVARD,",PHILADELPHIA,PA,19103,2155631800,PHILADELPHIA,101,PROFIT,142650
PERSONAL CARE HOMES,THE LAFAYETTE,HOLY REDEEMER HEALTH SYSTEM,"8580 VERREE ROAD, 2ND&3RD FLRS,",PHILADELPHIA,PA,19111,2152142800,PHILADELPHIA,150,NON-PROFIT,101920
PERSONAL CARE HOMES,THE LAKES AT JEFFERSON,EMBASSY MERCER LLC,"7271 WEST MARKET STREET,",MERCER,PA,16137,7247040039,MERCER,69,PROFIT,451510
PERSONAL CARE HOMES,THE LANDING AT TOWAMENCIN,COLUMBIA WEGMAN TOWAMENCIN LLC,"900 TOWAMENCIN AVENUE,",LANSDALE,PA,19446,2153535203,MONTGOMERY,144,PROFIT,145330
PERSONAL CARE HOMES,THE LANDING OF COLLEGEVILLE,COLUMBIA/WEGMAN COLLEGEVILLE LLC,"1421 SOUTH COLLEGEVILLE ROAD,",COLLEGEVILLE,PA,19426,4848541600,MONTGOMERY,110,PROFIT,142610
PERSONAL CARE HOMES,THE LANDING OF SOUTHAMPTON,COLUMBIA WEGMAN SOUTHAMPTON LLC,"1160 STREET ROAD,",SOUTHAMPTON,PA,18966,2157916666,BUCKS,106,PROFIT,145380
PERSONAL CARE HOMES,THE LAURELS,THE GREEN HOME,"39 CENTRAL AVENUE,",WELLSBORO,PA,16901,5707236860,TIOGA,60,NON-PROFIT,203410
PERSONAL CARE HOMES,THE LAURELS,LAURELS SENIOR LIVING INC,"23 FAITH DRIVE,",HAZLETON,PA,18202,5704557757,LUZERNE,100,PROFIT,211170
PERSONAL CARE HOMES,THE LELAND OF LAUREL RUN,REGAL MANOR LLC,"120 WEST MAIN STREET,",WAYNESBORO,PA,17268,7177490083,FRANKLIN,72,PROFIT,329940
PERSONAL CARE HOMES,THE LUTHERAN HOME AT JOHNSTOWN,ALLEGHENY LUTHERAN SOCIAL MINISTRIES INC,"807 GOUCHER STREET,",JOHNSTOWN,PA,15905,8142556844,CAMBRIA,48,NON-PROFIT,300780
PERSONAL CARE HOMES,THE MANOR AT MARKET SQUARE,"THREE READING, LP","803 PENN STREET,",READING,PA,19601,6103730800,BERKS,80,PROFIT,205890
PERSONAL CARE HOMES,THE MANSION AT ROSEMONT,HUMANGOOD PENNSYLVANIA,"404 CHESWICK PLACE,",ROSEMONT,PA,19010,6105276500,DELAWARE,221,NON-PROFIT,176630
PERSONAL CARE HOMES,THE MEADOWS AT SHANNONDELL,SHANNONDELL INC,"6000 SHANNONDELL DRIVE,",AUDUBON,PA,19403,6107285400,MONTGOMERY,184,PROFIT,128370
PERSONAL CARE HOMES,THE MEADOWS MANOR,"ECUMENICAL ENTERPRISES, INC.","200 LAKE STREET,",DALLAS,PA,18612,5706759336,LUZERNE,66,NON-PROFIT,243650
PERSONAL CARE HOMES,"THE MEADOWS, A PERSONAL CARE COMMUNITY",THE PARK HOME,"2160 WARRENSVILLE ROAD,",MONTOURSVILLE,PA,17754,5704334663,LYCOMING,64,NON-PROFIT,225960
PERSONAL CARE HOMES,THE MENNONITE HOME,THE MENNONITE HOME,"1520 HARRISBURG PIKE,",LANCASTER,PA,17601,7173931301,LANCASTER,125,NON-PROFIT,321780
PERSONAL CARE HOMES,THE MUHLENBERG LODGE,LUTHERCARE INC,"300 ST. MARK AVENUE,",LITITZ,PA,17543,7176272335,LANCASTER,90,NON-PROFIT,321820
PERSONAL CARE HOMES,THE NEIGHBORHOODS AT WALDEN'S VIEW,WALDEN'S VIEW NORTH HUNTINGDON OPCO LLC,"7990 US ROUTE 30,",NORTH HUNTINGDON,PA,15642,7248632600,WESTMORELAND,40,PROFIT,446810
PERSONAL CARE HOMES,"THE PALMERTON, AN INSPIRIT SENIOR LIVING COMMUNITY",INSPIRIT PALMERTON OPERATOR LLC,"71 PRINCETON AVENUE,",PALMERTON,PA,18071,6108247406,CARBON,71,PROFIT,226800
PERSONAL CARE HOMES,THE PALMS AT O'NEIL,THE PALMS AT O'NEIL INC,"1 GLENSHIRE LANE,",MCKEESPORT,PA,15132,4126641000,ALLEGHENY,82,PROFIT,439640
PERSONAL CARE HOMES,THE PATHWAYS AT WARRINGTON,GDL FARMS CORP,"2900 STREET ROAD,",WARRINGTON,PA,18976,2672284690,BUCKS,108,NON-PROFIT,147470
PERSONAL CARE HOMES,THE PATRIOT A CHOICE COMMUNITY,SENIOR CHOICE INC,"495 WEST PATRIOT STREET,",SOMERSET,PA,15501,8144454549,SOMERSET,76,NON-PROFIT,321360
PERSONAL CARE HOMES,THE PINES AT CLARKS SUMMIT,MILLETT PINES LLC,"1300 MORGAN HIGHWAY,",CLARKS SUMMIT,PA,18411,5705877709,LACKAWANNA,72,PROFIT,226120
PERSONAL CARE HOMES,THE PINES OF MT. LEBANON,TITHONUS MT. LEBANON LP,"1537 WASHINGTON ROAD,",PITTSBURGH,PA,15228,4123414400,ALLEGHENY,112,PROFIT,433610
PERSONAL CARE HOMES,THE PINNACLE AT PLYMOUTH MEETING,CSW ARBOUR SQUARE III PLYMOUTH MEETING LP,"215 PLYMOUTH ROAD,",PLYMOUTH MEETING,PA,19462,6102923030,MONTGOMERY,138,PROFIT,147200
PERSONAL CARE HOMES,THE RESIDENCE A SENIOR LIVING COMMUNITY AT THE JEWISH HOME,JEWISH HOME OF GREATER HARRISBURG,"4004 LINGLESTOWN ROAD,",HARRISBURG,PA,17112,7174418530,DAUPHIN,64,NON-PROFIT,312760
PERSONAL CARE HOMES,THE RESIDENCE AT ARROWOOD,SOUTHWESTERN HEALTHCARE OPERATIONS LLC,"512 N LEWIS RUN ROAD,",PITTSBURGH,PA,15122,4124693330,ALLEGHENY,84,PROFIT,452150
PERSONAL CARE HOMES,THE RESIDENCE AT CHADDS FORD,LCB CHADDS FORD LLC,"1778 WILMINGTON PIKE,",GLEN MILLS,PA,19342,6102223333,DELAWARE,108,PROFIT,145360
PERSONAL CARE HOMES,THE RESIDENCE AT HILLTOP,MON-VALE NON ACUTE CARE SERVICES INC,"210 ROUTE 837,",MONONGAHELA,PA,15063,7242588940,WASHINGTON,84,PROFIT,474880
PERSONAL CARE HOMES,THE RESIDENCE AT SOUTHWESTERN,SOUTHWESTERN HEALTHCARE OPERATIONS LLC,"502 N LEWIS RUN ROAD,",PITTSBURGH,PA,15122,4124601099,ALLEGHENY,39,PROFIT,452160
PERSONAL CARE HOMES,THE RESIDENCE AT WEINBERG VILLAGE,JEWISH ASSOCIATION ON AGING,"300 JHF DRIVE,",PITTSBURGH,PA,15217,4125218988,ALLEGHENY,76,NON-PROFIT,429860
PERSONAL CARE HOMES,THE RESIDENCE AT WHITEHALL,CPF LIVING COMMUNITIES - WHITEHALL LLC,"4750 CLAIRTON BOULEVARD,",PITTSBURGH,PA,15236,4128851500,ALLEGHENY,46,PROFIT,450210
PERSONAL CARE HOMES,THE RESIDENCE AT WILLOW LANE,VALLEY MEDICAL FACILITIES INC,"30 HECKEL ROAD,",MCKEES ROCKS,PA,15136,4123316139,ALLEGHENY,107,NON-PROFIT,451910
PERSONAL CARE HOMES,THE RIDGEWOOD AT ST. PAUL HOMES,"ST. PAUL HOMES, INC.","339 EAST JAMESTOWN ROAD,",GREENVILLE,PA,16125,7245887610,MERCER,52,NON-PROFIT,467480
PERSONAL CARE HOMES,THE ROBERT PACKER HOSPITAL PERSONAL CARE HOME,THE ROBERT PACKER HOSPITAL,"603 WILLIAM STREER,",TOWANDA,PA,18848,5702682426,BRADFORD,94,NON-PROFIT,229870
PERSONAL CARE HOMES,THE SHERIDAN AT BETHEL PARK,KJ BETHEL PARK LLC,"2000 COOL SPRINGS DRIVE,",PITTSBURGH,PA,15234,4129234892,ALLEGHENY,147,PROFIT,449480
PERSONAL CARE HOMES,THE SOLANA DOYLESTOWN,LCS DOYLESTOWN LLC,"1621 EASTON ROAD,",WARRINGTON,PA,18976,2672824168,BUCKS,129,PROFIT,145310
PERSONAL CARE HOMES,THE SUSQUEHANNA HOUSE,NEW CONCEPTS INC,"2400 SUSQUEHANNA TRAIL,",MCEWENSVILLE,PA,17749,5705389555,NORTHUMBERLAND,22,PROFIT,213120
PERSONAL CARE HOMES,THE TERRACE AT CHESTNUT HILL,ABINGTON SENIOR CARE LLC,"495 EAST ABINGTON AVENUE,",PHILADELPHIA,PA,19118,2152475307,PHILADELPHIA,122,PROFIT,141570
PERSONAL CARE HOMES,THE VILLA PERSONAL CARE LLC,THE VILLA PERSONAL CARE LLC,"429 NAPOLEON PLACE,",JOHNSTOWN,PA,15901,8142544514,CAMBRIA,50,PROFIT,328360
PERSONAL CARE HOMES,THE VILLA ST. ELIZABETH,EVERGREEN ELDER CARE INC,"1201 MUSEUM ROAD,",READING,PA,19611,6104781201,BERKS,92,PROFIT,205760
PERSONAL CARE HOMES,THE VILLAGE AT GREENBRIAR,"THE GREENBRIAR INDEPENDENT AND ASSTD LIVING COMMUNITY, INC","4244 MEMORIAL HIGHWAY,",DALLAS,PA,18612,5706751300,LUZERNE,78,PROFIT,213320
PERSONAL CARE HOMES,THE VILLAGE AT MORRISONS COVE,THE VILLAGE AT MORRISONS COVE,"425 SOUTH MARKET STREET,",MARTINSBURG,PA,16662,8147932104,BLAIR,40,NON-PROFIT,303890
PERSONAL CARE HOMES,THE VILLAGE AT PENN STATE,LIBERTY LUTHERAN HOUSING DEVELOPMENT CORPORATION,"160 LIONS HILL ROAD,",STATE COLLEGE,PA,16803,8142381949,CENTRE,14,NON-PROFIT,229440
PERSONAL CARE HOMES,THE VILLAGE HOUSE,PRESBYTERIAN HOMES INC,"1155 INDIAN SPRINGS ROAD,",INDIANA,PA,15701,7244641600,INDIANA,42,NON-PROFIT,427290
PERSONAL CARE HOMES,THE VILLAGE OF NANTY GLO P.C.H.,THE VILLAGE OF NANTY GLO PCH INC,"628 PIKE ROAD,",JOHNSTOWN,PA,15909,8147495100,CAMBRIA,50,PROFIT,325690
PERSONAL CARE HOMES,THE VINEYARD PERSONAL CARE HOME,THE VINEYARD PERSONAL CARE HOME INC,"3030 COLUMBIA AVENUE,",LANCASTER,PA,17603,7172992919,LANCASTER,42,NON-PROFIT,325030
PERSONAL CARE HOMES,THE WATERMARK AT BELLINGHAM,WATERMARK BELLINGHAM LLC,"1615 EAST BOOT ROAD,",WEST CHESTER,PA,19380,6108398920,CHESTER,80,PROFIT,146881
PERSONAL CARE HOMES,"THE WILLIAMSPORT HOME & APARTMENTS, 3RD FLOOR","WILLIAMSPORT HOME, INC.","1900 RAVINE ROAD,",WILLIAMSPORT,PA,17701,5703234589,LYCOMING,124,NON-PROFIT,200630
PERSONAL CARE HOMES,"THE WILLOW, AN INSPIRIT SENIOR LIVING COMMUNITY",INSPIRIT MACUNGIE OPERATOR LLC,"6488 ALBURTIS ROAD,",MACUNGIE,PA,18062,6104218100,LEHIGH,67,PROFIT,226810
PERSONAL CARE HOMES,THE WILLOWS OF LIVING BRANCHES,HATFIELD MENNONITE HOME,"2343 BETHLEHEM PIKE,",HATFIELD,PA,19440,2158220688,BUCKS,80,NON-PROFIT,126780
PERSONAL CARE HOMES,THE WOODS AT CEDAR RUN,VS WOODS LLC,"824 LISBURN ROAD,",CAMP HILL,PA,17011,7177373373,CUMBERLAND,79,PROFIT,331320
PERSONAL CARE HOMES,THORNWALD HOME,UNITED CHURCH OF CHRIST HOMES INC,"442 WALNUT BOTTOM ROAD,",CARLISLE,PA,17013,7172494118,CUMBERLAND,36,NON-PROFIT,343420
PERSONAL CARE HOMES,TIFFANY COURT AT KINGSTON,SNH PENN TENANT LLC,"700 NORTHAMPTON STREET,",KINGSTON,PA,18704,5702832336,LUZERNE,110,PROFIT,228220
PERSONAL CARE HOMES,TILBURG'S HOME FOR THE YOUNG AT HEART,"VIVE BENE, INC.","801 MARKET STREET,",WILLIAMSPORT,PA,17701,5703225951,LYCOMING,24,PROFIT,218390
PERSONAL CARE HOMES,TRADITIONS OF HERSHEY,GAHC3 PALMYRA PA ALF TRS SUB LLC,"100 NORTH LARKSPUR ROAD,",PALMYRA,PA,17078,7178382330,LEBANON,36,PROFIT,332600
PERSONAL CARE HOMES,TRADITIONS OF LANSDALE,IVQ LANSDALE OPCO LP,"1800 WALNUT STREET,",LANSDALE,PA,19446,2158551235,MONTGOMERY,150,PROFIT,145210
PERSONAL CARE HOMES,TRANSITIONS HEALTHCARE WASHINGTON PA,TRANSITIONS HEALTHCARE WASHINGTON PA LLC,"90 HUMBERT LANE,",WASHINGTON,PA,15301,7242285666,WASHINGTON,48,PROFIT,445990
PERSONAL CARE HOMES,TRI-COUNTY RESPITE-QUAKERTOWN HOUSE,TRI-COUNTY RESPITE INC,"219 EAST BROAD STREET,",QUAKERTOWN,PA,18951,2155382424,BUCKS,65,NON-PROFIT,126810
PERSONAL CARE HOMES,TRINITY OAKS II,TRINITY OAKS INC,"117 SHADY REST ROAD,",ELLWOOD CITY,PA,16117,7247529166,BEAVER,30,PROFIT,458570
PERSONAL CARE HOMES,TROSIEK'S PERSONAL CARE HOME,MICHAEL M TROSIEK JR,"214 SECOND STREET,",NEW SALEM,PA,15468,7242450203,FAYETTE,13,PROFIT,450260
PERSONAL CARE HOMES,"TRUEWOOD BY MERRILL, GLEN RIDDLE",MG MEDIA SUBTENANT LLC,"263 GLEN RIDDLE ROAD,",MEDIA,PA,19063,6103589933,DELAWARE,153,PROFIT,145820
PERSONAL CARE HOMES,TUNKHANNOCK MANOR,UMH PA CORP,"50 WEST TIOGA STREET,",TUNKHANNOCK,PA,18657,5708362983,WYOMING,42,NON-PROFIT,236550
PERSONAL CARE HOMES,TWIN CEDAR SENIOR LIVING,LITTLE WALKER HOLDINGS LLC,"364 LITTLE WALKER ROAD,",SHOHOLA,PA,18458,5702967471,PIKE,37,PROFIT,228500
PERSONAL CARE HOMES,TWIN OAKS PERSONAL CARE HOME,TWIN OAKS PERSONAL CARE HOME INC,"1100 COWLEY RD,",GRANVILLE SUMMIT,PA,16926,5706736010,BRADFORD,24,PROFIT,214700
PERSONAL CARE HOMES,TWINING VILLAGE,DIAKON LUTHERAN SOCIAL MINISTRIES,"1400 OLD JORDAN ROAD,",HOLLAND,PA,18966,2153226100,BUCKS,152,NON-PROFIT,126920
PERSONAL CARE HOMES,UNITED HANDS HOME CARE,"UNITED HANDS HOME CARE, LLC","514 MITCHELL AVENUE,",CLAIRTON,PA,15025,4126149912,ALLEGHENY,36,PROFIT,442400
PERSONAL CARE HOMES,UNITED ZION RETIREMENT COMMUNITY,"UNITED ZION RETIREMENT COMMUNITY, INC.","722 FURNACE HILLS PIKE,",LITITZ,PA,17543,7176278409,LANCASTER,49,NON-PROFIT,321810
PERSONAL CARE HOMES,UNIVERSAL HEALTH RECOVERY CENTER,UNIVERSAL HEALTH RECOVERY CENTERS INC,"2000 PROVIDENCE AVENUE,",CHESTER,PA,19013,6108768448,DELAWARE,16,PROFIT,188360
PERSONAL CARE HOMES,UPMC WESTERN BEHAVIORAL HEALTH AT MON YOUGH,MON YOUGH COMMUNITY SERVICES INC,"1109 LONG RUN ROAD,",WHITE OAK,PA,15131,4126758900,ALLEGHENY,18,NON-PROFIT,447470
PERSONAL CARE HOMES,UPMC WESTERN BEHAVIORAL HEALTH AT MON YOUGH,MON-YOUGH COMMUNITY SERVICES INC,"624 LYSLE BLVD.,",MCKEESPORT,PA,15132,4126734315,ALLEGHENY,27,NON-PROFIT,430030
PERSONAL CARE HOMES,UPMC WESTERN BEHAVIORAL HEALTH AT MON YOUGH,MON YOUGH COMMUNITY SERVICES INC,"2813 VERSAILLES AVENUE,",MCKEESPORT,PA,15132,4126781760,ALLEGHENY,8,NON-PROFIT,439100
PERSONAL CARE HOMES,UPTON'S COUNTRY COMFORT,WARREN J UPTON,"544 BUCHANAN ROAD,",NORMALVILLE,PA,15469,7244551926,FAYETTE,16,PROFIT,474700
PERSONAL CARE HOMES,VALLEY VIEW HAVEN,VALLEY VIEW HAVEN,"4702 EAST MAIN ST.-THE TERRACE,",BELLEVILLE,PA,17004,7179352105,MIFFLIN,95,NON-PROFIT,335520
PERSONAL CARE HOMES,VIBRA SENIOR LIVING,MECHANICSBURG SENIOR CARE LLC,"707 SHEPHARDSTOWN ROAD,",MECHANICSBURG,PA,17055,7175912125,CUMBERLAND,46,PROFIT,331090
PERSONAL CARE HOMES,VICTORIA HOUSE AT SPRING HOUSE ESTATES,HOMEWOOD AT SPRING HOUSE ESTATES INC,"150 VICTORIA AVENUE,",EVERETT,PA,15537,8146230349,BEDFORD,32,NON-PROFIT,335100
PERSONAL CARE HOMES,VICTORIA HOUSE I,VICTORIA HOUSE PERSONAL CARE HOMES INC,"751 TYROL BLVD.,",MONESSEN,PA,15062,7246846783,WESTMORELAND,8,PROFIT,429220
PERSONAL CARE HOMES,VICTORIA HOUSE III,VICTORIA HOUSE PERSONAL CARE HOMES INC,"1014 STATE ROAD,",MONESSEN,PA,15062,7246846783,WESTMORELAND,20,PROFIT,429260
PERSONAL CARE HOMES,VICTORIA MANOR PERSONAL CARE HOME,LAFFEY HEALTH CARE SERVICES LLC,"100 ROSE COURT,",OAKDALE,PA,15071,7246938325,ALLEGHENY,38,PROFIT,446420
PERSONAL CARE HOMES,VICTORIAN VILLA,"DALLASTOWN OPERATING, INC.","621 EAST MAIN STREET,",DALLASTOWN,PA,17313,7172449722,YORK,40,PROFIT,320000
PERSONAL CARE HOMES,VILLA ANGELA AT ST. ANNE HOME,ST ANNE HOME INC,"685 ANGELA DRIVE,",GREENSBURG,PA,15601,7248376070,WESTMORELAND,54,NON-PROFIT,428040
PERSONAL CARE HOMES,VINCENTIAN HOME,VINCENTIAN HOME INC,"111 PERRYMONT ROAD,",PITTSBURGH,PA,15237,4123661039,ALLEGHENY,60,NON-PROFIT,431530
PERSONAL CARE HOMES,VINE STREET MANOR,KAYMARIE BRIDDELL,"230 NORTH 65TH STREET,",PHILADELPHIA,PA,19139,2158804641,PHILADELPHIA,84,PROFIT,142340
PERSONAL CARE HOMES,VINTAGE KNOLLS,CSM DANVILLE LLC,"9 JUSTIN DRIVE,",DANVILLE,PA,17821,5702751824,MONTOUR,66,PROFIT,228310
PERSONAL CARE HOMES,WALDEN III,LIFEOPTIONS INC,"325 NORTH BROADWAY,",WIND GAP,PA,18091,6108637059,NORTHAMPTON,77,PROFIT,242420
PERSONAL CARE HOMES,WALDEN'S VIEW AT NORTH HUNTINGDON,WALDEN'S VIEW NORTH HUNTINGDON OPCO LLC,"7990 US ROUTE 30,",NORTH HUNTINGDON,PA,15642,7248632600,WESTMORELAND,100,PROFIT,446800
PERSONAL CARE HOMES,WALNUT MANOR,GLEN AND JANET VIRGO,"5032 WALNUT STREET,",PHILADELPHIA,PA,19139,2155285297,PHILADELPHIA,27,PROFIT,117191
PERSONAL CARE HOMES,WALNUT RIDGE MEMORY CARE,WALNUT RIDGE A MEMORY CARE HOME LLC,"711 ROUTE 119,",GREENSBURG,PA,15601,7248345711,WESTMORELAND,60,PROFIT,429380
PERSONAL CARE HOMES,WARRIOR RUN HERITAGE HOUSE,NEW CONCEPTS INC,"11430 STATE ROUTE 44,",WATSONTOWN,PA,17777,5706495100,NORTHUMBERLAND,20,PROFIT,216960
PERSONAL CARE HOMES,WASHINGTON MANOR PERSONAL CARE HOME LLC,WASHINGTON MANOR PERSONAL CARE HOME LLC,"320 SOUTH WASHINGTON STREET,",BUTLER,PA,16003,7242858115,BUTLER,25,PROFIT,448630
PERSONAL CARE HOMES,WATSON MEMORIAL HOME,WATSON MEMORIAL HOME,"1200 CONEWANGO AVENUE,",WARREN,PA,16365,8147238310,WARREN,25,NON-PROFIT,444120
PERSONAL CARE HOMES,WAVERLY HEIGHTS,WAVERLY HEIGHTS LTD,"P.O.BOX 179, 1400 WAVERLY ROAD,",GLADWYNE,PA,19035,6106458600,MONTGOMERY,82,NON-PROFIT,127820
PERSONAL CARE HOMES,WE CARE PERSONAL CARE HOME,"WE CARE PERSONAL CARE HOME, LLC","904 SOUTH 49TH STREET,",PHILADELPHIA,PA,19143,2157267002,PHILADELPHIA,15,PROFIT,133841
PERSONAL CARE HOMES,WEIKERT'S CARE HOME,AMANDA WEIKERT,"159 KINGSDALE ROAD,",LITTLESTOWN,PA,17340,7173599418,ADAMS,8,PROFIT,337430
PERSONAL CARE HOMES,WELLINGTON COURT AT HERSHEY'S MILL,ARHC WHWCHPA01 TRS LLC,"1361 EAST BOOT ROAD,",WEST CHESTER,PA,19380,4846531200,CHESTER,74,PROFIT,141360
PERSONAL CARE HOMES,WELLSBORO SHARED HOMES,WELLSBORO SHARED HOMES INC,"27 BACON STREET,",WELLSBORO,PA,16901,5707242300,TIOGA,31,NON-PROFIT,237110
PERSONAL CARE HOMES,WELSH MOUNTAIN HOME,WELSH MOUNTAIN HOME INC,"567 SPRINGVILLE ROAD,",NEW HOLLAND,PA,17557,7173559522,LANCASTER,52,NON-PROFIT,321720
PERSONAL CARE HOMES,WESBURY UNITED METHODIST COMMUNITY,WESBURY UNITED METHODIST COMMUNITY,"31 NORTH PARK AVENUE,",MEADVILLE,PA,16335,8143329000,CRAWFORD,110,NON-PROFIT,446820
PERSONAL CARE HOMES,WESLEY ENHANCED LIVING AT STAPELEY,STAPELEY HALL,"6300 GREENE STREET,",PHILADELPHIA,PA,19144,2158440700,PHILADELPHIA,79,NON-PROFIT,140170
PERSONAL CARE HOMES,WESLEY ENHANCED LIVING BURHOLME,NORTH AMERICAN BAPTIST HOME FOR THE AGED,"7040-52 OXFORD AVENUE,",PHILADELPHIA,PA,19111,2157453517,PHILADELPHIA,60,NON-PROFIT,108540
PERSONAL CARE HOMES,WESLEY ENHANCED LIVING DOYLESTOWN,THE NEW HERITAGE TOWERS INC,"200 VETERANS LANE,",DOYLESTOWN,PA,18901,2678951146,BUCKS,75,NON-PROFIT,127180
PERSONAL CARE HOMES,WESLEY ENHANCED LIVING MAIN LINE PERSONAL CARE,"MARTINS RUN, INC.","100 HALCYON DRIVE,",MEDIA,PA,19063,6103537660,DELAWARE,59,NON-PROFIT,182800
PERSONAL CARE HOMES,WESLEY ENHANCED LIVING PENNYPACK PARK,"EVANGELICAL MANOR, INC.","8401 ROOSEVELT BOULEVARD,",PHILADELPHIA,PA,19152,2156245800,PHILADELPHIA,50,NON-PROFIT,176380
PERSONAL CARE HOMES,WESLEY ENHANCED LIVING UPPER MORELAND,MAPLE VILLAGE,"2815 BYBERRY ROAD,",HATBORO,PA,19040,2156750103,MONTGOMERY,52,NON-PROFIT,127910
PERSONAL CARE HOMES,WESLEY VILLAGE,UMH PA CORP,"215 ROBERTS ROAD,",PITTSTON,PA,18640,5706552891,LUZERNE,157,NON-PROFIT,241880
PERSONAL CARE HOMES,WEST SIDE KOZY COMFORT PERSONAL CARE HOME,WEST SIDE KOZY COMFORT PERSONAL CARE HOME INC,"906 SOUTH MAIN AVENUE,",SCRANTON,PA,18504,5703415840,LACKAWANNA,36,PROFIT,204490
PERSONAL CARE HOMES,WEST SIDE MANOR,WEST SIDE MANOR INC,"6 WEST SIDE, P.O.BOX 289,",ROSSITER,PA,15772,8149389601,INDIANA,16,PROFIT,427361
PERSONAL CARE HOMES,WESTFIELD,WESTFIELD BEHAVIORAL HEALTH AFFILIATES INC,"5826 OLD PULASKI ROAD,",NEW WILMINGTON,PA,16142,7246583006,LAWRENCE,8,NON-PROFIT,474240
PERSONAL CARE HOMES,WESTMINSTER PLACE OF OAKMONT,PRESBYTERIAN SENIOR CARE INC,"1215 HULTON ROAD,",OAKMONT,PA,15139,4128266088,ALLEGHENY,120,NON-PROFIT,429620
PERSONAL CARE HOMES,WESTMINSTER VILLAGE,PRESBYTERIAN HOMES INC,"803 NORTH WAHNETA STREET,",ALLENTOWN,PA,18109,6107828361,LEHIGH,90,NON-PROFIT,216460
PERSONAL CARE HOMES,WESTMINSTER WOODS,WESTMINSTER WOODS INC,"360 WESTMINSTER DRIVE,",HUNTINGDON,PA,16652,8146442000,HUNTINGDON,34,NON-PROFIT,360670
PERSONAL CARE HOMES,WHITE HORSE VILLAGE,WHITE HORSE VILLAGE INC,"535 GRADYVILLE ROAD,",NEWTOWN SQUARE,PA,19073,6105585003,DELAWARE,79,NON-PROFIT,179430
PERSONAL CARE HOMES,WHITEHALL MANOR,"WHITEHALL MANOR, INC.","1177 SIXTH STREET,",WHITEHALL,PA,18052,6104033500,LEHIGH,195,PROFIT,216650
PERSONAL CARE HOMES,WHITEHEAD PERSONAL CARE HOME II,DONALD WHITEHEAD,"517 SOUTH 9TH STREET,",YOUNGWOOD,PA,15697,7249256687,WESTMORELAND,17,PROFIT,428140
PERSONAL CARE HOMES,WHITEMARSH HOUSE,WHITEMARSH HOUSE INC.,"31 WEST MILL ROAD,",FLOURTOWN,PA,19031,2158369254,MONTGOMERY,26,NON-PROFIT,127860
PERSONAL CARE HOMES,WHITETAIL SPRINGS ALZHEIMER'S SPECIAL CARE CENTER,WHITEHALL CARE GROUP LLC,"3401 PROVOST ROAD,",PITTSBURGH,PA,15227,4128843033,ALLEGHENY,66,PROFIT,450610
PERSONAL CARE HOMES,WILLIAM PENN SENIOR SUITES AND PERSONAL CARE,WILLIAM PENN HEALTH CARE ASSOCIATES LP,"1021 WALTON ROAD,",JEANNETTE,PA,15644,7245193700,WESTMORELAND,108,PROFIT,444250
PERSONAL CARE HOMES,WILLIAM'S MANOR,WILLIAM'S MANOR LLC.,"164 BARON ROAD,",WIND GAP,PA,18091,6107594053,NORTHAMPTON,8,PROFIT,207310
PERSONAL CARE HOMES,WILLOW VIEW HOME,EQUITY HOUSING CORPORATION,"204 HERRVILLE ROAD,",WILLOW STREET,PA,17584,7177865519,LANCASTER,24,PROFIT,322280
PERSONAL CARE HOMES,WILLOWBROOK PLACE,CLARKS SUMMIT AID II OPCO LLC,"150 EDELLA ROAD,",CLARKS SUMMIT,PA,18411,5705866028,LACKAWANNA,80,PROFIT,226590
PERSONAL CARE HOMES,WINDBER WOODS SENIOR LIVING & REHABILITATION CENTER,COMMUNITY HEALTHCARE PC OPERATOR INC,"277 HOFFMAN AVENUE,",WINDBER,PA,15963,8144675505,SOMERSET,60,PROFIT,333880
PERSONAL CARE HOMES,WOLF RUN VILLAGE,WOLF RUN VILLAGE LLC,"3750 ROUTE 220 HIGHWAY,",HUGHESVILLE,PA,17737,5705840101,LYCOMING,75,PROFIT,221490
PERSONAL CARE HOMES,WOMEN OF HOPE,CATHOLIC SOCIAL SERVICES,"251 NORTH LAWRENCE STREET,",PHILADELPHIA,PA,19106,2155929116,PHILADELPHIA,24,NON-PROFIT,175940
PERSONAL CARE HOMES,WOODBOURNE PLACE,STATESMAN WOODS AID OPCO LLC,"2619 TRENTON ROAD,",LEVITOWN,PA,19056,2159436611,BUCKS,48,PROFIT,139550
PERSONAL CARE HOMES,WOODBRIDGE PLACE,RAPPS SENIOR CARE LLC,"1191 RAPPS DAM ROAD,",PHOENIXVILLE,PA,19460,4843020005,CHESTER,125,PROFIT,143590
PERSONAL CARE HOMES,WOODCREST SENIOR LIVING COMMUNITY,GROVE MANOR,"1 WOODCREST CIRCLE,",SCOTTDALE,PA,15683,7248873773,WESTMORELAND,55,NON-PROFIT,442120
PERSONAL CARE HOMES,WOODLAND CREEK ALZHEIMER'S SPECIAL CARE CENTER,DRESHER CARE GROUP LLC,"1424 DRESHERTOWN ROAD,",DRESHER,PA,19025,2156463231,MONTGOMERY,66,PROFIT,146050
PERSONAL CARE HOMES,WOODLAND VISTA AT THE WILLIAMSPORT HOME,"THE WILLIAMSPORT HOME, INC.","1900 RAVINE ROAD,",WILLIAMSPORT,PA,17701,5703238781,LYCOMING,16,NON-PROFIT,210380
PERSONAL CARE HOMES,WOODSIDE PLACE OF OAKMONT,PRESBYTERIAN SENIOR CARE INC,"1215 HULTON ROAD,",OAKMONT,PA,15139,4128266500,ALLEGHENY,37,NON-PROFIT,429730
PERSONAL CARE HOMES,WYALUSING VALLEY RETIREMENT AND PERSONAL CARE HOME,WYALUSING VALLEY PERSONAL CARE HOME INC,"43850 ROUTE 6,",WYALUSING,PA,18853,5707462273,BRADFORD,45,PROFIT,210240
PERSONAL CARE HOMES,WYNCOTE PLACE,WYNCOTE AID II OPCO LLC,"240 BARKER ROAD,",WYNCOTE,PA,19095,2155178200,MONTGOMERY,60,PROFIT,142540
PERSONAL CARE HOMES,WYNWOOD HOUSE AT GREENHILLS,RURAL LIVING INC,"301 FARMSTEAD LANE,",STATE COLLEGE,PA,16803,8142349898,CENTRE,50,PROFIT,243230
PERSONAL CARE HOMES,WYNWOOD HOUSE AT NITTANY VALLEY,RURAL LIVING INC,"294 DISCOVERY DRIVE,",BOALSBURG,PA,16827,8148086800,CENTRE,40,PROFIT,232620
PERSONAL CARE HOMES,WYNWOOD HOUSE AT PENNS VALLEY,RURAL LIVING INC,"122 WYNWOOD DRIVE,",CENTRE HALL,PA,16828,8143649770,CENTRE,40,PROFIT,229970
PERSONAL CARE HOMES,WYNWOOD HOUSE AT SALEM HILL,RURAL LIVING INC,"424 HECKMAN CEMETERY ROAD,",SPRING MILLS,PA,16875,8148107001,CENTRE,36,PROFIT,228000
PERSONAL CARE HOMES,WYNWOOD HOUSE AT STATE COLLEGE,RURAL LIVING INC,"2350 BERNEL ROAD,",STATE COLLEGE,PA,16803,8144247880,CENTRE,63,PROFIT,254090
PERSONAL CARE HOMES,WYOMING MANOR PERSONAL CARE CENTER,WYOMING MANOR PCH LLC,"80 WYOMING AVENUE,",WYOMING,PA,18644,5706932277,LUZERNE,50,PROFIT,225560
PERSONAL CARE HOMES,XAVIER PERSONAL CARE HOME,MCDOWELL INC,"3 ST. JOHN STREET,",MCKEES ROCKS,PA,15136,4123316222,ALLEGHENY,33,PROFIT,431000
PERSONAL CARE HOMES,YOU FIRST PERSONAL CARE,YOU FIRST PERSONAL CARE LLC,"337 FREDERICK STREET,",HANOVER,PA,17331,7175087370,YORK,35,PROFIT,337230
PERSONAL CARE HOMES,ZERBE SISTERS NURSING CENTER,ZERBE SISTERS NURSING CENTER INC,"2499 ZERBE ROAD,",NARVON,PA,17555,7174458744,LANCASTER,28,PROFIT,322370