State Facility Type 2 Literal,Facility ID,License Number,Facility Name,Address,City,State,Zip Code,County,Phone Number,Email Address,Capacity,Licensee,Ownership Type,Latitude,Longitude
ASSISTED LIVING PROGRAM,NJ11A006,11A006,"Assisted Living, Inc",1015 WHITEHEAD ROAD EXTENSION,EWING,NJ,8638,MERCER,(609) 883-8502,rlynn@assistedlivinginc.org,0,"ASSISTED LIVING, INC",NonProfit - Corporation,40.261732,-74.756751
ASSISTED LIVING PROGRAM,NJ04A005,04A005,Bentley ALP,7999 NORTH ROUTE 130,PENNSAUKEN,NJ,8110,CAMDEN,(856) 488-5557,stlee@prioritylc.com,0,"KDG OPERATING COMPANY, LLC",Profit - LLC,39.9751041,-75.0352624
ASSISTED LIVING PROGRAM,NJ12A024,12A024,Care Strategies,201 CROSSWICKS STREET,BORDENTOWN,NJ,8505,BURLINGTON,(609) 656-4205,dmanzi@cisnj.com,0,"STATEWIDE CARE, LLC",Profit - LLC,40.1460849,-74.7052432
ASSISTED LIVING PROGRAM,NJ20A004,20A004,Care Strategies,201 CROSSWICKS STREET,BORDENTOWN,NJ,8505,BURLINGTON,(609) 656-4205,dmanzi@clsnj.com,0,"STATEWIDE CARE, LLC",Profit - LLC,40.5991762,-74.271745
ASSISTED LIVING PROGRAM,NJ01A007,01A007,"Caring Senior Living, Inc",227 NORTH VERMONT AVENUE,ATLANTIC CITY,NJ,8401,ATLANTIC,(609) 345-3089,jdougherty@caringinc.org,0,"CARING SENIOR LIVING, INC",Profit - Corporation,39.3714226,-74.4161296
ASSISTED LIVING PROGRAM,NJ90A100,90A100,Center for Hope Hospice  Inc.,1900 RARITAN ROAD,SCOTCH PLAINS,NJ,7076,UNION,(908) 889-7780,nrager@centerforhope.com,0,CENTER FOR HOPE HOSPICE,NonProfit - Corporation,40.6216,-74.353
ASSISTED LIVING PROGRAM,NJ10A101,10A101,The Clare Estate,201 CROSSWICKS STREET,BORDENTOWN,NJ,8505,BURLINGTON,(609) 298-6628,dmanzi@cisnj.com,0,"CROSSWICKS, LLC",,40.1460982,-74.7052391
ASSISTED LIVING PROGRAM,NJ04A015,04A105,DPSP Health Care,102 HEARTHSTONE DRIVE,BERLIN,NJ,8009,CAMDEN,(856) 308-2163,DPSP.Healthcare@gmail.com,0,"DPSP HEALTH CARE, LLC",,,
ASSISTED LIVING PROGRAM,NJ50A110,50A110,Heritage of Clara Barton,1015 AMBOY AVENUE,EDISON,NJ,8837,MIDDLESEX,(732) 225-5990,administrator@hofcb.com,0,HERITAGE OF CLARA BARTON CORP.,,40.534699,-74.3370112
ASSISTED LIVING PROGRAM,NJ85A100,85A100,Knoll View Corp,8 KNOLL ROAD,SPARTA,NJ,7871,SUSSEX,(973) 729-4311,fmckernan@knollcommunities.org,0,KNOLL VIEW CORP,NonProfit - Corporation,41.0390298,-74.643422
ASSISTED LIVING PROGRAM,NJ07A031,07A031,"MC Properties Associates, ALP",285 ROSEVILLE AVENUE,NEWARK,NJ,7107,ESSEX,(908) 343-1429,Mary_07205@yahoo.com,0,MC PROPERTIES ASSOCIATES ALP,,,
ASSISTED LIVING PROGRAM,NJ02A021,02A021,Portable Assisted Living Services (PALS),300 TEANECK ROAD,TEANECK,NJ,7666,BERGEN,(201) 692-1000,elizabethdavis@brightsidemanor.org,0,"GERIATRIC LIVING SOLUTIONS, INC.",,,
ASSISTED LIVING PROGRAM,NJ15A101,15A101,Spring Oak Of Toms River,2145 WHITESVILLE ROAD,TOMS RIVER,NJ,8755,OCEAN,(732) 905-9222,hrunne@springoak.net,0,"THE RESIDENCE AT LAKE RIDGE, LLC",Profit - LLC,40.0403214,-74.244409
ASSISTED LIVING PROGRAM,NJ11A015,11A015,St. Francis Assisted Living Program,601 HAMILTON AVENUE,TRENTON,NJ,8629,MERCER,(609) 599-5261,jromano@stfrancismedical.org,0,ST. FRANCIS MEDICAL CENTER,Non-Profit - Hospital,,
ASSISTED LIVING PROGRAM,NJ04A023,04A023,"Watson Street Assisted Living Program, LLC","2021 WATSON STREET, 2ND FLOOR",CAMDEN,NJ,8105,CAMDEN,(856) 968-2700,vfigueroa@camdenhousing.org,0,HOUSING AUTHORITY CITY OF CAMDEN ALP PROGRAM,,,
ASSISTED LIVING RESIDENCE,NJ47A102,47A102,Abrams Residence,50 WALTER STREET,EWING,NJ,8628,MERCER,(609) 883-5391,dkatz@greenwoodhouse.org,29,GREENWOOD HOUSE HOME FOR THE JEWISH AGED,NonProfit - Religious Affiliation,40.26109,-74.80053
ASSISTED LIVING RESIDENCE,NJAL02007,AL02007,"Actors Fund Home, The",155-175 WEST HUDSON AVENUE,ENGLEWOOD,NJ,7631,BERGEN,(201) 871-8882,jstrohl@actorsfund.org,41,"ACTORS' FUND OF AMERICA, INC.",NonProfit - Corporation,,
ASSISTED LIVING RESIDENCE,NJ7U0NFD,7U0NFD,Alaris Health at The Atrium,330 NINTH STREET,JERSEY CITY,NJ,7302,HUDSON,(201) 716-8000,Derek. Froiran@atrium.com,113,"HAMILTON PARK ATRIUM OPCO, LLC",Profit - LLC,40.7287462,-74.0486926
ASSISTED LIVING RESIDENCE,NJ18A113,18A113,All American Assisted Living at Hillsborough,351 ROUTE 206,HILLSBOROUGH,NJ,8844,SOMERSET,(516) 496-1505,rdioguardi@kapdev.com,112,"SHI-II HILLSBOROUGH, LLC",,,
ASSISTED LIVING RESIDENCE,NJ08A012,08A012,All American Assisted Living at Washington Township,339 GREENTREE ROAD,SEWELL,NJ,8080,GLOUCESTER,(856) 553-6694,DPetrone@allamericanatwashington.com,112,"SHI-III WASHINGTON TOWNSHIP, LLC",,,
ASSISTED LIVING RESIDENCE,NJ90A120,90A120,"Amber Court of Elizabeth, LLC",1155 EAST JERSEY STREET,ELIZABETH,NJ,7201,UNION,(908) 352-9200,sdasilva@ambercourtal.com,120,"AMBER COURT OF ELIZABETH, LLC",,40.6651115,-74.2139377
ASSISTED LIVING RESIDENCE,NJ13A003,13A003,Applewood Estates Assisted Living Residence,ONE APPLEWOOD DRIVE,FREEHOLD,NJ,7728,MONMOUTH,(732) 780-7370,Sawad@centrastate.com,50,"CENTER FOR AGING, INC.",NonProfit - Corporation,40.2474765,-74.3151645
ASSISTED LIVING RESIDENCE,NJ80A000,80a000,Arbor at Laurel Circle,100 MONROE STREET,BRIDGEWATER,NJ,8807,SOMERSET,(908) 595-6500,Akuiken@foxtrailseniorliving.com,35,LCS BRIDGEWATER OPERATIONS LLC,,40.573708,-74.592159
ASSISTED LIVING RESIDENCE,NJ13A012,13A012,Arbor Terrace Morris Plains,361 SPEEDWELL AVENUE,MORRIS PLAINS,NJ,7950,MORRIS,(973) 718-3636,kevin.seidel@arborcompany.com,100,SHP VI MORRIS PLAINS LLC,,,
ASSISTED LIVING RESIDENCE,NJ03A014,03A014,Arbor Terrace Mount Laurel,785  CENTERTON ROAD,MOUNT LAUREL,NJ,8054,BURLINGTON,(908) 461-5108,jfix@arborcompany.com,110,"CSH MOUNT LAUREL LICENSEE, LLC",,,
ASSISTED LIVING RESIDENCE,NJ20A013,AL20001,Arbor Terrace Mountainside,1050 SPRINGFIELD AVENUE,MOUNTAINSIDE,NJ,7092,UNION,(908) 760-0599,kelly.adams@arborcompany.com,100,SHP VI MOUNTAINSIDE LLC,,,
ASSISTED LIVING RESIDENCE,NJ13A303,13A303,Arbor Terrace Of Middletown,1800 HIGHWAY 35 SOUTH,MIDDLETOWN,NJ,7748,MONMOUTH,(732) 957-0083,charles.dixon@arborcompany.com,104,SHP V MIDDLETOWN LLC,,,
ASSISTED LIVING RESIDENCE,NJ07015,7015,Arbor Terrace Roseland,345 EAGLE ROCK AVENUE,ROSELAND,NJ,7068,ESSEX,(973) 618-1888,rfiorese@arborcompany.com,100,"SHP V ROSELAND, LLC",Profit - LLC,40.8196965,-74.310598
ASSISTED LIVING RESIDENCE,Q4VDWW,Q4VDWW,Arbor Terrace Shrewsbury,864 SHREWSBURY AVENUE,TINTON FALLS,NJ,7724,MONMOUTH,(732) 784-2400,mwindrem@arborcompany.com,124,SHP V SHREWSBURY LLC,,40.316272,-74.073334
ASSISTED LIVING RESIDENCE,NJ15A001,15A001,Arden Courts of Cherry Hill,2700 CHAPEL AVENUE,CHERRY HILL,NJ,8002,CAMDEN,(856) 667-6543,365-admin@hcr-manorcare.com,54,"ARDEN COURTS OF CHERRY HILL NJ, LLC",Profit - LLC,39.929201,-75.012051
ASSISTED LIVING RESIDENCE,NJ70A002,70a002,Arden Courts of Wayne,800 HAMBURG TURNPIKE,WAYNE,NJ,7470,PASSAIC,(973) 942-5600,katherine.harrison@hcr-manorcare.com,56,"ARDEN COURTS OF WAYNE NJ, LLC",Profit - LLC,40.9581624,-74.2248547
ASSISTED LIVING RESIDENCE,NJ30A002,30a002,Arden Courts of West Orange,510 PROSPECT AVENUE,WEST ORANGE,NJ,7052,ESSEX,(973) 736-3100,westorange@arden-courts.com,56,"ARDEN COURTS OF W. ORANGE NJ, LLC",Profit - LLC,40.7928873,-74.2565823
ASSISTED LIVING RESIDENCE,NJ60A003,60a003,Arden Courts of Whippany,18 EDEN LANE,WHIPPANY,NJ,7981,MORRIS,(973) 581-1800,judith.wittler@hcr-manorcare.com,60,"ARDEN COURTS OF WHIPPANY NJ, LLC",Profit - LLC,40.8205558,-74.4309421
ASSISTED LIVING RESIDENCE,NJ15A116,15A116,Artis Senior Living Of Brick,466 JACK MARTIN BOULEVARD,BRICK,NJ,8724,OCEAN,(732) 475-7040,jyencarelli@artismgmt.com,72,"ARTIS SENIOR LIVING OF BRICK TOWNSHIP, LLC",,,
ASSISTED LIVING RESIDENCE,NJ03A008,03A008,"Artis Senior Living Of Evesham, LLC",302 LIPPINCOTT DRIVE,EVESHAM,NJ,8053,BURLINGTON,(856) 810-0007,Awilson@artismgmt.com,68,"ARTIS SENIOR LIVING OF EVESHAM, LLC",Profit - LLC,,
ASSISTED LIVING RESIDENCE,NJ11A013,11A013,Artis Senior Living Of Princeton Junction,861 ALEXANDER ROAD,PRINCETON,NJ,8540,MIDDLESEX,(609) 454-3360,mbarroso@artismgmt.com,64,"ARTIS SENIOR LIVING OF PRINCTON JUNCTION,  LLC",Profit - LLC,,
ASSISTED LIVING RESIDENCE,NJ82436,82436,Assisted Living at Fellowship Village,9000 FELLOWSHIP ROAD,BASKING RIDGE,NJ,7920,SOMERSET,(908) 580-3824,jellias@fellowshipsl.org,81,"FELLOWSHIP SENIOR LIVING, INC.",NonProfit - Corporation,40.6564527,-74.5836926
ASSISTED LIVING RESIDENCE,NJ15A002,15A002,Atria Cherry Hill,1979 ROUTE 70 EAST,CHERRY HILL,NJ,8003,CAMDEN,(856) 424-7227,nikkia.sharpe@atriaseniorliving.com,132,"HCP CHERRY HILL NJ OPCO, LLC",,39.898748,-74.957464
ASSISTED LIVING RESIDENCE,NJ02A026,02A026,Atria Norwood,545 TAPPAN ROAD,NORWOOD,NJ,7648,BERGEN,(201) 249-6104,charlene.yerkovich@atriaseniorliving.com,100,"CSH NORWOOD LICENSEE, LLC",,,
ASSISTED LIVING RESIDENCE,NJ65A002,65a002,Atria Stafford,1275 ROUTE 72,MANAHAWKIN,NJ,8050,OCEAN,(609) 597-2500,farryn.harte@atriaseniorliving.com,94,"HCP MANAHAWKIN NJ OPCO, LLC",,39.7233054,-74.2885783
ASSISTED LIVING RESIDENCE,NJ55A004,55A004,Atria Tinton Falls,44 PINE STREET,TINTON FALLS,NJ,7753,MONMOUTH,(732) 918-1960,michael.ciecierski@atriaseniorliving.com,156,"WG TINTON FALLS SH, LLC",Profit - LLC,40.2402504,-74.0826848
ASSISTED LIVING RESIDENCE,NJ15A006,15a006,Atria Voorhees Assisted Living Residence,1301 LAUREL OAK ROAD,VOORHEES,NJ,8043,CAMDEN,(856) 783-8383,lee.gillis@atriaseniorliving.com,94,"HCP VOORHEES TOWNSHIP NJ OPCO, LLC",,39.848086,-74.969104
ASSISTED LIVING RESIDENCE,NJ13A021,13A021,Atria Waldwick,245 WYCKOFF AVENUE,WALDWICK,NJ,7463,BERGEN,(610) 229-9072,michael.moralessr@atriaseniorliving.com,186,"FSP-WALDWICK PROPERTY, LLC",,,
ASSISTED LIVING RESIDENCE,NJ55A006,55a006,Atrium Senior Living of Matawan,40 FRENEAU AVENUE,MATAWAN,NJ,7747,MONMOUTH,(732) 566-0800,Dbrito@atriumhsl.com,70,38-40 FRENEAU AVENUE OPERATING COMPANY LLC,Profit - LLC,40.399976,-74.237475
ASSISTED LIVING RESIDENCE,NJ5A001,05A001,Atrium Senior Living of Park Ridge,124 NOYES DRIVE,PARK RIDGE,NJ,7656,BERGEN,(201) 782-0440,SCohen@spring-hills.net,155,120-124 NOYES DRIVE OPERATING COMPANY LLC,Profit - LLC,41.0382039,-74.0325269
ASSISTED LIVING RESIDENCE,NJ90112,90112,Atrium Senior Living of Princeton,1000 WINDROW DRIVE,PRINCETON,NJ,8540,MERCER,(609) 514-9111,BKiefer@atriumhsl.com,113,1000 3000 5000 WINDROW DRIVE OPERATING COMPANY LLC,Profit - LLC,40.3811476,-74.6219905
ASSISTED LIVING RESIDENCE,NJ80A006,80A006,Avalon at Bridgewater,565 STATE HIGHWAY 28,BRIDGEWATER,NJ,8807,SOMERSET,(908) 707-8800,lallen@bridgewayseniorcare.com,74,BRIDGEWAY ASSISTED LIVING LLC,Profit - LLC,40.584604,-74.644043
ASSISTED LIVING RESIDENCE,NJ80A113,80A113,The Avalon At Hillsborough,393 AMWELL ROAD,HILLSBOROUGH,NJ,8844,SOMERSET,(908) 874-7200,kgursky@bridgewayseniorcare.com,97,"PILGRIM RIVER, LLC",Profit - Corporation,40.5011222,-74.6379204
ASSISTED LIVING RESIDENCE,NJ25A000,25A000,Baker Place,685 S. BREWSTER ROAD,VINELAND,NJ,8360,CUMBERLAND,(856) 691-9111,jdasilva@enlivant.com,47,BAKER AID OPCO LLC,,39.5082334,-74.9742707
ASSISTED LIVING RESIDENCE,NJ90115,90115,Bayside Manor,7 LAUREL AVENUE,KEANSBURG,NJ,7734,MONMOUTH,(732) 471-1600,anthony@baysidemanor.com,146,TRC REALTY CORPORATION,,40.449814,-74.144243
ASSISTED LIVING RESIDENCE,NJ8HEV7E,8HEV7E,Bear Creek Assisted Living,291 VILLAGE ROAD EAST,WEST WINDSOR,NJ,8550,MERCER,(609) 918-1075,amy.goldich@bearcreekassistedliving.com,100,"VILLAGE SENIOR CARE, LLC",Profit - LLC,40.2680269,-74.59416
ASSISTED LIVING RESIDENCE,NJ65A008,65A008,Bella Terra Assisted Living Residence,2 KATHLEEN DRIVE,JACKSON,NJ,8527,OCEAN,(732) 730-9500,fevegan@seniorlifestyle.com,107,"SL BELLA TERRA, L.L.C.",Profit - Corporation,40.1279139,-74.26683
ASSISTED LIVING RESIDENCE,NJ60A008,60A008,Bentley Commons at Paragon Village,425/427 ROUTE 46 EAST,HACKETTSTOWN,NJ,7840,MORRIS,(908) 979-9080,rdioguardi@kapdev.com,82,"KDG PARAGON, LLC",Profit - LLC,40.8560299,-74.763458
ASSISTED LIVING RESIDENCE,NJ80A004,80A004,Brandywine Living at Middlebrook Crossing,2005 ROUTE 22 WEST,BRIDGEWATER,NJ,8807,SOMERSET,(732) 868-8181,nsnyder@brandycare.com,128,WELL BL OPCO LLC,,40.583789,-74.516487
ASSISTED LIVING RESIDENCE,NJ10A002,10A002,Brandywine Living at Moorestown Estates,1205 N. CHURCH STREET,MOORESTOWN,NJ,8057,BURLINGTON,(856) 778-0600,moorestowned@brandycare.com,122,WELL BL OPCO LLC,,39.9723,-74.9689
ASSISTED LIVING RESIDENCE,NJ1A000,01A000,Brandywine Living at Brandall Estates,432 CENTRAL AVENUE,LINWOOD,NJ,8221,ATLANTIC,(609) 926-4663,mrepkoe@brandycare.com,100,WELL BL OPCO LLC,,39.359487,-74.568948
ASSISTED LIVING RESIDENCE,NJ55A002,55A002,Brandywine Living at Governor's Crossing,49 LASATTA AVENUE,ENGLISHTOWN,NJ,7726,MONMOUTH,(732) 786-1000,awillner@brandycare.com,110,WELL BL OPCO LLC,,40.297039,-74.370081
ASSISTED LIVING RESIDENCE,NJ04A022,04A022,Brandywine Living at Haddonfield,132 WARWICK ROAD,HADDONFIELD,NJ,8033,CAMDEN,(856) 429-5500,jpellliccione@brandycare.com,58,WELL BL OPCO LLC,,,
ASSISTED LIVING RESIDENCE,C9LQB9,C9LQB9,Brandywine Living at Howell,100 MERIDIAN PLACE,HOWELL,NJ,7731,MONMOUTH,(732) 719-0100,amanasso@brandycare.com,120,WELL BRANDYWINE HOWELL LLC,,40.177545,-74.24451
ASSISTED LIVING RESIDENCE,NJ07A021,07A021,Brandywine Living At Livingston,369 EAST MT PLEASANT AVENUE,LIVINGSTON,NJ,7039,ESSEX,(973) 251-0600,jjoseph@brandycare.com,150,WELL BL OPCO LLC,,,
ASSISTED LIVING RESIDENCE,NJ02A024,02A024,Brandywine Living At Mahwah,814 WYCKOFF AVENUE,MAHWAH,NJ,7430,BERGEN,(201) 800-8070,MKOLDYS@brandycare.com,107,WELL BL OPCO LLC,,,
ASSISTED LIVING RESIDENCE,NJ80A005,80a005,Brandywine Living at Mountain Ridge,680 MOUNTAIN BOULEVARD,WATCHUNG,NJ,7069,SOMERSET,(908) 754-8180, mmilano@brandycare.com,119,WELL BL OPCO LLC,,40.62523,-74.476392
ASSISTED LIVING RESIDENCE,ZRXUPT,ZRXUPT,Brandywine Living at Pennington,143 WEST FRANKLIN AVENUE,PENNINGTON,NJ,8534,MERCER,(609) 730-9922,emoyle@brandycare.com,119,WELL BL OPCO LLC,,40.3320612,-74.7974549
ASSISTED LIVING RESIDENCE,LHR4HN,LHR4HN,Brandywine Living at Princeton,155 RAYMOND ROAD,PRINCETON,NJ,8540,MERCER,(732) 329-8888,smoore@brandycare.com,124,WELL BL OPCO LLC,,40.3810067,-74.5972429
ASSISTED LIVING RESIDENCE,NJ65A005,65a005,Brandywine Living at Reflections,1594 ROUTE 88,BRICK,NJ,8724,OCEAN,(732) 785-3370,mhingher@brandycare.com,52,WELL BL OPCO LLC,,40.0781376,-74.1366007
ASSISTED LIVING RESIDENCE,7EKKEK,7EKKEK,Brandywine Living at Reflections at Colts Neck,3 MERIDIAN CIRCLE,COLTS NECK,NJ,7722,MONMOUTH,(732) 303-3100,coltsnecked@brandycare.com,72,WELL BL OPCO LLC,,40.2765879,-74.172028
ASSISTED LIVING RESIDENCE,NJ90A001,90a001,BRANDYWINE LIVING AT SUMMIT,41 SPRINGFIELD AVENUE,SUMMIT,NJ,7901,UNION,(908) 522-8852,Sheaney@capitalseniorliving.net,98,WELL BL PORTFOLIO 1 OPCO LLC,,40.7179,-74.3343
ASSISTED LIVING RESIDENCE,NJ90143,90143,Brandywine Living at The Gables,515 JACK MARTIN BLVD,BRICK,NJ,8723,OCEAN,(732) 836-1400,goldsteinm@brandycare.com,99,WELL BL OPCO LLC,,40.0812474,-74.1376101
ASSISTED LIVING RESIDENCE,NJ55A007,55A007,Brandywine Living at The Sycamore,5 MERIDIAN WAY,SHREWSBURY,NJ,7702,MONMOUTH,(732) 212-2600,hminnis@brandycare.com,130,WELL BL OPCO LLC,,40.3170549,-74.0665498
ASSISTED LIVING RESIDENCE,NJ04013,4013,Brandywine Living At Voorhees,311 ROUTE 73 SOUTH,VOORHEES,NJ,8043,CAMDEN,(856) 424-0004,kconnell@brandycare.com,120,WELL BL OPCO LLC,,39.850083,-74.924389
ASSISTED LIVING RESIDENCE,NJ55A112,55A112,Brandywine Living at Wall,2021 HIGHWAY 35,WALL,NJ,7719,MONMOUTH,(732) 282-1910,kharper@brandycare.com,103,WELL BL OPCO LLC,,40.1512224,-74.0563604
ASSISTED LIVING RESIDENCE,NJ47A003,47a003,BRANDYWINE SERENADE AT PRINCETON,775 MT. LUCAS ROAD,PRINCETON,NJ,8540,MERCER,(609) 430-4000,executivedirector@acornglen.com,120,WELL BL PORTFOLIO 1 OPCO LLC,,40.385582,-74.65264
ASSISTED LIVING RESIDENCE,NJ50A001,50A001,Brighton Gardens of Edison,1801 OAK TREE ROAD,EDISON,NJ,8820,MIDDLESEX,(732) 767-1031,Edison.ED@sunriseseniorliving.com,118,WELLTOWER OPCO GROUP LLC,Profit - LLC,40.5720086,-74.3510294
ASSISTED LIVING RESIDENCE,NJ60A001,60A001,Brighton Gardens of Florham Park,21 RIDGEDALE AVENUE,FLORHAM PARK,NJ,7932,MORRIS,(973) 966-8999,florhampark.ed@sunriseseniorliving.com,132,"HCP FLORHAM PARK NJ OPCO, LLC",,40.7734936,-74.401897
ASSISTED LIVING RESIDENCE,NJ65A000,65A000,Brighton Gardens of Leisure Park,1400 ROUTE 70,LAKEWOOD,NJ,8701,OCEAN,(732) 370-0444,SRYAN@5SSL.COM,110,SNH NJ TENANT LLC,,40.053926,-74.1721855
ASSISTED LIVING RESIDENCE,NJ55A001,55A001,Brighton Gardens of Middletown,620 STATE HIGHWAY 35 SOUTH,MIDDLETOWN,NJ,7748,MONMOUTH,(732) 275-0790,middletown.BM@sunriseseniorliving.com,132,"PRIME CARE ONE, LLC",Profit - LLC,40.38192,-74.094397
ASSISTED LIVING RESIDENCE,NJ90122,90122,Brighton Gardens of Mountainside,1350 ROUTE 22 WEST,MOUNTAINSIDE,NJ,7092,UNION,(908) 654-4460,mountainside.ed@sunriseseniorliving.com,141,"PRIME CARE ONE, LLC",Profit - LLC,40.6733869,-74.3530281
ASSISTED LIVING RESIDENCE,NJ5A002,05A002,Brighton Gardens of Saddle River,5 BOROLINE ROAD,SADDLE RIVER,NJ,7458,BERGEN,(201) 818-8680,saddleriver.ed@sunriseseniorliving.com,132,"HCP SADDLE RIVER NJ OPCO, LLC",,41.035548,-74.114137
ASSISTED LIVING RESIDENCE,NJ30A004,30A004,Brighton Gardens of West Orange,220 PLEASANT VALLEY WAY,WEST ORANGE,NJ,7052,ESSEX,(973) 731-9840,WestOrange.ED@sunriseseniorliving.com,132,"HCP ORANGE NJ OPCO, LLC",,40.817305,-74.253911
ASSISTED LIVING RESIDENCE,NJ03A007,03A007,Brightview Greentree,170 GREENTREE ROAD,MARLTON,NJ,8053,BURLINGTON,(856) 810-0070,jsteen@bvsl.net,99,"SHP IV GREENTREE, LLC",Profit - LLC,39.9131,-74.9269
ASSISTED LIVING RESIDENCE,NJ90106,90106,Brightview Mount Laurel,400 FERNBROOKE LANE,MOUNT LAUREL,NJ,8054,BURLINGTON,(856) 222-1213,lclinkscales@bvsl.net,108,"SHP IV MT. LAUREL, LLC",Profit - LLC,39.9564,-74.8999
ASSISTED LIVING RESIDENCE,NJ02A020A,02A020,Brightview Paramus,396 FOREST AVENUE,PARAMUS,NJ,7652,BERGEN,(201) 957-1966,pfarewege@bvsl.net,90,"BRIGHTVIEW PARAMUS, LLC",Profit - LLC,,
ASSISTED LIVING RESIDENCE,NJ60A013,60A013,"Brightview Randolph, LLC",175 QUAKER CHURCH ROAD,RANDOLPH,NJ,7869,MORRIS,(973) 348-9857,cmvrin@bvsi.net,75,"BRIGHTVIEW RANDOLPH, LLC",Profit - LLC,,
ASSISTED LIVING RESIDENCE,NJ02A023,02A023,Brightview Tenafly,55 HUDSON AVENUE,TENAFLY,NJ,7670,BERGEN,(201) 510-2060,dcousins@bvsl.net,120,"BRIGHTVIEW TENAFLY, LLC",Profit - LLC,,
ASSISTED LIVING RESIDENCE,NJ18A007,18A007,Brightview Warren,57 MT BETHEL ROAD,WARREN,NJ,7059,SOMERSET,(908) 756-3790,sbruncati@bvsl.net,120,"BRIGHTVIEW WARREN, LLC",,,
ASSISTED LIVING RESIDENCE,NJ02A029,02A029,"Bristal At Englewood, The",412 SOUTH VAN BRUNT STREET,ENGLEWOOD,NJ,7631,BERGEN,(551) 775-6100,mmckeon@ultimatecaremgmt.com,288,"EB CARE AT ENGLEWOOD, LLC",,,
ASSISTED LIVING RESIDENCE,NJAL18002,AL18002,"Bristal At Somerset, The",1850 EASTON AVENUE,SOMERSET,NJ,8873,SOMERSET,(516) 747-1200,MMCKEON@ULTIMATECAREMGMT.COM,156,"SOMERSET SENIOR CARE,LLC",,,
ASSISTED LIVING RESIDENCE,NJ16A023,16A023,The Bristal At Wayne,1440 HAMBURG TURNPIKE,WAYNE,NJ,7470,PASSAIC,(973) 987-3600,mmckeon@ultimatecaremgmt.com,170,"ENGEL BURMAN AT WAYNE, LLC",,,
ASSISTED LIVING RESIDENCE,NJ02A016,02A016,The Bristal At Woodcliff Lake,364 CHESTNUT RIDGE ROAD,WOODCLIFF LAKE,NJ,7677,BERGEN,(201) 505-9500,Bpastor@ultimatecaremgmt.com,160,"WOODCLIFF LAKE SENIOR CARE, LLC",,,
ASSISTED LIVING RESIDENCE,NJ20A001,20A001,Brookdale Cape May,591 ROUTE 9 SOUTH,CAPE MAY COURT HOUSE,NJ,8210,CAPE MAY,(609) 463-6344,yvonne.sullivan@brookdale.com,146,EMERITUS CORPORATION,Profit - Corporation,39.0739312,-74.8283518
ASSISTED LIVING RESIDENCE,NJ5A004,05A004,Brookdale Emerson,590 OLD HOOK ROAD,EMERSON,NJ,7630,BERGEN,(201) 986-9009,amoore104@brookdale.com,105,"BREA EMERSON, LLC",Profit - LLC,40.9806167,-74.0026403
ASSISTED LIVING RESIDENCE,NJ15A000,15A000,Brookdale Evesham,ONE BRENDENWOOD DRIVE,VOORHEES,NJ,8043,CAMDEN,(856) 424-7773,JGarcia35@brookdale.com,200,"BLC-BRENDENWOOD, LLC",Profit - LLC,39.8721779,-74.9329522
ASSISTED LIVING RESIDENCE,NJ10A001,10a001,Brookdale Florence,901 BROAD STREET,FLORENCE,NJ,8518,BURLINGTON,(609) 499-6662,dgordon16@brookdale.com,46,"BROOKDALE SENIOR LIVING COMMUNITIES, INC",Profit - Corporation,40.1128,-74.8092
ASSISTED LIVING RESIDENCE,NJ60A000,60a000,Brookdale Florham Park,8 JAMES STREET,FLORHAM PARK,NJ,7932,MORRIS,(973) 443-0444,Lgaspard-craan@brookdale.com,77,"AHC FLORHAM PARK, LLC",Profit - LLC,40.7890358,-74.387091
ASSISTED LIVING RESIDENCE,NJ47A000,47a000,Brookdale Hamilton,1645 WHITEHORSE-MERCERVILLE ROAD,TRENTON,NJ,8619,MERCER,(609) 586-4000,ericigliani@brookdale.com,50,"BROOKDALE SENIOR LIVING COMMUNITIES, INC",Profit - Corporation,40.221014,-74.688068
ASSISTED LIVING RESIDENCE,NJ80A002,80a002,Brookdale Hillsborough,600 AUTEN ROAD,HILLSBOROUGH,NJ,8844,SOMERSET,(908) 431-1300,michael.juliano@brookdale.com,94,"SUMMERVILLE AT HILLSBOROUGH, LLC",Profit - LLC,40.5023131,-74.6593798
ASSISTED LIVING RESIDENCE,NJ50A003,50a003,Brookdale Monroe,380 FORSGATE DRIVE,MONROE TOWNSHIP,NJ,8831,MIDDLESEX,(609) 409-7525,Blavelle1@brookdale.com,116,"AHC MONROE TOWNSHIP, LLC",Profit - LLC,40.3415619,-74.4575611
ASSISTED LIVING RESIDENCE,NJ5A006,05A006,Brookdale Paramus,186 PARAMUS ROAD,PARAMUS,NJ,7652,BERGEN,(201) 251-9600,ccarnes3@brookdale.com,140,"S-H OPCO PARAMUS, LLC",Profit - LLC,40.938764,-74.091523
ASSISTED LIVING RESIDENCE,NJ70A003,70A003,Brookdale Wayne,820 HAMBURG TURNPIKE,WAYNE,NJ,7470,PASSAIC,(973) 942-4800,Ashley.mastroianni@brookdale.com,105,"BREA WAYNE, LLC",Profit - LLC,40.9582838,-74.2253553
ASSISTED LIVING RESIDENCE,NJ30A001,30A001,Brookdale West Orange,520 PROSPECT AVENUE,WEST ORANGE,NJ,7052,ESSEX,(973) 325-5700,Jlischak29@brookdale.com,116,"BREA WEST ORANGE, LLC",Profit - LLC,40.7875879,-74.2566845
ASSISTED LIVING RESIDENCE,NJ90138,90138,Brookdale Westampton,480 W. WOODLANE ROAD,WESTAMPTON,NJ,8060,BURLINGTON,(609) 877-0555,kdickinson7@brookdale.com,50,"BROOKDALE SENIOR LIVING COMMUNITIES, INC",Profit - Corporation,40.0239,-74.8586
ASSISTED LIVING RESIDENCE,NJ03A006,03A006,Cambridge Enhanced Senior Living,255 E MAIN STREET,MOORESTOWN,NJ,8057,BURLINGTON,(856) 235-1214,Vrobinson@mhslp.com,64,"CAMBRIDGE ASSISTED LIVING, LLC",,39.9679533,-74.9344604
ASSISTED LIVING RESIDENCE,NJ35A001,35A001,Cardinal Village,455 HURFFVILLE-CROSSKEYS ROAD,SEWELL,NJ,8080,GLOUCESTER,(856) 582-5292,susanw@cardinalvillage.com,115,"CARE HSL CARDINAL VILLAGE OPCO, LP",,39.73634,-75.0696284
ASSISTED LIVING RESIDENCE,NJAL12001,AL12001,Care One at East Brunswick Assisted Living,664 CRANBURY ROAD,EAST BRUNSWICK,NJ,8816,MIDDLESEX,(732) 653-1178,Kseaman@care-one.com,106,"CARE ONE AT EAST BRUNSWICK ASSISTED LIVING, LLC",,,
ASSISTED LIVING RESIDENCE,NJ03A001,03A001,Care One At Evesham Assisted Living,874 ROUTE 70 EAST,MARLTON,NJ,8053,BURLINGTON,(856) 988-2400,Amulryne@care-one.com,80,"CARE ONE AT EVESHAM ASSISTED LIVING, LLC",Profit - LLC,39.895759,-74.9423344
ASSISTED LIVING RESIDENCE,NJX1KYQQ,X1KYQQ,Care One At Hamilton,1660 WHITEHORSE-HAMILTON SQUARE ROAD,HAMILTON TOWNSHIP,NJ,8619,MERCER,(609) 586-4600,HamiltonAdministrator@care-one.com,95,"CARE ONE AT HAMILTON, LLC",Profit - Corporation,40.2128449,-74.6804805
ASSISTED LIVING RESIDENCE,NJ30A009,30A009,Care One At Livingston Assisted Living,76 PASSAIC AVENUE,LIVINGSTON,NJ,7039,ESSEX,(973) 758-4100,MAlfano@care-one.com,93,CARE TWO LLC,Profit - LLC,40.7647488,-74.353311
ASSISTED LIVING RESIDENCE,NJ10A100,10A100,Care One at Moorestown,895 WESTFIELD AVENUE,MOORESTOWN,NJ,8057,BURLINGTON,(856) 914-0444,moorestownadministrator@care-one.com,54,"CARE ONE AT MOORESTOWN, LLC",Profit - LLC,39.9899,-74.9355
ASSISTED LIVING RESIDENCE,NJ60A007,60A007,Care One At Morris Assisted Living,200 MAZDABROOK ROAD,PARSIPPANY TROY HILL,NJ,7054,MORRIS,(973) 739-9490,kwalsh@care-one.com,93,"CARE ONE AT PARSIPPANY-TROY HILLS, LLC",Profit - LLC,40.85915,-74.4046065
ASSISTED LIVING RESIDENCE,NJ18A105,18A105,Care One at Somerset Valley Assisted Living,1621 ROUTE 22 WEST,BOUND BROOK,NJ,8805,SOMERSET,(732) 469-2000,blong@care-one.com,72,"1621 ROUTE 22 WEST OPERATING, LLC",Profit - LLC,,
ASSISTED LIVING RESIDENCE,NJ5A000,5a000,Care One at The Cupola,W 100 RIDGEWOOD AVENUE,PARAMUS,NJ,7652,BERGEN,(201) 444-8200,lrhoads@care-one.com,169,"MILLENIUM HEALTHCARE CENTERS, LLC",Profit - LLC,40.964258,-74.066682
ASSISTED LIVING RESIDENCE,NJVQXWIZ,VQXWIZ,Care One at Wayne - ALR,493 BLACK OAK RIDGE ROAD,WAYNE,NJ,7470,PASSAIC,(973) 692-9500,hunger@care-one.com,59,"493 BLACK OAK RIDGE ROAD, L.L.C.",Profit - LLC,40.9573946,-74.2697216
ASSISTED LIVING RESIDENCE,NJ02A031,02A031,Care One Harmony Village at Paramus,189 PARAMUS ROAD,PARAMUS,NJ,7652,BERGEN,(551) 276-7200,tcasper@care-one.com,126,"GES HEALTHCARE VENTURES, LLC",,,
ASSISTED LIVING RESIDENCE,NJ60A011,60A011,Cedar Crest/Mountainview Gardens,4 CEDAR CREST VILLAGE DRIVE,POMPTON PLAINS,NJ,7444,MORRIS,(973) 831-3546,kristy.stallard@erickson.com,92,"CEDAR CREST VILLAGE, INC.",NonProfit - Corporation,40.9851421,-74.3245725
ASSISTED LIVING RESIDENCE,NJ70A000,70A000,The Chelsea at Bald Eagle,197 CAHILL CROSS ROAD,WEST MILFORD,NJ,7480,PASSAIC,(973) 728-6000,chelseabaldeagleed@gmail.com,86,"BALD EAGLE SENIOR LIVING, LLC",Profit - LLC,41.119043,-74.359388
ASSISTED LIVING RESIDENCE,NJ65A007,65a007,The Chelsea at Brick,458 JACK MARTIN BLVD.,BRICK,NJ,8724,OCEAN,(732) 206-9800,ntaylor@cslal.com,123,"BRICK SENIOR CARE, LLC",Profit - LLC,40.0797809,-74.1322296
ASSISTED LIVING RESIDENCE,NJ80A007,80A007,The Chelsea at Bridgewater,680 202/206 NORTH,BRIDGEWATER,NJ,8807,SOMERSET,(908) 252-3400,jhamlett@cslal.com,115,"BRIDGEWATER SENIOR CARE, LLC",Profit - LLC,40.6027222,-74.6239319
ASSISTED LIVING RESIDENCE,NJ21A001,21A001,The Chelsea at Brookfield,1 BROOKFIELD COURT,BELVIDERE,NJ,7823,WARREN,(908) 475-5556,sponist@cslal.com,115,"BROOKFIELD SENIOR LIVING, LLC",Profit - LLC,40.814233,-75.059224
ASSISTED LIVING RESIDENCE,NJ50A000,50A000,The Chelsea At East Brunswick,606 CRANBURY ROAD,EAST BRUNSWICK,NJ,8816,MIDDLESEX,(732) 651-6100,crozenberg@cslal.com,102,"EAST BRUNSWICK SENIOR CARE, LLC",Profit - LLC,40.409097,-74.4204409
ASSISTED LIVING RESIDENCE,NJ90A000,90A000,The Chelsea at Fanwood,295 SOUTH AVENUE,FANWOOD,NJ,7023,UNION,(908) 654-5200,awatson@cslal.com,95,"FANWOOD SENIOR CARE, LLC",Profit - LLC,40.641555,-74.3823801
ASSISTED LIVING RESIDENCE,NJ82462,82462,The Chelsea at Forsgate,319 FORSGATE DRIVE,JAMESBURG,NJ,8831,MIDDLESEX,(732) 656-1000,mricciardi@cslal.com,156,"FORSGATE SENIOR CARE ,LLC",Profit - LLC,40.3458215,-74.447998
ASSISTED LIVING RESIDENCE,O5MOOY,05MOOY,The Chelsea at Manalapan,445 ROUTE 9 SOUTH,MANALAPAN,NJ,7726,MONMOUTH,(732) 972-6200,kpietrocola@cslal.com,73,"MANALAPAN SENIOR CARE, LLC",Profit - LLC,40.31919,-74.3060308
ASSISTED LIVING RESIDENCE,NJ13A019,13A019,"Chelsea at Shrewsbury, The",515 SHREWSBURY AVENUE,SHREWSBURY,NJ,7702,MONMOUTH,(732) 747-7540,Ndandrea@cslal.com,110,"CSH SHREWSBURY LICENSEE, LLC",,,
ASSISTED LIVING RESIDENCE,NJ19A004,19A004,"Chelsea At Sparta, The",513 LAFAYETTE ROAD,SPARTA,NJ,7871,SUSSEX,(908) 889-4200,acline@cslal.com,75,"SPARTA SENIOR LIVING, LLC",,,
ASSISTED LIVING RESIDENCE,NJ55A000,55A000,The Chelsea at Tinton Falls,ONE HARTFORD DRIVE,TINTON FALLS,NJ,7701,MONMOUTH,(732) 933-4700,csydorr@cslal.com,70,"TINTON FALLS SENIOR CARE, LLC",Profit - LLC,40.329996,-74.075521
ASSISTED LIVING RESIDENCE,NJ65A114,65A114,The Chelsea at Toms River,1657 SILVERTON ROAD,TOMS RIVER,NJ,8753,OCEAN,(732) 941-8100,MOSHAUGHNESSY@CSLAL.COM,140,"CMG BRENTWOOD, LLC",Profit - LLC,40.0242214,-74.1867009
ASSISTED LIVING RESIDENCE,NJ80A003,80A003,The Chelsea at Warren,274 KING GEORGE ROAD,WARREN,NJ,7059,SOMERSET,(908) 903-0911,fmolfetta@cslal.com,94,"WARREN SENIOR CARE, LLC",Profit - LLC,40.643225,-74.514082
ASSISTED LIVING RESIDENCE,NJ16A001,16A001,Chestnut Hill Residences by Complete Care,338 CHESTNUT STREET,PASSAIC,NJ,7055,PASSAIC,(973) 777-7800,michaelb@chestnuthillcc.net,125,"CHESTNUT HILL RESIDENCES BY COMPLETE CARE, LLC",,40.8649758,-74.135263
ASSISTED LIVING RESIDENCE,NJ5A005,5a005,Christian Health Care Center,301 SICOMAC AVENUE,WYCKOFF,NJ,7481,BERGEN,(201) 848-4300,prooney@chccnj.org,95,CHRISTIAN HEALTH CARE CENTER,NonProfit - Religious Affiliation,40.9841201,-74.1706686
ASSISTED LIVING RESIDENCE,J6TDGC,j6tdgc,The Clare Estate,201 CROSSWICKS STREET,BORDENTOWN,NJ,8505,BURLINGTON,(609) 298-9960,SSMITH@THECLAREESTATE.COM,58,"CROSSWICKS, LLC",,40.1460982,-74.7052391
ASSISTED LIVING RESIDENCE,NJ30A008,30A008,The Cliffs At Eagle Rock,707 EAGLE ROCK AVENUE,WEST ORANGE,NJ,7052,ESSEX,(973) 669-0011,ldeguzman@thecliffsateaglerock.org,85,BAPTIST HOME SOCIETY OF NEW JERSEY,NonProfit - Religious Affiliation,40.8117275,-74.2649473
ASSISTED LIVING RESIDENCE,NJ90119,90119,Complete Care at Arbors Haven,1700 ROUTE 37 WEST,TOMS RIVER,NJ,8757,OCEAN,(732) 341-0880,jack@peacecap.com,96,"COMPLETE CARE AT ARBORS HAVEN, LLC",,39.9907829,-74.2682967
ASSISTED LIVING RESIDENCE,NJ20A015,20A105,Continuing Care At Lantern Hill,537 MOUNTAIN AVENUE,NEW PROVIDENCE,NJ,7974,UNION,(908) 516-9300,ryan.fitzpatrick@erickson.com,45,"LANTERN HILL, INC.",Non-Profit - Corporation,,
ASSISTED LIVING RESIDENCE,T5SN2I,T5SN2I,Continuing Care at Seabrook,3002 ESSEX ROAD,TINTON FALLS,NJ,7753,MONMOUTH,(732) 643-2029,bruce.ladson@erickson.com,96,"SEABROOK VILLAGE, INC.",NonProfit - Corporation,40.231958,-74.092112
ASSISTED LIVING RESIDENCE,NJ19A001,19a001,"EverMay At Branchville, LLC",3 PHILLIPS ROAD,BRANCHVILLE,NJ,7826,SUSSEX,(973) 948-8884,dtramontozzi@bentleyassistedliving.com,71,"EVERMAY AT BRANCHVILLE, LLC",Profit - LLC,41.1561949,-74.748361
ASSISTED LIVING RESIDENCE,NJ02A001,02A001,Five Star Premier Residences of Teaneck,655 POMANDER WALK,TEANECK,NJ,7666,BERGEN,(201) 836-3634,Msturiale@5ssl.com,40,"SNH TEANECK TENANT, LLC",Profit - LLC,40.889624,-74.032214
ASSISTED LIVING RESIDENCE,NJ15A007,15a007,The Fountains At Cedar Parke,114 HAYES MILL ROAD,ATCO,NJ,8004,CAMDEN,(856) 753-2000,Akuiken@foxtrailseniorliving.com ,113,FOUNTAINS CCRC HOLDING LLC,,39.763169,-74.906876
ASSISTED LIVING RESIDENCE,NJ35A000,35a000,Fox Trail Senior Living at Deptford,1674 DELSEA DRIVE,DEPTFORD,NJ,8096,GLOUCESTER,(856) 686-9500,rkozek@brookdale.com,52,LAN DEPTFORD LLC,,39.8148989,-75.125542
ASSISTED LIVING RESIDENCE,NJ75A002,75A002,Friends Village At Woodstown (ALR),ONE FRIENDS DRIVE,WOODSTOWN,NJ,8098,SALEM,(856) 769-1500,twoodside@friendsvillage.org,67,"FRIENDS HOME AT WOODSTOWN, INC.",NonProfit - Religious Affiliation,39.6476023,-75.3161788
ASSISTED LIVING RESIDENCE,NJ65A001,65A001,Georgetown Commons at The Pines at Whiting,507 ROUTE 530,WHITING,NJ,8759,OCEAN,(732) 849-0400,ppolchak@thepinesatwhiting.org,96,"KESWICK PINES, INC.",NonProfit - Corporation,39.9465992,-74.3542905
ASSISTED LIVING RESIDENCE,NJ10A000,10A000,Granville Place,111 SUNSET ROAD,BURLINGTON,NJ,8016,BURLINGTON,(609) 239-5440,Skansupada@enlivant.com,47,GRANVILLE AID OPCO LLC,,40.050478,-74.844559
ASSISTED LIVING RESIDENCE,NJ15A115,15A115,Harmony Village at CareOne Jackson,11 HISTORY LANE,JACKSON,NJ,8527,OCEAN,(732) 367-6600,KSeaman@care-one.com,104,"11 HISTORY LANE OPERATING COMPANY, L.L.C.",Profit - LLC,,
ASSISTED LIVING RESIDENCE,NJ03A004,03A004,Harmony Village at CareOne Stanwick Road,301 N STANWICK ROAD,MOORESTOWN,NJ,8057,BURLINGTON,(856) 638-1244,RWittman@care-one.com,68,"CARE ONE AT STANWICK, LLC",Profit - LLC,39.9723,-74.9319
ASSISTED LIVING RESIDENCE,NJ65A003,65a003,Hearthstone Estates,77 WILLIAMS STREET,LAKEWOOD,NJ,8701,OCEAN,(732) 363-8505,kdickinson@hearthstoneal.com,47,"HEARTHSTONE ESTATES, LLC",Profit - LLC,40.076245,-74.220303
ASSISTED LIVING RESIDENCE,NJ1A006,1a006,The Heritage Assisted Living,45 ROUTE 206,HAMMONTON,NJ,8037,ATLANTIC,(609) 561-8977,weaz@comcast.net,107,RT. 206 INC.,Profit - Corporation,39.651235,-74.788555
ASSISTED LIVING RESIDENCE,NJ50A005,50a005,Heritage of Clara Barton,1015 AMBOY AVENUE,EDISON,NJ,8837,MIDDLESEX,(732) 225-5990,Kimberly.Greer@genesishcc.com,98,HERITAGE OF CLARA BARTON CORP.,,40.534699,-74.3370112
ASSISTED LIVING RESIDENCE,NJ11A017,11A017,Homestead At Hamilton,2560 KUSER ROAD,HAMILTON,NJ,8691,MERCER,(609) 438-9900,mowens@HomesteadatHamilton.com,130,"HOMESTEAD SENIOR LIVING, LLC",Profit - LLC,,
ASSISTED LIVING RESIDENCE,NJ95A001,95A001,House Of The Good Shepherd,798 WILLOW GROVE STREET,HACKETTSTOWN,NJ,7840,WARREN,(908) 684-5900,Slanza@hotgs.org,35,"HOUSE OF THE GOOD SHEPHERD, INC.",NonProfit - Corporation,40.868373,-74.808812
ASSISTED LIVING RESIDENCE,NJ45A000,45a000,Independence Manor At Hunterdon,188 STATE HIGHWAY 31,FLEMINGTON,NJ,8822,HUNTERDON,(908) 788-4893,rsopronyi@independencemanor.com,106,INDEPENDENCE MANOR AT HUNTERDON,Profit - Corporation,40.531737,-74.853818
ASSISTED LIVING RESIDENCE,NJ02A00,02A00,Jewish Home Assisted Living,685 WESTWOOD AVENUE,RIVER VALE,NJ,7675,BERGEN,(201) 666-2370,celliott@jhalnj.org,124,JEWISH HOME ASSISTED LIVING,NonProfit - Corporation,40.994414,-74.004074
ASSISTED LIVING RESIDENCE,NJ30A006,30a006,Job Haines Home For Aged People/Hearthside Commons,250 BLOOMFIELD AVENUE,BLOOMFIELD,NJ,7003,ESSEX,(973) 743-0792,drepoli@job-haines.org,67,JOB HAINES HOME FOR AGED PEOPLE,NonProfit - Corporation,40.783301,-74.1928439
ASSISTED LIVING RESIDENCE,NJ60A006,60A006,Juniper Village At Chatham,500 SOUTHERN BOULEVARD,CHATHAM,NJ,7928,MORRIS,(973) 966-5483,FRANK.PASCALE@junipercommunities.com,134,JUNIPER VILLAGE AT CHATHAM LLC,Profit - Corporation,40.742571,-74.4307634
ASSISTED LIVING RESIDENCE,NJ35A005,35A005,Juniper Village at Williamstown,1640 S. BLACK HORSE PIKE,WILLIAMSTOWN,NJ,8094,GLOUCESTER,(856) 740-9400,linda.donato@junipercommunities.com,51,JUNIPER VILLAGE AT WILLIAMSTOWN LLC,Profit - Partnership,39.665106,-74.967259
ASSISTED LIVING RESIDENCE,NJ35A004,35A004,"Juniper Village at Williamstown, Wellspring Memory Care Program",1648 S. BLACK HORSE PIKE,WILLIAMSTOWN,NJ,8094,GLOUCESTER,(856) 740-9400,Diane.Velez@JUNIPERCOMMUNITIES.COM,36,JUNIPER VILLAGE AT WILLIAMSTOWN LLC,Profit - Partnership,39.6645791,-74.967893
ASSISTED LIVING RESIDENCE,NJ65A111,65A111,The Lakewood Courtyard,52 MADISON AVENUE,LAKEWOOD,NJ,8701,OCEAN,(732) 905-2055,HPalmucci@esquireg.com,100,"LAKEWOOD COURTYARD ASSISTED LIVING, L.L.C.",Profit - LLC,40.08996,-74.2165307
ASSISTED LIVING RESIDENCE,NJ11A018,11A018,"Landing Of Hamilton, The",1750 YARDVILLE-HAMILTON SQUARE ROAD,HAMILTON,NJ,8690,MERCER,(609) 421-0300,mjuno@leisurecare.com,142,WRP OPERATING HAMILTON NJ LLC,,,
ASSISTED LIVING RESIDENCE,NJ08A010,08A010,"Landing Of Washington Square, The",120 TOWN CENTER BOULEVARD,SEWELL,NJ,8080,GLOUCESTER,(585) 225-7370,mjuno@leisurecare.com,144,"WRP OPERATING WASHINGTON NJ, LLC",,,
ASSISTED LIVING RESIDENCE,NJ75A000,75A000,Lindsay Place,39 SUPAWNA ROAD,PENNSVILLE,NJ,8070,SALEM,(856) 339-0100,rlipsky@enlivant.com,47,LINDSAY AID OPCO LLC,,39.605222,-75.496028
ASSISTED LIVING RESIDENCE,NJ04A003,04A003,Lions Gate,1100 LAUREL OAK ROAD,VOORHEES,NJ,8043,CAMDEN,(856) 667-3100,cpalella@lionsgateccrc.org,74,"SJF-CCRC, INC.",NonProfit - Corporation,39.847458,-74.972696
ASSISTED LIVING RESIDENCE,NJ30A005,30a005,Lutheran Social Ministries At Crane's Mill,459 PASSAIC AVENUE,WEST CALDWELL,NJ,7006,ESSEX,(973) 276-3030,cfranco@lsmnj.org,70,LUTHERAN SOCIAL MINISTRIES OF NJ,NonProfit - Corporation,40.843372,-74.305012
ASSISTED LIVING RESIDENCE,YMOSFX,YMOSFX,Magnolia Gardens,1935 LAKEWOOD ROAD,TOMS RIVER,NJ,8755,OCEAN,(732) 557-6500,cdelvalle@magnoliaal.com,120,"MAGNOLIA GARDENS SOUTH, LP",,40.0224148,-74.2210212
ASSISTED LIVING RESIDENCE,NJ80A110,80A110,"Martin and Edith Stein Assisted Living Residence, Inc.",350 DEMOTT LANE,SOMERSET,NJ,8873,SOMERSET,(732) 568-1155,jleone@wilfcampus.org,90,"MARTIN AND EDITH STEIN ASSISTED LIVING RESIDENCE,",NonProfit - Corporation,40.4996939,-74.5126301
ASSISTED LIVING RESIDENCE,NJ55A009,55A009,Mattison Crossing at Manalapan Ave,93 MANALAPAN AVENUE,FREEHOLD,NJ,7728,MONMOUTH,(732) 303-8800,ed@mattisoncrossing.com,199,"BRIDGE-BROOKSIDE, LLC",Profit - LLC,40.260126,-74.286208
ASSISTED LIVING RESIDENCE,NJ90108,90108,Maurice House,1719 WEST MAIN STREET,MILLVILLE,NJ,8332,CUMBERLAND,(856) 825-4002,mparent@seniorlifestyle.com,47,"SL MILLVILLE, LLC",Profit - LLC,39.400011,-75.079877
ASSISTED LIVING RESIDENCE,NJ47A001,47a001,Meadow Lakes,300 MEADOW LAKES,EAST WINDSOR,NJ,8520,MERCER,(609) 448-4100,lvernachio@springpointsl.org,44,"SPRINGPOINT AT MEADOW LAKES, INC",NonProfit - Religious Affiliation,40.2580802,-74.5158597
ASSISTED LIVING RESIDENCE,NJ75A001,75A001,Merion Gardens Assisted Living,315 MERION AVENUE,CARNEYS POINT,NJ,8069,SALEM,(856) 299-0300,administratormerion@comcast.net,98,MERION GARDENS ASSISTED LIVING COMPANY LLC,Profit - LLC,39.704237,-75.4684429
ASSISTED LIVING RESIDENCE,NJ14A002,14A002,"Merry Heart Assisted Living, Llc",118 MAIN STREET,SUCCASUNNA,NJ,7876,MORRIS,(973) 584-4000,EXECDIRECTOR_MHAL@MERRYHEART.COM,100,"MERRY HEART ASSISTED LIVING, LLC",Profit - LLC,40.8698491,-74.6407838
ASSISTED LIVING RESIDENCE,NJLRR782,LRR782,Mill Gardens At Midland Park,36 FANER ROAD,MIDLAND PARK,NJ,7432,BERGEN,(201) 493-7400,nickdrivanos@millgardens.com,98,"MATURE ENVIRONMENTS, INC.",Profit - Corporation,40.98745,-74.14733
ASSISTED LIVING RESIDENCE,NJ55A005,55a005,Monmouth Crossing,560 IRON BRIDGE ROAD,FREEHOLD,NJ,7728,MONMOUTH,(732) 303-8600,hgladstein@centrastate.com,94,"CENTRA STATE ASSISTED LIVING, INC.",NonProfit - Corporation,40.235425,-74.30977
ASSISTED LIVING RESIDENCE,NJ50A8312,50A8312,Monroe Village Assisted Living,ONE DAVID BRAINERD DRIVE,MONROE TOWNSHIP,NJ,8831,MIDDLESEX,(732) 521-6400,THANOMAN@SPRINGPOINTSL.ORG,42,"SPRINGPOINT AT MONROE VILLAGE, INC",NonProfit - Religious Affiliation,40.3377472,-74.4527743
ASSISTED LIVING RESIDENCE,922TYU,922TYU,Mt Arlington Senior Living,2 HILLSIDE DRIVE,MOUNT ARLINGTON,NJ,7856,MORRIS,(973) 601-0988,ehagedoorn@5ssl.com,120,SNH NJ TENANT LLC,,40.9035879,-74.63843
ASSISTED LIVING RESIDENCE,NJ08A009,08A009,Mullica Gardens Assisted Living,161 MULLICA HILL ROAD,MULLICA HILL,NJ,8062,GLOUCESTER,(856) 434-4000,administratormullica@comcast.net,80,MULLICA GARDENS ASSISTED LIVING LLC,Profit - LLC,,
ASSISTED LIVING RESIDENCE,NJ03A005,03A005,OakBridge Terrace Assisted Living at Evergreens,309 BRIDGEBORO ROAD,MOORESTOWN,NJ,8057,BURLINGTON,(856) 439-2000,meredith.becker@actslife.org,66,THE EVERGREENS,NonProfit - Corporation,39.9841,-74.9487
ASSISTED LIVING RESIDENCE,NJ60A002,60a002,The Oaks at Denville,19 POCONO ROAD,DENVILLE,NJ,7834,MORRIS,(973) 586-5000,lrose@springpointsl.org,34,"SPRINGPOINT AT DENVILLE, INC.",Non-Profit - Corporation,40.895088,-74.468853
ASSISTED LIVING RESIDENCE,3EGDKS,3EGDKS,The Orchards At Bartley,100 NORTH COUNTY LINE ROAD,JACKSON,NJ,8527,OCEAN,(732) 730-1700,jramos@bartleyhealthcare.com>,100,BARTLEY ASSISTED LIVING LLC,Profit - LLC,40.1330141,-74.2818389
ASSISTED LIVING RESIDENCE,NJ12A007,12A007,Parker At Stonegate,443 RIVER ROAD,HIGHLAND PARK,NJ,8904,MIDDLESEX,(732) 565-2500,rmuniz@parkerlife.org,80,"THE FRANCIS E. PARKER MEMORIAL HOME, INC.",NonProfit - Corporation,40.5083025,-74.4437697
ASSISTED LIVING RESIDENCE,NJ15A005,15A005,Premier Cadbury of Cherry Hill,2150 ROUTE 38,CHERRY HILL,NJ,8002,CAMDEN,(856) 667-4550,sharking@premiercadbury.com,88,"PREMIER CADBURY, LLC",Profit - LLC,39.941131,-75.0154699
ASSISTED LIVING RESIDENCE,NJ50A002,50a002,Reformed Church Home,1990 ROUTE 18 NORTH,OLD BRIDGE,NJ,8857,MIDDLESEX,(732) 607-9230,kshepard@rchnj.org,54,REFORMED CHURCH MINISTRIES TO THE AGING,NonProfit - Religious Affiliation,40.384349,-74.3277206
ASSISTED LIVING RESIDENCE,NJ47A002,47a002,Rose Hill Assisted Living,1150 WASHINGTON BLVD,ROBBINSVILLE,NJ,8691,MERCER,(609) 371-7007,Administrator-rh@rosehillassistedliving.com,76,"ROSE HILL ASSOCIATES, LLC",Profit - LLC,40.223828,-74.634429
ASSISTED LIVING RESIDENCE,NJ01A006,01a006,Seashore Gardens Living Center,22 WEST JIMMIE LEEDS ROAD,GALLOWAY TOWNSHIP,NJ,8205,ATLANTIC,(609) 404-4848,priceaj@seashoregardens.org,40,HEBREW OLD AGE CENTER T/A SEASHORE GARDENS LIV CTR,NonProfit - Corporation,39.472947,-74.523201
ASSISTED LIVING RESIDENCE,NJ13A014,13A014,The Solana Marlboro,52 COUNTY ROAD 520,MORGANVILLE,NJ,7751,MONMOUTH,(732) 536-3000,JKELLENBACH@CSLAL.COM,100,"MARLBORO SENIOR HOUSING, LLC",,,
ASSISTED LIVING RESIDENCE,NJ1A002,01A002,Somers Place,199 STEELMANVILLE ROAD,EGG HARBOR TOWNSHIP,NJ,8234,ATLANTIC,(609) 926-5891,kmendez@enlivant.com,47,MEY AID OPCO LLC,,39.345889,-74.604842
ASSISTED LIVING RESIDENCE,NJ60A005,60a005,Spring Hills At Morristown,17 SPRING PLACE,MORRISTOWN,NJ,7960,MORRIS,(973) 539-3370,kgriffiths@spring-hills.net,108,"SPRING HILL ASSISTED LIVING ASSOCIATES, LLC",Profit - LLC,40.7986439,-74.4780642
ASSISTED LIVING RESIDENCE,NJ80A001,80a001,Spring Hills at Somerset,473 DEMOTT LANE,SOMERSET,NJ,8873,SOMERSET,(732) 873-4800,khalsey@spring-hills.net,120,"SPRING HILLS AT SOMERSET, L.L.C.",Profit - LLC,40.4989754,-74.5221473
ASSISTED LIVING RESIDENCE,NJ04A006,04A006,Spring Hills Cherry Hill,1450 MARLTON PIKE,CHERRY HILL,NJ,8034,CAMDEN,(856) 874-7700,Gcain@spring-hills.net,150,"SPRING HILLS CHERRY HILL, LLC",Profit - LLC,39.9101572,-74.9893119
ASSISTED LIVING RESIDENCE,NJ1A003,01a003,Spring Home at Galloway,42 WEST JIMMIE LEEDS,GALLOWAY TOWNSHIP,NJ,8205,ATLANTIC,(609) 404-1126,johnson.xiomara@springvillage.co,52,"JIMMIE LEEDS SENIOR CARE, LLC",Profit - LLC,39.473465,-74.5215748
ASSISTED LIVING RESIDENCE,NJ1A004,01a004,Spring Home at Galloway,46 WEST JIMMIE LEEDS ROAD,GALLOWAY TOWNSHIP,NJ,8205,ATLANTIC,(609) 404-1099,larotonda.donna@springvillage.co,78,"JIMMIE LEEDS SENIOR CARE, LLC",Profit - LLC,39.476058,-74.538226
ASSISTED LIVING RESIDENCE,NJ65A006,65a006,Spring Oak Assisted Living at Forked River,601 NORTH MAIN STREET,LANOKA HARBOR,NJ,8734,OCEAN,(609) 242-2661,cdifiore@springoak.net,104,SPRING OAK ASSISTED LIVING AT FORKED RIVER LLC,Profit - LLC,39.8603494,-74.1748545
ASSISTED LIVING RESIDENCE,NJ25A002,25a002,Spring Oak Assisted Living At Vineland,1611 SOUTH MAIN ROAD,VINELAND,NJ,8360,CUMBERLAND,(856) 507-1505,admin3@springoak.net,115,SPRING OAK ASSISTED LIVING AT VINELAND LLC,Profit - LLC,39.5080956,-74.9926912
ASSISTED LIVING RESIDENCE,NJ15A008,15A008,Spring Oak Assisted Living at Voorhees,396 SO. WHITE HORSE PIKE,BERLIN,NJ,8009,CAMDEN,(856) 719-9599,jcohen@esauireg.com,115,SPRING OAK ASSISTED LIVING AT VOORHEES LLC,Profit - LLC,39.7819683,-74.9157952
ASSISTED LIVING RESIDENCE,NJ65A113,65A113,Spring Oak of Toms River,2145 WHITESVILLE ROAD,TOMS RIVER,NJ,8755,OCEAN,(732) 905-9222,hrunne@springoak.net,104,"THE RESIDENCE AT LAKE RIDGE, LLC",Profit - LLC,40.0403214,-74.244409
ASSISTED LIVING RESIDENCE,NJ80A112,80A112,Stonebridge At Montgomery Health Care Center,100 HOLLINSHEAD SPRING ROAD,SKILLMAN,NJ,8558,SOMERSET,(609) 759-3600,mcannonr@springpointsl.org,61,"SPRINGPOINT AT MONTGOMERY, INC",NonProfit - Corporation,40.4151768,-74.7363863
ASSISTED LIVING RESIDENCE,NJ90110,90110,Summit Place,540 MULLICA HILL ROAD,GLASSBORO,NJ,8028,GLOUCESTER,(856) 307-0617,dvelez@enlivant.com,47,POST AID OPCO LLC,,39.711766,-75.131656
ASSISTED LIVING RESIDENCE,NJ13A015,13A015,Sunnyside Manor,2500 RIDGEWOOD ROAD,WALL,NJ,7719,MONMOUTH,(732) 528-9311,emergency-alert@sunnysidemanornj.com,92,"SUNNYSIDE MANOR, INC.",Profit - Corporation,,
ASSISTED LIVING RESIDENCE,NJ50A004,50a004,Sunrise Assisted Living Of East Brunswick,190 SUMMERHILL ROAD,EAST BRUNSWICK,NJ,8816,MIDDLESEX,(732) 613-1355,eastbrunswick.ed@sunriseseniorliving.com,108,"AL I/EAST BRUNSWICK SENIOR HOUSING, L.L.C.",Profit - LLC,40.4257204,-74.3904675
ASSISTED LIVING RESIDENCE,NJ30A003,30a003,Sunrise Assisted Living at West Essex,47 GREENBROOK ROAD,FAIRFIELD,NJ,7004,ESSEX,(973) 228-7890,westessex.ed@sunriseseniorliving.com,98,WELLTOWER OPCO GROUP LLC,Profit - Corporation,40.872303,-74.273445
ASSISTED LIVING RESIDENCE,NJ15A112,15A112,Sunrise Assisted Living Of Jackson,390 NORTH COUNTY LINE ROAD,JACKSON,NJ,8527,OCEAN,(732) 928-5600,jackson.ed@sunriseseniorliving.com,100,"MS JACKSON SH, LLC",Profit - LLC,40.1397494,-74.2997527
ASSISTED LIVING RESIDENCE,COGCWM,COGCWM,Sunrise Assisted Living Of Lincroft,734 NEWMAN SPRINGS ROAD,LINCROFT,NJ,7738,MONMOUTH,(732) 212-1910,lincroft.ed@sunriseseniorliving.com,85,WELLTOWER OPCO GROUP LLC,Profit - LLC,40.331479,-74.124598
ASSISTED LIVING RESIDENCE,0L9278,0L9278,Sunrise Assisted Living of Marlboro,3A SOUTH MAIN STREET,MARLBORO,NJ,7746,MONMOUTH,(732) 409-6665,marlboro.ed@sunriseseniorliving.com,110,WELLTOWER OPCO GROUP LLC,Profit - LLC,40.313296,-74.247681
ASSISTED LIVING RESIDENCE,NJ90117,90117,Sunrise Assisted Living Of Morris Plains,209 LITTLETON ROAD,MORRIS PLAINS,NJ,7950,MORRIS,(973) 538-7878,morrisplains.ed@sunriseseniorliving.com,108,"SZR MORRIS PLAINS ASSISTED LIVING, LLC",Profit - LLC,40.840063,-74.465874
ASSISTED LIVING RESIDENCE,NJ90103,90103,Sunrise Assisted Living Of Old Tappan,195 OLD TAPPAN ROAD,OLD TAPPAN,NJ,7675,BERGEN,(201) 750-1110,oldtappan.ed@sunriseseniorliving.com,108,"SZR OLD TAPPAN ASSISTED LIVING, LLC",Profit - LLC,41.0146609,-73.979124
ASSISTED LIVING RESIDENCE,NJ5A003,05a003,Sunrise Assisted Living Of Paramus,567 PARAMUS ROAD,PARAMUS,NJ,7652,BERGEN,(201) 493-9889,paramus.ed@sunriseseniorliving.com,98,WELLTOWER OPCO GROUP LLC,Profit - LLC,40.9645485,-74.0926104
ASSISTED LIVING RESIDENCE,NJ60A012,60A012,Sunrise Assisted Living Of Randolph,648 ROUTE 10,RANDOLPH,NJ,7869,MORRIS,(973) 328-1922,Randolph.ed@sunriseseniorliving.com,100,WELLTOWER OPCO GROUP LLC,Profit - LLC,40.862888,-74.579535
ASSISTED LIVING RESIDENCE,NJ55A008,55A008,Sunrise Assisted Living Of Wall,2600 ALLAIRE ROAD,WALL,NJ,7719,MONMOUTH,(732) 282-1700,Wall.ed@sunriseseniorliving.com,90,"SZR WALL ASSISTED LIVING, LLC",Profit - LLC,40.1543009,-74.059675
ASSISTED LIVING RESIDENCE,NJ70A001,70a001,Sunrise Assisted Living Of Wayne,184 BERDAN AVENUE,WAYNE,NJ,7470,PASSAIC,(973) 628-4900,Wayne.ed@sunriseseniorliving.com,108,"SZR WAYNE ASSISTED LIVING, LLC",Profit - LLC,40.9631643,-74.2425075
ASSISTED LIVING RESIDENCE,NJ90144,90144,Sunrise Assisted Living Of Westfield,240 SPRINGFIELD AVENUE,WESTFIELD,NJ,7090,UNION,(908) 317-3030,westfield.ed@sunriseseniorliving.com,108,"SZR WESTFIELD ASSISTED LIVING, LLC",Profit - LLC,40.673,-74.3248
ASSISTED LIVING RESIDENCE,NJ80A008,80a008,Sunrise Of Basking Ridge,404 KING GEORGE ROAD,BASKING RIDGE,NJ,7920,SOMERSET,(908) 542-9000,baskingridge.ed@sunriseseniorliving.com,110,WELLTOWER OPCO GROUP LLC,Profit - LLC,40.6553772,-74.5282207
ASSISTED LIVING RESIDENCE,NJ18A111,18A111,Sunrise Of Bridgewater,390 US 22,BRIDGEWATER,NJ,8807,SOMERSET,(908) 605-2074,bridgewater.ed@sunriseseniorliving.com,112,"SUNRISE OF BRIDGEWATER, LLC",,,
ASSISTED LIVING RESIDENCE,NJ05A200,05A200,Sunrise of Cresskill,3 TENAKILL PARK DRIVE EAST,CRESSKILL,NJ,7626,BERGEN,(201) 871-0300,cresskill.ed@sunriseseniorliving.com,99,"HCP CRESSKILL NJ OPCO, LLC",,40.939157,-73.963665
ASSISTED LIVING RESIDENCE,NJ5A008,05a008,Sunrise Of Edgewater,351 RIVER ROAD,EDGEWATER,NJ,7020,BERGEN,(201) 941-6111,edgewater.ed@sunriseseniorliving.com,87,WELLTOWER OPCO GROUP LLC,Profit - LLC,40.808983,-73.987574
ASSISTED LIVING RESIDENCE,NJ60A009,60A009,Sunrise of Madison,215 MADISON AVENUE,MADISON,NJ,7940,MORRIS,(973) 301-0005,madison.ed@sunriseseniorliving.com,97,"HCP MADISON NJ OPCO, LLC",,40.7696719,-74.434806
ASSISTED LIVING RESIDENCE,NJ13A020,13A020,Sunrise Of Shrewsbury,766 BROAD STREET,SHREWSBURY,NJ,7702,MONMOUTH,(703) 273-7500,shrewsbury.ed@sunriseseniorliving.com,95,"SUNRISE OF SHREWSBURY, LLC",,,
ASSISTED LIVING RESIDENCE,NJ20A014,20A014,Sunrise Of Summit,26 RIVER ROAD,SUMMIT,NJ,7901,UNION,(703) 273-7500,summit.ed@sunriseseniorliving.com,97,SUNRISE OF SUMMIT LLC,,,
ASSISTED LIVING RESIDENCE,NJ5A007,05a007,Sunrise of Woodcliff Lake,430 CHESTNUT RIDGE ROAD,WOODCLIFF LAKE,NJ,7675,BERGEN,(201) 782-1888,woodcliffLake.ed@sunriseseniorliving.com,116,"AL I/WOODCLIFF LAKE SENIOR HOUSING, L.L.C.",Profit - LLC,41.0430646,-74.0726981
ASSISTED LIVING RESIDENCE,NJAL14001,AL14001,Sycamore Rehab And Assisted Living At East Hanover,1 SOUTH RIDGEDALE AVENUE,EAST HANOVER,NJ,7936,MORRIS,(973) 429-7900,,37,"SYCAMORE REHAB AND AL  AT EAST HANOVER, LLC",,,
ASSISTED LIVING RESIDENCE,NJ04A024,04A024,Symphony at Cherry Hill,1240 BRACE ROAD,CHERRY HILL,NJ,8034,CAMDEN,(609) 757-1403,James.santana@eleganceliving.com,64,"CHERRY HILL MC OPERATOR, LLC",,,
ASSISTED LIVING RESIDENCE,NJ35A003,35a003,Terraces At Parke Place,661 DELSEA DRIVE,SEWELL,NJ,8080,GLOUCESTER,(856) 256-1776,administrator-te@terracesatparkeplace.com,76,"PARKE PLACE ASSOCIATES, LLC",Profit - LLC,39.7423689,-75.114175
ASSISTED LIVING RESIDENCE,NJ15A113,15A113,The Terraces at Seacrest Village,281 MATHISTOWN ROAD,LITTLE EGG HARBOR TW,NJ,8087,OCEAN,(609) 857-4141,bth@seacrestvillagenj.com,88,"THE TERRACES AT SEACREST VILLAGE, LLC",Profit - LLC,39.5852909,-74.3742068
ASSISTED LIVING RESIDENCE,NJ35A3302,35A3302,Traditions of Cross Keys,3152 GLASSBORO CROSS KEYS ROAD,GLASSBORO,NJ,8028,GLOUCESTER,(856) 307-2100,escagnelli@thegardenseniorliving.com,79,IVQ GLASSBORO OPCO LP,,39.708943,-75.083751
ASSISTED LIVING RESIDENCE,NJ85A001,85A001,United Methodist Communities at Bristol Glen,200 BRISTOL GLEN DRIVE,NEWTON,NJ,7860,SUSSEX,(973) 300-5788,JLISK@Umcommunities.org,138,"BRISTOL GLEN, INC.",NonProfit - Religious Affiliation,41.0420779,-74.7636179
ASSISTED LIVING RESIDENCE,NJ20A002,20A002,United Methodist Communities at The Shores,2201 BAY AVENUE,OCEAN CITY,NJ,8226,CAPE MAY,(609) 399-8505,pgarofolo@umcommunities.org,255,UNITED METHODIST HOMES OF NJ,NonProfit - Religious Affiliation,39.266667,-74.598293
ASSISTED LIVING RESIDENCE,NJ8XD1WY,8XD1WY,Van Dyk's Senior Residence Of Hawthorne,644 GOFFLE ROAD,HAWTHORNE,NJ,7506,PASSAIC,(973) 636-7000,kevin@vandykhealthcare.com,140,VAN DYK'S SENIOR RESIDENCE OF HAWTHORNE LLC,Profit - LLC,40.9556283,-74.1625576
ASSISTED LIVING RESIDENCE,NJ60A004,60a004,Victoria Mews Assisted Living,51 NORTH MAIN STREET,BOONTON TOWNSHIP,NJ,7005,MORRIS,(973) 263-3000,aortega@victoriamews.net,107,VICTORIA MEWS ASSISTED LIVING,Profit - LLC,40.912825,-74.420408
ASSISTED LIVING RESIDENCE,NJ60A010,60A010,"The Villa At Florham Park, Inc",190 PARK AVENUE,FLORHAM PARK,NJ,7932,MORRIS,(973) 867-1514,Dambrosio@lsmnj.org.,21,"THE VILLA AT FLORHAM PARK, INC",Non-Profit - Other,40.7720182,-74.4249139
ASSISTED LIVING RESIDENCE,NJ1A005,01a005,Villa Raffaella Assisted Living Community,917 S MAIN STREET,PLEASANTVILLE,NJ,8232,ATLANTIC,(609) 645-9300,villaraffaella@msn.com,60,VILLA RAFFAELLA ASSISTED LIVING COMMUNITY,NonProfit - Religious Affiliation,39.3831856,-74.5301645
ASSISTED LIVING RESIDENCE,NJ13A010,13a010,"Villas, The",289 GORDONS CORNER ROAD,MANALAPAN,NJ,7726,MONMOUTH,(732) 751-3600,kristen.thevillas@icloud.com,120,MERIDIAN LIVING AT MANALAPAN LLC,,,
ASSISTED LIVING RESIDENCE,NJ15A003,15A003,Voorhees Senior Living,501 LAUREL OAK ROAD,VOORHEES,NJ,8043,CAMDEN,(856) 566-2340,licenseing@5ssl.com,104,"FIVE STAR QUALITY CARE-NJ, LLC",Profit - Partnership,39.8444373,-74.9829554
ASSISTED LIVING RESIDENCE,NJ35A002,35A002,Washington Township Senior Living,600 MEDICAL CENTER DRIVE,SEWELL,NJ,8080,GLOUCESTER,(856) 582-8700,rrmoschik@5ssl.com,103,"FVE EC, LLC",Profit - LLC,39.761667,-75.160278
ASSISTED LIVING RESIDENCE,NJ1EGWIO,1EGWIO,Wellington Estates,2018 HIGHWAY 35,SPRING LAKE,NJ,7762,MONMOUTH,(732) 282-1014,bill@wellingtonestates.com,114,"WELLINGTON ESTATES, LLC",Profit - LLC,40.150499,-74.055186
ASSISTED LIVING RESIDENCE,QPB2N9,QPB2N9,Weston Assisted Living Residence,905 ROUTE 10 EAST,WHIPPANY,NJ,7981,MORRIS,(973) 929-2747,AnnaB@jchcorp.org,60,JEWISH COMMUNITY HOUSING,NonProfit - Corporation,40.8277764,-74.4293173
ASSISTED LIVING RESIDENCE,NJ19A005,19A005,Westwind Manor,25 MAIN STREET,FRANKLIN,NJ,7416,SUSSEX,(973) 827-6575,skifasttodd@gmail.com,36,"GRACE ELDERCARE, LLC",,,
ASSISTED LIVING RESIDENCE,NJ50A006,50A006,Whispering Knoll Assisted Living,62 JAMES STREET,EDISON,NJ,8820,MIDDLESEX,(732) 744-5541,deanna.krossen@HMHN.org,126,"HMH RESIDENTIAL CARE, INC.",Non-Profit - Corporation,40.5571254,-74.3467271
ASSISTED LIVING RESIDENCE,NJ55A003,55a003,The Willows At Holmdel,713 N BEERS STREET,HOLMDEL,NJ,7733,MONMOUTH,(732) 335-4405,nicole.serluco@hackensack-meridian.org,121,"HMH RESIDENTIAL CARE, INC.",Non-Profit - Corporation,40.4093131,-74.194703
ASSISTED LIVING RESIDENCE,NJ30A000,30a000,Winchester Gardens Assisted Living Center,333 ELMWOOD AVENUE,MAPLEWOOD,NJ,7040,ESSEX,(973) 762-5050,slippy@springpointsl.org,72,MARCUS L. WARD HOME,NonProfit - Corporation,40.7282528,-74.2551468
ASSISTED LIVING RESIDENCE,NJ35A010,35a010,Woodbury Mews Senior Living,124 GREEN AVENUE,WOODBURY,NJ,8096,GLOUCESTER,(856) 384-6600,dlaustin@watermarkcommunities.com,118,"WOODBURY SENIOR HOUSING, LLC",,39.8327789,-75.1512822
ASSISTED LIVING RESIDENCE,NJ1A001,01a001,WoodView Estates,5030 UNAMI BOULEVARD,MAYS LANDING,NJ,8330,ATLANTIC,(609) 625-4878,administrator-wv@woodviewestates.com,78,HAMILTON TOWNSHIP ASSISTED LIVING LLC,Profit - LLC,39.440426,-74.687125
COMPREHENSIVE PERSONAL CARE HOME,NJ5C000,05C000,The Actors' Fund Homes,155-175 WEST HUDSON AVENUE,ENGLEWOOD,NJ,7631,BERGEN,(201) 871-8882,jstrohl@actorsfund.org,44,"ACTORS' FUND OF AMERICA, INC.",NonProfit - Corporation,40.9107974,-73.9738166
COMPREHENSIVE PERSONAL CARE HOME,NJ82471,82471,ALLEGRIA ASSISTED LIVING,70 STOCKTON AVENUE,OCEAN GROVE,NJ,7756,MONMOUTH,(732) 774-1316,e.weinberg@allegriasl.com,161,OCEAN GROVE OPERATING LLC,,40.207487,-74.009921
COMPREHENSIVE PERSONAL CARE HOME,NJ5C001,05C001,Allendale Carlton Court,85 HARRETON ROAD,ALLENDALE,NJ,7401,BERGEN,(201) 825-0660,Dennismckinley@allendalecommuniity.com,216,"ALLENDALE NURSING HOME, INC",Profit - Corporation,41.0446147,-74.1186512
COMPREHENSIVE PERSONAL CARE HOME,NJ90C000,90C000,ARISTACARE AT DELAIRE,400 WEST STIMPSON AVENUE,LINDEN,NJ,7036,UNION,(908) 862-3399,tlapelosa@continuumltc.com,40,"LINDEN GARDEN ESTATES, LLC",,40.6247,-74.2496
COMPREHENSIVE PERSONAL CARE HOME,NJ25C001,25C001,Assisted Living at Renaissance,99 MANHEIM AVENUE,BRIDGETON,NJ,8302,CUMBERLAND,(856) 455-2100,SK@comphcms.com,16,"H.W./WEIDCO/REN, LLC",Profit - LLC,39.433694,-75.217302
COMPREHENSIVE PERSONAL CARE HOME,NJ82472,82472,Atria Cranford,10 JACKSON DRIVE,CRANFORD,NJ,7016,UNION,(908) 709-4300,brittany.zelasny@atriaseniorliving.com,308,"WG CRANFORD SH, LLC",Profit - LLC,40.6415999,-74.2865
COMPREHENSIVE PERSONAL CARE HOME,NJ10C000,10C000,Baptist Home of South Jersey,303 BANK AVENUE,RIVERTON,NJ,8077,BURLINGTON,(856) 829-2274,JPASTORE@RIVERVIEWESTATES.ORG,62,BAPTIST HOME OF SOUTH JERSEY,NonProfit - Religious Affiliation,40.0134,-75.0191
COMPREHENSIVE PERSONAL CARE HOME,NJ20C003,20C003,Birchwood Square at Cranford,205 BIRCHWOOD AVENUE,CRANFORD,NJ,7016,UNION,(908) 272-6660,jrosenberg@cranfordrehab.com,30,"CRNC OPERATING, LLC",Profit - LLC,40.6664,-74.2916
COMPREHENSIVE PERSONAL CARE HOME,NJ30225,30225,Bright Side Manor,300 TEANECK ROAD,TEANECK,NJ,7666,BERGEN,(201) 692-1000,elizabethdavis@brightsidemanor.org,65,"GERIATRIC SERVICES, INC.",NonProfit - Corporation,40.871389,-74.013806
COMPREHENSIVE PERSONAL CARE HOME,NJ30830,30830,Brightview Woodbury Lake,752 COOPER STREET,WOODBURY,NJ,8096,GLOUCESTER,(856) 848-8777,tgill@bvsl.net,87,"SHP IV WOODBURY LAKE, LLC",Profit - LLC,39.832603,-75.133588
COMPREHENSIVE PERSONAL CARE HOME,SIPFEP,sipfep,Brookdale Echelon Lake,207 LAUREL ROAD,VOORHEES,NJ,8043,CAMDEN,(856) 772-9400,alex.torres@brookdale.com,164,EMERITUS CORPORATION,Profit - Corporation,39.847799,-75.000209
COMPREHENSIVE PERSONAL CARE HOME,NJ75C000,75C000,Carneys Point Rehabilitation and Nursing Center,201 FIFTH AVENUE,CARNEYS POINT,NJ,8069,SALEM,(856) 299-6800,skarelitz@cpccenter.com,24,"CARNEYS POINT REHABILITATION AND NURSING CTR, LLC",Profit - LLC,39.7414118,-75.4697392
COMPREHENSIVE PERSONAL CARE HOME,NJ31446,31446,The Chelsea At Montville,165 CHANGEBRIDGE ROAD,MONTVILLE,NJ,7045,MORRIS,(973) 402-1100,lpolillo@cslal.com,152,"MONTVILLE SENIOR CARE, LLC",Profit - LLC,40.9024081,-74.3646122
COMPREHENSIVE PERSONAL CARE HOME,NJ65C000,65C000,"Complete Care at Bey Lea, LLC",1351 OLD FREEHOLD ROAD,TOMS RIVER,NJ,8753,OCEAN,(732) 240-0090,mguttman@genesishcc.com,60,"COMPLETE CARE AT BEY LEA, LLC",,39.9907955,-74.1965771
COMPREHENSIVE PERSONAL CARE HOME,NJ30C001,30C001,Green Hill,103 PLEASANT VALLEY WAY,WEST ORANGE,NJ,7052,ESSEX,(973) 731-2300,b.cha@green-hill.com,88,GREEN HILL,NonProfit - Corporation,40.8213254,-74.2525251
COMPREHENSIVE PERSONAL CARE HOME,NJ95C000,95C000,House of the Good Shepherd,798 WILLOW GROVE STREET,HACKETTSTOWN,NJ,7840,WARREN,(908) 684-5900,slanza@hotgs.org,37,"HOUSE OF THE GOOD SHEPHERD, INC.",NonProfit - Corporation,40.868373,-74.808812
COMPREHENSIVE PERSONAL CARE HOME,N2K04D,N2K04D,House of the Holy Comforter Canterbury Village,33 MOUNT PLEASANT AVENUE,WEST ORANGE,NJ,7052,ESSEX,(973) 736-1194,adunsmore@canterburyvillage.org,53,HOUSE OF THE HOLY COMFORTER,NonProfit - Corporation,40.779834,-74.240096
COMPREHENSIVE PERSONAL CARE HOME,NJ403330,403330,"HUDSON HILLS SENIOR LIVING, LLC",3161 KENNEY BOULEVARD,NORTH BERGEN,NJ,7047,HUDSON,(201) 867-3585,ciarlak@hudsonhillsnj.com,96,"HUDSON HILLS SENIOR LIVING, LLC",,40.7752087,-74.0328714
COMPREHENSIVE PERSONAL CARE HOME,NJ15C000,15C000,Ivy Stone Senior Living,7999 ROUTE 130 SOUTH,PENNSAUKEN,NJ,8110,CAMDEN,(856) 488-5557,dboland@prioritylc.com,111,"KDG OPERATING COMPANY, LLC",Profit - LLC,39.9751041,-75.0352624
COMPREHENSIVE PERSONAL CARE HOME,NJ65C003,65C003,Leisure Park Special Care Center,1400 ROUTE 70,LAKEWOOD,NJ,8701,OCEAN,(732) 370-0444,sryan@5ssl.com,40,SNH NJ TENANT LLC,,40.053926,-74.1721855
COMPREHENSIVE PERSONAL CARE HOME,NJ02C003,02C003,Masonic Village at Burlington,902 JACKSONVILLE ROAD,BURLINGTON,NJ,8016,BURLINGTON,(609) 239-3900,rbarnes@njmasonic.org,87,MASONIC CHARITY FOUNDATION OF NJ,NonProfit - Corporation,40.062932,-74.827441
COMPREHENSIVE PERSONAL CARE HOME,NJ10C001,10C001,Medford Leas,ONE MEDFORD LEAS WAY,MEDFORD,NJ,8055,BURLINGTON,(609) 654-3000,lorijakelsky@medfordleas.net,126,THE ESTAUGH  T/A MEDFORD LEAS,NonProfit - Corporation,39.9052053,-74.816102
COMPREHENSIVE PERSONAL CARE HOME,NJ47C000,47C000,Morris Hall/St. Mary's Assisted Living,ONE BISHOPS DRIVE,LAWRENCEVILLE,NJ,8648,MERCER,(609) 896-0006,cdill@morrishall.org,98,"MORRIS HALL/ST. LAWRENCE, INC.",NonProfit - Religious Affiliation,40.3030556,-74.7369444
COMPREHENSIVE PERSONAL CARE HOME,NJ05C201,05C201,The Resort at Oceanview,2721 ROUTE 9,OCEAN VIEW,NJ,8230,CAPE MAY,(609) 624-3881,efinkelstein@autumnhc.net,56,"OCEAN VIEW ASSOCIATES OPERATION, LLC",,39.1888258,-74.7215003
COMPREHENSIVE PERSONAL CARE HOME,NJ07C009,07C009,Roseville Manor,285 ROSEVILLE AVENUE,NEWARK,NJ,7107,ESSEX,(973) 481-2200,rosevillehealth@optimum.net,66,"ROSEVILLE HEALTH CARE, LLC",Profit - LLC,40.7606696,-74.1886046
COMPREHENSIVE PERSONAL CARE HOME,NJCIU4PK,CIU4PK,Saint Clare's Hospital - Dover,400 WEST BLACKWELL STREET,DOVER,NJ,7801,MORRIS,(973) 625-6393,carlosmarconi@primehealthcare.com,15,PRIME HEALTHCARE SERVICES-SAINT CLARE'S LLC,Profit - LLC,40.885001,-74.5754089
COMPREHENSIVE PERSONAL CARE HOME,NJ50C000,50C000,St. Joseph's Seniors' Home Nursing Center & Assisted Living,1-3 ST. JOSEPH'S TERRACE,WOODBRIDGE,NJ,7095,MIDDLESEX,(732) 634-0004,info@stjosephseniorhome.com,60,THE LITTLE SERVANT SISTER,Non-Profit - Religious Affiliation,40.5434328,-74.2748237
COMPREHENSIVE PERSONAL CARE HOME,NJ82473,82473,Twin Cedars,1456 GLASSBORO ROAD,WENONAH,NJ,8090,GLOUCESTER,(856) 468-6824,Gdmullin@aol.com,37,GAYATRI RAMA ASSISTED LIVING-DEPTFORD LLC,,39.798433,-75.141892
COMPREHENSIVE PERSONAL CARE HOME,NJ15C001,15c001,United Methodist Communities at Collingswood,460 HADDON AVENUE,COLLINGSWOOD,NJ,8108,CAMDEN,(856) 854-4331,jclancy@umcommunities.org,128,UNITED METHODIST HOMES OF NJ,NonProfit - Religious Affiliation,39.918162,-75.076558
COMPREHENSIVE PERSONAL CARE HOME,NJ08C005,08C005,United Methodist Communities at Pitman,535 NORTH OAK AVENUE,PITMAN,NJ,8071,GLOUCESTER,(856) 589-7800,mmatthews@umcommunities.org,178,"PITMAN MANOR, INC.",,39.73735,-75.137479
COMPREHENSIVE PERSONAL CARE HOME,NJ20C100,20C100,Victoria Commons Retirement Center,610 TOWNBANK ROAD,NORTH CAPE MAY,NJ,8204,CAPE MAY,(609) 898-0044,krista.rickards@genesishcc.com,91,"610 TOWNBANK ROAD OPERATIONS, LLC",Profit - LLC,38.978941,-74.940788
COMPREHENSIVE PERSONAL CARE HOME,NJ14C014,14C014,"The Villa At Florham Park, Inc",190 PARK AVENUE,FLORHAM PARK,NJ,7932,MORRIS,(973) 867-1500,TCAVACINO@LSMNJ.ORG,27,"THE VILLA AT FLORHAM PARK, INC",Non-Profit - Other,,
COMPREHENSIVE PERSONAL CARE HOME,NJ19C002,19C002,Westwind Manor,25 MAIN STREET,FRANKLIN,NJ,7416,SUSSEX,(973) 827-6575,c.mendel@westwindmanor.com,25,"GRACE ELDERCARE, LLC",,41.118653,-74.589847