Facility Name,State Facility Type 1 Literal,Facility ID,Address,Zip Code,County,Phone Number,Capacity,Medicaid,Email Address,Licensee
AAREN BROOKE PLACE,RCF,50M098,995 N OREGON ST,97914,Malheur,5418811188,14,TRUE,noregon@ashleycares.com,"ASHLEY MANOR, L.L.C."
ACKERLY AT SHERWOOD MEMORY CARE  THE,RCF,50R474,16872 SW EDY ROAD,97140,Washington,5032472345,28,FALSE,dpatel@leisurecare.com,"ACKERLY AT SHERWOOD, LLC"
ACKERLY AT SHERWOOD  THE,ALF,70A340,16872 SE EDY RD,97140,Washington,5032172345,131,FALSE,mspacy@leisurecare.com,"ACKERLY AT SHERWOOD, LLC"
ACKERLY AT TIMBERLAND  THE,ALF,70A325,11795 NW CEDAR FALLS DRIVE,97229,Washington,5033503400,65,FALSE,mryan@leisurecare.com,"ACKERLY AT TIMBERLAND, LLC"
ACKERLY MEMORY CARE  THE,RCF,50R437,11795 NW CEDAR FALLS DRIVE,97229,Washington,5033503400,23,FALSE,tfox@leisurecare.com,"ACKERLY AT TIMBERLAND, LLC"
ADAMS HOUSE ASSISTED LIVING,ALF,70M001,121 CORDELIA DRIVE,97457,Douglas,5418634444,40,TRUE,director@adamshousealf.org,"MYRTLE CREEK ALF, LLC"
ADARA OAKS MANOR,RCF,50R378,931 NE LINDEN AVENUE,97030,Multnomah,5039123211,60,TRUE,adebisi@adaraoaks.com,"ADARA OAKS MANOR, LLC"
ADVOCATE CARE,RCF,50R417,13033 SOUTH EAST HOLGATE BLVD,97236,Multnomah,9712718457,34,TRUE,leahpedigo@gmail.com,"ADVOCATE CARE, LLC"
ALDERWOOD ASSISTED LIVING,ALF,70A002,131 ALDER ST,97502,Jackson,5416643757,64,TRUE,admin@alderwoodassistedliving.com,"ALDERWOOD ASSISTED LIVING, LLC"
ALPINE HOUSE ASSISTED LIVING,ALF,70M003,204 N PARK ST,97846,Wallowa,5414327402,36,TRUE,alpinehouseinfo@gmail.com,"JOSEPH ALF, INC."
AMBER ASSISTED LIVING  THE,ALF,70A287,365 SW BEL AIR DRIVE,97016,Columbia,5037282744,40,TRUE,ed@theamber.net,"AMBER INVESTORS, LLC"
APPLEGATE HOUSE OF GRANTS PASS,RCF,50R371,1635 KELLENBECK AVE,97527,Josephine,5414746493,15,TRUE,applegate@pacificlivingcenters.com,"PACIFIC LIVING CENTERS, INC."
APPLEGATE PLACE,ALF,70M022,1465 EAST CENTRAL,97479,Douglas,5414596300,36,TRUE,director@applegateplace.net,"SUTHERLIN ALF, LLC"
ARBOR AT AVAMERE COURT  THE,RCF,50R414,450 CLAGGETT COURT N,97303,Marion,5038567440,49,TRUE,ccoffman@avamere.com,
ARBOR AT BEND  THE,RCF,50R455,1290 SW SILVER LAKE BLVD,97702,Deschutes,4582027020,36,TRUE,ahunter@avamere.com,"BEND ARBOR, LLC"
ARBOR HOUSE OF GRANTS PASS,RCF,50R328,820 GOLD COURT,97527,Josephine,5414747887,15,TRUE,arbor@pacificlivingcenters.com,"PACIFIC LIVING CENTERS, INC."
ARBOR OAKS TERRACE MEMORY CARE RESIDENCE,RCF,50R367,317 WERTH BLVD,97132,Yamhill,5035382288,48,TRUE,administrator@arboroaksterrace.com,"NEWBERG MEMORY ASSOCIATES, LLC"
ARCADIA SENIOR LIVING,ALF,70A330,13031 SE FOSTER ROAD,97236,Multnomah,5032068930,68,FALSE,ed@arcadiaretirement.com,"ARCADIA SENIOR LIVING, LLC"
ASHLEY MANOR - ALAMEDA,RCF,5MA166,1310 SW 12TH,97914,Malheur,5418896280,14,TRUE,alameda@ashleycares.com,"ASHLEY MANOR, L.L.C."
ASHLEY MANOR - ANIQUE,RCF,50R295,525 ANIQUE LANE,97526,Josephine,5414744376,15,TRUE,anique@ashleycares.com,"ASHLEY MANOR, LLC"
ASHLEY MANOR - ARROWHEAD,RCF,50R274,3853 ARROWHEAD DRIVE,97504,Jackson,5412820467,11,FALSE,arrowhead@ashleycares.com,"ASHLEY MANOR, LLC"
ASHLEY MANOR - ATHENS,RCF,50R288,1514 ATHENS AVE,97801,Umatilla,5412786776,15,TRUE,athens@ashleycares.com,"ASHLEY MANOR, LLC"
ASHLEY MANOR - BROOKHURST,RCF,5MA246,2146 BROOKHURST,97504,Jackson,5416189050,14,TRUE,brookhurst@ashleycares.com,"ASHLEY MANOR, LLC"
ASHLEY MANOR - CONNERS,RCF,50R281,2853 NE CONNERS AVE,97701,Deschutes,5413834400,15,TRUE,conners@ashleycares.com,"ASHLEY MANOR, LLC"
ASHLEY MANOR - HEIDI LANE,RCF,5MA255,2144 NW HEIDI LANE,97526,Josephine,5419551816,15,TRUE,heidi@ashleycares.com,"ASHLEY MANOR, LLC"
ASHLEY MANOR - HOMEDALE,RCF,50R306,44 NORTH HOMEDALE RD,97603,Klamath,5418503770,15,TRUE,rdavidson@ashleycares.com,"ASHLEY MANOR, LLC"
ASHLEY MANOR - LUND LANE,RCF,50M204,1040 LUND LANE,97814,Baker,5415249880,9,TRUE,lund@ashleycares.com,
ASHLEY MANOR - MEADOW LAKES,RCF,5MA238,228 SW MEADOW LAKES DR,97754,Crook,5414475816,15,TRUE,meadowlakes@ashleycares.com,"ASHLEY MANOR, LLC"
ASHLEY MANOR - OAK,RCF,5MA241,572 NE OAK STREET,97741,Jefferson,5414757635,15,TRUE,oak@ashleycares.com,"ASHLEY MANOR, LLC"
ASHLEY MANOR - PACIFIC HEIGHTS,RCF,50M267,1995 8TH ST,97031,Hood River,5413874514,15,TRUE,oroberts@ashleycares.com,"ASHLEY MANOR, LLC"
ASHLEY MANOR - RIMROCK,RCF,50M265,1600 SW RIMROCK WAY,97756,Deschutes,5415048855,15,TRUE,rimrock@ashleycares.com,"ASHLEY MANOR, LLC"
ASHLEY MANOR - ROSEBURG,RCF,5MA233,427 SE RAMP ST,97470,Douglas,5414640961,30,TRUE,douglas@ashleycares.com,ASHLEY MANOR LLC
ASHLEY MANOR - SAGE,RCF,5MA003,1325 SW SAGE,97838,Umatilla,5415649052,40,TRUE,hermiston@ashleycares.com,
ASHLEY MANOR - SHASTA,RCF,50M220,475 S SHASTA PL,97720,Harney,5415733029,15,TRUE,rdavidson@ashleycares.com,
ASHLEY MANOR - WELL SPRINGS,RCF,5MA206,2110 SW 2ND AVENUE,97914,Malheur,5418819136,10,FALSE,wellsprings@ashleycares.com,
ASPEN RIDGE MEMORY CARE,RCF,5MA221,1025 NE PURCELL BLVD,97701,Deschutes,5413124300,43,TRUE,administrator@aspenridgememorycare.com,"FM ASPEN MC, LLC"
ASPEN RIDGE RETIREMENT COMMUNITY,ALF,70M217,1010 NE PURCELL BLVD,97701,Deschutes,5413858500,95,TRUE,administrator@aspenridgeretirement.com,
ASPENS  THE,ALF,70M005,210 ROE DAVIS AVE,97738,Harney,5415732222,48,TRUE,director@theaspensalf.org,"HARNEY PIONEER HOMES, INC."
ASSUMPTION VILLAGE,ALF,70A278,9121 N BURR AVENUE,97203,Multnomah,5032835644,84,TRUE,sgray@villageenterprises.org,ASSUMPTION VILLAGE LLC
ASTOR PLACE,ALF,70M007,999 KLASKANIE AVE,97103,Clatsop,5033256970,34,FALSE,rojala@enlivant.com,ASTOR AID OPCO LLC
ATRIUM AT FLAGSTONE  THE,RCF,50R327,3325 COLUMBIA VIEW DR,97058,Wasco,5412985656,33,TRUE,sbucher@flagstoneseniorliving.com,"FLAGSTONE OPERATIONS, LLC"
ATRIUM AT MCLOUGHLIN PLACE  THE,RCF,5MA162,1153 MOLALLA AVE,97045,Clackamas,5036553337,50,TRUE,memorysupport@mcloughlinplace.net,"MCLOUGHLIN PLACE OPERATIONS, LLC"
AUTUMN GARDEN HOME RCF  LLC,RCF,50M006,6215 SE HAZEL ST,97206,Clackamas,5033587986,10,TRUE,silviub@comcast.net,"AUTUMN GARDEN HOME RCF, LLC"
AUTUMN HOUSE OF GRANTS PASS,RCF,50R343,2268 WILLIAMS HWY,97527,Josephine,5414746399,15,TRUE,autumn@pacificlivingcenters.com,
AVAMERE AT ALBANY,ALF,70M247,2800 14TH AVE SE,97321,Linn,5419289494,60,TRUE,dhansen@avamere.com,NORTHWEST HC CAMBRIDGE TERRACE (OR) OPERATOR NT-HC
AVAMERE AT BETHANY,RCF,50R320,16360 NW AVAMERE CT,97229,Washington,5036902402,26,TRUE,anewsom@avamere.com,"AVAMERE BETHANY OPERATIONS, LLC"
AVAMERE AT BETHANY ASSISTED LIVING FACILITY,ALF,70A291,16360 NW AVAMERE CT,97229,Washington,5036902402,90,TRUE,mruybalid@avamere.com,
AVAMERE AT CASCADIA VILLAGE,ALF,70M228,39495 CASCADIA VILLAGE DRIVE,97055,Clackamas,5036680300,55,TRUE,amayfield@avamere.com,"NORTHWEST HC CASCADIA VILLAGE (OR)OPERATOR NT-HC,"
AVAMERE AT CHESTNUT LANE,ALF,70A290,1219 NE 6TH STREET,97030,Multnomah,5035730242,78,TRUE,renee.vairora@brookdale.com,"CHESTNUT LANE OPERATIONS, LLC"
AVAMERE AT HERMISTON,ALF,70M040,980 W HIGHLAND AVE,97838,Umatilla,5415673141,63,TRUE,lori.scheel@brookdale.com,"HERMISTON HIGHLAND OPERATIONS, LLC"
AVAMERE AT HILLSBORO,RCF,5MA261,2000 SE 30TH AVE,97123,Washington,5036939944,24,TRUE,bhodson@avamere.com,"AVAMERE-HILLSBORO OPERATIONS, LLC"
AVAMERE AT HILLSBORO ASSISTED LIVING FACILITY,ALF,70M245,2000 SE 30TH AVENUE,97123,Washington,5036939944,75,TRUE,tgdolliver@avamere.com,"AVAMERE HILLSBORO OPERATIONS, LLC."
AVAMERE AT NEWBERG,RCF,5MA259,730 FOOTHILLS DRIVE,97132,Yamhill,5035540767,22,TRUE,lvincent1@avamere.com,"GENESIS NEWBERG OPERATIONS COMPANY, LLC"
AVAMERE AT OAK PARK,ALF,70M225,1400 NE ROCKY RIDGE DRIVE,97470,Douglas,5414645656,76,TRUE,tradford@avamere.com,"NORTHWEST HC OAK PARK (OR) OPERATOR NT-HCI, LLC"
AVAMERE AT PARK PLACE,ALF,70A070,8445 SW HEMLOCK STREET,97223,Washington,5032458985,130,TRUE,mbruhns@avamere.com,"TIGARD OPERATIONS, LLC"
AVAMERE AT SANDY,RCF,5MA249,17727 SE LANGENSAND RD,97055,Clackamas,5036684199,24,TRUE,aclapp@avamere.com,
AVAMERE AT SANDY ASSISTED LIVING FACILITY,ALF,70M231,17727 SE LANGENSAND RD,97055,Clackamas,5036684199,65,TRUE,avinokurov@avamere.com,"AVAMERE-SANDY OPERATIONS, LLC"
AVAMERE AT SEASIDE RESIDENTIAL CARE FACILITY,RCF,50R296,2500 S ROOSEVELT DR,97138,Clatsop,5037380900,40,TRUE,orchards@aol.com,"NECANICUM OPERATIONS, LLC"
AVAMERE AT SHERWOOD,RCF,5MA245,16500 SW CENTURY DRIVE,97140,Washington,5036257333,24,TRUE,rrenzema@avamere.com,"AVAMERE-SHERWOOD OPERATIONS, LLC"
AVAMERE AT SHERWOOD ASSISTED LIVING FACILITY,ALF,70M227,16500 SW CENTURY DRIVE,97140,Washington,5036257333,65,TRUE,kcoleman1@avamere.com,"AVAMERE-SHERWOOD OPERATIONS, LLC"
AVAMERE AT ST HELENS,RCF,50R275,2400 GABLE RD,97051,Columbia,5033668070,28,TRUE,pllacamp@avamere.com,
AVAMERE AT WATERFORD ASSISTED LIVING FACILITY,ALF,70M218,760 SPRING STREET,97504,Jackson,5417737718,85,TRUE,jkahananui@avamere.com,"WATERFORD OPERATIONS, LLC"
AVAMERE COURT AT KEIZER RCF,RCF,50R068,5210 RIVER ROAD N,97303,Marion,5033933624,63,TRUE,rsamuelson@avamere.com,"KEIZER CAMPUS OPERATIONS, LLC"
AVAMERE LIVING AT NEWBERG,ALF,70M208,730 FOOTHILLS DRIVE,97132,Yamhill,5035540767,70,TRUE,anewsom@avamere.com,"GENESIS NEWBERG OPERATIONS COMPANY, LLC"
AVAMERE LIVING AT ST HELENS,ALF,70M258,2400 GABLE RD,97051,Columbia,5033668070,70,TRUE,mwilliams3@avamere.com,"AVAMERE - ST HELENS OPERATIONS, LLC"
AVEENA MEMORY CARE,RCF,50R470,21910 SE BORGES RD,97089,Clackamas,5034272784,15,TRUE,aveenamemorycare@gmail.com,DAMASCUS MEMORY CARE LLC
AWBREY PLACE,ALF,70M008,2825 NEFF RD,97701,Deschutes,5413178464,49,TRUE,james.mcnama@caringplaces.com,"CARING PLACES NORTHWEST, LLC"
AZALEA GARDENS SENIOR LIVING,ALF,70M055,755 ELK DRIVE,97415,Curry,5414697182,40,TRUE,ed@azaleagardenssl.com,"BROOKINGS SENIOR LIVING, LLC"
BARBUR VISTA RESIDENTIAL CARE,RCF,50R439,9451 SW BARBUR BOULEVARD,97219,Multnomah,5034779394,32,TRUE,mkcschreiber@yahoo.com,
BARTLETT HOUSE OF MEDFORD MEMORY CARE COMMUNITY,RCF,50R407,3465 LONE PINE RD,97504,Jackson,5412459814,15,FALSE,bartlett@pacificlivingcenters.com,"PACIFIC LIVING CENTERS, INC"
BATTLE CREEK MEMORY CARE,RCF,50R480,1805 WALN DR SE,97306,Marion,5033649378,68,TRUE,twhitehead@battlecreekcare.com,"BATTLECREEK MEMORY CARE, LLC"
BAYBERRY COMMONS ASSISTED LIVING,ALF,70A307,2211 LAURA STREET,97477,Lane,5417447000,62,TRUE,ed@bayberrycommons.com,"BAYBERRY COMMONS, INC."
BAYBERRY COMMONS MEMORY CARE,RCF,50R347,2211 LAURA STREET,97477,Lane,5417447000,14,TRUE,ed@bayberrycommons.com,"BAYBERRY COMMONS, INC."
BAYSIDE TERRACE ASSISTED LIVING,ALF,70M067,192 NORMAN AVE,97420,Coos,5418882255,57,TRUE,administrator@baysideterraceseniorliving.com,WELLTOWER TENANT GROUP LLC
BAYSIDE TERRACE ASSISTED LIVING,ALF,70M067,192 NORMAN AVE,97420,Coos,5418882255,57,TRUE,administrator@baysideterraceseniorliving.com,WELLTOWER TENANT GROUP LLC
BAYSIDE TERRACE MEMORY CARE,RCF,50M440,192 NORMAN AVENUE,97420,Coos,5418882255,22,TRUE,memorycare@baysideterraceseniorliving.com,WELLTOWER TENANT GROUP LLC
BAYSIDE TERRACE MEMORY CARE,RCF,50M440,192 NORMAN AVENUE,97420,Coos,5418882255,22,TRUE,memorycare@baysideterraceseniorliving.com,WELLTOWER TENANT GROUP LLC
BETTER LIVING RCF,RCF,50R471,15855 SE POWELL BLVD,97236,Multnomah,9714028691,19,TRUE,priscilla@betterlivingrcf.com,"BETTER CHOICE, LLC"
BLUE DIAMOND ESTATES,RCF,50M124,87326 MC TIMMONS LANE,97411,Coos,9713444998,30,TRUE,bluediamondestates@gmail.com,
BLUE HAVEN MEMORY CARE - DALLAS,RCF,50M227,280 SE UGLOW ST,97338,Polk,5036230300,16,TRUE,clewis.bluehaven@gmail.com,
BLUE HAVEN MEMORY CARE - INDEPENDENCE,RCF,50R225,202 SOUTH 9TH STREET,97351,Polk,5038380330,16,TRUE,kristinak.bluehaven@gmail.com,"BLUE HAVEN RESIDENTIAL CARE FACILITIES, INC."
BONAVENTURE OF ALBANY ASSISTED LIVING,ALF,70A235,420 GERI ST NW,97321,Benton,5414975600,60,FALSE,executivedirectoralb@livebsl.com,BONAVENTURE OF ALBANY LLC
BONAVENTURE OF ALBANY MEMORY CARE,RCF,50R430,420 GERI ST NW,97321,Benton,5414975600,23,FALSE,executivedirectorgre@livebsl.com,BONAVENTURE OF ALBANY LLC
BONAVENTURE OF GRESHAM ASSISTED LIVING,ALF,70A327,22514 SE STARK,97030,Multnomah,5033280010,72,FALSE,executivedirectorgre@livebsl.com,"BONAVENTURE OF GRESHAM, LLC"
BONAVENTURE OF GRESHAM MEMORY CARE,RCF,50R442,22514 SE STARK STREET,97030,Multnomah,5033280010,27,FALSE,memorycaregre@livebsl.com,"BONAVENTURE OF GRESHAM, LLC"
BONAVENTURE OF KEIZER ASSISTED LIVING,ALF,70A328,5525 MCLEOD LANE NE,97303,Marion,5036898084,61,FALSE,executivedirectorkzr@livebsl.com,"BONAVENTURE OF KEIZER, LLC"
BONAVENTURE OF KEIZER MEMORY CARE,RCF,50R447,5525 MCLEOD LANE NE,97303,Marion,5036898084,35,FALSE,memorycarekzr@livebsl.com,"BONAVENTURE OF KEIZER, LLC"
BONAVENTURE OF MEDFORD ASSISTED LIVING,ALF,70A332,2530 EAST MCANDREWS ROAD,97504,Jackson,5419308750,69,FALSE,executivedirectormed@livebsl.com,"BONAVENTURE OF MEDFORD, LLC"
BONAVENTURE OF MEDFORD MEMORY CARE,RCF,50R453,2530 EAST MCANDREWS ROAD,97504,Jackson,5419308750,25,FALSE,memorycaremed@livebsl.com,"BONAVENTURE OF MEDFORD, LLC"
BONAVENTURE OF SALEM ASSISTED LIVING,ALF,70A320,3411 BOONE RD SE,97317,Marion,5034800004,65,FALSE,executivedirectorslm@livebsl.com,BONAVENTURE OF SALEM LLC
BONAVENTURE OF SALEM MEMORY CARE,RCF,50R385,3411 BOONE RD SE,97317,Marion,5034800004,24,FALSE,memorycareslm@livebsl.com,BONAVENTURE OF SALEM LLC
BONAVENTURE OF TIGARD ASSISTED LIVING,ALF,70A301,15000 SW HALL BLVD,97224,Washington,5032144200,69,FALSE,executivedirectortig@livebsl.com,"BONAVENTURE OF TIGARD, LLC"
BONAVENTURE OF TIGARD MEMORY CARE,RCF,50R432,15000 SW HALL BLVD,97224,Washington,5032144200,23,FALSE,memorycarertig@livebsl.com,"BONAVENTURE OF TIGARD, LLC"
BOONE RIDGE MEMORY CARE,RCF,50R473,2950 BOONE RD SE,97306,Marion,9713323434,48,TRUE,mced@booneridgeslc.com,"BOONE ROAD SENIOR LIVING, LLC"
BOONE RIDGE SENIOR LIVING COMMUNITY,ALF,70A339,2950 BOONE RD SE,97306,Marion,9713323434,103,TRUE,ed@booneridgeslc.com,"BOONE ROAD SENIOR LIVING, LLC"
BRIDGE ASSISTED LIVING  THE,ALF,70A266,201 SW BRIDGE STREET,97526,Josephine,5419562110,77,TRUE,admin@welovethebridge.com,"GRANTS PASS ASSISTED LIVING, LLC."
BRIDGECREEK MEMORY CARE,RCF,50A253,1401 S 12TH STREET,97355,Linn,5412591779,58,TRUE,jburton@sapphirehealthservices.com,
BRIDGEWOOD RIVERS ASSISTED LIVING,ALF,70M009,1901 NW HUGHWOOD DR,97470,Douglas,5414401914,50,TRUE,teresac@cascadeliving.com,
BRIGHTCREEK AT SEA VIEW,RCF,50R368,98059 GERLACH LANE,97415,Curry,5414694500,35,TRUE,mcpm@seaviewseniorliving.com,"SEA VIEW ASSISTED LIVING COMMUNITY, LLC"
BROOKDALE BEAVERTON,RCF,50A232,16655 NW WALKER ROAD,97006,Washington,5034391653,60,TRUE,charity.jammeh@brookdale.com,"BROOKDALE SENIOR LIVING COMMUNITIES, INC"
BROOKDALE BEND,RCF,50A263,1099 NE WYATT WAY,97701,Deschutes,5413854717,59,TRUE,cgarner11@brookdale.com,"BROOKDALE SENIOR LIVING COMMUNITIES, INC"
BROOKDALE FOREST GROVE,RCF,5MA146,3110 19TH AVE,97116,Washington,5033573288,110,TRUE,mlawrence2@brookdale.com,"BROOKDALE SENIOR LIVING COMMUNITIES, INC"
BROOKDALE GEARY STREET,ALF,70M016,2445 GEARY ST SE,97321,Linn,5419268200,80,TRUE,rcatt@brookdale.com,"BROOKDALE SENIOR LIVING COMMUNITIES, INC"
BROOKDALE GEARY STREET MEMORY CARE,RCF,50R403,2445 GEARY ST  SE,97321,Linn,5419268200,44,TRUE,rcatt@brookdale.com,"BROOKDALE SENIOR LIVING COMMUNITIES, INC"
BROOKDALE MCMINNVILLE CITY CENTER,ALF,70M017,721 NE 27TH ST,97128,Yamhill,5034350100,50,TRUE,dlugar@brookdale.com,"BROOKDALE SENIOR LIVING COMMUNITIES, INC"
BROOKDALE MCMINNVILLE CITY CENTER MEMORY CARE,RCF,5MA130,721 NE 27TH ST,97128,Yamhill,5034350100,15,TRUE,kpierson4@brookdale.com,
BROOKDALE MCMINNVILLE TOWN CENTER,RCF,50R078,775 NE 27TH,97128,Yamhill,5034723130,35,FALSE,tperez12@brookdale.com,"BROOKDALE SENIOR LIVING COMMUNITIES, INC"
BROOKDALE MEDFORD,RCF,50M056,3033 BARNETT ROAD,97504,Jackson,5417767600,95,TRUE,dbuick@brookdale.com,"BROOKDALE SENIOR LIVING COMMUNITIES, INC"
BROOKDALE MT HOOD,RCF,50M055,25200 SE STARK ST,97030,Multnomah,5036654300,88,TRUE,nminch@brookdale.com,"BROOKDALE SENIOR LIVING COMMUNITIES, INC"
BROOKDALE NEWBERG,ALF,70A308,3802 HAYES ST,97132,Yamhill,5035381705,110,TRUE,dlarson@brookdale.com,EMERITUS CORPORATION
BROOKDALE ONTARIO,RCF,50M142,1372 SW 8TH AVE,97914,Malheur,5418894600,82,TRUE,pwhite17@brookdale.com,EMERITOL MEADOWBROOK LLC
BROOKDALE OSWEGO SPRINGS - PORTLAND,ALF,70A303,11552 SW LESSER RD,97219,Multnomah,5035424747,82,TRUE,sdelorenzo1@brookdale.com,EMERITUS CORPORATION
BROOKDALE REDMOND ASSISTED LIVING,ALF,70A305,1942 SW CANYON DRIVE,97756,Deschutes,5413164400,77,TRUE,mgrubbs2@brookdale.com,EMERITUS CORPORATION
BROOKDALE REDMOND CLARE BRIDGE,RCF,50R344,1942 SW CANYON DRIVE,97756,Deschutes,5413164400,32,TRUE,dawn.kassing@brookdale.com,EMERITUS CORPORATION
BROOKDALE RIVER ROAD,ALF,70A078,592 BEVER DR NE,97303,Marion,5034634060,56,TRUE,gessman@brookdale.com,EMERITUS CORPORATION
BROOKDALE RIVER VALLEY TUALATIN,RCF,50M054,19200 SW 65TH AVE,97062,Clackamas,5036923192,120,TRUE,ncristoforo@brookdale.com,EMERITUS CORPORATION
BROOKDALE ROSEBURG,RCF,5MA254,3400 NW EDENBOWER BLVD,97470,Douglas,5414645600,60,TRUE,sarah.calvert@brookdale.com,EMERITUS CORPORATION
BROOKDALE ROSE VALLEY SCAPPOOSE,ALF,70M236,33800 SE FREDERICK STREET,97056,Columbia,5035434646,79,TRUE,steven.matthews@brookdale.com,EMERITUS CORPORATION
BROOKDALE SALEM,RCF,5MA205,1355 BOONE RD SE,97302,Marion,5033657500,60,TRUE,belinda.hamilton@brookdale.com,"BROOKDALE SENIOR LIVING COMMUNITIES, INC"
BROOKDALE TROUTDALE,RCF,50A236,1201 SW CHERRY PARK ROAD,97060,Multnomah,5034658104,61,TRUE,rkibbee@brookdale.com,"BROOKDALE SENIOR LIVING COMMUNITIES, INC"
BROOKDALE WILSONVILLE,RCF,50M228,8170 VLAHOS DR,97070,Clackamas,5036820653,32,TRUE,kathy.white2@brookdale.com,EMERITUS CORPORATION
BROOKSIDE MEMORY CARE,RCF,50R478,11045 SW HALL BLVD,97223,Washington,5032785668,42,FALSE,info@brooksidememorycare.com,BROOKSIDE MEMORY CARE LLC
BROOKSIDE PLACE,ALF,70M010,3550 SW CANAL BLVD,97756,Deschutes,5415041600,45,TRUE,director@brooksideplace.net,"REDMOND ALF, LLC"
BROOKSTONE ALZHEIMER'S SPECIAL CARE CENTER,RCF,5MA151,5881 WOODSIDE DR SE,97306,Marion,5033160687,57,TRUE,brookstone-adm@jeaseniorliving.com,SH1 BROOKSTONE OPCO LLC
CALLAHAN COURT MEMORY CARE COM,RCF,5MA240,1770 NW VALLEY VIEW DRIVE,97470,Douglas,5416733900,48,TRUE,administrator@callahancourt.com,LSREF GOLDEN OPS 14 (SILVER) LLC
CALLAHAN VILLAGE ASSISTED LIVING,ALF,70M229,1801 NW GARDEN VALLEY BLVD,97470,Douglas,5416734500,86,TRUE,administrator@callahanvillage.com,"LSREF GOLDEN OPS UE (OR), LLC"
CANFIELD PLACE RETIREMENT COMMUNITY,ALF,70A011,14570 SW HART RD,97005,Washington,5036265100,105,FALSE,jcarty@leisurecare.com,CANFIELD PLACE RETIREMENT COMMUNITY L.L.C.
CANYON RIM MANOR,ALF,70A296,1701 GEORGE JACKSON RD,97037,Wasco,5413952515,35,TRUE,residentservices.cr@canyonrimslc.com,"MAUPIN SENIOR LIVING, LLC"
CAPITAL MANOR RETIREMENT COMMUNITY,RCF,50R216,1955 DALLAS HWY NW,97304,Polk,5033624101,117,FALSE,pkidd@capitalmanor.com,"CAPITAL MANOR, INC."
CARRIAGE PLACE,ALF,70M013,150 S WILLIAMSON DR,97754,Crook,5414160500,34,TRUE,james.mcnama@caringplaces.com,"CARING PLACES NORTHWEST, LLC"
CASCADE PARK RETIREMENT CENTER,RCF,50M012,950 N CASCADE DR,97071,Marion,5039810033,32,FALSE,tflores@centurypa.com,"WOODBURN INVESTMENT ASSOCIATES, LTD"
CASCADES OF BEND RETIREMENT COMMUNITY,RCF,50R128,1801 NE LOTUS DR,97701,Deschutes,5413890046,70,TRUE,jamiem@cascadeliving.com,"CASCADE LIVING GROUP- OREGON, LLC"
CASCADES OF GRANTS PASS - THE POINTE,RCF,5MA269,1400 REDWOOD CIRCLE,97527,Jackson,5414742838,64,TRUE,joyc@cascadeliving.com,"S-H OPCO SPRING POINTE, LLC"
CASCADES OF GRANTS PASS - THE VILLAGE,ALF,70M254,1420 REDWOOD CIRCLE,97527,Josephine,5414740200,90,TRUE,eunices@cascadeliving.com,"S-H OPCO SPRING VILLAGE, LLC"
CASCADE VALLEY ASSISTED LIVING,ALF,70M027,1010 NE 3RD AVENUE,97862,Umatilla,5419385693,59,TRUE,andrew.steinmeyer@empres.com,EVERGREEN OREGON HEALTHCARE ORCHARDS REHA
CASCADE VALLEY MEMORY CARE,RCF,50R448,1010 NE THIRD AVENUE,97862,Umatilla,5419385693,23,TRUE,noor.mouhammad@empres.com,"EVERGREEN OREGON HEALTHCARE ORCHARDS RETIREMENT, L"
CEDAR CREST ALZHEIMER SPECIAL CARE CENTER,RCF,5MA207,18325 SW PACIFIC HWY,97062,Washington,5039250544,56,TRUE,cedarcrest.adm@jeaseniorliving.com,SH1 CEDAR CREST OPCO LLC
CEDAR VILLAGE ASSISTED LIVING COMMUNITY,ALF,70M222,4452 LANCASTER DR NE,97305,Marion,5033909600,62,TRUE,administrator@cedarvillageseniorliving.com,WELLTOWER TENANT GROUP LLC
CEDAR VILLAGE ASSISTED LIVING COMMUNITY,ALF,70M222,4452 LANCASTER DR NE,97305,Marion,5033909600,62,TRUE,administrator@cedarvillageseniorliving.com,WELLTOWER TENANT GROUP LLC
CEDAR VILLAGE MEMORY CARE COMMUNITY,RCF,50R353,4452 LANCASTER DR NE,97301,Marion,5033909600,24,TRUE,memorycare@cedarvillageseniorliving.com,WELLTOWER TENANT GROUP LLC
CEDAR VILLAGE MEMORY CARE COMMUNITY,RCF,50R353,4452 LANCASTER DR NE,97301,Marion,5033909600,24,TRUE,memorycare@cedarvillageseniorliving.com,WELLTOWER TENANT GROUP LLC
CELIA'S HOUSE IN HOLMES PARK,RCF,50R458,217 S MODOC AVE,97504,Jackson,5415008911,12,TRUE,michele.murray@sofriendsofhospice.org,SOUTHERN OREGON FRIENDS OF HOSPICE
CHANTELE'S LOVING TOUCH MEMORY CARE,RCF,50R351,1128 W CENTRAL AVENUE,97479,Douglas,5414594549,45,TRUE,rfugate@timbertownliving.com,"LOVING TOUCH OPERATIONS, LLC"
CHATEAU GARDENS MEMORY CARE COMMUNITY,RCF,50M172,2669 S CLOVERLEAF LOOP,97477,Lane,5417469703,28,TRUE,administrator@chateaugardensalz.com,"CLOVERLEAF ASSISTED LIVING, LLC"
CHERRY BLOSSOM COTTAGE,RCF,50R014,11177 SE CHERRY BLOSSOM DR,97216,Multnomah,5032569777,49,FALSE,rebecca@cherryblossomcottage.com,"SYLVIA'S LEGACY, INC."
CHERRY PARK PLAZA,RCF,50R389,1323 SW CHERRY PARK ROAD,97060,Multnomah,5034911661,33,FALSE,executivedirector@cherryparkplaza.com,"CHGCXA TROUTDALE, LLC"
CHERRYWOOD MEMORY CARE - REVERE COURT,RCF,50R416,2750 NE DORAN DRIVE,97128,Yamhill,5038570338,56,TRUE,gail.d@chancellorhealthcare.com,"CHANCELLOR HEALTH CARE OF CALIFORNIA XIII, INC."
CHINOOK PLACE,ALF,70M004,470 NE OAK ST,97741,Jefferson,5414756425,16,TRUE,jes.sothern@caringplaces.com,"CARING PLACES NORTHWEST, LLC"
CHURCHILL ESTATES ASSISTED LIVING,ALF,70M014,1919 BAILEY HILL RD,97405,Lane,5414858320,48,TRUE,evauna@churchillestates.net,"CHURCHILL MANAGEMENT COMPANY, INC."
CHURCHILL RETIREMENT ASSISTED LIVING,ALF,50R365,3800 WESTLEIGH,97405,Lane,5414858320,83,TRUE,deborah@churchillestates.net,"CHURCHILL MANAGEMENT, INC"
CLACKAMAS VIEW SENIOR LIVING - MILWAUKIE,RCF,50R139,14550 SE VISTA LANE,97267,Clackamas,5036592325,40,TRUE,odunayo.i@chancellorhealthcare.com,
CLATSOP CARE MEMORY COMMUNITY,RCF,50R421,2219 SE DOLPHIN ROAD,97146,Clatsop,5039942060,32,TRUE,adminccmc@clatsopcare.org,CLATSOP CARE CENTER HEALTH DISTRICT
CLATSOP CARE RETIREMENT VILLAGE,ALF,70M203,947 OLNEY AVE,97103,Clatsop,5033254676,80,TRUE,admincrv@clatsopcare.org,CLATSOP CARE CENTER HEALTH DISTRICT
COMFORT CARE,RCF,50R021,1735 KANE ST,97603,Klamath,5418832882,16,TRUE,comfortcarekf@aol.com,"COME FOR CARE, INC."
CONIFER HOUSE RESIDENTIAL CARE & MEMORY CARE,RCF,50R023,145 NE CONIFER BLVD,97330,Benton,5417572444,51,TRUE,bmccoy@coniferalmc.com,"CONIFER HOUSE OPERATING COMPANY, LLC"
CORAL SPRINGS RESIDENTIAL CARE,RCF,50R404,2520 CORAL AVENUE NE,97305,Marion,5033625885,32,FALSE,michele@sweetbyenbye.com,
CORNELL ESTATES RETIREMENT & ASST LIVING RES,ALF,70M015,1005 NE 17TH STREET,97124,Washington,5036402884,75,TRUE,adm@cornell-estates.com,
CORNERSTONE RESIDENTIAL OPTION,RCF,50R346,12640 SE BUSH,97236,Multnomah,5037616621,16,TRUE,mwright@cornerstonecareoption.com,"CORNERSTONE CARE OPTION , INC"
CORVALLIS CARING PLACE ASSISTED LIVING,ALF,70A280,750 NW 23RD ST,97330,Benton,5417532033,55,TRUE,crystalw@corvalliscaringplace.org,"CORVALLIS CARING PLACE, INC."
COTTAGES SENIOR LIVING  THE,RCF,5MA160,1808 SE 182ND AVENUE,97233,Multnomah,5037664997,114,TRUE,ed@thecottagesliving.com,THE COTTAGES OPCO LLC
COTTAGES SENIOR LIVING  THE,RCF,5MA160,1808 SE 182ND AVENUE,97233,Multnomah,5037664997,114,TRUE,ed@thecottagesliving.com,THE COTTAGES OPCO LLC
COUNTRY MEADOWS VILLAGE,ALF,70A285,155 S EVERGREEN,97071,Marion,5039822221,50,TRUE,exd@countrymeadowsvillage.com,"CROWN II DEVELOPMENT, LLC"
COUNTRYSIDE LIVING OF CANBY,RCF,50R283,390 NW 2ND AVE,97013,Clackamas,5032663031,35,TRUE,rosie@countrysideliving.com,"COUNTRYSIDE LIVING OF CANBY, LLC"
COUNTRYSIDE LIVING OF REDMOND,RCF,50M426,1350 NW CANAL BLVD,97756,Deschutes,5415483049,38,TRUE,kathyd@countrysideliving.com,"COUNTRYSIDE LIVING OF REDMOND, LLC"
COUNTRYSIDE LIVING - SOUTH,RCF,50R380,406 NW 2ND AVENUE,97013,Clackamas,5032663031,20,TRUE,sheenaw@countrysideliving.com,"COUNTRYSIDE LIVING OF CANBY, LLC"
COUNTRYSIDE VILLAGE,ALF,70A318,1700 KELLENBECK AVE,97527,Josephine,5419560999,22,TRUE,linda@countrysidevillageretire.com,"LYNN-ANN DEVELOPMENT, LLC"
COUNTRYSIDE VILLAGE LODGE,RCF,50R475,1700 KELLENBECK AVE,97527,Josephine,5419560999,28,FALSE,mca@countrysidevillageretire.com,"LYNN-ANN DEVELOPMENT, LLC"
COURTYARD AT HILLSIDE MEMORY CARE,RCF,50R277,440 NW HILLSIDE PARK WAY,97128,Yamhill,5034729534,20,FALSE,mschliesmayer@brookdale.com,"BKD HILLSIDE OPCO, LLC"
COURTYARD AT MT TABOR,ALF,70A239,6323 SE DIVISION,97206,Multnomah,5037729795,80,FALSE,courtyardald@islllc.com,"SSSHT OPCO SE DIVISION STREET, LLC"
COURTYARD AT MT TABOR GARDEN HOUSE,RCF,5MA252,6323 SE DIVISION,97206,Multnomah,5037729795,24,FALSE,courtyardgpd@islllc.com,"SSSHT OPCO SE DIVISION STREET, LLC"
COURTYARD AT MT TABOR PAVILION,RCF,50R481,2350 SE 60TH AVE,97206,Multnomah,5037712181,29,FALSE,thecourtyardgpd@islllc.com,"SSSHT OPCO SE DIVISION STREET, LLC"
COURTYARD FOUNTAINS ASSISTED LIVING COMMUNITY,ALF,70A315,1537 SE 223RD,97030,Multnomah,5036674500,53,FALSE,administrator@courtyardfountainsseniorliving.com,"ARHC CFGREOR01 TRS, LLC"
CRYSTAL TERRACE,RCF,50R292,1000 TOWN CENTER DRIVE,97601,Klamath,5418857250,43,TRUE,LinseyCalhoun@MBK.COM,"KLAMATH FALLS MSL, LLC"
CRYSTAL TERRACE MEMORY CARE,RCF,50M300,320 JADE TERRACE,97601,Klamath,5412737336,44,TRUE,stacymccarl@mbk.com,"KLAMATH FALLS MSL, LLC"
CURRY MANOR,RCF,5MA024,1458 QUAIL LANE,97470,Douglas,5416733999,62,TRUE,jsullivan@tierraseniorliving.com,"TSL CURRY MANOR, LLC"
DALLAS RETIREMENT VILLAGE ASSISTED LIVING,ALF,70A018,340 NW BRENTWOOD ST,97338,Polk,5038310214,53,TRUE,dolson@drvhome.com,"DALLAS MENNONITE RETIREMENT COMMUNITY, INC."
DALLAS RETIREMENT VILLAGE ASSISTED LIVING HUD,ALF,70A321,377 NW JASPER ST,97338,Polk,5036235581,25,TRUE,dolson@drvhome.com,"DALLAS HEALTH CARE CENTER, LLC"
DALLAS RETIREMENT VILLAGE MEMORY CARE CENTER,RCF,50R331,377 NW JASPER ST,97338,Polk,5038310214,20,TRUE,sperez@drvhome.com,"DALLAS HEALTH CARE CENTER, LLC"
DAVENPORT PLACE,ALF,70A019,930 OAK ST,97381,Marion,5038737162,36,FALSE,torourke@enlivant.com,"DAVENPORT AID OPCO, LLC"
DEERFIELD VILLAGE ASSISTED LIVING,ALF,70A020,5770 SE KELLOGG CR DR,97222,Clackamas,5036534064,48,TRUE,dean@cascadeliving.com,"CASCADE LIVING GROUP- OREGON, LLC"
DESIRE FOR HEALING  INC,RCF,50M144,44882 MISSION RD,97801,Umatilla,5412767157,50,TRUE,valerie.s@desireforhealing.com,"DESIRE FOR HEALING, INC"
DONHAM PLACE,RCF,50M048,5833 N LOMBARD ST,97203,Multnomah,5032832852,13,TRUE,johnvarner@ymail.com,DONHAM PLACE INC.
DORIAN PLACE ASSISTED LIVING,ALF,70M021,375 N DORIAN DR,97914,Malheur,5418898545,50,TRUE,christine.grothaus@wellspringsliving.com,"DORIAN PLACE OPERATIONS, LLC"
EAST CASCADE MEMORY CARE COMMUNITY,RCF,50R334,175 NE 16TH STREET,97741,Jefferson,5414752273,16,TRUE,shantel.vasquez.shm@gmail.com,"EAST CASCADE RETIREMENT COMMUNITY, LLC"
EAST CASCADE RETIREMENT COMMUNITY,ALF,70M212,175 NE 16TH STREET,97741,Jefferson,5414752273,48,TRUE,rachel@eastcascade.com,"EAST CASCADE RETIREMENT COMMUNITY, LLC"
EDGEWOOD ARBOR MEMORY CARE,RCF,50R276,7733 SW SCHOLLS FERRY RD,97008,Washington,5036719474,27,FALSE,gerardo.meza@hawthornret.com,"BEAVERTON ASSISTED LIVING OPCO, LLC"
EDGEWOOD POINT ASSISTED LIVING,ALF,70A261,7733 SW SCHOLLS FERRY RD,97008,Washington,5036719474,59,TRUE,elizabeth.conrad@hawthornret.com,"BEAVERTON ASSISTED LIVING OPCO, LLC"
ELDERLY CARE HOME,RCF,50M025,12435 SW 121ST AVE,97223,Washington,5035909854,15,TRUE,sarah_mahinay@comcast.net,"ELDERLY CARE HOME, INC."
ELITE CARE ADAMS - HOOD,RCF,50R282,4483 SE OATFIELD HILL RD,97267,Clackamas,5036535656,30,TRUE,mdokka@elitecare.com,"ELITE CARE OATFIELD ESTATES, LLC"
ELITE CARE JEFFERSON - ASHLAND,RCF,50R318,4422 SE OATFIELD HILL ROAD,97267,Clackamas,5036535656,30,TRUE,jclute@elitecare.com,"ELITE CARE OATFIELD ESTATES, LLC"
ELITE CARE LARCH - TABOR,RCF,50R405,4425 SE OATFIELD HILL RD,97267,Clackamas,5036535656,30,TRUE,mdokka@elitecare.com,"ELITE CARE OE2, LLC"
ELITE CARE RAINIER - HELENS,RCF,50R308,4457 SE OATFIELD HILL RD,97267,Clackamas,5036535656,30,TRUE,jclute@elitecare.com,"ELITE CARE OATFIELD ESTATES, LLC"
ELLIOTT RESIDENCE,ALF,70A025,390 CHURCH ST,97385,Marion,5039024920,60,TRUE,mdairy@marianestates.com,"JANMAUR I, L.L.C."
ELMCROFT OF SELLWOOD,ALF,70A295,8517 SE 17TH AVENUE,97202,Multnomah,5035424800,100,TRUE,lana.buckles@elmcroft.com,"HCP ESL PORTLAND OR OPCO, LLC"
ELMCROFT OF STAYTON,ALF,70M251,2201 3RD AVE,97383,Marion,5037693200,75,TRUE,Salina.Martinez@elmcroft.com,BISHOP STAYTON LESSEE LLC
EMERALD GARDENS,RCF,50M019,1890 NEWBERG HWY,97071,Marion,5039824000,59,TRUE,wwooten@radiantseniorliving.com,"RSL WOODBURN, LLC"
EMERALD VALLEY ASSISTED LIVING,ALF,70M026,4550 W AMAZON DR,97405,Lane,5413459668,48,TRUE,cherie@cascadeliving.com,"CASCADE LIVING GROUP- OREGON, LLC"
EMERSON HOUSE PORTLAND,RCF,50A231,3577 SE DIVISION,97202,Multnomah,5032348585,55,TRUE,ejones@aidanhealthservices.com,"EH OPERATIONS, LLC"
EVERGREEN MEMORY CARE,RCF,50R279,3720 N CLAREY ST,97402,Lane,5416893900,64,TRUE,dkoehn@evergreenmceug.com,"CSL - EUGENE I, LLC"
EVERGREEN SENIOR LIVING,ALF,70A202,3760 N CLAREY ST,97402,Lane,5416079525,80,TRUE,djohannes@evergreeneug.com,"CSL - EUGENE II, LLC"
EXPRESSIONS AT SUMMERPLACE,RCF,50A219,15727 NE RUSSELL STREET,97230,Multnomah,5032529361,20,FALSE,alex.bernal@prestigecare.com,"SUMMERVENT, LLC"
FANNO CREEK BY ELITE CARE,RCF,50R340,12353 SW GRANT ST,97223,Washington,5036535656,30,FALSE,mwhitmore@elitecare.com,"ELITE CARE GRANT, LLC"
FARMINGTON SQUARE  BEAVERTON,RCF,50A028,14420 SW FARMINGTON RD,97005,Washington,5036262273,70,TRUE,alierheimer@farmingtonsquare.com,"RSL BEAVERTON, LLC"
FARMINGTON SQUARE  EUGENE,RCF,50A149,2730 BAILEY LANE,97401,Lane,5413447902,66,FALSE,jmaher@farmingtonsquare.com,"RSL EUGENE, LLC"
FARMINGTON SQUARE  GRESHAM,RCF,5MA031,1655 NE 18TH,97030,Multnomah,5036651994,102,TRUE,malina@farmingtonsquare.com,"RSL GRESHAM, LLC"
FARMINGTON SQUARE  MEDFORD,RCF,50A083,1530 POPLAR DRIVE,97504,Jackson,5417709080,81,TRUE,drushing@farmingtonsquare.com,"RSL MEDFORD, LLC"
FARMINGTON SQUARE  SALEM,RCF,50A034,960 BOONE RD SE,97306,Marion,5033632273,122,TRUE,jpenland@farmingtonsquare.com,"RSL SALEM, LLC"
FARMINGTON SQUARE  TUALATIN,RCF,50A143,17950 SW 115TH AVE,97062,Washington,5036921748,64,TRUE,tawnyat@farmingtonsquare.com,"RSL TUALATIN, LLC"
FIELDSTONE CORNELL LANDING,ALF,70A337,9860 NW CORNELL LANDING,97229,Washington,5032929222,95,FALSE,andreab@fieldstonecommunities.com,"CASCADIA SENIOR LIVING, LLC"
FIELDSTONE CORNELL LANDING MC,RCF,50R469,9860 NW CORNELL RD,97229,Washington,5032929222,30,FALSE,andrea@fieldstonecommunities.com,"CASCADIA SENIOR LIVING, LLC"
FIRCREST ASSISTED LIVING,ALF,70A311,213 NE FIRCREST DR,97128,Yamhill,5034722200,29,TRUE,basty.p@chancellorhealthcare.com,"CHANCELLOR HEALTH CARE OF CALIFORNIA XI, INC."
FIRCREST SENIOR LIVING,RCF,50R358,213 NE FIRCREST DR,97128,Yamhill,5034722200,52,TRUE,fsl.bom@chancellorhealthcare.com,"CHANCELLOR HEALTH CARE OF CALIFORNIA XI, INC."
FIRWOOD GARDENS RCF,RCF,50M037,819 NE 122ND AVE,97230,Multnomah,5032520086,85,TRUE,brett@firwoodgardens.com,"SAPPHIRE AT FIRWOOD, LLC"
FLAGSTONE RETIREMENT & ASSISTED LIVING,ALF,70M028,3325 COLUMBIA VIEW DR,97058,Wasco,5412985656,60,TRUE,executivedirector@flagstoneseniorliving.com,"FLAGSTONE OPERATIONS, LLC"
FOOTSTEPS AT CARMAN OAKS,RCF,50R398,3900 SW CARMAN DRIVE,97035,Clackamas,5036364700,16,FALSE,censign@thespringsliving.com,"SPRINGS CARMAN OAKS OPERATOR, LLC"
FOOTSTEPS AT CLACKAMAS WOODS,RCF,50R377,14404 SE WEBSTER ROAD,97267,Clackamas,5036543414,32,TRUE,cmartin@thespringsliving.com,"TSL CLACK OPS, LLC"
FOOTSTEPS AT GREER GARDENS,RCF,50R449,1282 GOODPASTURE ISLAND ROAD,97401,Lane,5412462828,32,FALSE,sdennis@thespringsliving.com,"HSRE - SPRINGS IV TRS, LLC"
FOOTSTEPS AT LAKE OSWEGO,RCF,50R484,3900 KRUSE WAY PLACE,97035,Clackamas,5036357000,24,FALSE,yciment@thespringsliving.com,"HSRE-SPRINGS V TRS, LLC"
FOOTSTEPS AT MILL CREEK,RCF,50R399,1201 W 10TH STREET,97058,Wasco,5412961301,25,TRUE,tsly@thespringsliving.com,"SPRINGS AT MILL CREEK OPERATOR, LLC"
FOOTSTEPS AT SHERWOOD,RCF,50R397,15677 SW OREGON ST,97140,Washington,5036259481,31,TRUE,jlara@thespringsliving.com,"SPRINGS SHERWOOD OPERATOR, LLC"
FOOTSTEPS AT TANASBOURNE,RCF,50R361,1950 NW 192ND AVE,97006,Washington,5036295500,12,FALSE,vlanna@thespringsliving.com,"SPRINGS AT TANASBOURNE II, LLC"
FOOTSTEPS AT WILSONVILLE,RCF,5MA217,7600 SW VLAHOS DR,97070,Clackamas,5035829414,51,TRUE,rstory@thespringsliving.com,"SPRINGS WILSONVILLE OPERATOR, LLC"
FOREST GLEN SENIOR LIVING,RCF,50M209,200 SW FRONTAGE RD,97417,Douglas,5418394266,36,TRUE,louise@foresthillmanorsl.com,
FOREST GLEN SENIOR LIVING,RCF,50M209,200 SW FRONTAGE RD,97417,Douglas,5418394266,36,TRUE,louise@foresthillmanorsl.com,
FOREST GROVE BEEHIVE,ALF,70M029,2122 HAWTHORNE,97116,Washington,5033576409,44,TRUE,charity.jammeh@caringplaces.com,"FOREST GROVE BEEHIVE, LLC"
FOREST MEADOWS,RCF,50M154,625 BARBARA DRIVE,97526,Josephine,5414798865,15,TRUE,kburnsfm@gmail.com,"FOREST MEADOWS RCF, INC."
FORUM AT TOWN CENTER  THE,ALF,70M094,8607 SE CAUSEY AVE,97086,Clackamas,5036544500,87,TRUE,tjohns@5ssl.com,"SNH AL TRS, INC"
FOUNTAIN PLAZA,RCF,50R038,1441 MORROW ROAD,97504,Jackson,5417726005,19,FALSE,manager1@fountainplaza.com,"FOUNTAIN PLAZA, L.L.C."
FOX HOLLOW INDEPENDENT & ASSISTED LIVING COMMUNITY,ALF,70A294,2599 NE STUDIO RD,97701,Deschutes,5413832030,86,TRUE,dhendrickson@regency-pacific.com,"FOX HOLLOW BEND, LLC"
FOX HOLLOW RESIDENTIAL CARE COMMUNITY,RCF,50R046,5320 FOX HOLLOW RD,97405,Lane,5413438439,54,FALSE,bwingfield@foxhollowcare.com,"FOX HOLLOW CARE, INC"
FRIENDSVIEW RETIREMENT COMMUNITY,RCF,50R040,1301 E FULTON ST,97132,Yamhill,5035383144,155,FALSE,kwatson@friendsview.org,
GARDENS AT LAURELHURST VILLAGE  THE,ALF,70M063,3060 SE STARK ST,97214,Multnomah,5035354932,25,TRUE,ksele@avamere.com,"LAURELHURST OPERATIONS, LLC"
GARDENS  THE,RCF,50R311,2690 NE YACHT AVE,97367,Lincoln,5419947400,43,TRUE,eknepperconsult@gmai.com,"LAKEVIEW OPERATIONS, LLC"
GATEWAY 2 HEALTHIER LIVING,RCF,50R388,608 N CLOVERLEAF LOOP,97477,Lane,5417449817,10,TRUE,mkinkade@gatewayliving.com,"GATEWAY ASSISTED LIVING, INC"
GATEWAY GARDENS,RCF,50R304,178 COMMONS DRIVE,97401,Lane,5413021283,90,TRUE,sreedt@gatehudmanwayliving.com,
GATEWAY LIVING,RCF,50R042,611 N CLOVERLEAF LOOP,97477,Lane,5417449817,128,TRUE,jknox@gatewayliving.com,
GIBSON CREEK RETIREMENT & ASST LIVING RESIDENCE,ALF,70A030,1615 BRUSH COLLEGE RD NW,97304,Polk,5033618599,65,TRUE,executivedirectorgc@livebsl.com,"TLC WEST, L.L.C."
GILMAN PARK ASSISTED LIVING,ALF,70A031,2205 GILMAN DRIVE,97045,Clackamas,5036575700,101,TRUE,administrator@gilmanpark.com,"FM GILMAN, LLC"
GOLDEN ACRES RETIREMENT CENTER,RCF,50M044,12711 SE HOLGATE BLVD,97236,Multnomah,5037616421,50,TRUE,goldenacresrcf@aol.com,SANDRA TIDWELL
GOLDEN AGE LIVING  LLC,RCF,50R319,3484 SE HILL ROAD,97267,Clackamas,5036528000,15,FALSE,persidas@yahoo.com,
GRACE MANOR RESIDENTIAL CARE COMMUNITY,RCF,50R402,2811 BAILEY LANE,97401,Lane,5416862721,21,TRUE,daniel@gracemanorcare.com,GRACE MANOR SENIOR LIVING
GRANDE RONDE RETIREMENT RESD,ALF,70M033,1809 GEKELER LANE,97850,Union,5419634700,76,TRUE,administrator@granderonderetirement.com,"FM GRANDE, LLC"
GREENRIDGE ESTATES,ALF,70M034,4 GREENRIDGE DRIVE,97035,Clackamas,5036358818,79,TRUE,monique@greenwoodestates.com,"GREENRIDGE ESTATES OPERATING, LLC"
GRIFFIN HOUSE LLC THE,RCF,50R387,6630 ALDERBROOK ROAD,97141,Tillamook,5038010418,28,TRUE,sharon@thegriffinhouse.org,THE GRIFFIN HOUSE LLC
GROVE AT PEAR VALLEY MEMORY CARE  THE,RCF,50R467,800 N HASKELL ST,97502,Jackson,5416303038,24,TRUE,apickett@pearvalleysl.com,"PC CENTRAL POINT, LLC"
GUARDIAN ANGEL HOMES,ALF,70M079,540 NW 12TH ST,97838,Umatilla,5415649070,40,TRUE,hermiston@gahangel.com,"HERMISTON HEALTHCARE, LLC"
GUARDIAN ANGEL HOMES MEMORY CARE,RCF,50M428,540 NW 12TH ST,97838,Umatilla,5415649070,32,TRUE,stephanie_perez@live.com,"HERMISTON HEALTHCARE, LLC"
HARMONY GUEST HOME  INC,RCF,50M049,351 SE 5TH ST,97123,Washington,5036483413,62,TRUE,lug55@yahoo.com,
HARMONY HOUSE OF SALEM,RCF,50R356,3062 HYACINTH ST NE,97301,Marion,5035880722,15,TRUE,michelen@pacificlivingcenters.com,"PACIFIC LIVING CENTERS, INC."
HARMONY LIVING  INC,RCF,5ME248,1535 SW SHIRLEY ANN DRIVE,97128,Yamhill,5034729997,16,TRUE,cthompson_harmonyliving@yahoo.com,
HARVEST HOMES  INC,ALF,70A036,6921 N ROBERTS AVENUE,97203,Multnomah,5032862423,49,TRUE,mwestwood@harvesthomes.us,
HARVEST HOMES RCF,RCF,5MA051,6921 N ROBERTS AVE,97203,Multnomah,5032862423,40,TRUE,jcole@harvesthomes.us,"HARVEST HOMES, INC"
HAVEN HOUSE RETIREMENT CENTER,RCF,50M201,714 MAIN STREET,97830,Wheeler,5417634651,19,TRUE,havenhouse@hotmail.com,"FOSSIL ELDERLY HOUSING COMMITTEE, INC"
HAWKS RIDGE SENIOR ASSISTED LIVING COMMUNITY,ALF,70A269,1795 8TH STREET,97031,Hood River,5413874087,85,TRUE,administrator@hawksridgeassistedliving.com,LSREF GOLDEN OPS 26 (OR) LLC
HAWTHORNE GARDENS MEMORY CARE COMMUNITY,RCF,50R350,2828 SE TAYLOR ST,97214,Multnomah,9712220396,35,TRUE,imarchbanks@seniorlifestyle.com,"SLH PORTLAND MANAGER, LLC"
HAWTHORNE GARDENS SENIOR LIVING COMMUNITY,ALF,70A309,2828 SE TAYLOR ST,97214,Multnomah,9712220396,42,TRUE,jgange@seniorlifestyle.com,"SLH PORTLAND MANAGER, LLC"
HAWTHORNE HOUSE OF SALEM,RCF,50R300,3042 HYACINTH ST NE,97303,Marion,5037632722,15,TRUE,hawthorne@pacificlivingcenters.com,
HAWTHORNE HOUSE  THE,RCF,50R376,2635 21ST AVENUE,97116,Washington,5033576409,22,TRUE,charity.jammeh@caringplaces.com,"FOREST GROVE BEEHIVE, LLC"
HEARTHSTONE AT MURRAYHILL,RCF,50R294,10880 SW DAVIES ROAD,97008,Washington,5035200911,142,FALSE,tom@hearthstoneccc.com,"HEARTHSTONE AT MURRAYHILL, LLC"
HEARTHSTONE AT MURRAYHILL ASSISTED LIVING,ALF,70A273,10880 SW DAVIES ROAD,97008,Washington,5035200911,80,FALSE,pamela@hearthstoneccc.com,"HEARTHSTONE AT MURRAYHILL, LLC"
HEARTHSTONE OF BEAVERTON,ALF,70M037,12520 SW HART RD,97008,Washington,5036410911,75,FALSE,katie@hearthstoneofbeaverton.com,"HEARTHSTONE OF BEAVERTON, LLC"
HEARTWOOD PLACE,RCF,50R409,2325 BOONES FERRY ROAD,97071,Marion,5039809990,48,TRUE,lpomeroy@heartwoodplacemc.com,WMC OPERATING COMPANY LLC
HERITAGE HOUSE OF WOODBURN,RCF,50R332,943 N CASCADE DR,97071,Marion,5039821506,15,TRUE,plcwoodburn1@wbcable.net,"PACIFIC LIVING CENTERS, INC"
HERON POINTE SENIOR LIVING,ALF,70A201,504 GWINN ST  E,97361,Polk,5038386850,74,TRUE,ahynes@heronpointesl.com,"CSL - MONMOUTH I, LLC"
HIGH LOOKEE LODGE,ALF,70A241,2321 OLLALLIE LANE   PO BOX 6,97761,Jefferson,5415531182,53,TRUE,greg.tippett@wstribes.org,THE CONFEDERATED TRIBES OF THE WM SPRGS RS
HILLSIDE CARE MANOR,RCF,50R369,800 NW 25TH AVE,97210,Multnomah,5036885080,40,TRUE,adam@peaksandvalleysnw.com,
HILLSIDE PLACE,ALF,70A041,1400 SE 19TH,97367,Lincoln,5419948028,37,TRUE,ljunod@enlivant.com,"CARING PLACES NORTHWEST, LLC"
HOLI SENIOR LIVING,RCF,50R490,188 NE 77TH AVE,97124,Washington,5037437210,90,TRUE,lug55@yahoo.com,HARMONY ORENCO LIVING INC.
HOLLADAY PARK PLAZA,RCF,50R230,1300 NE 16TH,97232,Multnomah,5032886671,44,FALSE,npavlik@retirement.org,"HOLLADAY PARK PLAZA, INC."
HOLLY RESIDENTIAL CARE CENTER,RCF,50A074,1075 IRVINGTON DRIVE,97404,Lane,5416078587,42,TRUE,larameej@hollyresidential.com,
HOMEWOOD HEIGHTS ASSISTED LIVING,ALF,70M042,17999 SE RIVER RD,97267,Clackamas,5036596600,52,TRUE,stacey.richey@prestigecare.com,HOMEWOODS HEIGHTS LLC
HOPE N CARE,RCF,50R316,12032 SE HOLGATE BLVD,97266,Multnomah,5037616939,64,TRUE,asacare1@gmail.com,
HORTON PLAZA,RCF,50R145,1122 SPRING STREET,97504,Jackson,5417701122,18,FALSE,danielle@hortonplaza.info,"HORTON PLAZA, LLC"
INLAND POINT RETIREMENT COMMUNITY,ALF,70M044,2290 INLAND DRIVE,97459,Coos,5417560176,60,TRUE,susanc@cascadeliving.com,"CASCADE LIVING GROUP- OREGON, LLC"
IVY COURT SENIOR LIVING,RCF,50R251,18265 SE RIVER ROAD,97222,Clackamas,5037863443,16,FALSE,ivycourtrcf@gmail.com,"KELLY KARE, INC."
JEFFERSON LODGE MEMORY CARE COMMUNITY,RCF,50M065,664 SE JEFFERSON ST,97338,Polk,5036238104,55,TRUE,lorettab@cascadeliving.com,
JENNINGS MCCALL CENTER,ALF,70A214,2221 OAK STREET,97116,Washington,5033594465,147,TRUE,charding@jenningsmccall.com,"MASONIC AND EASTERN STAR HOME OF OREGON, INC. (THE"
JENNINGS MCCALL RCF,RCF,50R393,2221 OAK STREET,97116,Washington,5033594465,27,TRUE,ogarcia@jenningsmccall.com,"MASONIC AND EASTERN STAR HOME OF OREGON, INC. (THE"
JUNCTION CITY RETIREMENT & ASSISTED LIVING RES,ALF,70M048,500 E 6TH ST,97448,Lane,5419986060,36,TRUE,administrator@junctioncityassistedliving.com,"FC RANGER OPS JUNCTION CITY (OR), LLC"
JUNIPER HOUSE,ALF,70M049,301 SW 28TH DR,97801,Umatilla,5412780666,31,TRUE,director@juniperhousealf.com,"PENDLETON ALF, LLC"
JUNIPER HOUSE MEMORY CARE,RCF,50M422,301 SW 28TH DRIVE,97801,Umatilla,5412780666,16,TRUE,director@juniperhousealf.com,"PENDLETON ALF, LLC"
JUNIPER SPRINGS SENIOR LIVING,ALF,70A334,590 NW 23RD STREET,97756,Deschutes,5415261819,91,TRUE,cbelmontes@juniperspringssl.com,PC REDMOND
KELLOGG ASSISTED LIVING AT MARY'S WOODS,ALF,70A341,17395 HOLY NAMES DRIVE,97034,Clackamas,5034796180,56,FALSE,imandelsberg@maryswoods.org,"MARY'S WOODS AT MARYLHURST, INC."
KELLYVILLE RCF,RCF,50R454,12221 SE KELLY STREET,97236,Multnomah,5039542561,50,TRUE,maricelasa@gmail.com,"YSA GROUP OPERATING COMPANY, LLC"
KILCHIS HOUSE,ALF,70M050,4212 MAROLF PLACE,97141,Tillamook,5038422204,36,TRUE,directorkh@kilchishouse.org,"KILCHIS HOUSE, LLC"
KINSINGTON AT REDWOOD PARK,RCF,50M424,1390 DOWELL ROAD,97527,Jackson,5414762536,30,TRUE,director@heirloomlivingcenters.com,"HEIRLOOM LIVING CENTERS, LLC"
KINSINGTON OAK GROVE,RCF,50R486,77 OAK GROVE ROAD,97501,Jackson,4582262376,60,TRUE,kog-admin@heirloomlivingcenters.com,"HEIRLOOM LIVING CENTERS, LLC"
KINSINGTON PLACE,RCF,50R372,827 SW KINSINGTON COURT,97526,Josephine,5419559866,16,TRUE,kcp-admin@heirloomlivingcenters.com,"HEIRLOOM LIVING CENTERS, LLC"
LAKELAND SENIOR LIVING,ALF,70M234,261 LOTO STREET,97524,Jackson,5418300355,70,TRUE,jjohnson@lakelandsl.com,"CSL - EAGLE POINT, LLC"
LAKEVIEW GARDENS ASSISTED LIVING FACILITY,ALF,70A331,1250 SOUTH 9TH STREET,97630,Lake,5419472114,12,TRUE,rrobins@lakeviewgardens.org,LAKEVIEW GARDENS LLC
LAKEVIEW SENIOR LIVING,ALF,70A053,2690 NE YACHT AVE,97367,Lincoln,5419947400,67,TRUE,edlincolncity@westmontliving.com,"LAKEVIEW OPERATIONS, LLC"
LANCASTER VILLAGE 1,ALF,70M052,4138 MARKET ST NE,97301,Marion,5033643383,36,TRUE,vlancaster@comcast.net,"SPRINGS LANCASTER VILLAGE OPERATOR, LLC"
LANCASTER VILLAGE 2,ALF,70M051,4156 MARKET ST NE,97301,Marion,5033643383,50,TRUE,vlancaster@comcast.net,LANCASTER ASSISTED LIVING LLC
LANDING SENIOR LIVING  THE,ALF,70A345,2490 NW EDENBOWER BLVD,97471,Douglas,5416729696,93,TRUE,snay@landingsl.com,"PC ROSEBURG, LLC"
LAURELHURST HOUSE,ALF,70M252,15 SE 55TH AVE,97215,Multnomah,5032345050,38,TRUE,jabeling@laurelhursthouse.net,"LHH OPERATIONS, LLC"
LAUREL PARC AT BETHANY,ALF,70A312,15850 NW CENTRAL DRIVE,97229,Washington,5035337979,153,FALSE,amy@bethanyvillage.com,"LAUREL PARC AL AT BETHANY, LLC"
LAUREL PINES RETIREMENT LODGE,RCF,50R333,3100 AVENUE A,97503,Jackson,5418307800,56,TRUE,lpbom@dakavia.com,"LAUREL PINES, INC."
LIBERTY POINTE,RCF,50R463,1241 NE 6TH STREET,97030,Multnomah,5035125550,55,TRUE,kthornton@libertyrcf.com,"SAPPHIRE AT LIBERTY POINTE, LLC"
LODGE IN SISTERS  THE,ALF,70A338,411 E CARPENTER LANE,97759,Deschutes,5415495637,96,FALSE,ed@thelodgeinsisters.com,"LODE IN SISTERS, LLC"
LONE OAK ASSISTED LIVING,ALF,70M242,2615 LONE OAK WAY,97402,Lane,5414637700,85,TRUE,administrator@loneoakassistedliving.com,"LSREF GOLDEN OPS 14 (OR), LLC"
LYDIA'S HOUSE,RCF,50R080,5353 COLUMBUS ST SE,97321,Linn,5419287232,28,TRUE,mary@mennonitevillage.org,
MACDONALD RESIDENCE,ALF,70M216,605 NW COUCH STREET,97209,Multnomah,5032417374,54,TRUE,michellel@macdresidence.org,MACDONALD CENTER
MAGNOLIA GARDENS MEMORY CARE,RCF,50R314,1355 DAUGHERTY,97424,Lane,5419428966,35,TRUE,ed@magnoliagardenssl.com,"COTTAGE GROVE SL, LLC"
MAGNOLIA GARDENS SENIOR LIVING,ALF,70M056,1425 DAUGHERTY AVE,97424,Lane,5419420054,73,TRUE,ed@magnoliagardenssl.com,"COTTAGE GROVE SL, LLC"
MANOR TERRACE CARE SUITES,RCF,50R363,1250 MIRA MAR AVENUE,97504,Jackson,5418577777,30,FALSE,jhoward@retirement.org,ROGUE VALLEY MANOR
MAPLE RIDGE SENIOR LIVING,ALF,70A062,548 NORTH MAIN STREET,97520,Jackson,5414823292,45,TRUE,arandolph@mapleridgesl.com,"CSL - ASHLAND, LLC"
MAPLE VALLEY MEMORY CARE,RCF,50M425,219 NE FIRCREST DR,97128,Yamhill,5038839385,28,TRUE,hugh.w@chancellorhealthcare.com,"CHANCELLOR HEALTH CARE OF CALIFORNIA XII, INC."
MAPLEVIEW MANOR  LLC,RCF,50R468,7100 SE LAKE RD,97267,Clackamas,5033058913,30,FALSE,raluka04@yahoo.com,"MAPLEVIEW MANOR, LLC"
MARIE ROSE CENTER ASSISTED LIVING,ALF,70M257,17360 HOLY NAMES DRIVE,97034,Clackamas,5036752475,56,TRUE,imandelsberg@maryswoods.org,"MARY'S WOODS AT MARYLHURST, INC"
MARIE ROSE RESIDENTIAL CARE,RCF,50R401,17360 HOLY NAMES DRIVE,97034,Clackamas,5036752475,52,TRUE,imandelsberg@maryswoods.org,
MARJORIE HOUSE MEMORY CARE COMMUNITY,RCF,50M423,2855 NE CUMULUS AVENUE,97128,Yamhill,5034744222,46,TRUE,ashley@sdr.life,"MARJORIE HOUSE MCMINNVILLE, LLC"
MARKHAM HOUSE RETIREMENT COMM,ALF,70A057,10606 SW CAPITOL HWY,97219,Multnomah,5032449500,63,FALSE,zjamshidi@leisurecare.com,"PORTMH, LLC"
MARQUIS AUTUMN HILLS RESIDENTIAL MEMORY CARE,RCF,50A244,6630 SW BEAVERTON-HILLSDALE HWY,97225,Washington,5032927874,22,FALSE,jkresl@marquiscompanies.com,"MARQUIS COMPANIES II, INC."
MARQUIS FOREST GROVE ASSISTED LIVING,ALF,70M100,3336 19TH AVE,97116,Washington,5033591129,70,TRUE,enwalton@marquiscompanies.com,"MARQUIS COMPANIES II, INC"
MARQUIS HOPE VILLAGE ALF,ALF,70A099,1589 S IVY,97013,Clackamas,5032662444,92,TRUE,mkbird@marquiscompanies.com,
MARQUIS HOPE VILLAGE MEMORY CARE,RCF,50R488,1589 S IVY ST,97013,Clackamas,5032662444,24,FALSE,malaurandeau@marquiscompanies.com,
MARQUIS PIEDMONT ASSISTED LIVING,ALF,70A288,319 NE RUSSET STREET,97211,Multnomah,5032895571,80,TRUE,bspray@marquiscompanies.com,"MARQUIS COMPANIES II, INC"
MARQUIS TUALATIN ASSISTED LIVING,ALF,70A234,19945 BOONES FERRY ROAD,97062,Washington,5036125500,87,TRUE,kevenhus@marquiscompanies.com,"MARQUIS COMPANIES II, INC."
MARQUIS WILSONVILLE ASSISTED LIVING,ALF,70A286,30900 SW PARKWAY AVE,97070,Clackamas,5036822330,72,TRUE,mjmcdonald@marquiscompanies.com,"MARQUIS COMPANIES II, INC"
MARYVILLE MEMORY CARE,RCF,50R381,14645 SW FARMINGTON ROAD,97007,Washington,5036438626,16,FALSE,mvitale@maryville.care,SISTERS OF ST MARY OF OREGON MARYVILLE CORP
MCKAY CREEK ESTATES,ALF,70M238,1601 SOUTHGATE PLACE,97801,Umatilla,5412761987,60,TRUE,mckaycreekED@prestigecare.com,"PENDLETON VENTURES, L.L.C."
MCKENZIE LIVING,RCF,50R410,6452 A STREET,97478,Lane,5417449817,21,TRUE,yjarofski@gatewayliving.com,"MCKENZIE LIVING, INCORPORATED"
MCKENZIE LIVING EUGENE,RCF,50R451,2625 LONE OAK WAY,97404,Lane,5417449817,58,TRUE,tbecker@gatewayliving.com,"MCKENZIE LIVING, INCORPORATED"
MCKILLOP RESIDENCE,ALF,70A058,500 CONIFER CIRCLE,97385,Marion,5039025970,60,TRUE,sgarza@marianestates.com,"JANMAUR II, LLC"
MCLOUGHLIN MEMORY CARE OF OREGON,RCF,50R357,1145 MOLALLA AVENUE,97045,Clackamas,5036553337,28,FALSE,aed@mcloughlinplace.net,"MCLOUGHLIN PLACE OPERATIONS, LLC"
MCLOUGHLIN PLACE SENIOR LIVING,ALF,70M059,1153 MOLALLA AVE,97045,Clackamas,5036553337,74,TRUE,executivedirector@mcloughlinplace.net,"MILESTONE RETIREMENT COMMUNITIES OF WA, LLC"
MEADOW AT MT BACHELOR MEMORY CARE  THE,RCF,50M441,20215 POWERS ROAD,97702,Deschutes,5413889800,24,TRUE,rccmc@mtbachelorassistedliving.com,"MBALMC BEND CARE PROPERTIES, LLC"
MEADOWBROOK PLACE,ALF,70M061,4000 CEDAR ST,97814,Baker,5415236333,60,TRUE,smiller@meadowbrookplace.org,"MEADOWBROOK PLACE OPERATIONS, LLC"
MEADOW CREEK VILLAGE ASSISTED LIVING,ALF,70A060,3988 12TH ST SE,97302,Marion,5033759732,52,TRUE,suem@cascadeliving.com,"CASCADE LIVING GROUP- OREGON, LLC"
MEADOWLARK SENIOR LIVING,ALF,70A297,181 S 5TH STREET,97355,Linn,5412587706,95,TRUE,afitzgerald@compass-living.com,"CSL - LEBANON, LLC"
MEADOWS COURTYARD,RCF,50M218,13637 GARDEN MEADOW  DRIVE,97045,Clackamas,5036568113,42,TRUE,tmc8113@aol.com,"MEADOWS COURTYARD, INC."
MELODY COURT MEMORY CARE RESIDENCE,RCF,5MA016,5732 SE 122ND AVE,97236,Multnomah,5037613434,15,TRUE,administrator@melodycourt.com,"MELODY COLURT MEMORY CARE, LLC"
MEMORY LANE HOMES OF BAKER,RCF,50R408,3078 RESORT ST,97814,Baker,5415231007,15,TRUE,nicole@memorylanehomes.com,"MEMORY LANE HOMES, LLC"
MEMORY SUPPORT CENTER AT ROGUE VALLEY MANOR,RCF,50R464,1550 MALAMA WAY,97504,Jackson,5418577715,40,FALSE,mhollinger@retirement.com,ROGUE VALLEY MANOR
MIDDLEFIELD OAKS ASSISTED LIVING COMMUNITY,ALF,70A306,1500 VILLAGE DRIVE,97424,Lane,5417670080,85,TRUE,harnason@middlefieldoaks.com,"MIDDLEFIELD OAKS ASSISTED LIVING, LLC"
MIDDLEFIELD OAKS MEMORY CARE COMMUNITY,RCF,50R345,1500 VILLAGE DRIVE,97424,Lane,5417670080,36,TRUE,dkoehn@middlefieldoaks.com,"MIDDLEFIELD OAKS ASSISTED LIVING, LLC"
MIDWAY RCF,RCF,50R452,2566 SE 109TH AVENUE,97266,Multnomah,5039541676,15,TRUE,asa.judy.02@gmail.com,A & I INVESTMENTS
MILWAUKIE CARE CENTER,RCF,50M081,14107 SE REDWOOD AVE,97222,Clackamas,5036591077,23,TRUE,jannice@milwaukiecarecenter.com,"MILWAUKIE CARE CENTER, INC."
MIRABELLA AT SOUTH WATERFRONT,ALF,70A317,3550 SW BOND AVE,97239,Multnomah,5032454742,24,FALSE,mcrivellone@retirement.org,MIRABELLA AT SOUT WATERFRONT
MIRACLE HEIGHTS AT HAPPY VALLEY,RCF,50R492,13677 SE 147TH AVE,97015,Clackamas,5038888155,47,FALSE,tpham2011@gmail.com,
MIRAMONT POINTE,RCF,50R293,11520 SE SUNNYSIDE ROAD,97015,Clackamas,5036981600,186,FALSE,julie.taylor@miramontpointe.com,"MP, LLC"
MONARCH GARDENS MEMORY CARE COMMUNITY,RCF,5MA222,984 PARKVIEW DRIVE,97415,Curry,5414696817,55,TRUE,ed@monarchgardensmc.com,"BROOKINGS MEMORY CARE, LLC"
MONTEREY COURT MEMORY CARE,RCF,50A214,8915 SE MONTEREY AVE,97086,Clackamas,5036543200,48,TRUE,administrator@montereycourt.net,WELL FRONTIER TENANT LLC
MORNINGSTAR ASSISTED LIVING OF BEAVERTON,ALF,70A335,14475 SW BARROWS RD,97007,Washington,5037463403,75,FALSE,beaverton.ed@mstarliving.com,BARROWS SENIOR CARE LLC
MORNINGSTAR MEMORY CARE OF BEAVERTON,RCF,50R466,14475 SW BARROWS RD,97007,Washington,5037463403,44,FALSE,beaverton.rc@mstarliving.com,BARROWS SENIOR CARE LLC
MORNINGSTAR OF HAPPY VALLEY ASSISTED LIVING,ALF,70A343,14391 SE PRINCETON VILLAGE WAY,97015,Clackamas,5033600883,77,FALSE,hvalley.ed@morningstarseniorliving.com,CD-MS HAPPY VALLEY LLC
MORNINGSTAR OF HAPPY VALLEY MEMORY CARE,RCF,50R482,14391 SE PRINCETON VILLAGE WAY,97015,Clackamas,5033600883,26,FALSE,hvalley.rc@morningstarseniorliving.com,CD-MS HAPPY VALLEY LLC
MORROW HEIGHTS RET & AL COMM,ALF,70M233,176 WARDS CREEK ROAD,97537,Jackson,5415828200,53,TRUE,administrator@morrowheights.com,"LSREF GOLDEN OPS 14 (OR), LLC"
MOUNTAIN PARK MEMORY CARE COMMUNITY,RCF,50R483,13600 SW 122 AVE,97015,Clackamas,5039197722,98,TRUE,ed@mountainparkmc.com,"CLACKAMAS MEMORY CARE, LLC"
MOUNTAIN VIEW RESIDENTIAL CARE FACILITY,RCF,50R322,1220 E 282ND AVENUE,97080,Multnomah,5036650792,23,TRUE,sandra.rcf50@yahoo.com,"CARESMA, LLC"
MT ANGEL TOWERS,RCF,50R085,ONE TOWERS LANE    BOX 2120,97362,Marion,5038457211,32,FALSE,carma@mountangeltowers.com,"MT. ANGEL TOWERS, OREG., LTD,"
MT BACHELOR ASSISTED LIVING,ALF,70M352,20215 POWERS ROAD,97702,Deschutes,5413889800,92,TRUE,administrator@mtbachelorassistedliving.com,"MBALMC BEND CARE PROPERTIES, LLC"
MT BACHELOR MEMORY CARE,RCF,50R390,20225 POWERS ROAD,97702,Deschutes,5413183322,56,TRUE,administrator@bendmemorycare.com,"BEND MEMORY CARE, LLC"
MT SCOTT RESIDENTIAL CARE HOME,RCF,50M086,8014 SE LAMBERT ST,97206,Multnomah,5037741329,46,TRUE,mtscottrcf@gmail.com,
MURRAY HIGHLAND,RCF,50R460,4900 SW MURRAY BLVD,97005,Washington,5034350797,24,FALSE,admin@murrayhighland.com,
MYRTLE POINT CARE CENTER RCF,RCF,50M088,637 ASH STREET,97458,Coos,5415722066,20,TRUE,mpnha@dakavia.com,CARE CENTERS MANAGEMENT INC
NEAWANNA BY THE SEA,ALF,70M064,20 NORTH WAHANNA RD,97138,Clatsop,5037385526,48,TRUE,administrator@neawanna.com,"FC RANGER OPS NEAWANNA (OR), LLC"
NEHALEM BAY HOUSE,ALF,70M065,35385 TOHL AVE,97131,Tillamook,5033686445,44,TRUE,director.nbh@nehalembayhouse.org,"NEHALEM BAY HOUSE, LLC"
NEW FRIENDS MEMORY AND RESIDENTIAL CARE OF FLORENC,RCF,50R280,3321 OAK ST,97439,Lane,5419028821,48,TRUE,kim.pruitt.shm@gmail.com,"ELDERBERRY SQUARE COMMUNITY, LLC"
NEW FRIENDS OF COOS BAY LLC,RCF,50R491,955 KENTUCKY AVE,97420,Coos,5418089730,55,TRUE,carl.mason.shm@gmail.com,
NORTHRIDGE CENTER,ALF,70M066,3737 SOUTH PACIFIC HWY,97501,Jackson,5415355497,61,TRUE,m.dent@northridgecenter.com,"NORTHRIDGE CENTER, INC."
NORTHWEST MEMORY CARE,RCF,50R477,5292 HARVARD AVENUE,97439,Lane,5413595087,10,TRUE,ronda@nwmemorycare.com,"NORTHWEST MEMORY CARE, LLC"
NYSSA GARDENS ASSISTED LIVING FACILITY,ALF,70M237,1101 PARK AVENUE,97913,Malheur,5413724024,36,TRUE,aprilraldred@gmail.com,MALHEUR MEMORIAL HOSPITAL DISTRICT
O'HARA'S MANOR  INC,RCF,50M092,1250 SE ROBERTS,97030,Multnomah,5036675430,32,FALSE,oharasmanor@frontier.com,"O'HARA'S MANOR, INC."
OAK LANE RETIREMENT,RCF,50M133,727 SW ROGUE RIVER AVENUE,97526,Josephine,5414767727,80,TRUE,dorie.reid@tierraseniorliving.com,"TSL OAK LANE, LLC"
OAKS AT LEBANON  THE,ALF,70A095,621 WEST OAK,97355,Linn,5412587777,70,TRUE,administrator@oaksatlebanon.com,"FM OAKS, LLC"
OAKTREE RESIDENTIAL LIVING,RCF,50R171,5030 WEST PORT ST,97402,Lane,5416070688,16,TRUE,oaktreercf@yahoo.com,ELMAN'S HOUSE CORP
OCEAN RIDGE RETIREMENT & ASSISTED LIVING COMMUNITY,ALF,70A302,1855 SE OCEAN BLVD,97420,Coos,5412674000,100,TRUE,administrator@oceanridgeseniorliving.com,WELLTOWER TENANT GROUP LLC
OCEAN RIDGE RETIREMENT & ASSISTED LIVING COMMUNITY,ALF,70A302,1855 SE OCEAN BLVD,97420,Coos,5412674000,100,TRUE,administrator@oceanridgeseniorliving.com,WELLTOWER TENANT GROUP LLC
OCEANVIEW ASSISTED LIVING RESIDENCE,ALF,70M068,525 NE 71ST,97365,Lincoln,5415740550,84,TRUE,ednewport@westmontliving.com,"NEWPORT ASSISTED LIVING, LLC"
ODD FELLOWS HOME OF OREGON  THE,RCF,50R091,3102 SE HOLGATE BLVD,97202,Multnomah,5032311411,115,TRUE,cschomas@holgatecenter.org,"ODD FELLOWS HOME OF OREGON, THE"
ORCHARDS ASSISTED LIVING  THE,ALF,70M210,1018 ROYAL COURT,97504,Jackson,5417765255,72,TRUE,administrator@orchardsassistedliving.net,"MEDFORD ASSISTED LIVING, LLC"
OSWEGO GROVE,RCF,50R336,4550 SW CARMAN DRIVE,97035,Clackamas,5036756055,31,TRUE,rerickson@avamere.com,"AVAMERE LAKE OSWEGO OPERATIONS INVESTORS, LLC"
OSWEGO PLACE ASSISTED LIVING COMMUNITY,ALF,70A304,17450 PILKINGTON RD,97035,Clackamas,5036971025,79,FALSE,executivedirectorosp@livebsl.com,"OSWEGO PLACE ASSISTED LIVING COMMUNITY, LLC"
OUR HOUSE,RCF,50M096,2727 SE ALDER ST,97214,Multnomah,5032340175,14,TRUE,mhurley@ourhouseofportland.org,"OUR HOUSE OF PORTLAND, INC."
PACIFICA SENIOR LIVING CALAROGA TERRACE,RCF,50R009,1400 NE SECOND AVE,97232,Multnomah,5032348271,105,TRUE,ald.calaroga@pacificaseniorliving.com,"PACIFICA SENIOR LIVING, LLC"
PACIFICA SENIOR LIVING KLAMATH FALLS,ALF,70M024,2130 N ELDORADO AVE,97601,Klamath,5418824830,70,TRUE,bom.klamathfalls@pacificaseniorliving.com,"PACIFICA SL KLAMATH FALLS, LLC"
PACIFICA SENIOR LIVING MCMINNVILLE,RCF,5MA170,320 SW HILL ROAD,97128,Yamhill,5034723509,57,TRUE,ed.mcminnville@pacificaseniorliving.com,"PACIFICA SL MCMINNVILLE, LLC"
PACIFIC GARDENS ALZHEIMER'S SPECIAL CARE CENTER,RCF,5MA223,17309 NE GLISAN,97230,Multnomah,5032534920,68,TRUE,laurie.barber@jeaseniorliving.com,SH1 PACIFIC GARDENS OPCO LLC
PACIFIC GROVE MEMORY CARE,RCF,5MA242,3334 22ND AVE,97116,Washington,5033579780,56,TRUE,vgarcia@thegroveandgardens.com,FOREST GROVE SENIOR LIVING LLC
PACIFIC GROVE MEMORY CARE,RCF,5MA242,3334 22ND AVE,97116,Washington,5033579780,56,TRUE,vgarcia@thegroveandgardens.com,FOREST GROVE SENIOR LIVING LLC
PACIFIC GROVE SENIOR LIVING COMMUNITY,ALF,70M035,2112 OAK ST,97116,Washington,5033591002,78,TRUE,vgarcia@thegroveandgardens.com,FOREST GROVE SENIOR LIVING LLC
PACIFIC GROVE SENIOR LIVING COMMUNITY,ALF,70M035,2112 OAK ST,97116,Washington,5033591002,78,TRUE,vgarcia@thegroveandgardens.com,FOREST GROVE SENIOR LIVING LLC
PACIFIC VIEW ASSISTED LIVING  COMMUNITY,ALF,70M039,1000 6TH AVENUE WEST,97411,Coos,5413477502,85,TRUE,executivedirector@pacificviewsl.com,"BANDON PV MT, LLC"
PACIFIC VIEW MEMORY CARE COMMUNITY,RCF,5MA137,1000 6TH AVE WEST,97411,Coos,5413477502,30,TRUE,mcpm@pacifcviewsl.com,"BANDON PV MT, LLC"
PARKHURST PLACE,ALF,70M071,2450 MAY ST,97031,Hood River,5413874600,35,FALSE,tdufour@enlivant.com,"PARKHURST AID OPCO, LLC"
PARKLAND VILLAGE RETIREMENT COMMUNITY,ALF,70M072,3121 NE CUMULUS AVENUE,97128,Yamhill,5034351499,60,TRUE,jessical@cascadeliving.com,"CASCADE LIVING GROUP- OREGON, LLC"
PARKVIEW ASSISTED LIVING,ALF,70M023,10801 NE WEIDLER,97220,Multnomah,5032550685,77,TRUE,bcusson@parkviewretirement.org,OREGON BAPTIST RETIREMENT HOME
PARKVIEW MEMORY CARE AT CHERRYWOOD VILLAGE,RCF,50R413,10721 SE CHERRY BLOSSOM DRIVE,97216,Multnomah,5034080404,38,FALSE,nlivingstone@cherrywoodvillage.net,"PAR, LLC"
PEAR VALLEY SENIOR LIVING,ALF,70A336,800 N HASKELL ST,97502,Jackson,5416303038,64,TRUE,emeager@pearvalleysl.com,"PC CENTRAL POINT, LLC"
PELICAN POINTE ASSISTED LIVING COMMUNITY,ALF,70M230,615 WASHBURN WAY,97603,Klamath,5418828900,75,TRUE,administrator@pelicanpointealf.com,"PELICAN POINTE AL MC GR, LLC"
PELICAN POINTE MEMORY CARE COMMUNITY,RCF,5MA131,615 WASHBURN WAY,97603,Klamath,5418828900,48,TRUE,memorycare@pelicanpointealf.com,"PELICAN POINTE AL MC GR, LLC"
PHEASANT POINTE ASSISTED LIVING COMMUNITY,ALF,70M206,835 E MAIN STREET,97038,Clackamas,5038293777,61,TRUE,administrator@pheasantpointeseniorliving.com,WELLTOWER TENANT GROUP LLC
PHEASANT POINTE ASSISTED LIVING COMMUNITY,ALF,70M206,835 E MAIN STREET,97038,Clackamas,5038293777,61,TRUE,administrator@pheasantpointeseniorliving.com,WELLTOWER TENANT GROUP LLC
PHEASANT POINTE MEMORY CARE COMMUNITY,RCF,50R352,835 E MAIN STREET,97038,Clackamas,5038293777,12,TRUE,memorycare@pheasantpointeseniorliving.com,WELLTOWER TENANT GROUP LLC
PHEASANT POINTE MEMORY CARE COMMUNITY,RCF,50R352,835 E MAIN STREET,97038,Clackamas,5038293777,12,TRUE,memorycare@pheasantpointeseniorliving.com,WELLTOWER TENANT GROUP LLC
PINES AT JUNIPER SPRINGS  THE,RCF,50R465,590 NW 23RD STREET,97756,Deschutes,5415261819,24,TRUE,sayhello@juniperspringssl.com,PC REDMOND
PINES AT THE LANDING  THE,RCF,50R489,2490 NW EDENBOWER BLVD,97471,Douglas,5416039231,21,TRUE,mmcclellan@landingsl.com,"PC ROSEBURG, LLC"
PIONEER PLACE ASSISTED LIVING,ALF,70A293,1060 D STREET W,97918,Malheur,5414733131,31,TRUE,bbates@pnhvale.com,PIONEER NURSING HOME HEALTH DISTRICT
PIONEER VILLAGE,ALF,70A298,805 N 5TH ST,97530,Jackson,5418996825,60,FALSE,dhoward@pioneervillageoregon.com,"RSL PIONEER, LLC"
POWELL VALLEY ASSISTED LIVING COMMUNITY,ALF,70A073,4001 SE 182ND AVE,97030,Multnomah,5036652496,115,TRUE,jadine@powellvalley.net,"W2 POWELL VALLEY, LLC"
POWELL VALLEY MEMORY CARE COMMUNITY,RCF,5MA213,4001 SE 182ND AVE,97030,Multnomah,5036652496,42,TRUE,angelar@powellvalley.net,
PRAIRIE HOUSE ASSISTED LIVING COMMUNITY,ALF,70M221,51485 MORSON ST,97739,Deschutes,5415368559,46,TRUE,director@prairiehousealf.com,"LA PINE ALF, LLC"
PRAIRIE HOUSE MEMORY CARE COMMUNITY,RCF,50R313,51485 MORSON ST,97739,Deschutes,5415368559,18,TRUE,communityrelations@prairiehousealf.com,"LA PINE ALF, LLC"
PREMIER LIVING CENTER,RCF,5ME175,5120 SE 118TH,97266,Multnomah,5037623413,16,TRUE,jenwhitell@hotmail.com,"PREMIER LIVING CENTER, INC."
PRESTIGE SENIOR LIVING ARBOR PLACE,ALF,70A292,3150 JUANIPERO WAY,97504,Jackson,5417735380,64,TRUE,dpenquite@prestigecare.com,CHP MEDFORD-ARBOR PLACE OR TENANT CIRO
PRESTIGE SENIOR LIVING ARBOR PLACE MEMORY CARE,RCF,50R323,3150 JUANIPERO WAY,97504,Jackson,5417735380,18,TRUE,isabel.padrona@prestigecare.com,CHP MEDFORD-ARBOR PLACE OR TENANT CORP
PRESTIGE SENIOR LIVING BEAVERTON HILLS,ALF,70M243,4525 SW 99TH AVE,97005,Washington,5035201350,75,TRUE,sjimerson@prestigecare.com,CHP BEAVERTON OR TENANT CORP.
PRESTIGE SENIOR LIVING FIVE RIVERS,ALF,70A279,3500 12TH STREET,97141,Tillamook,5038420918,82,TRUE,gengee.ramirez@prestigecare.com,CHP TILLAMOOK-FIVE RIVERS OR TENANT CORP
PRESTIGE SENIOR LIVING HIGH DESERT,ALF,70A289,2660 NE MARY ROSE PLACE,97701,Deschutes,5413122003,75,TRUE,kristy.wilson@prestigecare.com,CHP BEND-HIGH DESERT OR TENANT CORP
PRESTIGE SENIOR LIVING HUNTINGTON TERRACE,ALF,70M240,1410 NE CLEVELAND AVE,97030,Multnomah,5034651404,75,TRUE,gengee.ramirez@prestigecare.com,CHP-GRESHAM-HUNTINGTON TERRACE OR TENANT CORP
PRESTIGE SENIOR LIVING ORCHARD HEIGHTS,ALF,70A277,695 ORCHARD HEIGHTS RD NW,97304,Polk,5035669052,67,TRUE,sstuart@prestigecare.com,CHP SALEM-ORCHARD HEIGHTS OR TENANT CORP
PRESTIGE SENIOR LIVING ORCHARD HEIGHTS MEMORY CARE,RCF,50R297,695 ORCHARD HEIGHTS RD NW,97304,Polk,5035669052,18,TRUE,shaena.myers@prestigecare.com,CHP SALEM-ORCHARD HEIGHTS OR TENANT CORP.
PRESTIGE SENIOR LIVING RIVERWOOD,ALF,70M211,18321 SW PACIFIC HWY,97062,Washington,5039259310,74,TRUE,michelle.eske@prestigecare.com,CHP TUALATIN-RIVERWOOD OR TENANT CORP
PRESTIGE SENIOR LIVING SOUTHERN HILLS,ALF,70A260,4795 SKYLINE RD S,97306,Marion,5033787499,72,TRUE,carolyn.creighton@prestigecare.com,CHP SALEM-SOUTHERN HILLS OR TENANT CORP
PRESTIGE SENIOR LIVING WEST HILLS,ALF,70A281,5595 SW WEST HILLS RD,97333,Benton,5417537136,72,TRUE,traivs.rice@prestigecare.com,"CHP-CORVALLIS-WEST HILLS OR TENANT, INC."
PRINCETON VILLAGE ASSISTED LIVING COMMUNITY,ALF,70M213,14370 SE OREGON TRAIL DRIVE,97015,Clackamas,5035581215,68,TRUE,administrator@princetonvillageassistedliving.com,WELLTOWER TENANT GROUP LLC
PRINCETON VILLAGE ASSISTED LIVING COMMUNITY,ALF,70M213,14370 SE OREGON TRAIL DRIVE,97015,Clackamas,5035581215,68,TRUE,administrator@princetonvillageassistedliving.com,WELLTOWER TENANT GROUP LLC
PROVIDENCE BENEDICTINE ORCHARD HOUSE,ALF,70M205,550 S MAIN ST,97362,Marion,5038452544,54,TRUE,deana.wentworth@providence.org,PROVIDENCE HEALTH & SERVICES-OREGON
PROVIDENCE BROOKSIDE MANOR,ALF,70A249,1550 BROOKSIDE DR,97031,Hood River,5413876370,20,FALSE,jamie.hanshaw@providence.org,PROVIDENCE HEALTH & SERVICES-OREGON
PROVIDENCE BROOKSIDE MEMORY CARE,RCF,50A262,1550 BROOKSIDE DR,97031,Hood River,5413876370,24,FALSE,jamie.hanshaw@providence.org,PROVIDENCE HEALTH & SERVICES-OREGON
PROVIDENCE ELDERPLACE IN CULLY,RCF,50R321,5119 NE 57TH AVE,97218,Multnomah,5032158050,42,FALSE,john.donahue@providence.org,PROVIDENCE HEALTH & SERVICES-OREGON
PROVIDENCE ELDERPLACE IN GLENDOVEER,RCF,5MA043,13007 NE GLISAN ST,97230,Multnomah,5032157850,102,TRUE,nancy.ferris@providence.org,PROVIDENCE HEALTH & SERVICES-OREGON
PROVIDENCE ELDERPLACE IN IRVINGTON VILLAGE,ALF,70A271,420 NE MASON,97212,Multnomah,5035469292,130,TRUE,john.donahue@providence.org,PROVIDENCE HEALTH & SERVICES-OREGON
QUAIL CREST MEMORY CARE,RCF,5MA243,2630 LONE OAK WAY,97404,Lane,5416075025,80,TRUE,robertm@quailparkeugene.com,"QUAIL CREST HOLDINGS, LLC"
QUAIL RUN ASSISTED LIVING,ALF,70M074,2525 47TH AVE SE,97321,Linn,5419281122,137,TRUE,marshab@mennonitevillage.org,
RACKLEFF PLACE,ALF,70A075,655 SW 13TH AVE,97013,Clackamas,5032669555,29,TRUE,director@rackleffplace.net,"CANBY ALF, LLC"
RALEIGH HILLS ASSISTED LIVING,ALF,70A268,4815 SW DOGWOOD LANE,97225,Washington,5032973200,90,TRUE,lynda@rhliving.com,RALEIGH HILLS ASSISTED LIVING L.L.C.
RALEIGH HILLS ENHANCED CARE,RCF,50R287,4815 SW DOGWOOD LANE,97225,Washington,5032973200,21,TRUE,yesica@rhliving.com,RALEIGH HILLS ASSISTED LIVING L.L.C.
RAWLIN AT RIVERBEND  THE,RCF,50R445,3491 GAME FARM ROAD,97477,Lane,5415156032,72,TRUE,nnelson@therawlin.com,"RIVERBEND MEMORY CARE COMMUNITY, LLC"
REDWOOD HEIGHTS RET & AL COMMUNITY,ALF,70A076,4050 12TH ST CUTOFF SE,97302,Marion,5035400822,95,TRUE,administrator@redwoodheightsseniorliving.com,WELLTOWER TENANT GROUP LLC
REDWOOD HEIGHTS RET & AL COMMUNITY,ALF,70A076,4050 12TH ST CUTOFF SE,97302,Marion,5035400822,95,TRUE,administrator@redwoodheightsseniorliving.com,WELLTOWER TENANT GROUP LLC
REDWOOD TERRACE,ALF,70M220,3111 CANAL AVENUE,97527,Josephine,5414719543,49,TRUE,redwoodterrace1@redwoodterrace.net,"OREGON HEIGHTS, LLC"
REFLECTIONS MEMORY CARE,RCF,50R298,2480 CORAL AVE NE,97305,Marion,5033625885,16,FALSE,michele@sweetbyenbye.com,"THE SWEET BYE N BYE, INC"
REGENCY PARK ALZHEIMER'S CARE,RCF,50A070,8300 SW BARNES RD,97225,Washington,5032928444,49,FALSE,taraa@cascadeliving.com,"CASCADE LIVING GROUP MANAGEMENT, LLC"
REGENCY PARK ASSISTED LIVING,ALF,70M077,8300 SW BARNES RD,97225,Washington,5032928444,118,FALSE,amandas@cascadeliving.com,"CASCADE LIVING GROUP MANAGEMENT, LLC"
REGENCY PARK PLACE AT CORVALLIS,ALF,70A069,2595 JACK LONDON ST,97330,Benton,5417545808,55,TRUE,rlcollett@regency-pacific.com,"BD CORVALLIS I, LLC"
REGENCY VILLAGE AT BEND,ALF,70M096,127 SE WILSON AVE,97702,Deschutes,5413173544,88,TRUE,rhankey@regency-pacific.com,"BD BEND I, LLC"
REGENCY VILLAGE AT PRINEVILLE,ALF,70A207,830 NORTH ELM ST,97754,Crook,5414163600,57,TRUE,psessions@regency-pacific.com,"BD PRINEVILLE I, LLC"
REGENCY VILLAGE AT REDMOND,ALF,70M038,3000 SW 32ND ST,97756,Deschutes,5419235452,55,TRUE,lwilkenfeldt@regency-pacific.com,"BD REDMOND 1, LLC"
REGENCY WOODLAND,RCF,50R126,4710 SUNNYSIDE RD SE,97302,Marion,5033641355,40,TRUE,abowden@regency-pacific.com,"BD SALEM I, LLC"
REGENT AT SHELDON PARK,RCF,50A165,2440 WILLAKENZIE ROAD,97401,Lane,5413441078,32,FALSE,jennipherne@merrillgardens.com,"MG EUGENE SUBTENANT, LLC"
REGENT COURT SENIOR LIVING,RCF,50A239,400 NW ELKS DRIVE,97330,Benton,5417588000,48,TRUE,jroberts@regentcourtseniorliving.com,"CSL - CORVALLIS, LLC"
REVERE COURT OF PORTLAND,RCF,50R374,11547 NE GLISAN ST,97220,Multnomah,5032550070,40,TRUE,hannah.m@chancellorhealthcare.com,"CHANCELLOR HEALTH CARE OF CALIFORNIA X, INC."
RIDGEVIEW ASSISTED LIVING FACILITY,ALF,70M253,872 GOLFVIEW DRIVE,97504,Jackson,5417792208,51,TRUE,ijohansen@sapphiremedford.com,"SAPPHIRE AT RIDGEVIEW, LLC"
RIVERA MANSIONS RCF,RCF,50M429,2220 SE 174TH AVENUE,97233,Multnomah,5033332711,28,TRUE,airene@riveramansions.com,"RIVERA MANSIONS, LLC"
RIVER GROVE MEMORY CARE,RCF,50M132,140 GREEN LANE,97404,Lane,5414614898,60,TRUE,nlarsson@rivergrovemc.com,"RIVER GROVE OPERATING COMPANY, LLC"
RIVER PARK SENIOR LIVING,ALF,70M250,1350 W MAIN ST,97378,Yamhill,5038437799,68,TRUE,ed@riverparksl.com,"SHERIDAN SENIOR LIVING, LLC"
RIVER RUN PLACE,ALF,70M082,1155 DARLENE LANE,97401,Lane,5413388780,56,FALSE,thodges@enlivant.com,"RIVER RUN AID OPCO, LLC"
RIVERSIDE LIVING  INC,RCF,50R355,23500 NE HALSEY ST,97060,Multnomah,5033289246,16,TRUE,riversidelivingadm@gmail.com,"RIVERSIDE LIVING, INC"
RIVER TERRACE MEMORY CARE,RCF,50R472,950 SOUTH END RD,97045,Clackamas,5033875013,38,TRUE,jeffrey.wellington@caringplaces.com,"RIVER TERRACE OPERATIONS, LLC"
RIVERVIEW TERRACE,RCF,50R202,1970 WEST HARVARD AVENUE,97471,Douglas,5416722500,20,FALSE,personalcare@riverviewterrace.com,"CROWN ONE DEVELOPMENT, LLC"
RN VILLA SENIOR CARE,RCF,50R375,401 NE 139TH AVENUE,97230,Multnomah,5037196944,45,TRUE,verna.johnson@avalonseniorliving.com,"RN VILLA OPCO, LLC"
ROCK OF AGES MENNONITE HOME,RCF,50M103,15600 SW ROCK OF AGES ROAD,97128,Yamhill,5034726212,22,TRUE,delvinz@onlinemacl.com,BIBLE MENNONITE FELLOWSHIP INC
ROGUE RIVER PLACE,ALF,70M054,2437 KANE STREET,97603,Klamath,5418820440,43,FALSE,ghansen@enlivant.com,"SAGE AID OPCO, LLC"
ROSE LINN VINTAGE PLACE,RCF,50R270,2330 DEBOK ROAD,97068,Clackamas,5036550474,70,TRUE,annmarie.segarra@roselinncarecenter.com,"WEST LINN CARE CENTER OPERATING COMPANY, LLC"
ROSE SCHNITZER MANOR,ALF,70M080,6140 SW BOUNDARY ST,97221,Multnomah,5035354000,180,TRUE,vivian.villegas@cedarsinaipark.org,ROBISON JEWISH HOME
ROSEWOOD COURT RESIDENTIAL CARE,RCF,50R310,4254 WEATHERS STREET NE,97301,Marion,5035854602,50,TRUE,bhenderson@tierrarose.com,
ROSEWOOD PARK RETIREMENT & ASSIST LIVING RESIDENCE,ALF,70M081,2405 SE CENTURY BLVD,97123,Washington,5036422100,95,TRUE,administrator@rosewoodpark.com,"ROSEWOOD INVESTORS GROUP, L.L.C."
ROSEWOOD SPECIALTY CARE,RCF,50R290,2550 SE CENTURY BLVD,97123,Washington,5032598999,48,TRUE,administrator@rosewoodspecialtycare.com,"ROSEWOOD MASTER TENANT, LLC"
ROXY ANN MEMORY COMMUNITY,RCF,50R370,2530 LONE PINE ROAD,97504,Jackson,5416087699,16,TRUE,tduncan.roxyann@gmail.com,ROXY ANN MEMORY COMMUNITY
ROYAL ANNE ASSISTED LIVING,ALF,70A264,10610 SE CLAY STREET,97216,Multnomah,5034080404,110,TRUE,cbomberry@cherrywoodvillage.net,"PAR, LLC"
ROYALTON PLACE ASSISTED LIVING,ALF,70A319,5555 SE KING RD,97222,Clackamas,5036531854,64,FALSE,scottp@cascadeliving.com,"CASCADE LIVING GROUP MANAGEMENT, LLC"
ROYALTON PLACE MEMORY CARE,RCF,50R383,5555 SE KING RD,97222,Clackamas,5033653185,28,FALSE,esperanzau@cascadeliving.com,"CASCADE LIVING GROUP MANAGEMENT, LLC"
RUSSELLVILLE PARK WEST,ALF,70A314,20 SE 103RD AVENUE,97216,Multnomah,5032545900,120,FALSE,kriley@leisurecare.com,"RUSSELLVILLE III, LLC"
RUSSELLVILLE PARK WEST MEMORY CARE,RCF,50R360,20 SE 103RD AVENUE,97216,Multnomah,5032545900,20,FALSE,salbers@leisurecare.com,"RUSSELLVILLE III, LLC"
SEA AIRE ASSISTED LIVING,ALF,70A265,1882 N HWY 101,97498,Lincoln,5415475500,50,TRUE,rparrish@peak.org,
SEA VIEW SENIOR LIVING COMMUNITY,ALF,70A316,98059 GERLACH LANE,97415,Curry,5414694500,99,TRUE,executivedirector@seaviewseniorliving.com,"SEA VIEW ASSISTED LIVING COMMUNITY, LLC"
SENIOR HAVEN RCF,RCF,50R384,12140 SE FOSTER RD,97266,Multnomah,9712718975,50,TRUE,jen@crhnorthwest.com,
SETTLER'S PARK ASSISTED LIVING COMMUNITY,ALF,70M223,2895 17TH ST,97814,Baker,5415230200,56,TRUE,jwirth@seniorlifestyle.com,LSREF GOLDEN OPS 26 (OR) LLC
SETTLER'S PARK MEMORY CARE COMMUNITY,RCF,50A226,2895 17TH ST,97814,Baker,5415230200,30,TRUE,jwirth@seniorlifestyle.com,LSREF GOLDEN OPS 26 (OR) LLC
SHELDON PARK ASSISTED LIVING,ALF,70A083,2440 WILLAKENZIE ROAD,97401,Lane,5413441078,108,FALSE,charisapa@merrillgardens.com,"MG EUGENE SUBTENANT, LLC"
SHERWOOD PINES RESIDENTIAL CARE,RCF,50M264,87986 SHERWOOD ST,97487,Lane,5419350653,16,TRUE,danielle@sherwoodpines.com,"EVERGREEN HILLS, INC"
SHORE PINES SENIOR LIVING COMMUNITY,ALF,70A263,93975 OCEAN WAY,97444,Curry,5412470333,54,TRUE,ed@shorepinessl.com,"GOLD BEACH SENIOR LIVING, LLC"
SILVER CREEK ASSISTED LIVING,ALF,70M084,703 EVERGREEN RD,97071,Marion,5039814142,41,TRUE,administrator@silvercreekal.com,"FC RANGER OPS SILVER CREEK (OR), LLC"
SILVER CREEK MEMORY CARE COMMUNITY,RCF,50R373,703 EVERGREEN RD,97071,Marion,5039814142,20,TRUE,administrator@silvercreekal.com,"FC RANGER OPS SILVER CREEK (OR), LLC"
SILVIA & JOHN'S RESIDENTIAL,RCF,50R309,19909 SE STARK ST,97233,Multnomah,5036658195,16,FALSE,silviajohnsrcf@gmail.com,"SILVIA'S & JOHN'S RESIDENTIAL CARE, INC."
SKYLARK ASSISTED LIVING,ALF,70M085,900 SKYLARK PLACE,97520,Jackson,5415521713,87,TRUE,kpeitz@missionseniorliving.net,"ASHLAND ASSISTED LIVING, LLC"
SKYLARK MEMORY CARE,RCF,50R161,950 SKYLARK PLACE,97520,Jackson,5415520154,32,TRUE,cjohnson@skylarkassistedliving.net,"ASHLAND ASSISTED LIVING, LLC"
SOMERSET ASSISTED LIVING,ALF,70A270,8360 CASON ROAD,97027,Clackamas,5037237868,100,TRUE,april.potter@hawthornret.com,GLADSTONE ASSISTED LIVING LLC
SOUTH BEACH MANOR,RCF,50R476,411 SE 35TH ST,97366,Lincoln,5419613237,41,TRUE,cindy.benson@caringplaces.com,SOUTH BEACH MANOR LLC
SOUTHTOWNE LIVING CENTER,RCF,5MA106,360 W 28TH AVE,97405,Lane,5416833618,65,TRUE,ed@southtownecare.com,"EUGENE SOUTHTOWNE LIVING CENTER, LLC"
SPRING MEADOWS ASSISTED LIVING FACILITY,ALF,70M087,36070 PITTSBURG RD,97051,Columbia,5033970401,44,TRUE,interimdirector@springmeadowsalf.org,ELDERSERV
SPRINGRIDGE COURT ASSISTED LIVING,ALF,70A284,32100 SW FRENCH PRAIRIE ROAD,97070,Clackamas,5036942800,85,FALSE,ghallman@srg-llc.com,SPRING RIDGE SUBTENANT LLC
SPRINGRIDGE COURT MEMORY CARE,RCF,50R303,32100 SW FRENCH PRAIRIE ROAD,97070,Clackamas,5036942800,16,FALSE,ghallman@srg-llc.com,SPRING RIDGE SUBTENANT LLC
SPRINGS AT ANNA MARIA  THE,RCF,50R234,822 GOLF VIEW DRIVE,97504,Jackson,5417741822,38,FALSE,mwalkup@thespringsliving.com,"HSRE-SPRINGS  III AT MEDFORD AM SUB-TRS, LLC"
SPRINGS AT CARMAN OAKS  THE,ALF,70A012,3800 CARMAN DR,97035,Clackamas,5036364700,21,FALSE,censign@thespringsliving.com,"SPRINGS CARMAN OAKS OPERATOR, LLC"
SPRINGS AT CLACKAMAS WOODS ALF,ALF,70M204,14404 SE WEBSTER RD,97267,Clackamas,5036543413,58,TRUE,adudley@thespringsliving.com,"TSL CLACK OPS, LLC"
SPRINGS AT GREER GARDENS  THE,ALF,70A329,1282 GOOD PASTURE ISLAND ROAD,97401,Lane,5412462828,100,FALSE,jfoster@thespringsliving.com,"HSRE - SPRINGS IV TRS, LLC"
SPRINGS AT LAKE OSWEGO  THE,ALF,70A342,3900 KRUSE WAY PLACE,97035,Clackamas,5036357000,97,FALSE,jherinckx@thespringsliving.com,"HSRE-SPRINGS V TRS, LLC"
SPRINGS AT MILL CREEK  THE,ALF,70M219,1201 W 10TH STREET,97058,Wasco,5412961303,75,TRUE,jbuckhannon@thespringsliving.com,"SPRINGS AT MILL CREEK OPERATOR, LLC"
SPRINGS AT SHERWOOD  THE,ALF,70A276,15677 SW OREGON ST,97140,Washington,5036259481,69,TRUE,abrown@thespringsliving.com,"SPRINGS SHERWOOD OPERATOR, LLC"
SPRINGS AT TANASBOURNE,ALF,70A313,1950 NW 192ND AVE,97006,Washington,5036295500,84,FALSE,vlanna@thespringsliving.com,"SPRINGS AT TANASBOURNE II, LLC"
SPRINGS AT VERANDA PARK  THE,ALF,70A300,1641 VERANDA PARK DRIVE,97504,Jackson,5414945000,65,FALSE,amines@thespringsliving.com,"HSRE-SPRINGS III AT MEDFORD VP SUB TRS, LLC"
SPRINGS AT WILLOWCREEK  THE,RCF,50R174,4398 GLENCOE ST NE,97301,Marion,5035814239,85,TRUE,mcortez@thespringsliving.com,"LANCASTER WOODS OPERATOR, LLC"
SPRINGS AT WILSONVILLE  THE,ALF,70A200,7600 SW VLAHOS DR,97070,Clackamas,5035829414,85,TRUE,tminks@thespringsliving.com,"SPRINGS WILSONVILLE OPERATOR, LLC"
SPRING VALLEY ASSISTED LIVING,ALF,70M088,770 HARLOW RD,97477,Lane,5417442116,63,TRUE,tracyn@cascadeliving.com,"CASCADE LIVING GROUP- OREGON, LLC"
SPRUCE POINT ASSISTED LIVING,ALF,70M089,375 9TH ST,97439,Lane,5419976111,72,TRUE,mlawrence@spruce-point.com,"SPRUCE POINT, INC"
SPRUCE POINT MEMORY CARE,RCF,50R359,375 9TH STREET,97439,Lane,5419027945,25,TRUE,hbernard@spruce-point.com,"SPRUCE POINT, INC"
STAFFORD ASSISTED LIVING FACILITY  THE,ALF,70A310,1200 OVERLOOK DR,97034,Clackamas,5036364589,16,FALSE,tgdolliver@avamere.com,
ST ANDREWS MEMORY CARE,RCF,5MA107,7617 SE MAIN ST,97215,Multnomah,5032577946,85,TRUE,ed.standrews@pacificaseniorliving.com,"PACIFICA SENIOR LIVING, LLC"
ST ANTHONY VILLAGE,ALF,7MU215,3560 SE 79TH AVENUE,97206,Multnomah,5037754414,126,TRUE,ecalise@villageenterprises.org,ST ANTHONY VILLAGE ASSOCIATES LP
STONEYBROOK ASSISTED LIVING,ALF,70A274,4650 SW HOLLYHOCK CIRCLE,97333,Benton,5417582026,95,TRUE,stephanie.deatherage@hawthornret.com,"CORVALLIS ASSISTED LIVING OPCO, LLC"
SUITES ASSISTED LIVING COMMUNITY  THE,ALF,70M101,1301 SE PARKDALE DRIVE,97527,Josephine,5419559115,75,TRUE,administrator@thesuitesassistedliving.com,LSREF GOLDEN OPS 26 (OR) LLC
SUITES MEMORY CARE COMMUNITY  THE,RCF,50R462,1301 SE PARKDALE DR,97527,Josephine,5419559115,28,TRUE,memorycare@thesuitesassistedliving.com,LSREF GOLDEN OPS 26 (OR) LLC
SUMMERPLACE ASSISTED LIVING COMMUNITY,ALF,70M006,15727 NE RUSSELL ST,97230,Multnomah,5032529361,96,TRUE,stacey.terry@prestigecare.com,"SUMMERVENT, LLC"
SUMMIT SPRINGS VILLAGE ALF,ALF,70M091,133 S CHURCH STREET,97823,Gilliam,5413842101,38,TRUE,ed.summit.springs@gmail.com,SUMMIT SPRINGS VILLAGE CORPORATION
SUMMIT SPRINGS VILLAGE MCU,RCF,50R364,120 S CHURCH ST,97823,Gilliam,5413842101,8,TRUE,aprilholm@gmail.com,SUMMIT SPRINGS VILLAGE CORPORATION
SUNCREST PLACE,ALF,70M045,300 SUNCREST ROAD,97540,Jackson,5415129474,40,FALSE,tselby@enlivant.com,"JACKSON AID OPCO, LLC"
SUNNYSIDE MEADOWS,RCF,50R443,12195 SE 117TH AVENUE,97086,Clackamas,5035636734,72,FALSE,jessica@sunnysidemeadows.com,"OREGON MC OPERATIONS, LLC"
SUNSET ESTATES,RCF,50R412,281 SUNSET DRIVE,97914,Malheur,5418891115,16,TRUE,sunsetestatesontario@gmail.com,"CARE 3, LLC"
SUN TERRACE HERMISTON,ALF,70M248,1550 NW 11TH ST,97838,Umatilla,5415642595,97,TRUE,jcicero@regency-pacific.com,"CLAY, DAVIS, STROUD - OREGON, LLC"
SUTTLE CARE & RETIREMENT  INC,RCF,50R273,1601 SW 24TH ST,97801,Umatilla,5412780174,27,TRUE,suttlecare@uci.net,"SUTTLE CARE & RETIREMENT, INC."
SUZANNE ELISE ASSISTED LIVING,ALF,70M092,101 FOREST DRIVE,97138,Clatsop,5037380307,90,TRUE,pbaldridge@avamere.com,"FOREST DRIVE OPERATIONS, LLC"
SWEETBRIAR VILLA,RCF,50R108,6135 E ST,97478,Lane,5412250200,39,TRUE,bharris@sweetbriarvilla.com,"RSL SPRINGFIELD, LLC"
SWEET BYE N BYE MEMORY CARE FACILITIES,RCF,50M268,2850 EVERGREEN AVE NE,97301,Marion,5035665876,30,TRUE,yori@sweetbyenbye.com,"THE SWEET BYE N BYE, INC"
SWEET BYE N BYE MEMORY CARE - WEST,RCF,50R395,2855 EVERGREEN AVE NE,97301,Marion,5033397540,28,TRUE,allie@sweetbyenbye.com,"THE SWEET BYE N BYE, INC"
SWEET HOME RCF,RCF,50R493,950 NANDINA ST,97386,Linn,5034462877,18,TRUE,bguthrie@sweethomercf.com,
TABLE ROCK MEMORY CARE COMMUNITY,RCF,50R379,2636 TABLE ROCK RD,97504,Jackson,5417793368,84,TRUE,administrator@tablerockseniorliving.com,"FERN GARDENS MEMORY CARE, LLC"
TABOR CREST II MEMORY CARE,RCF,50M434,16050 NE HALSEY STREET,97230,Multnomah,5032546003,30,TRUE,imelda@voorhiesandassociates.net,"TABOR CREST OPCO II, LLC"
TABOR CREST RESIDENTIAL CARE,RCF,50M109,7430 SE DIVISION ST,97206,Multnomah,5037718058,30,TRUE,lacra.radulescu@avalonseniorliving.com,"TABOR CREST OPCO I, LLC"
TAFT HOME,RCF,50M110,1337 SW WASHINGTON ST,97205,Multnomah,5032232144,70,TRUE,assistantdirector@tafthome.org,
TANNER SPRING ASSISTED LIVING,ALF,70M093,23000 HORIZON DR,97068,Clackamas,5036554373,72,TRUE,srupp@cadencesl.com,"DC WEST LINN OWNER, LLC"
TANNER SPRING MEMORY CARE,RCF,50R366,23000 HORIZON DRIVE,97068,Clackamas,5036554373,52,TRUE,jsoderquist@tannerspringalf.com,"DC WEST LINN OWNER, LLC"
TERRACE AT HILLSIDE ASSISTED LIVING,ALF,70A262,440 NW HILLSIDE PARK WAY,97128,Yamhill,5034729534,68,FALSE,twoodal3@brookdale.com,"BKD HILLSIDE OPCO, LLC"
TERRACE AT LAURELHURST VILLAGE  THE,ALF,70A209,3120 SE STARK,97214,Multnomah,5035354930,64,FALSE,jhernandez1@avamere.com,"LAURELHURST OPERATIONS, LLC"
TERWILLIGER PLAZA METCALF UNIT,RCF,50M157,2545 SW TERWILLIGER BLVD,97201,Multnomah,5032994243,29,TRUE,hlucas@terwilligerplaza.com,
TERWILLIGER TERRACE ALF,ALF,70A246,2425 SW 6TH AVENUE,97201,Multnomah,5032994911,64,TRUE,hlucas@terwilligerplaza.com,
THANKSGIVING HOUSE,RCF,50R386,184 N 2ND ST,97051,Columbia,5033661233,7,FALSE,thanksgivinghouse@yahoo.com,"MOLDEN, CECILE"
TIMBERHILL PLACE,ALF,70A097,989 NW SPRUCE AVE,97330,Benton,5417531488,70,TRUE,tmbrpl@proaxis.com,
TIMBER POINTE SENIOR LIVING,ALF,70A299,4865 MAIN STREET,97478,Lane,5412842865,150,TRUE,ttucker@timberpointesl.com,"CSL - SPRINGFIELD I, LLC"
TIMBER TOWN LIVING,RCF,50R457,1116 W CENTRAL AVENUE,97479,Douglas,5413154500,47,TRUE,rfugate@timbertownliving.com,
TIMBERWOOD COURT SPECIALTY CC,RCF,50R302,2875 SE 14TH AVE,97321,Linn,5419679700,48,TRUE,administrator@timerwoodcourt.com,LSREF GOLDEN OPS 26 (OR) LLC
TOUCHMARK AT MT BACHELOR VILLAGE,RCF,50R349,19800 SW TOUCHMARK WAY,97702,Deschutes,5413831414,95,FALSE,kristine.ruud@touchmark.com,"TOUCHMARK AT MT BACHELOR VILLAGE, LLC"
TOUCHMARK IN THE WEST HILLS,RCF,50R461,840 SW TOUCHMARK WAY,97225,Washington,5039541640,155,FALSE,elizabeth.moore@touchmark.com,
TOUCH OF GRACE  A,RCF,50R307,2156 BROOKHURST STREET,97504,Jackson,5417791159,13,TRUE,jbags1960@yahoo.com,"A TOUCH OF GRACE, LLC"
TSL ELDERHEALTH AND LIVING MEMORY VILLAGE,RCF,5ME119,382-B SOUTH 58TH ST,97478,Lane,5417474858,95,TRUE,ahughey@elderhealthandliving.com,"TSL SPRINGFIELD OPERATING, LLC"
TURNER RETIREMENT HOMES,RCF,50R115,5405 BOISE ST SE,97392,Marion,5037432490,48,TRUE,gary@trhomes.org,"TURNER RETIREMENT HOMES, INC."
VALLEY VIEW MEMORY CARE COMMUNITY,RCF,50R394,112 NW VALLEY VIEW DR,97845,Grant,5415753533,10,TRUE,stephanie@valleyviewliving.net,
VALLEY VIEW MEMORY CARE COMMUNITY,RCF,50R394,112 NW VALLEY VIEW DR,97845,Grant,5415753533,10,TRUE,stephanie@valleyviewliving.net,
VALLEY VIEW RESIDENTIAL CARE FACILITY,RCF,50R479,9000 SE 190TH DRIVE,97089,Clackamas,5036743000,15,TRUE,daniel@valleyviewrcf.com,VALLEY VIEW RESIDENTIAL CARE FACILITY LLC
VALLEY VIEW SENIOR LIVING,ALF,70M098,112 NW VALLEY VIEW DR,97845,Grant,5415753533,42,TRUE,stephanie@valleyviewliving.net,
VALLEY VIEW SENIOR LIVING,ALF,70M098,112 NW VALLEY VIEW DR,97845,Grant,5415753533,42,TRUE,stephanie@valleyviewliving.net,
VILLAGE AT KEIZER RIDGE MEMORY CARE  THE,RCF,50M427,1165 MCGEE COURT,97303,Marion,5033901300,23,TRUE,memorycare@villageatkeizerridge.com,"KEIZER CARE PROPERTIES, LLC"
VILLAGE AT KEIZER RIDGE  THE,ALF,70M350,1165 MCGEE COURT,97303,Marion,5033901300,119,TRUE,administrator@villageatkeizerridge.com,"KEIZER CARE PROPERTIES, LLC"
VILLAGE AT VALLEY VIEW,RCF,50R450,1071 W JACKSON ROAD,97520,Jackson,5414820888,48,TRUE,m.harris@villagevalleyview.com,"ASHLAND CARE ASSOCIATES, LLC"
VINEYARD HEIGHTS A L & RETIREMENT COTTAGES,ALF,70A267,345 SW HILL ROAD,97128,Yamhill,5034351000,96,TRUE,administrator@vineyardheightsassistedliving.com,LSREF GOLDEN OPS 26 (OR) LLC
WALLOWA VALLEY SENIOR LIVING,ALF,70A322,605 MEDICAL PARKWAY,97828,Wallowa,5414265311,19,TRUE,executivedirector@wvseniorliving.com,WALLOWA COUNTY HEALTH CARE DISTRICT
WALLOWA VALLEY SR LIVING MEMORY CARE,RCF,50R391,605 MEDICAL PARKWAY,97828,Wallowa,5414265311,10,TRUE,jolson@wvseniorliving.com,WALLOWA COUNTY HEALTH CARE DISTRICT
WASHINGTON GARDENS MEMORY CARE,RCF,50R382,9000 SW 91ST AVENUE,97223,Washington,5034454363,48,TRUE,administrator@washingtongardensmemorycare.com,"TIGARD MEMORY ASSOCIATES, LLC"
WATERFORD GRAND ASSISTED LIVING,ALF,70A233,600 WATERFORD WAY,97401,Lane,5416363329,101,FALSE,charityb@cascadeliving.com,"CASCADE LIVING GROUP MANAGEMENT, LLC"
WATERFORD GRAND MEMORY CARE,RCF,50R411,600 WATERFORD WAY,97401,Lane,5416363329,64,FALSE,melissak@cascadeliving.com,"CASCADE LIVING GROUP MANAGEMENT, LLC"
WATERHOUSE RIDGE MEMORY CARE COMMUNITY,RCF,50R433,1115 NW 158TH AVENUE,97006,Washington,5037470648,68,TRUE,DEnlow@waterhouseridge.com,"WATERHOUSE RIDGE MEMORY CARE, LLC"
WAVERLY PLACE ASSISTED LIVING,ALF,70A333,2853 SE SALEM AVE,97321,Linn,5417047789,71,TRUE,administrator@waverlyplacealc.com,"WAVERLY ASSISTED LIVING, LLC"
WAVERLY PLACE MEMORY CARE,RCF,50R456,2853 SE SALEM AVE,97321,Linn,5417047789,20,TRUE,administrator@waverlyplacealc.com,"WAVERLY ASSISTED LIVING, LLC"
WEATHERLY COURT MEMORY CARE  THE,RCF,50R487,2184 POPLAR DRIVE,97504,Jackson,4582262300,49,FALSE,wced@fieldsseniorliving.com,"FIELDS WEATHERLY COURT, LLC"
WEATHERLY COURT  THE,ALF,70A344,2184 POPLAR DRIVE,97504,Jackson,4582262300,48,FALSE,wced@fieldsseniorliving.com,"FIELDS WEATHERLY COURT, LLC"
WELLSPRINGS ALF,ALF,70A102,2104 W IDAHO,97914,Malheur,5418893020,38,TRUE,marlene.tinoco@wellspringsliving.com,"WELLSPRINGS OPERATIONS, LLC"
WEST HILLS VILLAGE SENIOR RESIDENCE,RCF,50R121,5711 SW MULTNOMAH BLVD,97219,Multnomah,5032457621,150,FALSE,lindsay.schroeder@westhillssenior.com,WEST HILLS VILLAGE LIMITED PARTNERSHIP
WEST WIND COURT,RCF,50R285,465 4TH ST SW,97411,Coos,5413479497,14,TRUE,dpalmer.1@hotmail.com,WEST WIND COURT CORPORATION
WEST WIND ECU,RCF,50R326,3130 JUANIPERO ST,97504,Jackson,5418570700,16,TRUE,ktrompeter@sapphiremedford.com,"SAPPHIRE AT WEST WIND, LLC"
WHITEWOOD GARDENS,RCF,50R392,2027 SE 174TH AVE,97233,Multnomah,5035221765,39,TRUE,j.koch@whitewoodgardens.com,WHITEWOOD GROUP LLC
WILDFLOWER LODGE,RCF,5MA266,508 16TH ST,97850,Union,5416631200,30,TRUE,mvega@seniorlifestyle.com,"LSREF GOLDEN OPS 14 (OR), LLC"
WILDFLOWER LODGE ASSISTED LIVING COMMUNITY,ALF,70M256,508 16TH STREET,97850,Union,5416631200,55,TRUE,cbolen@seniorlifestyle.com,"LSREF GOLDEN OPS 14 (OR), LLC"
WILEY CREEK COMMUNITY,ALF,70A103,5050 MOUNTAIN FIR STREET,97386,Linn,5413671800,60,TRUE,thenry@samhealth.org,MID-VALLEY HEALTHCARE
WILLAMETTE LUTHERAN RETIREMENT COMMUNITY,RCF,50R200,7693 WHEATLAND RD,97303,Marion,5033931491,22,FALSE,eric@willamettelutheran.com,
WILLAMETTE MANOR  INC,ALF,70M104,176 WEST C STREET,97355,Linn,5412588178,46,TRUE,willamettemanor@yahoo.com,
WILLAMETTE SPRINGS MEMORY CARE,RCF,50M436,6000 SW MOSAIC DRIVE,97333,Benton,5414979707,72,TRUE,ed@willamettesprings.com,"CORVALLIS MEMORY CARE, LLC"
WILLAMETTE VIEW MEMORY CARE COMMUNITY,RCF,50R271,13145 SE RIVER ROAD,97222,Clackamas,5036526200,21,FALSE,matth@willametteview.org,
WILLAMETTE VIEW NEIGHBORHOODS,ALF,70A259,13145 SE RIVER ROAD,97222,Clackamas,5036526200,50,FALSE,matth@willametteview.org,"WILLAMETTE VIEW, INC."
WILLAMETTE VIEW TERRACE,RCF,50R229,13169 SE RIVER ROAD,97222,Clackamas,5036526798,47,FALSE,matth@willametteview.org,"WILLAMETTE VIEW, INC."
WILLOW CREEK TERRACE,ALF,70A283,400 FRANK GILLIAM DR,97836,Morrow,5416760004,18,TRUE,wctalf@mocohd.org,WILLOW CREEK VALLEY ASSISTED LIVING CORP.
WILLOW PLACE,ALF,70M043,1307 N COLLEGE,97132,Yamhill,5035379100,30,TRUE,director@willowplace.net,"NEWBERG ALF, LLC"
WILLSON HOUSE RESIDENTIAL CARE FACILITY,RCF,50R125,1625 CENTER ST NE,97301,Marion,5035856511,60,TRUE,tabbyb@willsonhouse.org,WILLSON HOUSE
WINDSONG AT EOLA HILLS,RCF,50R415,2030 WALLACE ROAD NW,97304,Polk,5039124551,64,TRUE,hgolden@windsongmemorycare.com,WEST SALEM MEMORY CARE
WOODLAND HEIGHTS ASSISTED LIVING,ALF,70M255,9355 SW MCDONALD STREET,97223,Washington,5036849696,55,TRUE,woodlandheightsassistedliving@gmail.com,
WOODSIDE SENIOR LIVING,ALF,70M226,4851 MAIN STREET,97478,Lane,5417471887,62,TRUE,shogan@woodsidesl.com,"CSL - SPRINGFIELD II, LLC"