Facility Name,License Number,Capacity,Licensee,Phone Number,Email Address,Address,City,Zip Code
"1Love Assist Living Home, LLC.",101417,5,"1Love Assisted Living Home, LLC.",830-1902,1lovealhalaska@gmail.com,1141 W 68th Ct,Anchorage,99518
3 Angels' Assisted Living Home II,101352,5,"3 Angels' Assisted Living Home II, LLC",350-9715,threeangels907@yahoo.com,3907 Barbara Drive,Anchorage,99517
3 Angels' Assisted Living Home III,101413,5,3 Angels' Assisted Living Home LLC,350-9715,threeangels907@yahoo.com,6300 E. Ninth Avenue,Anchorage,99504
3 Angels' Assisted Living Home LLC,101295,5,3 Angels' Assisted Living Home LLC,350-5350,threeangels907@yahoo.com,1302 Garden Street,Anchorage,99508
3707 Oregon ALH,101032,5,3707 Oregon LLC,244-9504,scott@aofalaska.com,3707 Oregon St.,Anchorage,99517
4EverHome ALH,101358,5,Erish and Erwin Durano,,4everhome1@gmail.com,2565 West 69th Court,Anchorage,99502
7th Son Assisted Living,101228,3,Andrew Corbin,354-4757,andrewcorbin@gci.net / judycorbin29@gmail.com,12114 East Scott Road Unit C,Palmer,99645
A Fine Place,101258,3,Justine Fine,9078413463,afineplaceak@gmail.com,1414 N. Pioneer Peak Drive,Wasilla,99654
A Fine Place II,101440,2,Justine Fine and James Scruggs,841-3463,afineplaceak@gmail.com,1420 N. Pioneer Peak Drive,Wasilla,99654
A Happy Home (Yale),101275,2,A Happy Home LLC,444-3648,seth@akhappyhome.com,2939 Yale Drive,Anchorage,99508
A Legacy Home,101354,2,"A Legacy Home Care, LLC",561-0380,alegacyhomecare@gmail.com,6347 Rose Hip Ct.,Anchorage,99507
Aaron Assisted Living I,100582,5,"Aaron Assisted Living, LLC.",230-0358,aaronalrf@aol.com,3800 Gardner St.,Anchorage,99508
Aaron Assisted Living II,100704,5,"Aaron Assisted Living, LLC.",230-0358,Aaronalrf@aol.com,4201 Resurrection Dr.,Anchorage,99504
"ABBA Assisted Living Home, LLC",101361,5,Marian Grace I. Aspiras,,abbaalh1616@gmail.com,1616 Parkway Dr.,Anchorage,99504
Abby Assisted Living Home,101374,2,Jessica Fulton,,abbyassisted.ak@gmail.com,1781 South Abby Blvd.,Wasilla,99654
ABC Assisted Living,100430,4,Carolyn Allen,373-5512,cmallen@gci.net,7481 Territorial  Drive,Wasilla,99654
Abra Assisted Living Home,100875,3,"Merlo Llaneza, Sr.",522-0564,aga-pita@hotmail.com,1609 Betula Circle,Anchorage,99505
"Abuelita ALH, LLC",100900,5,"Abuelita ALH, LLC",677-0230,pegris@hotmail.com,1105 San Antonio Street,Anchorage,99508
Abuelitos ALH,101356,5,"Abuelita ALH, LLC",,dammbro@hotmail.com,2120 E. 72nd Ave,Anchorage,99507
Abundant Care Castle,101433,1,Sharon Strong,223-6377,strongs95@yahoo.com,1533 Latouche Street Unit C,Anchorage,99501
ADL Unlimited LLC,101086,4,ADL Unlimited LLC,222-1794,nathanrobinsonak.gmail.com,1722 West 99th Avenue,Anchorage,99515
Advantage Senior Care LLC,100853,2,Advantage Senior Care LLC,345-3416,nursemate43@yahoo.com,9650 Musketball circle,Anchorage,99507
Affinity Alaska,101315,2,Affinity Alaska LLC,350-7286,,610 Bounty Dr,Anchorage,99515
Agape Living ALH,101304,2,"Watkins Business Essentials, LLC",301-9879,agapeliving@yahoo.com,5613 Alora Loop,Anchorage,99504
Agape Living II,101362,2,"Watkins Business Essentials, LLC.",,agapeliving@yahoo.com,5601 Alora Loop,Anchorage,99504
Agape Love Assisted Living Home,101262,5,"Agape Love Assisted Living Home, LLC",339-9198,aga-pita@hotmail.com,3836 Williams Street,Anchorage,99508
"Agewise A New Vision, LLC",101443,5,Agewise A New Vision LLC,907-328-0557,anuvision00@gmail.com,1744 Farmers Loop Road,Fairbanks,99709
Aimaagvik Assisted Living,101209,12,Arctic Slope Native Association,852-0272,diane.nosbisch@arcticslope.org,5452 North Star Street,Utqiagvik,99723
AK Care Comfort & Company,297,5,Irene E De Leon,929-1234,alaskacare@gci.net,1419 Annapolis Drive,Anchorage,99508
AK Holly Haven,100645,4,Kelly Godwin,727-3442,kellygalaska35@gmail.com,4253 N. Clark Wolverine Road,Palmer,99645
AK Nurtured Living,101120,5,AK Nurtured Living,745-3550,aknurturedliving@gmail.com,17350 Dorismae Circle,Palmer,99645
Alaska Helps Assisted Living Home,100850,5,Ann Neavill,727-3057,akhelps1@gmail.com,4861 Southpark Bluff Drive,Anchorage,99508
Alaska Independent & Transitional Living ALH,101254,4,"Severson, LLC",222-1153,mail@aitlalh.net,8531 Little Dipper Avenue,Anchorage,99504
"Alaska Olive Care II, LLC",101151,16,Alaska Olive Care LLC,440-1084,lucyb1127@yahoo.com,708 N. Bunn Street,Anchorage,99508
Alaska Olive Care LLC,101102,16,Alaska Olive Care LLC,440-1084,spankyventura@aol.com,702 N. Bunn Street,Anchorage,99508
Alaska Premier Assisted Living LLC,101226,2,Alaska Premier Assisted Living LLC,382-0991,alaskapremierassistedliving@gmail.com,2450 Hastings Lane,Anchorage,99504
Alaska Premier Assisted Living LLC-A,101284,4,Alaska Premier Assisted Living LLC,382-0991,alaskapremierassistedliving@gmail.com,9119 Little Brook Street,Anchorage,99507
Alaska Quality Care ALH,101091,16,"Alaska Quality Care, LLC",433-9189,lucyb1127@yahoo.com,8811 Cordell Circle,Anchorage,99502
"Alaska Quality Care II, LLC",101138,16,Alaska Quality Care II LLC,433-9189,lucyb1127@yahoo.com,4010 E. 8th Avenue,Anchorage,99508
Alaska Quality Care III ALH,101405,12,"Alaska Quality Care III, LLC",,lucyb1127@yahoo.com,501 N. Park Street,Anchorage,99511
Alaska Veterans' and Pioneers' Home,77,79,State of Alaska,745-4241,joshua.shaver@alaska.gov,250 E. Fireweed Avenue,Palmer,99645
"Alaskan Red Assisted Living, LLC",101207,2,Alaskan Red Living LLC,519-2443,alaskanredassistedlivingllc@gmail.com,1621 Otter Street,Anchorage,99504
"Alaskan Ruby Assisted Living Home, LLC",100722,5,Virginia Rafael,350-7781,virginiarafael70@yahoo.com,1130 Contrary Court,Anchorage,99515
Aldergrove Assisted Living,100978,5,Brian Sherbondy,435-3938,aldergroveassistedliving@hotmail.com,41045 Denny Lane,Homer,99603
All 4 You Assisted Living,101247,2,Juanita Scott-Gonzalez,726-0562,juanitasctt@gmail.com,11415 Aurora Street,Eagle River,99577
All About Care Inc. II,100611,5,All About Care Inc.,339-9683,allaboutcare@gci.net,2517 Azurite Circle,Anchorage,99507
All About Care Inc. III,100696,5,All About Care Inc.,339-0482,allaboutcare@gci.net,2515 Azurite Circle,Anchorage,99507
All About Care Inc. IV,100776,5,All About Care Inc.,339-0492,allaboutcare@gci.net,2505 Azurite Circle,Anchorage,99507
"Alley ALH, LLC",101425,5,"Alley ALH, LLC",602-2276,armida.pimentel2019@gmail.com,9330 Aphrodite Drive,Anchorage,99515
Alpenglow Short Stay Assisted Living,101317,9,"Alpine Surgicenter, LLC. dba Alpine Surgery Center",562-5080,danna.grant@hcahealthcare.com,"3801 Lake Otis Parkway, Suite 250",Anchorage,99508
Alpha-Omega,100922,5,Young Han Ji and Stefanie Halls,245-7405,tlcalhak@yahoo.com,1023 State Street Unit B,Anchorage,99504
Alpine ALH,100450,5,Helena Ogarro,947-3795,hregiste@yahoo.com,3811 Gardner Street,Anchorage,99508
"Althea Assisted Living Home, LLC",101172,5,"Althea Assisted Living Home, LLC.",332-3032,Rallanfran@aol.com,2701 Wesleyan Dr.,Anchorage,99508
Always Caring Assisted Living Home LLC,101441,2,Always Caring Assisted Living Home LLC,375-0477,acalhllc@gmail.com,350 S. Flower Street #3,Anchorage,99516
AMC Homecare,101367,2,Crisalyn Ruiz,,amchomecare@yahoo.com,3541 Corona Circle,Anchorage,99517
Anchor House,100728,60,"Hallelujah Corporation, LLC.",274-7391,SK@anchor-house.biz,1058 W. 27th Avenue,Anchorage,99503
Anchorage Manor #1,100755,5,"Judith A. Celario, Cresencia M. David",334-9986,jcnewhaven@gci.net,2121 E. 73rd Avenue #1,Anchorage,99507
Anchor'Care Assisted Living Home,100672,4,"Anchor'Care Assisted Living, LLC",720-9914,nivram510@yahoo.com,"5225 E. 22nd Avenue, Unit B",Anchorage,99508
"Anchored Abode Assisted Living, LLC.",100936,5,Anchored Abode Assisted Living Home LLC,538-5858,daniel.ray.stanton@gmail.com,"3909 Turnagain Blvd. East, Suite 1",Anchorage,99517
Anderson-Smith Assisted Living Home,285,3,Deborah J. Anderson-Smith,694-1586,debbie.debbie.andersonsmith1@gmail.com,26031 Log Cabin Circle,Eagle River,99577
"Angel's Love Assisted Living Home, LLC",101396,1,"Angel's Love Assisted Living Home, LLC",677-7357,angelslovealh@yahoo.com,3424 E. 16th Ave,Anchorage,99508
Aoki House,101193,3,"All Good Homes, LLC",631-3042,jennifer@allgoodhomesllc.com,3551 North Aoki Drive,Wasilla,99654
APC - Cormorant Cove,101049,8,"Alaska Premium Care, Inc.",222-6100,kristelstout@alaskapremiumcare.com,8431 Cormorant Cove Circle,Anchorage,99507
APC - Wesleyan House,100941,16,"Alaska Premium Care, Inc.",677-9000,kristelstout@alaskapremiumcare.com,2683 Wesleyan Drive,Anchorage,99508
"Aphrodite Assisted Living Home II, Inc",100548,2,"Aphrodite Assisted Living Home, Inc.",344-9442,nathanrobinsonak@gmail.com,1610 Woo Blvd.,Anchorage,99515
"Aphrodite Assisted Living, Inc",271,5,"Aphrodite Assisted Living Home, Inc.",907-230-8486,nathanrobinsonak@gmail.com,9101 Toloff Street,Anchorage,99507
Aqqaimmuk House,101191,5,Maniilaq Association,442-2224,bree.swanson@maniilaq.org,843 Turf Street,Kotzebue,99752
Arc - 2210 Unit #2,100969,3,The Arc of Anchorage,777-0133,brath@thearcofanchorage.org,2210 Arca Drive Unit #2,Anchorage,99508
Arc - Aldona,100881,4,The Arc of Anchorage,277-6677,brath@thearcofanchorage.org; khovden@thearcofanchorage.org; jwest@thearcofanchorage.org,6299 Aldona Circle,Anchorage,99508
Arc - Camelot,100411,2,The Arc of Anchorage,277-6677,brath@thearcofanchorage.org; khovden@thearcofanchorage.org; jwest@thearcofanchorage.org,6111 E 41st Ct. #1,Anchorage,99504
Arc - Camrose,100199,4,The Arc of Anchorage,277-6677,brath@thearcofanchorage.org; khovden@thearcofanchorage.org; jwest@thearcofanchorage.org,6100 Camrose Drive,Anchorage,99504
Arc - Castle Court,361359,4,The Arc of Anchorage,277-6677,brath@thearcofanchorage.org; khovden@thearcofanchorage.org; jwest@thearcofanchorage.org,4939 Castle Court,Anchorage,99508
Arc - Collie Hill Way,100084,4,The Arc of Anchorage,277-6677,brath@thearcofanchorage.org; khovden@thearcofanchorage.org; jwest@thearcofanchorage.org,2636 Collie Hill Way,Anchorage,99504
Arc - E. 67th,101031,4,The Arc of Anchorage,277-6677,brath@thearcofanchorage.org; khovden@thearcofanchorage.org; jwest@thearcofanchorage.org,4070 E 67th Avenue,Anchorage,99507
Arc - Elmore,100918,4,The Arc of Anchorage,277-6677,brath@thearcofanchorage.org,4095 E. 68th Street,Anchorage,99507
Arc - H Street,100889,2,The Arc of Anchorage,277-6677,brath@thearcofanchorage.org; khovden@thearcofanchorage.org; jwest@thearcofanchorage.org,1033 H Street #A,Anchorage,99501
Arc - Jay Circle,354441,4,The Arc of Anchorage,277-6677,brath@thearcofanchorage.org,810 Jay Circle,Anchorage,99504
Arc - Kuskokwim,100999,4,The Arc of Anchorage,277-6677,brath@thearcofanchorage.org,1830 Kuskokwim Street,Anchorage,99508
Arc - Lionheart,358194,3,The Arc of Anchorage,277-6677,brath@thearcofanchorage.org,5256 Lionheart Drive,Anchorage,99508
Arc - Melody Place,100201,3,The Arc of Anchorage,277-6677,brath@thearcofanchorage.org,247 Melody Place,Anchorage,99504
Arc - Old Harbor,100731,4,The Arc of Anchorage,277-6677,brath@thearcofanchorage.org,7718 Old Harbor Road,Anchorage,99504
Arc - Park Strip,100178,4,The Arc of Anchorage,277-6677,brath@thearcofanchorage.org; khovden@thearcofanchorage.org; jwest@thearcofanchorage.org,1033 H Street #B,Anchorage,99501
Arc - Wesleyan,100917,4,The Arc of Anchorage,277-6677,brath@thearcofanchorage.org,3719 Wesleyan Drive,Anchorage,99508
Arctic Haven of Scenic View Drive,101435,5,Arctic Haven Assisted Living Home INC.,,neil_cay@yahoo.com,3847 Scenic View Drive,Anchorage,99504
Arctic Rose Assisted Living Home,101303,5,Verun Patel,232-8335,caringhands413@gmail.com,5291 Honeysuckle Ln,Wasilla,99654
Arctic Star Assisted Living Home,101434,2,Arctic Star ALH LLC,891-0510,arcticstaralh@gmail.com,441 Falke Court,Anchorage,99504
"Ariana ALH, LLC",100902,5,Robert Pentecostes,,arianahome_llc@yahoo.com,2337 East 72nd Avenue,Anchorage,99507
Ark of Caring Assisted Living Home,100994,5,Lawana Johnson,250-0708,arkofcaringak@gmail.com,7326 Kidron Street,Anchorage,99502
Aspen Creek Senior Living,101353,120,"Spring Creek Management, LLC.",868-2688,anna@aspencreekalaska.com,5915 Petersburg St.,Anchorage,99507
Assisted Living Transitions I,100732,5,Assisted Living Transitions LLC,727-2206,alttransitions@gmail.com,3154 Campbell Airstrip Road,Anchorage,99504
Assisted Living Transitions II,100526,5,Assisted Living Transitions LLC,727-2206,alttransitions@gmail.com,204 Patterson Street,Anchorage,99504
Assisted Living Transitions III,100928,4,Assisted Living Transitions LLC,727-2206,alttransitions@gmail.com,2637 Kenmore Circle,Anchorage,99504
Assisted Living Transitions IV,101004,5,"Assisted Living Transitions, LLC",727-2206,alttransitions@gmail.com,9022 Sahalee Drive,Anchorage,99507
Assisted Living Transitions V,101184,3,Assisted Living Transitions LLC,,alttransitions@gmail.com,6121 Trappers Trail Road,Anchorage,99516
Atlas Home Care Assisted Living Home,100579,5,"Atlas Home Care Assisted Living Home, Inc.",350-3606,ilbjosheran@yahoo.com,1825 Adonis Drive,Anchorage,99515
"Aumavae Cares, LLC",101129,2,"Aumavae Cares, LLC.",602-5274,aumavaecares@gmail.com,PO Box 873456,Wasilla,99654
Aurora Assisted Living Home,100837,5,Marissa Jones,382-2697,aalh@gci.net; marz32@yahoo.com,1641 Cara Loop,Anchorage,99517
Autumn Care Assisted Living,101274,5,Candis Bishop,,candis24@yahoo.com,16415 Mills Park Circle,Eagle River,99577
"Autumn MorningStar ALH, LLC",101141,5,"Autumn Morningstar ALH, LLC",351-0569,candis24@yahoo.com,16502 Baird Circle,Eagle River,99577
Autumn Sunrise Assisted Living Home,101077,5,Candis Bishop,762-0800,candis24@yahoo.com,19216 Citation Road,Eagle River,99577
Avelina's Assisted Living Home #2,265,5,Vida Ladrido,333-6649,vladrido@yahoo.com,285 Flower Street,Anchorage,99508
Baka's House,101186,3,Eva Ingersoll,376-4190,eva.ingersoll@outlook.com,1100 McKee Street,Wasilla,99654
Barcus Family Home,101375,1,Jonathan & Kandi Barcus,394-5865,barcus4@live.com,48175 Cockrobin Ct.,Soldotna,99669
Baxter Senior Living,101357,120,"Baxter Senior Living, LLC",891-9696,karl@psliving.com,4280 Baxter Road,Anchorage,99504
Bear,101082,4,Genacta In-Home Care,907-631-3078,jeanne.owen@genacta.com,5545 S. Irwin Drive #3,Wasilla,99654
Bear Lake Assisted Living Home,101325,4,Bear Lake LLC,,bearlakealaska@gmail.com,33472 Bear Lake Road,Seward,99664
Beaudion House,100629,1,Joyce Beaudion,835-2110,Beaudz.joy14@gmail.com,623 South Glacier Drive,Valdez,99686
Bella Home Care LLC,100666,5,"Bella Home Care, LLC.",830-3178,Becare@gci.net,8621 Kushtaka Circle,Anchorage,99504
"Benedict Assisted Living Home, LLC.",101170,2,"Benedict Assisted Living Home, LLC.",770-7008,benedict_alh0209@yahoo.com,3511 Alamosa Drive,Anchorage,99502
Best Care Assisted Living,214,5,Elma Ong,344-4457,elmaong@hotmail.com,7120 Scalero Circle,Anchorage,99507
Best Care Assisted Living 2,100627,5,Elma Ong,344-4561,elmaong@hotmail.com,11510 Tulin Park Loop,Anchorage,99516
Betel ALH,100131,2,Maria Alaniz,390-0397,betel_alh@hotmail.com,5901 E. 6th Avenue #153,Anchorage,99504
Bethel Assisted Living Home,101179,4,Anthony Jimenez,644-1055,jimeneztone@gmail.com,8401 Berry Patch Drive,Anchorage,99502
"Bethsaida Assisted Living, LLC",101442,5,"Bethsaida Assisted Living, LLC",644-3979,bethsaidaassistedliving@gmail.com,7080 Chad Street,Anchorage,99518
Betty J. Vickers,100303,3,Betty J. Vickers,301-8043,vic8531@aol.com,8531 E. 11th Court,Anchorage,99504
Big Hearts Alaska,101348,5,Annabelle Fangonilo,,bigheartsalaska@gmail.com,9180 Aphrodite Drive,Anchorage,99515
Big Lake Country Club I,100554,5,"Big Lake Country Club, LLC",892-6944,lplettner@biglakementalhealthservices.com,12528 Hawk Lane,Houston,99694
Big Lake Country Club II,100657,3,"Big Lake Country Club, LLC",892-6944,lplettner@biglakementalhealthservices.com,12528 Hawk Lane,Houston,99694
Big Lake Country Club III,100814,3,"Big Lake Country Club, LLC",892-6944,lplettner@biglakementalhealthservices.com,14016 W. Hughes Homestead Road,Big Lake,99652
Big Lake Country Club IV,100868,3,"Big Lake Country Club, LLC",892-6944,lplettner@biglakementalhealthservices.com,14060 W. Hughes Homestead Road,Big Lake,99652
Big Lake Country Club VI,100891,4,"Big Lake Country Club, LLC",892-6944,lplettner@biglakementalhealthservices.com,12528 Hawk Lane,Houston,99694
Birchwood Assisted Living Home,100829,3,Jeremy & Yael Hickok,277-4130,jerhickok@hotmail.com,19619 Crabtree Street,Chugiak,99567
"Blessing ALH, LLC",100595,5,Mildred Rapanot,770-2958,blessing_alh@yahoo.com,9700 Poseidon Drive,Anchorage,99515
Blue Horizon Assisted Living Home LLC,101406,2,Blue Horizon Assisted Living Home LLC,230-5768,bluehorizonalh@gmail.com,3409 Murphy Circle,Anchorage,99502
Blueberry Lodge Assisted Living Group Home,100284,4,"Blueberry Lodge Assisted Living Group Home, LLC",463-5886,judyfay@alaskan.com,9436 N Douglas Hwy,Juneau,99801
Bread and Roses ALH,100350,3,Tara Moore Walker,929-7941,breadandroseshome@gmail.com,7774 Cherrywood Circle,Anchorage,99507
Bright Horizon Homes,100953,3,Bright Horizon Homes LLC,232-6624,brighthorizonhomes@gmail.com,1453 Kanabec Drive,Wasilla,99654
Bright Horizon Homes II,101045,4,Bright Horizon Homes LLC,232-6624,bhhomes21@gmail.com,7038 S. Hood Court,Wasilla,99623
Bunny Lope Homes,101198,2,Phillipe Reznitsky,360-0169,reznitskyp@gmail.com,2616 Frigate Circle,Anchorage,99515
Bunny's Assisted Living,100945,5,"Bunny's Assisted Living, LLC",868-1913,rachelpentecostesm@gmail.com,1531 Harriet Court,Anchorage,99515
Burke's Assisted Living Home,100105,2,Linda S. Burke,,lindasburke@hotmail.com,10486 Vancouver Circle,Anchorage,99515
Campbell Creek House,101119,40,Loving Home Care LLC,754-9050,campbellcreekhouse@gmail.com,4745 Piper Street,Anchorage,99507
Carbon Assisted Living,101432,2,Michel Carbon,,carbonassistedliving@outlook.com,4810 Snow Circle,Anchorage,99508
Carel Assisted Living Home LLC,100730,7,Carel Assisted Living Home LLC,351-7519,epentecostes@gmail.com,5058 Bryn Mawr Court,Anchorage,99508
Carel II Assisted Living Home LLC,101040,5,Carel II Assisted Living Home LLC,677-2645,epentecostes@gmail.com,2988 Glacier Street,Anchorage,99508
"Caring Bridges Assisted Living Home, Inc.",200,16,"Caring Bridges Assisted Living Home, Inc.",479-0360,oakdale@acsalaska.net,107 7th Avenue Unit 1,Fairbanks,99701
"Caring Hands and Homes, Ltd.",101160,5,"Caring Hands and Homes, Ltd.",699-8581,mattdobbs569@gmail.com,2935 N. Church Road #A,Wasilla,99654
Caring Hands Assisted Living,101047,10,Elisa Winchester,202-0559,caringhands413@gmail.com,174 W. Spruce Avenue,Wasilla,99654
Caritas Assisted Living Home,100540,4,"Caritas Assisted Living Home, Inc.",929-4819,jopenpk@yahoo.com,1720 Adonis Drive,Anchorage,99515
"Caritas Assisted Living Home II, Inc.",100767,5,"Caritas Assisted Living Home, Inc.",929-4819,jopenpk@yahoo.com,1307 W. 46th Avenue,Anchorage,99503
Carmelite Home,100955,5,Aina Fowler,336-1296,asianpop23@yahoo.com,3963 Scenic View,Anchorage,99504
Casa Bella Assisted Living Home,101376,2,"Casa Bella Assisted Living Home, LLC.",727-6092,Katherine.Forest@yahoo.com,2630 Kingsbridge Circle,Anchorage,99504
Chadellynh Home,100665,5,"Chadellynh Home, LLC",764-9223,mariloualonso@hotmail.com,2940 Columbia Street,Anchorage,99508
Chandler ALH,100858,1,Cecilia Chandler,225-1174,Alaskan_china@icloud.com,11 Lode Lane,Ketchikan,99901
Charis Place Assisted Living,101027,90,"JAC Enterprises, Inc.",335-2052,charisplace@gmail.com,701 N Forest Drive,Kenai,99611
Charis Place Assisted Living #3,101383,6,"JAC Enterprises, Inc.",335-2052,charisplace@gmail.com,701 N Forest Drive Bld. #3,Kenai,99611
Charis Place Assisted Living #4,101384,6,"JAC Enterprises, Inc.",335-2052,charisplace@gmail.com,701 N Forest Drive Bld. #4,Kenai,99611
Charisse's Helping Hands Assistant Living Home 2,101389,2,Sauda Abdul-Haqq & Charisse Matthews,,sauda3.sah@gmail.com,524 North Park Street #2,Anchorage,99508
CharLena Angel Assisted Living Home,101408,2,Randall Dargan,222-4652,alaskadargan@gmail.com,9601 Newhaven Loop,Anchorage,99507
Chesser Assisted Living Home,100313,2,Deanna/Russel Chesser,399-1235,rddcr@acsalaska.net,35020 Scandinavian Drive,Anchor Point,99556
Chugiak Senior Citizens,12,21,"Chugiak Senior Citizens', Inc.",688-2661,assistedliving@mtaonline.net,22424 Birchwood Loop,Chugiak,99567
Cindy & Vic's Blessings Bungalow,101104,4,"Cindy & Vic's R&R, Inc.",230-3618,Cindy@cindyandvics.com,2324 Marian Bay Circle,Anchorage,99515
Cindy & Vic's Harmony House,100915,4,"Cindy & Vic's R&R, Inc.",230-3618,Cindy@cindyandvics.com,7801 Ladasa Place,Anchorage,99507
Cindy & Vic's Joyful Joint,101010,4,"Cindy & Vic's R&R, Inc.",230-3618,Cindy@cindyandvics.com,4041 Red Talon Circle,Anchorage,99507
Cindy & Vic's Peace Place,100975,4,"Cindy & Vic's R&R, Inc.",244-8427,Cindy@cindyandvics.com\mailto:Vic@cindyandvics.com,4134 Red Talon Circle,Anchorage,99507
Cindy and Vic's Kincaid Cottage,101429,2,"Cindy and Vic's R& R, Inc.",,,5916 Big Bend Loop,Anchorage,99502
Cindy and Vic's Wilderness Retreat,101192,2,"Cindy and Vic's R&R, Inc.",,,12305 Wilderness Rd,Anchorage,99516
CJW Healthcare,101402,5,Willie Zamora,644-3044,phoebecervas@icloud.com,343 Egavik Drive,Anchorage,99503
Clearfield Assisted Living Home,100820,5,Rodolfo Rafael Sr.,334-9497,rodolforafael@rocketmail.com,7673 Winchester Street,Anchorage,99507
Clearview Haven Assisted Living Home,176,5,Jaime Atherton,224-5220,clearview@gci.net,33343 Winterset Circle,Seward,99664
"Clouds Rest Commons, Inc.",100687,5,"Clouds Rest Commons, Inc.",376-3495,paulhartig@gmail.com,5772 E. Morning Mist Drive,Palmer,99645
Coles Cares,101314,2,David Cole,222-2515,colecaresak@gmail.com,2022 Terrebonne Loop,Anchorage,99502
Colony House Assisted Living,100604,12,"Colony House, Inc.",354-5483,colonymanor@mac.com,2801 E. Bogard Road,Wasilla,99654
Colony Manor,196,5,"Colony Manor Assisted Living Care Centers, Corp.",373-1880,colonymanor@mac.com,1715 N Driftwood Circle,Palmer,99645
Colony Manor at Creekside,268,5,"Colony Manor Assisted Living Care Centers, Corp.",373-1880,colonymanor@mac.com,1998 Creekside Drive,Wasilla,99654
Colony Manor at Village Park,100649,5,"Colony Manor Assisted Living Care Centers, Corp.",373-1880,colonymanor@mac.com,2051 Porcupine Trail,Wasilla,99654
Comfort Assisted Living II,300,5,Comfort ALH Inc.,351-9870,calhljk@gmail.com,7390 Winchester Street,Anchorage,99507
Comfort Assisted Living III,299,5,Comfort ALH Inc.,351-9870,calhljk@gmail.com,7370 Winchester Street,Anchorage,99507
Compassionate Care ALH,101414,5,Kathleen Corleto,,compassionatecarealh@yahoo.com,3180 Amanda Gayle Circle,Anchorage,99507
Cotter's Assisted Living Home,100414,2,Noel Cotter,745-1260,noel.mak@hotmail.com,2060 North Palomino Lane,Palmer,99645
Creative Care Assisted Living Home,100934,4,Carolynn Smith & Dennis Smith,903-0443,Carolynn.laliberte@yahoo.com,11401 Thunderbrush Circle,Anchorage,99516
Creekside Assisted Living,101210,5,"Howard House, LLC",333-4454,creeksideassistedliving@yahoo.com,7710 Maryland Avenue,Anchorage,99504
Crossroads Assisted Living,100268,16,Donna Ruth and Robert Schwartz,529-7800,crossroadsal@gci.net,5316 E. 24th Avenue,Anchorage,99508
Crossroads Counseling and Training (CCATS) 1,100497,12,Crossroads Counseling and Training Services,455-9737,nnelson@crossroadcounseling.org,1509 24th Avenue,Fairbanks,99701
Crossroads Counseling and Training (CCATS) 2,100668,3,Crossroads Counseling and Training Services,455-9737,nnelson@crossroadcounseling.org,1021 Akiak Avenue,Fairbanks,99701
Crossroads Counseling and Training (CCATS) 3,101316,5,Crossroads Counseling and Training Services,455-9737,nnelson@crossroadcounseling.org,4655 Drake Street,Fairbanks,99709
Crossroads Counseling and Training (CCATS) 4,101287,2,Crossroads Counseling and Training Services,455-9737,nnelson@crossroadcounseling.org,2735 Mack Blvd.,Fairbanks,99701
Crossroads Counseling and Training (CCATS) 5,100886,2,Crossroads Counseling and Training Services,455-9737,nnelson@crossroadcounseling.org,1025 Akiak Avenue,Fairbanks,99701
Dabakh Assisted Living Home II,101333,2,Baba Sy,,b.sy01@hotmail.com,1710 S. Salem Drive,Anchorage,99508
Dabakh's ALH,101001,5,Baba Sy,350-866-1952,b.sy01@hotmail.com,3760 W. 74th Avenue,Anchorage,99502
Darboe's Assisted Living Home,101407,2,Tineka Williams,,mstineka28@gmail.com,7604 Melody Commons Court,Anchorage,99504
Day Spring ALH,100848,5,"Day Spring Assisted Living Home, LLC",947-2890,irenerose.antonio@gmail.com,7001 Clogia Circle,Anchorage,99507
Day Spring ALH II,101220,5,Irenerose Antonio,947-2890,irenerose.antonio@gmail.com,2701 Wesleyan Drive #B,Anchorage,99508
DBG-Travis Circle,101332,5,"De Band Global, LLC",313-9278,"masslawal@yahoo.com, masslawal123@gmail.com",7121 Travis Circle,Anchorage,99507
Debbie's Assisted Living Home,100671,1,Debra A Clarke,479-8349,dclarke@gci.net,1173 Sunset Drive,Fairbanks,99709
DeHart Assisted Living Home,100086,3,Lianne Hobbs (formerly Schwartz),745-5065,lianne@gci.net,2930 N. Barrys Resort Drive,Palmer,99645
"Demeluz Assisted Living Home, LLC",101041,5,"Demeluz Assisted Living Home, LLC",868-1793,demeluzalh@gmail.com,7231 Bern Street,Anchorage,99507
Denali Assisted Living Services,101145,5,Amadou Ndure,,mattasanneh@hotmail.com,2649 Carroll Place #A,Anchorage,99508
"Denali Ridge Assisted Living, LLC.",101124,5,"Denali Ridge Assisted Living, LLC.",315-1415,denaliridge.ak@gmail.com,1450 N. Grubstake Drive,Wasilla,99654
Destiny Home Care,101351,2,Melisa Manas Fadhel,,crystalalh@yahoo.com,8540 Crystal Street,Anchorage,99502
Diaz,101092,2,Sara and Carlos Diaz,229-7017,sarasharmain19@yahoo.com,8060 Berry Patch Drive,Anchorage,99502
Discovery Living Assisted Living - Chinook Home,101235,5,"Discovery Living, LLC",440-7259,discoverylivingllc@gmail.com,16845 Eleanora Street,Eagle River,99577
Divine Grace Assisted Living Home,101438,5,Lea Gabo Mina,727-5986,lmina869@gmail.com,7940 Ladasa Place,Anchorage,99507
Divine Mercy ALH,100397,5,"Divine Mercy ALH, LLC.",868-8608,rachelpentecostesm@gmail.com,3554 Newcomb Drive,Anchorage,99508
DP Assisted Living Home,101397,1,Dalein Peevy,350-7578,dpassistedliving1@aol.com,1104 Orca St. Unit B,Anchorage,99501
Drelani's Home,101298,2,Andre L. Coleman & Kayelani R. Grey,885-4172,kayelanigrey18@gmail.com,8609 East 10th Aveune Apt #B,Anchorage,99504
Eagle,101211,4,Genacta In-Home Care,907-631-3078,jeanne.owen@genacta.com,5545 S. Irwin Drive #1,Wasilla,99654
Eagle Crest III ALH,100977,5,Belinda and David Baldwin,688-4123,eaglecrest1@me.com,22626 Chamber Lane,Chugiak,99567
Eagle House,101282,2,"All Good Homes, LLC",357-3046,jennifer@allgoodhomesllc.com,2359 W. Eagles Nest Circle,Wasilla,99654
Eagle's Wings II,101078,12,Timothy and Jamie Opperman,385-0485,admin@eagleswingsalh.com,2793 Perimeter Drive,North Pole,99705
"Eagle's Wings, LLC",100924,11,Timothy and Jamie Opperman,385-0485,admin@eagleswingsalh.com,109 E. 5th Avenue,North Pole,99705
Elder Care ALH,100724,5,"Marita Cunanan/ Elder Care ALH, LLC",333-7888,ritzcare@ymail.com,5210 Lionheart Drive,Anchorage,99508
Elena's Place I,99,5,Rodolfo (Rudy) and Teresita Regacho,344-7607,rudyregacho@gmail.com,8551 Arctic Blvd.,Anchorage,99515
Elizabeth Andrews,100177,3,Elizabeth Andrews,338-2123,"applewench49@gmail.com, angelliz414@gmail.com",8481 Majestic Drive,Anchorage,99504
Emerald Inn,101148,3,"All Good Homes, LLC",357-3045,itsallgood777@msn.com,1045 E. Carney Road,Wasilla,99654
Emmanuel Assisted Living Home,101098,2,"Emmanuel Assisted Living Home, INC",750-6785,emmanuelresidentialcare@gmail.com,239 Ina Street,Fairbanks,99701
Emmanuel Assisted Living Home West,101292,5,"Emmanuel Assisted Living Home, Inc.",750-6785,emmanuelassistedlivinghome@gmail.com,70 Steelhead Road,Fairbanks,99709
Entire Care LLC.,101390,2,Tierice Coleman,,entirecare1@protonmail.com,3705 Carleton Avenue,Anchorage,99517
Esperance ALH 2,101319,5,Aminata Palmer,907-929-1321,aminata_39@hotmail.com,3400 Stanford Drive,Anchorage,99508
Esperance Assisted Living,101127,5,Aminata Palmer,,aminiat_39@hotmail.com,2649 Carroll Place #B,Anchorage,99508
Extended Family Alaska LLC,101264,5,Extended Family Alaska LLC,205-7427,EFALSK@yahoo.com,12725 Landmark Street Apt # A,Anchorage,99515
"Extended Family Alaska, Care",101398,2,Deon A. Burns,,efalsk@yahoo.com,805 Merlin Loop,Anchorage,99518
"Extended Family Alaska, Knik",101161,5,Deon Burns,205-7427,dbtruthislife@gmail.com,7293 West Carmel Road,Wasilla,99654
FamaCARE Home 1,100912,3,Modou E. Manneh,646-9118,famacare@hotmail.com,10979 Retreat Circle,Anchorage,99515
FamaCARE Home 2,101061,5,Modou E. Manneh,727-3600,famacare@hotmail.com,1750 Ponds Circle,Anchorage,99507
Family Care Assisted Living LLC,101412,5,Family Care Assisted Living LLC,306-9776,FCALalaska@gmail.com,3120 W. 79th Avenue,Anchorage,99502
FCS - Aliak #1,101422,2,Frontier Community Services,262-6331,afaulkner@fcsonline.org,1701 B E. Aliak #1,Kenai,99611
FCS - Aliak #2,101261,3,Frontier Community Services,262-6331,afaulkner@fcsonline.org,1701 B E. Aliak #2,Kenai,99611
FCS - Coho,100700,4,Frontier Community Services,262-6331,jkamauoha@fcsonline.org,1235 Coho Place,Valdez,99686
FCS - Cottonwood,100111,4,Frontier Community Services,262-6331,jkamauoha@fcsonline.org,825 Cottonwood Drive,Valdez,99686
FCS - Little (Formerly FCS-Irons),100736,3,Frontier Community Services,262-6331,afaulkner@fcsonline.org,143 W. Little Avenue #A,Soldotna,99669
FCS - Riverhills,100109,5,Frontier Community Services,262-6331,afaulkner@fcsonline.org,36680 River Hills Drive,Kenai,99611
FCS - Snowflake,101293,2,Frontier Community Services,262-6331,afaulkner@fcsonline.org,1406 Hedley Drive,Kenai,99611
FCS - St. Andrews,101140,4,Frontier Community Services,262-6331,afaulkner@fcsonline.org,36615 St. Andrews Road,Kenai,99611
FCS - Walnut,101380,3,Frontier Community Services,262-6631,afaulkner@fcsonline.org,1083 Walnut Drive,Kenai,99611
Feathered Nest,101065,2,Feathered Nest Inc.,355-5622,rosslois@mtaonline.net,8270 Mallard Lane,Wasilla,99654
Feh's Humanitarian ALH,101002,3,"Feh's Humanitarian ALH, LLC",887-6007,providencafeh@yahoo.com,2948 Kimberlie Court,Anchorage,99508
Fe's Assisted Living Home,100592,3,Fe Comon & Ventura G Laurio,222-5027,fe.comon@yahoo.com,1841 E. 57th Avenue,Anchorage,99507
Fidelity Assisted Living Home,100774,4,Aurora Preston,229-3717,abpreslee07@yahoo.com,6133 East 12th Avenue,Anchorage,99504
Fine Pearle Assisted Living,100463,5,Fine Pearle LLC,229-3980,finepearle@yahoo.com,1725 Minerva Way,Anchorage,99515
Fine Pearle Too ALH,100883,3,Fine Pearle LLC,229-3980,finepearle@yahoo.com,1743 Minerva Way,Anchorage,99515
Fireweed Assisted Living,100102,1,Betsy & Mark Balts,,mabalts@gmail.com,3140 De Armoun Road,Anchorage,99516
"First Class Home Assisted Living, LLC",101364,5,Lineni Makihele,,linenirosie1@gmail.com,17241 N Juanita Loop,Eagle River,99577
"Fitchetts Assisted Living, LLC",100015,3,"Fitchetts Assisted Living, LLC",242-9698,fitchett61@gci.net,8481 Ridgeway Avenue,Anchorage,99504
"Flourishing Assisted Living Home, Inc.",101289,5,Marivic Blancas,,mblancas26@gmail.com,5815 Buckner Dr.,Anchorage,99504
Forget Me Not Care Home,101350,4,Mary Miller,,texnak10@gmail.com,4519 W Amanda Drive,Wasilla,99623
"Forget Me Not Homes, LLC",101395,3,David Groat and Kristal Steele,631-2097,forgetmenothomes907@gmail.com,2650 N. Garnet Lane,Wasilla,99654
FRA - Condor Residence,101067,9,Fairbanks Resource Agency,456-8901,emily@fra-alaska.net,4455 Condor Court,Fairbanks,99709
FRA - Craig Residence,100188,4,Fairbanks Resource Agency,456-8901,emily@fra-alaska.net,430 Craig Street,Fairbanks,99701
FRA - Erickson Residence,100160,4,Fairbanks Resource Agency,456-8901,emily@fra-alaska.net,3747 Erickson Avenue,Fairbanks,99701
FRA - Flodin Residence,101068,9,Fairbanks Resource Agency,456-8901,emily@fra-alaska.net,2980 Mack Boulevard,Fairbanks,99709
FRA - Ruby Residence,361700,5,Fairbanks Resource Agency,456-8901,emily@fra-alaska.net,2505 Ruby Avenue,Fairbanks,99701
FRA - Slater Residence,100151,4,Fairbanks Resource Agency,456-8901,emily@fra-alaska.net,594 Slater Drive,Fairbanks,99701
FRA - Tamarack I Residence,101069,8,Fairbanks Resource Agency,456-8901,emily@fra-alaska.net,1616 Tamarack Street,Fairbanks,99709
FRA - Tamarack II Residence,101070,9,Fairbanks Resource Agency,456-8901,emily@fra-alaska.net,1608 Tamarack Street,Fairbanks,99709
FRA - Turner Residence,100345,4,Fairbanks Resource Agency,456-8901,emily@fra-alaska.net,11 Steelhead Road,Fairbanks,99701
FRA - Wright Residence,101071,10,Fairbanks Resource Agency,456-8901,emily@fra-alaska.net,721 East 8th Avenue,North Pole,99705
"Freedom Estate Assisted Living, LLC.",101313,5,"Freedom Estate Assisted Living, LLC.",252-7990,vasyandjenny@yahoo.com,36872 Bradford Rd.,Sterling,99672
Freedom House,100807,5,Abdoukarim Mboge,868-3099,abdoukarimmboge@yahoo.com,5876 Kennyhill Drive,Anchorage,99504
Freedom House ALH II,100982,5,Abdoukarim Mboge,868-1054,cbenta@ymail.com,5807 E. 9th Court,Anchorage,99504
"Friendly Empire Assisted Living Home, LLC",101439,5,"Friendly Empire Assisted Living Home, LLC",868-3747,friendlyempirealh@gmail.com,2721 W. 29th Ave,Anchorage,99502
Frontier Assisted Living,101222,12,Frontier Assisted Living LLC,328-2200,lynda@frontierseniors.com,1015 Evergreen Street,Fairbanks,99709
Frontier Assisted Living LLC - University West,101346,12,Frontier Assisted Living LLC,328-2200,lynda@frontierseniors.com,4910 Palo Verde,Fairbanks,99709
Frontier Home Health Care,100472,5,Michael A. Brown,337-2332,fhhc@gci.net,7940 Little Dipper Avenue,Anchorage,99504
Frontier Home Health Care - East,100698,5,Michael A. Brown,337-2332,fhhc@gci.net,5710 Cope Street,Anchorage,99518
Frontier Home Health Care - Mirage,101136,4,Michael A. Brown,337-2332,fhhc@gci.net,3651 Mirage Circle,Anchorage,99504
Frontier Home Health Care - Tranquil,101245,5,Michael Brown,333-6620,fhhc@gci.net,4621 Chelsea Way,Anchorage,99504
Fuerstenau ALH,100460,1,David Fuerstenau,225-2842,djfuerstenau@kpunet.net,426 Buren Road,Ketchikan,99901
Fulani Assisted Living Home,100880,2,Momodou Jallow,310-3417,moisa09@yahoo.com,2591 Lyvona Lane,Anchorage,99502
Full Circle ALH,100802,2,Jackie Shuravloff,644-8254,mickshur@yahoo.com,1510 Lily Pond Circle,Anchorage,99507
Full Life Assisted Living & Group Home,101370,2,Justin Wood,,full.life.ak@gmail.com,12309 Gara Drive,Kodiak,99615
Gentle Hands Care,101338,4,"Gentle Hands Care Assisted Living Home, LLC.",201-1985,gentlehandscarealhllc@gmail.com,4092 W. Marble Way,Wasilla,99654
Gentle Loving Care Assisted Living Home,101291,5,Flory Tapulgo,891-4118,florytapulgo@gmail.com,1504 Rosemary St.,Anchorage,99508
Glacier Assisted Living Home,101126,5,Andrew and Patricia Weiss LLC,332-0007,apbweiss@yahoo.com,7913 E. 20th Avenue,Anchorage,99504
"Glorious Life ALH, LLC.",100438,4,"Glorious Life ALH, LLC",341-3277,joeros@gci.net,16641 Marcus Street,Eagle River,99577
"Golden Agers Homecare, LLC.",101194,5,"Golden Agers Homecare, LLC.",631-4222,goldenagershomecarellc@gmail.com,591 East Susitna Avenue,Wasilla,99654
"Golden Age's Manor, LLC.",101188,10,"Golden Age's Manor, LLC.",885-8002,goldenagesmanor@yahoo.com,309 E. 24th Avenue,Anchorage,99503
Golden Friendship Home for Elderly,101087,5,"Golden Friendship Home for Elderly, LLC",248-5276,Corral_abigail@hotmail.com,9221 Aphrodite Drive,Anchorage,99515
Golden Hearts Agency - Blackberry,100738,3,Golden Hearts Incorporated,344-2729,dgoldenhearts@aol.com,3442 West 64th Avenue,Anchorage,99502
Golden Hearts Agency - Concord,100295,5,Golden Hearts Incorporated,344-2729,dgoldenhearts@aol.com,2961 Concord Lane,Anchorage,99502
Golden Hearts Agency- Lavender House,101182,5,Golden Hearts Incorporated,334-2729,dgoldenhearts@aol.com,3313 W. 79th Avenue,Anchorage,99502
"Golden Hearts ALH, LLC",101057,5,"Golden Hearts Assisted Living Home, LLC",342-5937,goldenheartsalh@yahoo.com,3300 East 15th Ave. #1,Anchorage,99508
Golden Sunrise ALH,101372,5,Golden Years LLC,907-301-4646,rmuhlenbruch@gci.net,2941 Morgan Loop,Anchorage,99516
Good Grace ALH II,101007,5,Julie and Cornelion Pentecostes,332-1862,pentecostesjuly@yahoo.com,6700 Howard Avenue,Anchorage,99504
Good Samaritan ALH,156,5,Rudy and Teresita Regacho,336-9090,rudyregacho@gmail.com,8611 Arctic Blvd. #1,Anchorage,99515
GR Home,101416,2,"General Relief Care, Incorparated",382-8087,cullenhayes28@yahoo.com,3421 W 64th Ave Unit 1,Anchorage,99502
Grace of God ALH,101326,5,Elena and Eduardo Canlas,250-9404,canlaselena@yahoo.com,1311 W. 40th Ave,Anchorage,99503
Graceful Living ALH I,131,5,"Graceful Living, LLC",338-3135,gracefulliving2017@gmail.com,6600 E 11th Avenue,Anchorage,99504
Granny's Log Cabin Inc.,100785,12,Granny's Log Cabin Inc.,631-3261,sherry.butters@gmail.com,3041 Cambay Court,Wasilla,99654
Graystone Assisted Living Home LLC,101308,5,Graystone Assisted Living Home LLC,331-8545,amiensanneh@yahoo.com,922 Cherry Street,Anchorage,99504
Guardian Angel ALH,101299,2,Dorothy 'Denise' Cole,885-4715,dndalh01@gmail.com,8403 Mentra Street,Anchorage,99518
Gugy's Assisted Living Home,101190,12,"Sunshine Haven Assisted Living Home, LLC.",887-4416,gugyalh@gmail.com,4316 Dale Street Unit D,Anchorage,99508
Guiding Light Assisted Living Home,100652,5,"Guiding Light Assisted Living, LLC",696-5545,guidinglight61@gmail.com,11522 Aurora Street,Eagle River,99577
"H & L Assisted Living, LLC",101324,5,"H & L Assisted Living, LLC",222-9991,hnlassistedliving@gmail.com,2401 E. 68th Ave Unit 2,Anchorage,99507
Haines Assisted Living,100793,10,Haines Assisted Living Inc.,766-3616,jstudley@hainesassistedliving.org,219 Union Street,Haines,99827
Hale Ohana,100573,5,Leilanie Corpuz,677-0326,ilynnec@yahoo.com,4715 Malibu Road,Anchorage,99517
Hale Wai Nani,100847,5,Dan Corpuz,952-4541,oipus@yahoo.com,1054 E. 28th Avenue,Anchorage,99508
Hamme Assisted Living Home,100330,2,David Hamme,355-0260,davidhamme61@gmail.com,13740 North Willow Lake Drive,Willow,99688
"Happy Haven 1 ALH, LLC",101340,4,Michelle McGraw,232-2700,ms.michelle11e@hotmail.com,225 E. Danna Ave.,Wasilla,99654
Happy House ALH,100531,5,Mam Jallow,929-5620,yagouj@gci.net,1010 & 1016 W 29th Place,Anchorage,99503
Happy Valley Assisted Living,101187,5,"Happy Valley Assisted Living, LLC",907-567-3419,thenelands@gmail.com,69423 Seitz Avenue,Ninilchik,99639
Happy Valley Assisted Living LLC 2,101387,5,Erica Neland,907-567-3419,,"69323 Seitz Ave., #2",Ninilchik,99639
Harbor View Manor,100719,17,Tranquility Manor LLC,746-4220,bckorman@mtaonline.net,4070 Birch Cove Drive,Wasilla,99654
Hea Lani Assisted Living Home,101167,5,Luz Umayam,808-205-8451,luzumayam@yahoo.com,1756 South Heather Meadows Loop,Anchorage,99507
Heart and Harmony,101036,5,Heart and Harmony LLC,222-1725,mvallangca@yahoo.com,6327 E. 31st. Avenue,Anchorage,99504
Heart of Care,101060,4,Jocelyn Pangilinan,529-8087,heartofcare@yahoo.com,7038 Peck Avenue,Anchorage,99504
Heart of Love Assisted Living Home,101177,5,Crystal Morrison- Grey,854-3298,crystal.morrison38@yahoo.com,1317 O Street,Anchorage,99501
Hearts and Hands of Care,101110,4,"Hearts and Hands of Care, Inc",907-929-5826,eddy@heartsandhandsofcare.com,2030 Brigadier Drive,Anchorage,99507
Hearts and Hands of Care II,101159,2,"Hearts and Hands of Care, Inc",868-3771,eddy@heartsandhandsofcare.com,2431 McKenzie Drive,Anchorage,99517
Hearts and Hands of Care III,101237,4,"Hearts and Hands of Care, Inc",222-3464,eddy@heartsandhandsofcare.com,8393 Duben Avenue,Anchorage,99504
Hearts and Hands of Care V,101243,4,"Hearts and Hands of Care, Inc",745-3544,eddy@heartsandhandsofcare.com,16365 Childers Circle,Palmer,99645
Hearts and Hands of Care VI,101246,5,"Hearts and Hands of Care, Inc",,eddy@heartsandhandsofcare.com,16015 Noble Point Drive,Anchorage,99516
Hearts and Hands of Care VII,101328,4,"Hearts and Hands of Care, Inc",,eddy@heartsandhandsofcare.com,9401 Aphrodite Drive,Anchorage,99515
Hearts and Hands of Care VIII - Salmon House,101363,4,"Hearts and Hands of Care, Inc",,eddy@heartsandhandsofcare.com,6631 E. King Salmon Drive,Wasilla,99654
Heavenly Hands 2,101327,5,"Maria Wells, LLC",952-1178,maria@heavenlyhandsalh.com,324 Dewey Circle,Anchorage,99508
Heavenly Hands ALH,100780,5,Maria Wells,952-1178,maria@heavenlyhandsalh.com,11631 Nix Court - A,Anchorage,99515
Helpful Hands,100979,5,Scotty Jackson,,superscotty6@me.com,3607 Wesleyan Drive,Anchorage,99508
"Heritage Assisted Living Home, LLC",100927,10,"Heritage Assisted Living Home, LLC.",868-1887,heritagealh@hotmail.com,6754 O'Brien Street,Anchorage,99507
"Heritage Home, LLC.",101116,10,"Heritage Home, LLC.",868-1887,heritagealh@hotmail.com,6730 O'Brien Street,Anchorage,99507
Hibiscus ALH,101229,5,Ma Marie Aguilar,306-3414,eiramsolver@gmail.com,2501 Wesleyan Drive,Anchorage,99508
Hickok Assisted Living Home,100961,3,The Hickok Assisted Living Home (ALH) LLC,274-0060,shickok2010@gmail.com,6074 Doncaster Drive,Anchorage,99504
Holy Family ALH II,107,5,"Holy Family Assisted Living, LLC.",360-4844,hfamilycarol46@yahoo.com,1454 Saint Gotthard Street,Anchorage,99508
Holy Family ALH III,187,5,"Holy Family Assisted Living, LLC.",360-4844,hfamilycarol46@yahoo.com,2030 Duke Drive,Anchorage,99508
Home of Love ALH,100441,5,Elena Canlas,868-1156,canlaselena@yahoo.com,7430 Margaret Circle,Anchorage,99518
Home on Mulchatna,100393,3,Brendan McCann,357-6201,sbrdaddy@yahoo.com,1460 Mulchatna Drive,Wasilla,99654
Hope - Alex Court,100517,4,"Hope Community Resources, Inc.",420-3600,shaywood@hopealaska.org,37975 Alex Court,Soldotna,99669
Hope - Alma Drive,100281,3,"Hope Community Resources, Inc.",561-5335,alma@hopealaska.org,2760 Alma Drive,Wasilla,99654
Hope - Amber Bay,100301,2,"Hope Community Resources, Inc.",561-5335,amberbay@hopealaska.org,3540 Amber Bay Loop,Anchorage,99515
Hope - Arlene,100222,7,"Hope Community Resources, Inc.",561-5335,arlene@hopealaska.org,8907 Arlene Street,Anchorage,99502
Hope - Barrow,101046,6,"Hope Community Resources, Inc.",561-5335,mmboob@hopealaska.org,5115 Herman Street,Utqiagvik,99723
Hope - Beaver Place,100552,3,"Hope Community Resources, Inc.",561-5335,e20@hopealaska.org,1430 Beaver Place,Anchorage,99504
Hope - Celestial,101386,2,"Hope Community Resources, Inc.",561-5335,,11339 Celestial Court,Eagle River,99577
Hope - Chapel,100362,3,"Hope Community Resources, Inc.",561-5335,chapel@hopealaska.org,12854 Chapel Circle,Anchorage,99516
Hope - Cherokee,100057,2,"Hope Community Resources, Inc.",561-5335,cherokee@hopealaska.org,6830 Cherokee Way,Anchorage,99504
Hope - Colonial Court,100873,5,"Hope Community Resources, Inc.",561-5335,colonial@hopealaska.org,6920 Colonial Court,Anchorage,99502
Hope - Core Court,100801,4,"Hope Community Resources, Inc.",561-5335,chinook@hopealaska.org,3711 Core Court,Anchorage,99502
Hope - Creekside,100890,1,"Hope Community Resources, Inc.",561-5335,creekside@hopealaska.org,7401 E. 6th Avenue. Units 1,Anchorage,99504
Hope - Creekside 2,101394,1,"Hope Community Resources, Inc.",561-5335,,7401 E. 6th Avebye Unit 2,Anchorage,99504
Hope - Daisy Petal,100401,4,"Hope Community Resources, Inc.",561-5335,daisy-petal@hopealaska.org,3470 N. Daisy Petal Circle,Wasilla,99654
Hope - Discovery Bay,101234,2,"Hope Community Resources, Inc.",561-5335,,2815 Discovery Bay Drive,Anchorage,99515
Hope - Dunbar,100800,4,"Hope Community Resources, Inc.",561-5335,dunbar@hopealaska.org,6230 Dunbar Lane,Anchorage,99504
Hope - Eadies Way,100571,4,"Hope Community Resources, Inc.",420-3600,shaywood@hopealaska.org,407 Eadies Way,Kenai,99611
Hope - East 145th,100851,3,"Hope Community Resources, Inc.",561-5335,east145@hopealaska.org,4400 E. 145th Avenue,Anchorage,99516
Hope - East 34th,100906,3,"Hope Community Resources, Inc.",561-5335,east34th@hopealaska.org,3246 Sherrie Street,Anchorage,99504
Hope - East 40th,100456,3,"Hope Community Resources, Inc.",561-5335,east40th@hopealaska.org,1503 E. 40th Court,Anchorage,99508
Hope - Evergreen,100274,3,"Hope Community Resources, Inc.",561-5335,evergreen@hopealaska.org,3501 Evergreen Street,Anchorage,99504
Hope - Farm Loop,100216,3,"Hope Community Resources, Inc.",561-5335,farm-loop@hopealaska.org,4401 Farm Loop Road,Palmer,99645
Hope - Forest,101189,9,"Hope Community Resources, Inc.",561-5335,,3400 E. 20th Avenue,Anchorage,99508
Hope - Furrow Ranch,359514,4,"Hope Community Resources, Inc.",561-5335,furrow@hopealaska.org,3911 Furrow Creek Road,Anchorage,99516
Hope - Gardner 3,100647,3,"Hope Community Resources, Inc.",561-5335,gardner@hopealaska.org,3910 Gardner Street Units 2 & 3,Anchorage,99508
Hope - Grandview #2 - Lesko Peanut Butter and Jelly,101268,2,"Hope Community Resources, Inc.",420-3600,shaywood@hopealaska.org,40466 Brightside Loop,Soldotna,99669
Hope - Grandview #3 - Lulu Belle,101285,2,"Hope Community Resources, Inc.",420-3600,shaywood@hopealaska.org,40444 Brightside Loop,Soldotna,99669
Hope - Grandview #4 - Bright Side Bungalow,101260,2,"Hope Community Resources, Inc.",420-3600,shaywood@hopealaska.org,40426 Brightside Loop,Soldotna,99669
Hope - Grandview #5 - Bright Minds Cottage,101267,2,"Hope Community Resources, Inc.",420-3600,shaywood@hopealaska.org,40402 Brightside Loop,Soldotna,99669
Hope - Grandview #6 - Man Cave,101269,2,"Hope Community Resources, Inc.",420-3600,shaywood@hopealaska.org,40384 Brightside Loop,Soldotna,99669
Hope - Grandview #7 - Maclaren,101280,2,"Hope Community Resources, Inc.",420-3600,shaywood@hopealaska.org,40358 Brightside Loop,Soldotna,99669
Hope - Greendale,350645,3,"Hope Community Resources, Inc.",561-5335,greendale@hopealaska.org,1800 Greendale Drive,Anchorage,99504
Hope - Hidden View,100099,2,"Hope Community Resources, Inc.",561-5335,hidden-view@hopealaska.org,8511 Hidden View Court,Anchorage,99504
Hope - Iceburg,100514,2,"Hope Community Resources, Inc.",561-5335,iceberg@hopealaska.org,655 Iceburg Circle,Wasilla,99654
Hope - Idaho,100371,3,"Hope Community Resources, Inc.",561-5335,idaho@hopealaska.org,419 Idaho Street,Anchorage,99504
Hope - Jade,100065,2,"Hope Community Resources, Inc.",561-5335,jade@hopealaska.org,9310 Jade Street,Anchorage,99502
Hope - Juliana,100029,7,"Hope Community Resources, Inc.",561-5335,juliana@hopealaska.org,8918 Juliana Street,Anchorage,99502
Hope - Lighthouse,100263,2,"Hope Community Resources, Inc.",561-5335,lighthouse@hopealaska.org,900 Lighthouse Court,Anchorage,99515
Hope - Lily Pond,100206,2,"Hope Community Resources, Inc.",561-5335,lilypond@hopealaska.org,1610 Lily Pond Circle,Anchorage,99507
Hope - Lloyd,100050,3,"Hope Community Resources, Inc.",561-5335,lloyd@hopealaska.org,8016 Lloyd Drive,Anchorage,99502
Hope - Lord Baranof,356493,4,"Hope Community Resources, Inc.",561-5335,lord-baranof@hopealaska.org,2715 Lord Baranof Drive,Anchorage,99517
Hope - Maple,101174,5,"Hope Community Resources, Inc.",512-2500,,1115 Selief Lane,Kodiak,99615
Hope - Marian Bay,101421,5,"Hope Community Resources, Inc.",561-5335,mbarbaza@hopealaska.org,2425 Marian Bay Circle,Anchorage,99515
Hope-  Muir Court,100570,4,"Hope Community Resources, Inc.",561-5335,muir@hopealaska.org,8650 Muir Court,Anchorage,99504
Hope - Northwind,100053,2,"Hope Community Resources, Inc.",561-5335,north-wind@hopealaska.org,8321 Northwind Drive,Anchorage,99504
Hope - Nugget Lane,361791,3,"Hope Community Resources, Inc.",561-5335,nugget-lane@hopealaska.org,2746 Nugget Lane,Anchorage,99516
Hope - Perenosa,100494,3,"Hope Community Resources, Inc.",561-5335,perenosa@hopealaska.org,3791 Perenosa Circle,Anchorage,99515
Hope - Phoenix Way,100972,2,"Hope Community Resources, Inc.",561-5335,phoenix@hopealasaka.org,1705 Resurrection Blvd.,Seward,99664
Hope - Pioneer Muldoon,100280,2,"Hope Community Resources, Inc.",561-5335,pioneer-anc@hopealaska.org,8350 Pioneer Drive,Anchorage,99504
Hope - Pioneer Parkway,100051,4,"Hope Community Resources, Inc.",561-5335,pioneer-mat@hopealaska.org,340 Pioneer Parkway,Palmer,99645
Hope - Pribilof,100112,2,"Hope Community Resources, Inc.",561-5335,pribilof@hopealaska.org,2811 Pribilof Street,Anchorage,99517
Hope - Raspberry,100114,3,"Hope Community Resources, Inc.",561-5335,raspberry@hopealaska.org,6905 Arlene Street,Anchorage,99502
Hope - Resolution Bay,100088,4,"Hope Community Resources, Inc.",561-5335,resolution@hopealaska.org,2750 Resolution Bay,Wasilla,99654
Hope - Resurrection,100179,2,"Hope Community Resources, Inc.",561-5335,resurrection@hopealaska.org,1707 Resurrection Blvd.,Seward,99664
Hope - Ruby,100043,2,"Hope Community Resources, Inc.",561-5335,ruby@hopealaska.org,2741 Ruby Drive,Anchorage,99502
Hope - Sandy Place,100334,3,"Hope Community Resources, Inc.",561-5335,sandy-place@hopealaska.org,8324 Sandy Place A,Anchorage,99507
Hope - Saratoga,100874,4,"Hope Community Resources, Inc.",561-5335,saratoga@hopealaska.org,2036 Saratoga Avenue,Anchorage,99517
Hope - Seal Point,100164,5,"Hope Community Resources, Inc.",561-5335,seal-point@hopealaska.org,9130 Seal Point Circle,Anchorage,99507
Hope - Seclusion,100117,2,"Hope Community Resources, Inc.",333-3403,seclusion@hopealaska.org,8108 Seclusion Drive,Anchorage,99504
Hope - Selief,101108,6,"Hope Community Resources, Inc.",512-2500,codavis@hopealaska.org,1117 Selief Lane,Kodiak,99615
Hope - Shenandoah,100052,2,"Hope Community Resources, Inc.",561-5335,shenandoah@hopealaska.org,12230 Shenandoah Road,Anchorage,99516
Hope - Sherrie Street,356644,5,"Hope Community Resources, Inc.",561-5335,sherrie-street@hopealaska.org,3424 Sherrie Street,Anchorage,99504
Hope - Sherwood,359839,2,"Hope Community Resources, Inc.",561-5335,sherwood@hopealaska.org,6820 Sherwood Avenue,Anchorage,99504
Hope - Shorecrest,360004,4,"Hope Community Resources, Inc.",561-5335,shorecrest@hopealaska.org,9300 Shorecrest Drive,Anchorage,99502
Hope - Solar Drive,358124,4,"Hope Community Resources, Inc.",561-5335,solar@hopealaska.org,8520 Solar Drive,Anchorage,99507
Hope - Sunrise,232051,5,"Hope Community Resources, Inc.",561-5335,sunrise@hopealaska.org,1677 Sunrise Drive,Anchorage,99508
Hope - Tudor 1,100771,2,"Hope Community Resources, Inc.",561-5335,tudor@hopealaska.org,8011 Northwind Avenue #1,Anchorage,99504
Hope - Tudor 2,101393,2,"Hope Community Resources, Inc.",561-5335,,8011 Northwind Avenue #2,Anchorage,99504
Hope - Turpin,100062,2,"Hope Community Resources, Inc.",561-5335,turpin@hopealaska.org,1406 Turpin Street,Anchorage,99504
Hope - Vassar,100752,5,"Hope Community Resources, Inc.",561-5335,vassar@hopealaska.org,3581 Vassar Drive,Anchorage,99508
Hope - Viburnum,100359,3,"Hope Community Resources, Inc.",561-5335,viburnum@hopealaska.org,7041 Viburnum Drive,Anchorage,99507
Hope - Viewcrest,361520,5,"Hope Community Resources, Inc.",512-2500,codavis@hopealaska.org,3194 Viewcrest Lane,Kodiak,99615
Hope - Watson,100957,4,"Hope Community Resources, Inc.",561-5335,tomwatson@hopealaska.org,1000 N. Tom Watson Place,Wasilla,99654
Hope - West 42nd #2,100458,2,"Hope Community Resources, Inc.",561-5335,west42@hopealaska.org,420 W. 42nd Avenue #2,Anchorage,99503
Hope - West 75th,100740,2,"Hope Community Resources, Inc.",561-5335,west75@hopealaska.org,716 W. 75th Avenue,Anchorage,99515
Hope - West 79th,100039,2,"Hope Community Resources, Inc.",561-5335,west-79@hopealaska.org,3510 W. 79th Avenue,Anchorage,99502
Hope - Whale Bay,100104,2,"Hope Community Resources, Inc.",561-5335,whale-bay@hopealaska.org,10011 Whale Bay Circle,Anchorage,99515
Hope - Winners Circle,360078,3,"Hope Community Resources, Inc.",561-5335,winners-circle@hopealaska.org,1100 Winners Circle,Anchorage,99518
Hope - Yuguutuk,360325,4,"Hope Community Resources, Inc.",842-2117,scole@hope alaska.org,2301 Sockeye Circle,Dillingham,99576
Hope - Yukla,100210,3,"Hope Community Resources, Inc.",561-5335,sheldon-jackson@hopealaska.org,4221 Yukla Circle,Anchorage,99504
"Hope Haven Assisted Living, LLC",100744,15,"Hope Haven Assisted Living, LLC",374-9785,gladysegger@yahoo.com,1511 21st Avenue,Fairbanks,99701
Horizon Assisted Living of Fairbanks I,101028,8,"Horizon Assisted Living of Fairbanks, LLC",978-2316,horizon_alf@yahoo.com,821 17th Avenue,Fairbanks,99701
Horizon Assisted Living of Fairbanks II,101288,2,"Horizon Assisted Living of Fairbanks, LLC",978-2316,horizon_alf@yahoo.com,819 17th Avenue Apt. 112,Fairbanks,99701
Horizon House Assisted Living Fairbanks III,101385,1,"Horizon Assisted Living Fairbanks, LLC",,brian.kilpatrick@HALFairbanks.com,1902 Rickert Street Apt. #24,Fairbanks,99701
House of Gold ALH,101048,5,Jose Pentecostes,868-3775,jaygazmen@yahoo.com,4840 Leah Court,Anchorage,99508
House of Shalom E. 52nd,101206,5,"House of Shalom Assisted Living, LLC",351-4994,emegpd2004m@yahoo.com,2745 Meadow Wood Circle,Anchorage,99516
iCare Assisted Living Home,101302,5,Bernadith Lloren-Paris,,bml_021177@yahoo.com,5535 Chilkoot Ct.,Anchorage,99504
Ikayuqti,101399,10,Native Village of Unalakleet (NVU),624-3622,assisted.living@unkira.org,270 Main Street,Unalakleet,99684
Iluminada's Assisted Living Home,100681,5,Iluminada Ibay,868-2738,lumen1@yahoo.com,7619 Winchester Street,Anchorage,99507
Iluminada's Assisted Living Home II,100831,5,Iluminada Ibay,223-8840,lumen1@yahoo.com,2326 E 72nd Avenue,Anchorage,99507
Immaculate Concepcion Home,5,5,"Immaculate Concepcion Homes, LLC",522-5671,florence925@gmail.com,7110 Miranda Drive,Anchorage,99507
Immaculate Concepcion Home II,202,5,"Immaculate Concepcion Homes, LLC",522-5671,florence925@gmail.com,8720 Barney Circle,Anchorage,99507
Immaculated Concepcion,100549,5,Jeanephere Lorenzana,903-7446,jeanephere@acsalaska.net,1836 Laura Circle,Anchorage,99508
In His Image LLC,101277,4,In His Image LLC,907-222-3832,joyserafin1972@gmail.com,2956 Sheldon JacksonStreet,Anchorage,99508
"Independence Lodge, LLC",101294,2,"Independence Lodge, LLC",351-5931,Independencelodge@outlook.com,6941 Stanley Drive,Anchorage,99518
Independence Park Assisted Living,101009,3,Daniel & Elisha Martinez,350-2295,dan.martinez@live.com,9618 Newhaven Loop,Anchorage,99507
Jacobs Place,101230,1,Vasillios Blanas,345-8654,akplayer2@yahoo.com,2117 Dolly Varden Avenue,Anchorage,99516
Jade Assisted Living Home,100905,5,Eloisa Aguilar,952-2697,jayd1012@yahoo.com,9280 Aphrodite Drive,Anchorage,99515
Jamiezon ALH II,100949,3,Maria Corazon Garcia,868-5296,bubugarcia@alaska.net,3601 Scenic View Drive,Anchorage,99504
Jamiezon Assisted Living Home,100486,5,Maria Corazon Garcia,868-5296,bubugarcia@alaska.net,2280 Lake George Drive,Anchorage,99504
Jay Bird Assisted Living Home,100716,1,"Connecting Ties, Inc.",835-3274,r.james@cties.org,"330 Jago Street, Apartment A",Valdez,99686
Jeffry's Hope,100030,5,"Hope Community Resources, Inc.",561-5335,ocean@hopealaska.org,331 W. 121st Avenue,Anchorage,99515
Jeng Sallah ALH,101248,5,Samba Jeng,903-7873,samba.jeng123@gmail.com,3201 Doris Street,Anchorage,99517
"Jewel Lake Assisted Living Home, LLC",101014,10,"Jewel Lake Assisted Living Home, LLC",243-9570,jewellakealh@yahoo.com,4132 West 88th Avenue,Anchorage,99502
JMR Manor,100863,5,Jun Mark Robinson (not Rosie Robinson/ John Robinson,230-8486,junmark33@gmail.com,2121 E. 73rd Avenue Unit B,Anchorage,99507
Jones ALH,101337,2,Zachery Jones,541-405-0193,zachjonesafh@gmail.com,32 Craig Avenue,Fairbanks,99709
Joshua House LLC,101158,10,Linda & Maurice Hendrickson,357-5413,Joshuahouse.alh@gmail.com,2180 S. Foothills Blvd,Wasilla,99654
Kachemak Group Home,100862,4,"Southern Home Care Services, Inc. dba All Ways Caring HomeCare",262-9400,marcella.livesay@rescare.com,4631 Kachemak Drive,Homer,99603
Kamalani ALH,100727,5,Zayda Pentecostes,868-3924,switzayda@yahoo.com,310 Bunnell Street,Anchorage,99508
Kamalani II ALH,100951,5,Zayda Pentecostes,952-0427,switzayda@yahoo.com,1601 Brink Drive,Anchorage,99504
Karibu Home,101428,2,Ronardo (Ron) Coleman,559-974-0576,ugottaunderstand@yahoo.com,1617 Crescent Drive,Anchorage,99508
Kearney Home,100487,2,Darlene Kearney,376-1695,dardar@mtaonline.net,23591 Ayershire Avenue,Wasilla,99654
Keen Eye Care Assisted Living,100577,5,Cristina Johnson,262-6468,uniqueca68@yahoo.com,382 S. Kobuk Street,Soldotna,99669
Keiki Home II,100255,5,"Keiki Home, LLC",929-1463,ROY.PENTECOSTES@GMAIL.COM,6802 Zurich Street,Anchorage,99507
Kesanooksisk Assisted Living Home,100204,1,Maria Kesanooksisk,,kesanook@gmail.com,108 Osprey Street,Sitka,99835
Ketchikan Kottage,100636,2,Kathy Fitzgerald,247-7048,mnkfitz@kpunet.net or mnkfitz@live.com,3810 Chatham Avenue,Ketchikan,99901
Kham Assisted Living Home,101255,2,Chimee Tsangwa & Urgen Rungdo,885-8580,dechensoha@gmail.com,3200 W. 29th Avenue,Anchorage,99517
Kindly Assisted Living Home,101334,5,Denise & Julius Carino,,denisepanadero@hotmail.com,5420 Avila Court,Anchorage,99508
Kiwi Assisted Living Home,100351,5,Roy Francisco,227-5573 (Roy cell),roufranc@yahoo.com,1800 Northwestern Avenue,Anchorage,99508
Kiwi Assisted Living Home III,100923,5,Roy Francisco,227-5573 (Roy cell),roufranc@yahoo.com,2948 Princeton Way,Anchorage,99508
Kodiak Assisted Living and Group Home,101281,4,"Strong Solutions, LLP",654-5546,strong99615@gmail.com,421 Curlew Way,Kodiak,99615
Lake Street House,361792,5,Maniilaq Association,442-2224,bree.swanson@maniilaq.org,818 Lake Street,Kotzebue,99752
Lakeview Home,235,11,"Lake View Homes ALH, LLC",338-2712,lakeviewalh@gmail.com,2675 Wesleyan Drive,Anchorage,99508
Lakeview Home II,175,5,"Lake View Homes ALH, LLC",333-8921,lakeviewalh@gmail.com,2327 East 72nd Avenue,Anchorage,99507
Lakeview Home III,100495,5,"Lake View Homes ALH, LLC",333-8921,lakeviewalh@gmail.com,3838 Scenic View Drive,Anchorage,99504
Let Us Care Assisted Living Home,100476,4,Marion J. Griffin,452-5624,mg482000@yahoo.com,3405 Sandvik Street,Fairbanks,99709
Lhasa Assisted Living,101204,3,Sherab Tenzin,907-830-9154,tenzin@gci.net,4156 Checkmate Drive,Anchorage,99508
Life to the Fullest,101139,2,Matthew and Bonnie Jeselnik,,lifetothefullestllc@yahoo.com,1233 5th Avenue,Fairbanks,99701
"Lighthouse Home Care 1, LLC.",101322,5,"Lighthouse Home Care 1, LLC.",522-2509,sandritaah@yahoo.com,1154 Oceanview Drive,Anchorage,99515
"Lily Ann's Home Care, Inc.",101013,5,"Lily Ann's Home Care, Inc.",646-0702,lilyanns@live.com,935 Norman Street,Anchorage,99504
"Lily Pond ALH, LLC",101312,2,Janice and Carlo Saliganan,,saligananjanice@yahoo.com,1501 Lily Pond Circle,Anchorage,99507
Linda's Place,100993,5,Linda's Assisted Living LLC,301-3833,frommerleslie@yahoo.com,900 Allison Circle,Anchorage,99515
"Little Genie Assisted Living Home, LLC",101201,5,"Little Genie Assisted Living Home, LLC",512-6426,pandesal61@gmail.com,2229 Sunrise Drive,Anchorage,99508
LiveABLE SOULutions,101253,2,Audra Yewchin,929-2253,audranabinger@gmail.com,1504 W. 47th Avenue Unit B,Anchorage,99503
Living Legacies,101409,2,Claudia Wright,,claudiamwright83@gmail.com,144 Craig Ave APT A,Fairbanks,99701
Living Stone Home Care,100516,30,"Living Stone Home Care, LLC",230-2402,livingstonehomecare@gmail.com/Vines907@gmail.com,3901 West 86th Avenue,Anchorage,99502
"Lynne's Home Care, LLC",100399,5,Erlinda Rivera,334-3392,lynnes143@yahoo.com,7330 Winchester Street,Anchorage,99507
M&M Assisted Living,361793,3,Mercy Sonza,274-0903,sonzamercy@yahoo.com,7522 Grey Wolf Circle,Anchorage,99507
M.G.D. ALH,101101,4,Merlina Duggan,227-9689,paulo_tomeldan@yahoo.com,243 Klevin Street,Anchorage,99508
MacGregor House,101307,5,Tina Sampley,841-1514,hopkinstina1@gmail.com,3471 Wren Street,Wasilla,99623
"Magnolia Manor, LLC",101107,5,Magnolia Manor LLC(Cheryl & Theodore Sayen),631-3354,magnoliamanor12@outlook.com/vfield76@gmail.com/,751 N. Someret Circle,Wasilla,99654
Maile ALH,100808,5,Cresencia Santos,808-861-7471,cresencia61@yahoo.com,2634 Carroll Place Unit C,Anchorage,99508
Maletch's ALH,100888,5,Maletch's Assisted Living Home LLC,350-5422,maletch_alh@yahoo.com,8038 Sandy Circle,Anchorage,99507
Maletch's ALH II,101097,5,Maletch's Assisted Living Home LLC,,maletch_alh@yahoo.com,4143 Scenic View Drive,Anchorage,99504
"Malupo’s Haven ALH, LLC",101135,5,"Malupo's Haven Assisted Living Home, LLC",907-222-0389,maluposhavenalh@gmail.com,7221 Kiska Circle,Anchorage,99504
Mama's Assisted Living Home,244,5,"Mama's Assisted Living Home, Inc.",301-0111,mamashome@gci.net,9270 Aphrodite Drive,Anchorage,99515
Mama's Care,101223,5,Lamin Jammeh and Mama Sidibeh,782-8702,stjammeh@gmail.com,7924 Parkway Drive,Anchorage,99504
Marie Langley Assisted Living Home,100849,2,Marie Langley Assisted Living Home LLC,360-0196,marielangley907@gmail.com,2840 E. 84th Ave. Unit B,Anchorage,99507
Marie Langley Assisted Living Home #2,100996,5,Marie Langley Assisted Living Home LLC,360-0196,marielangley907@gmail.com,2201 W. 48th Avenue,Anchorage,99517
Marlow Manor Assisted Living Facility,101103,54,"Sourdough's Housing, LLC",338-8708,theresa@marlowmanor.com,2030 Muldoon Road,Anchorage,99504
Mary Joanne Home Care,100940,2,Mary J. Corpus,248-1038,joebendec41993@yahoo.com,3432 W. 80th Avenue,Anchorage,99502
Mary McGrew ALH,361454,3,Johnny & Mary McGrew,276-6751,kayria01@gmail.com,725 Winter Haven Street,Anchorage,99504
May ALH,101003,5,Rebecca Bonaparte,744-1850,rebecca_bonaparte@yahoo.com,2481 Chandalar Drive,Anchorage,99504
M-Care,101404,5,Marilou Pugeda,,malougelindon22@gmail.com,1023 East 28th Avenue,Anchorage,99508
McKenzie Assisted Living Home I,100249,8,Shannon McKenzie,336-0080,mckenziesuites@yahoo.com,"3913 Lynn Drive, Apt A & B",Anchorage,99508
McKenzie's ALH II,100683,4,Shannon McKenzie,336-0080,mckenziesuites@yahoo.com,"3913 Lynn Drive, Apt C & D",Anchorage,99508
McKinely Care LLC,101430,37,McKinley Care LLC,268-6576,jack@mckinley.care,337 East 4th Ave Unit B,Anchorage,99501
Meaningful Living,101146,4,Travis & Whitney Christiansen,854-6277,meaningful.livingAK@gmail.com,10845 Anvik Circle,Eagle River,99577
Melanie's Place Unit A,101378,3,AK Nurtured Living LLC,903-1930,aknurturedliving@gmail.com,1631 W. Melanie Ave Unit A,Wasilla,99654
Melanie's Place Unit B,101379,3,"AK Nurtured Livng, LLC",903-1930,aknurturedliving@gmail.com,1631 W. Melanie Ave Unit B,Wasilla,99654
Melinda's Home Care,101286,2,Melinda McGrew,907-240-3266,lyndapromise@yahoo.com,8116 Sandy Circle,Anchorage,99507
Melissa's ALH,101059,5,Melissa Lingad,929-7827,melissalingad@gmail.com,7691 Winchester Street,Anchorage,99507
Mercy Saw Me Assisted Living Home,101183,2,Lydia Quinn & Benita Sanguinetti,229-2857,mercysawme@gci.net,1432 Medfra Street,Anchorage,99501
Midnight Sun ALH,101244,1,"AK Goalkeeping, LLC.",,brandyaburke@gmail.com,5531 East 40th Avenue,Anchorage,99504
Mind and Soul,101320,2,Eloise and Elford Joseph,,eloisejoseph@aol.com,6124 E. 12th Avenue #D2,Anchorage,99504
Miracle Home Care,101178,5,John and Milagros Ragland,357-0078,Miracle.homecare@yahoo.com,2200 E. Wolverine Circle,Wasilla,99654
Montana Creek Assisted Living Home,100437,3,Tina and Dan McCluskey,733-5037,dtmccl@me.com,19205 E. Future Road,Talkeetna,99676
Moore Hands of Care,101093,3,Linda Moore,357-4922,moore1@mtaonline.net,6695 W. Wellington Drive,Wasilla,99623
Mount Carmel Assisted Living Home,101410,5,HRG Healthcare LLC,677-0286,hrghealthcarellc@gmail.com,6531 E. 9th Avenue,Anchorage,99504
Mount Moriah Assisted Living Home,101318,5,"AMG Healthcare, LLC",929-0614,amghealthcarellc@gmail.com,3951 Scenic View Drive,Anchorage,99504
Mount Vista Assisted Living Home,101345,1,Robert Carpenter and LaVonna Currey,978-9556,CarpenterRL@ak.net,572 Mount Vista Drive,Fairbanks,99712
Mount Zion Assisted Living Home,101273,5,HRG Healthcare LLC,917-582-5952,hrghealthcarellc@gmail.com,6720 East 11th Avenue,Anchorage,99504
Mountain View Assisted Living,276,30,City of Petersburg,772-2445,sbell@petersburgak.gov,16 N. 12th Street,Petersburg,99833
Mountain Vista ALH,100803,5,AOF Alaska LLC,622-2687,scott@aofalaska.com,19412 First Street,Eagle River,99577
MSSCA - Big Mack (Formerly Soaring Crane),100614,3,Mat Su Services for Children and Adults,352-1200,scott.kubacki@mssca.org,2401 S. Mack Drive,Wasilla,99654
MSSCA - Citation (Formerly Park Place),100962,2,Mat-Su Services for Children & Adults,352-1200,scott.kubacki@mssca.org,1819 North Citation Circle,Palmer,99645
MSSCA - Fallen Leaf,100506,2,Mat Su Services for Children and Adults,352-1200,scott.kubacki@mssca.org,255 W. Fallen Leaf Circle,Wasilla,99654
MSSCA - Kertulla Court,100766,2,Mat Su Services for Children and Adults,352-1200,scott.kubacki@mssca.org,3955 Kertulla Court #1,Wasilla,99654
MSSCA - Lone Cub,100344,2,Mat Su Services for Children and Adults,352-1200,scott.kubacki@mssca.org,850 E. Lone Cub Drive,Wasilla,99654
MSSCA - Pine Ridge (Formerly Kertulla Court #2),100878,2,Mat Su Services for Children and Adults,352-1200,scott.kubacki@mssca.org,791 N. Pine Ridge Loop,Wasilla,99654
MSSCA - Siberian Pea (Formerly Country Wood),100715,2,Mat Su Services for Children and Adults,352-1200,scott.kubacki@mssca.org,2650 S. Siberian Pea,Wasilla,99654
MSSCA - Tundra Rose,100386,2,Mat Su Services for Children and Adults,352-1200,scott.kubacki@mssca.org,2515 Tundra Rose Drive,Wasilla,99654
MSSCA - Vicki Way,100664,3,Mat Su Services for Children and Adults,352-1200,scott.kubacki@mssca.org,1000 Vicki Way,Wasilla,99654
"My Father's House Assisted Living Home, LLC",100525,5,Maria Davison,334-3391,doddie@gci.net,6951 Shane Place,Anchorage,99507
My Home ALH,101329,5,My Home LLC,,rebecca.clerc@gmail.com,6865 Viburnum Drive,Anchorage,99504
NAATH Assisted Living Home,101240,4,James Puol & Nyasunday Machar,885-9461,puoljames616@yahoo.com,1102  & 1104 W 29th Place,Anchorage,99503
Nadon Family Home,100947,5,"Nadon Family Home, LLC.",350-8702,raynadon@gmail.com,6955 Caravelle Drive,Anchorage,99502
Nadon Family Home II,101242,2,"Nadon Family Home, LLC.",350-8702,raynadon@gmail.com,2211 West 48th Avenue,Anchorage,99517
Nadon Family Home III,101278,2,"Nadon Family Home, LLC.",350-4545,raynadon@gmail.com,2903 Kingfisher Drive,Anchorage,99508
Nadon Family Home IV,101323,2,"Nadon Family Home, LLC.",350-8702,raynadon@gmail.com,40465 S. Parks Hwy House #1,Susitna North,99623
Nadon Family Home V,101349,5,Nadon Family Home LLC,290-0756,kjnadon@gmail.com,1506 Luke Street Unit B,Fairbanks,99709
Nadon Family Home VI,101359,2,"Nadon Family Home, LLC.",350-8702,raynadon@gmail.com,40465 S. Parks Hwy House #2,Susitna North,99623
Nadon Family Home VII,101388,3,"Nadon Family Home, LLC.",,raynadon@gmail.com,4130 Tweed Court Unit #2,Wasilla,99623
Nana's House Assisted Living Home,101185,5,Nana's House LLC,360-2126/ 341-9969,nanawyche@yahoo.com,8440 Blackberry Street,Anchorage,99502
Nana's House Assisted Living Home II,101377,5,"Nana's House, LLC",907-360-2126,nanawyche@yahoo.com,7349 Branche Drive,Anchorage,99518
Nettie's Assisted Living Home,101163,2,Jeanette Hickok,272-6612,iamworthit_2000@yahoo.com,1566 Valarian Street,Anchorage,99508
New Concept I,361283,16,New Concept Assisted Living LLC,,newconcept@acsalaska.net,354 Flower Street,Anchorage,99508
New Haven Assisted Living Home,100390,5,"New Haven Home, Inc.",350-4080,jcnewhaven@gci.net,9230 Aphrodite Drive,Anchorage,99515
New Horizons,100480,3,"Above the Horizon, LLC",232-8993,bowlesnbowles@live.com,3300 Amber Bay Loop,Anchorage,99515
Nicholson's Assisted Living Inc,116,10,Nicholson's Assisted Living Inc,283-6684,tmnicholson@gci.net,36601 Navigator Street,Kenai,99611
Nonomi House,100449,3,Lisa Newell,373-5644,lmnewell2009@hotmail.com,7945 Settlers Bay Drive,Wasilla,99687
Norbu Linka,100884,4,Tsewang Tsangwa & Karma Yonten,522-2157,karma@gci.net,3304 Checkmate Drive,Anchorage,99508
Nordic Living - Kachemak Way,101373,5,Nordic Living LLC,907-841-6140,britta.nordicliving@gmail.com,4201 Kachemak Way,Homer,99603
Northbridge Castle Heights,101030,8,"Northbridge, LLC",770-0495,renae@northbridgellc.com,4119 Checkmate Drive,Anchorage,99508
Northbridge Lynnwood,101083,2,"Northbridge, LLC",770-0495,renae@northbridgellc.com,344 Lynnwood Drive Unit B,Anchorage,99518
Northbridge Lynwood 2,101090,2,"Northbridge, LLC",770-0495,renae@northbridgellc.com,344 Lynnwood Drive Unit A,Anchorage,99518
Northbridge Nanuq,101133,3,"Northbridge, LLC",770-0495,renae@northbridgellc.com,1414 Ermine Street,Anchorage,99504
Northbridge Tikishla,101123,3,"Northbridge, LLC",770-0495,renae@northbridgellc.com,3721 E. 19th Avenue,Anchorage,99508
Northern Comfort,241,16,5-D Corporation,746-6493,northerncomfort@akassistedliving.com,2800 N. Lagoon Drive,Wasilla,99654
Northern Lights ALH,226,4,Aleks & Jelena Prost,277-0378,alexprost@hotmail.com,1640 Vashon Circle,Anchorage,99515
"Northern Living Centers, LLC",100409,12,Karen and Darrell Rhoades,376-5828,nlc@mtaonline.net,2795 W. Stonebridge Drive,Wasilla,99654
"Oasis Assisted Living Home, LLC",101265,13,"Oasis Assisted Living Home, LLC",222-1205/ 865-7968,oasisalh@gmail.com,1701 Cleveland Avenue,Anchorage,99517
O'Bie's Adobe Magnificent View,101099,5,Charles E. O'Bryan Jr.,376-6240,akobryan@me.com,8290 E. Magnificent View Dr.,Palmer,99645
O'Bies Adobe Meander Home,101371,4,Charles E. O'Bryan Jr.,,akobryan@me.com,3201 S. Meander Dr. Unit 2,Wasilla,99654
"Ohana Assisted Living Home, LLC",101426,2,"Ohana Assisted Living Home, LLC",317-5608,ohanaALH@outlook.com,7411 Tyone Ct.,Anchorage,99504
Olsen's ALH,354304,2,Mary Ann & Wayne Olsen,225-2001,maolsen@kpunet.net,4604 N. Tongass Hwy,Ketchikan,99901
Olympus House,262,5,Yolanda Campos,770-2730,olympushouse@gmail.com,1621 Demeter Drive,Anchorage,99515
Open Arms Assisted Living West,101391,5,Open Arms Assisted Living West LLC,250-9378,openarmsakwest@gmail.com,3660 W. 78th Ave,Anchorage,99502
"Open Arms Assisted Living, LLC",101271,2,"Open Arms Assisted Living, LLC",365-9504,openarmsak@gmail.com,3844 Helvetia Drive,Anchorage,99508
"Opus Memoria II, LLC",101166,5,"Opus Memoria, LLC",677-1919,hickel@opusmemoria.com,4880 Chuck Drive,Anchorage,99507
"Opus Memoria, LLC",101165,5,"Opus Memoria, LLC",677-1919,hickel@opusmemoria.com,4890 Chuck Drive,Anchorage,99507
Orchard Assisted Living,101114,5,Jessica Fulton,770-0511,fulton.jessica@yahoo.com,1001 Cherry Street Unit A,Anchorage,99504
Otter House,100983,3,Ramona 'Lynne' Stevens,222-6553,southernbellak@yahoo.com,1503 Otter Street,Anchorage,99504
Our Home,100528,5,Marichelle Pagtakhan,349-2417 (Not in service),richelle1660@gmail.com,1660 Thuja Avenue,Anchorage,99507
Our Lady of Fatima LLC,100559,5,Gina Nidoy,529-7495,olof_assistedlivinghome@yahoo.com,4030 Defiance Street,Anchorage,99504
Our Lady of Lourdes LLC,11,5,"Our Lady of Lourdes, LLC",333-4692,leocrv69@yahoo.com,1931 Greendale Drive,Anchorage,99504
Padre Pio Assisted Living Home,101197,5,Bryan Bolo,350-2375,bluntbryan2000@yahoo.com,8423 Dunlap Court,Anchorage,99504
Palos Verdes House,101251,4,"Focus, Inc.",907-694-6002,dpoage@focusoutreach.org,17311 Palos Verdes Drive,Eagle River,99577
Parker Too ALH,101259,2,Frances Reid,301-3355,franwilliams1011@yahoo.com,8140 E. 6th Avenue,Anchorage,99504
Parson Home,101072,5,James and Barbara Parson,250-5769,parson78@hotmail.com,9801 Spring Hill Drive,Anchorage,99507
"Pathways, LLC.",101143,5,"Pathways, LLC.",435-3938,pathwaysllc@outlook.com; bsherbondy@msn.com,45864 Inlet Breeze,Kenai,99611
"Patricia Jane's, LLC.",101232,5,"Patricia Jane's, LLC.",903-5224,PatriciaJanesllc@gmail.com,8501 Gordon Circle,Anchorage,99507
Peace & Harmony ALH,100909,4,Jacqueline D. Ramos,230-0502,somar@ak.net,107 Matthew Paul Way,Anchorage,99504
Peace and Harmony ALH #2,200000,5,"Raymond Ramos, Jacqueline Ramos, Raymond Michael Ramos, Raymond Marcus Ramos and Dayna Wilson",310-6434,somar@ak.net,840 Jay Circle,Anchorage,99504
Perpetual Help Care Center,101029,4,"Perpetual Care of AK , LLC",677-1901,perpetualcare.ak@gci.net,2531 Trisha Avenue,Anchorage,99516
Pine Creek,361510,16,Personalized Assisted Living Inc.,646-0797,erinterry91@yahoo.com,341 N. Bunn Street,Anchorage,99508
Pioneers' Home-Anchorage,67,169,State of Alaska,276-3414,richard.saville@alaska.gov,923 W. 11th Avenue,Anchorage,99501
Pioneers' Home-Fairbanks,52,91,State of Alaska,456-4372,angie.howard@alaska.gov,2221 Eagan Avenue,Fairbanks,99701
Pioneers' Home-Juneau,66,49,State of Alaska,780-6422 (ext 213),gina.delrosario@alaska.gov,4675 Glacier Highway,Juneau,99801
Pioneers' Home-Ketchikan,60,45,State of Alaska,225-4111,sue.mickelson@alaska.gov,141 Bryant Street,Ketchikan,99901
Pioneers' Home-Sitka,64,65,State of Alaska,747-3213,dayna.arnold@alaska.gov,120 Katlian Street,Sitka,99835
"Precious Care Assisted Living Facility, LLC",101012,7,"Precious Care Assisted Living Facility, LLC",227-5421,preciouscare@gci.net,3773 Scenic View Drive,Anchorage,99504
Primrose Retirement Community of Wasilla,101272,56,"Primrose Senior Holdings, LLC",373-5500,tnorman@primroseretirement.com,889 N. Elkhorn Drive,Wasilla,99654
Providence Forest View Assisted Living Care Center,100899,10,Providence Health Systems,212-4700,Karen.Lefler@providenc.org,3831 Piper Street  Ste. S333,Anchorage,99508
Providence Horizon House,3,65,Providence Health Systems,261-4140,theresa.gleason@providence.org,4140 Folker Street,Anchorage,99508
Providence Horizon House-Cottages,229,25,Providence Health Systems,261-4140,theresa.gleason@providence.org,4140 Folker Street,Anchorage,99508
Quality and Quantity Care Services,100368,4,"Quality and Quantity Care Services, LLC",229-2056,Ousmanfattyhydara@yahoo.com,848 Elaine Drive,Anchorage,99504
Queen Victoria,100254,2,Jessica Brunsting,441-2105,houghtonhill@hotmail.com,20176 Constitution Drive,Eagle River,99577
Rabe Assisted Living Home,100788,5,"Rabe Assisted Living Home, LLC",727-4723,balgenorth5@aol.com,4941 Alpha Circle,Anchorage,99516
RAD Home,101418,5,"Residential Adults with Disabilities, LLC.",745-1171,cblakney@outlook.com,5411 N Bonnie Dr,Palmer,99645
Ramona's Home,100241,4,Ramona and Jim Godsby,357-6906,monag@gci.net,6921 West Werner Drive,Wasilla,99687
Randel Home Care I,100471,5,Theresa and Rodrigo Malijan,743-0818,randelhomecare@yahoo.com,9290 Aphrodite Drive,Anchorage,99515
Randel Home Care II,100701,5,Theresa and Rodrigo Malijan,743-0818,randelhomecare@yahoo.com,7637 Winchester Street,Anchorage,99507
Randel Home Care III,100702,5,Theresa and Rodrigo Malijan,743-0818,randelhomecare@yahoo.com,7655 Winchester Street,Anchorage,99507
Raven,101227,4,Genacta In-Home Care,631-3078,jeanne.owen@genacta.com,5545 S Irwin Drive #4,Wasilla,99654
Raven's View,100699,3,Ella Savage,373-2581,sibonz@hotmail.com,1051 Rainbow Park Drive,Wasilla,99654
REACH - Glacier Woods,100298,5,REACH Inc.,796-7235,rdriscoll@reachak.org,3514 Mendenhall Loop Road,Juneau,99801
REACH - Mark Alan Home,358367,5,REACH Inc.,796-7235,rdriscoll@reachak.org,1814 Mark Alan Street,Juneau,99801
REACH - Mendenhall Woods,101089,4,REACH Inc.,796-7235,rdriscoll@reachak.org,3510 Mendenhall Loop Road,Juneau,99801
REACH - Steelhead,101297,5,"Reach, Inc",586-8228,rdriscoll@reachak.org,4934 Steelhead Street,Juneau,99801
Reflection Home Care,101343,2,Florence Lalia Achwil,,pdlhf@yahoo.com,4423 E. 6th Ave.,Anchorage,99508
Reflective Assisted Living Home,100815,5,Susan Taylor,332-2203,susant@gci.net,9113 Jewel Terrace Street,Anchorage,99502
"Riverquest Group Home, Inc.",101365,20,"Riverquest Group Home, Inc.",262-9600,dpeterson@riversideassistedliving.com,399 Lovers Lane,Soldotna,99669
Riverside Assisted Living Soldotna,101025,60,Riverside Assisted Living Soldotna Inc,262-9600,dpederson@riversideassistedliving.com,390 Lovers Lane,Soldotna,99669
RJP Home Care Services,100574,5,Harry & Rebecca Petrie,646-1131,reedpetrie@hotmail.com,973 Shakespeare Circle,Anchorage,99503
"Robert, Diana ALH",100306,3,Diana Robert & George Benzel,344-7729/227-4871,dianalioness@yahoo.com,6610 Round Tree Drive,Anchorage,99507
Robin's Nest ALH,100933,3,Dan & Robin Mingo,715-7284,rcazer@mtaonline.net,7750 W. Golden Drive,Wasilla,99623
Rocking Years One,54,5,Nicole Masson,451-4530,rockingyears@hotmail.com,1913 Jack Street,Fairbanks,99709
Rocking Years Two,100576,10,Nicole Masson,388-4605,rockingyears@hotmail.com,3291 Jefferson Drive,Fairbanks,99709
Rose's Care ALH,101200,5,Rose's Care ALH Inc.,,rdmissig@gci.net,7500 Wade Circle,Anchorage,99518
Rosewood Assisted Living,101236,16,Hallelujah ALH LLC,258-1141,sk@anchor-house.biz; jeremiahpasi@gmail.com,3722 Parsons Avenue,Anchorage,99508
Ruth Mingo Manor,100575,4,Dan and Robin Mingo,376-0389,rcazer@mtaonline.net,602 North Moriah Circle,Wasilla,99654
Safe Haven Assisted Living Home,101411,2,Joshua and Stephen Satterfield,338-0373,satterfieldjoshua@hotmail.com,3431 Evergreen Street,Anchorage,99504
Saint James Assisted Living,101420,5,"LOTY, LLC",317-8512,beh469@yahoo.com,2200 Roosevelt Drive,Anchorage,99517
Saint Pio Assisted Living Home 2,101360,2,Saint Pio Assisted Living Home LLC,952-1079,saintpioalh@gmail.com,2730 Brittany Drive,Anchorage,99504
Saint Pio Assisted Living Home LLC,101171,5,Robin Porte,952-1079,robinpentecostes@gmail.com,7924 Resurrection Drive,Anchorage,99504
Saint Timothy Home I,100271,5,"Saint Timothy Home, LLC",337-6364,sttimothyhome@gmail.com,12363 Division Street,Anchorage,99515
Saint Timothy Home II,283,5,"Saint Timothy Home, LLC",337-6364,sttimothyhome@gmail.com,12371 Division Street,Anchorage,99515
Saint Timothy Home III,100925,4,Romeo and Irene Escalante,337-6364,sttimothyhome@gmail.com,11621 Nix Court,Anchorage,99515
Sally Marie's ALH,100707,1,Sally Swafford,222-1743,N/A,"1545 Hoyt Street, Space 44",Anchorage,99508
Sanctuary II ALH,101252,5,Gabriel B Jones,884-6274,gabriel_b_jones@outlook.com,8901 Lakehurst Drive Unit A,Anchorage,99502
Santo Nino ALH,264,4,Nora & Ramiro Rivera,646-1341,imeldasipin@yahoo.com,2900 E. 18th Avenue,Anchorage,99508
Sauda's Helping Hands Assisted Living Home,100382,4,"Sauda's Helping Hands Assisted Living Home, LLC",332-0263,sauda3.sah@gmail.com,1735 Katrina Circle,Anchorage,99508
Scenic Manor ALH LLC,101215,5,Scenic Manor ALH LLC,770-5777,rmrrwn@yahoo.com,4009 Scenic View Drive,Anchorage,99504
"SCK Caring Hearts ALH, LLC",101105,5,"SCK Caring Hearts ALH, LLC.",201-218-6205,maricar_jordana@yahoo.com OR sckcaringhearts@yahoo,1741 Flatwater Circle,Anchorage,99507
Seaview Community Services ALH,359407,7,Seaview Community Services,224-5257,TGlanton@SEAVIEWSEWARD.ORG,1400 Chamberlain Road,Seward,99664
Second Chance Support Services,101392,8,"Second Chance Support Services, LLC.",,moluae@hotmail.com,741 Irwin Street,Anchorage,99508
Second Chances,101052,4,Michael Robinson,727-4352,robinsonfamilyzoo@gmail.com,21342 Torkelson Circle,Chugiak,99567
Serene Grace Assisted Living Home,101074,5,"Serene Grace Assisted Living Home, LLC.",272-4073,serenegracealh@gmail.com,3639 E. 74th Avenue,Anchorage,99507
Serene Grace Assisted Living Home II,101199,5,"Serene Grace Assisted Living Home, LLC.",272-4073,serenegracealh@gmail.com,7810 Alpine View Circle,Anchorage,99507
"Serenity Care ALH, LLC.",101305,4,"Serenity Care, LLC.",201-891-1644,serenitycarealh@yahoo.com,321 Thomas Circle,Anchorage,99508
Serenity Suites,100992,5,Beni & Troy Acton,,serenitysuitesak@yahoo.com,1540 E. 17th Avenue,Anchorage,99501
Serenity Suites Too,101256,5,Troy and Benedicta Acton,764-7639,serenitysuitesak@yahoo.com,4210 Galactica Drive,Anchorage,99517
Shaligo Homes,101224,2,Sharon Pollard,205-9695,shaligohomes@gmail.com,4434 E. 5th Avenue,Anchorage,99508
Shambala ALH,100467,2,Kelly Wilson,868-2655,kw_tsangba@yahoo.com,8848 Gloralee Street,Anchorage,99502
Sharon's Assisted Living,100256,2,Sharon D Scott,868-1056,mattscott718@gmail.com,1142 E. 13th Avenue,Anchorage,99501
Shepherd's Home Care,101085,3,Shepherds Home Care LLC,332-0627,ptyrell2@msn.com,245 Fireoved Drive,Anchorage,99508
Shepherd's Home Care 2,101157,5,Shepherds Home Care LLC,268-8148,ptyrell2@msn.com,321 Ray Street,Anchorage,99508
Sheyla's Place,100474,5,Sheyla M. Rook,727-4504,sheylarook@aol.com,3724 E. 16th Avenue,Anchorage,99508
"Shine Bright Care, LLC",101279,2,"Shine Bright Care, LLC",,bkeodouangdy@shinebrightcare.com,1573 Moss Creek Ave.,Anchorage,99507
"Shine Bright Care, LLC 2",101369,5,"Shine Bright Care, LLC",317-9657,bkeodouangdy@shinebrightcare.com,1718 North Fanciful Place,Wasilla,99654
"Silver Lining ALH, LLC.",101424,2,"Silver Lining ALH, LLC.",205-0696,silverliningalh@yahoo.com,310 E 46th Ave,Anchorage,99503
Simply Blue,101131,5,"Simply Blue, ALH, LLC",770-1179,,7035 Redhawk Circle,Anchorage,99507
Skyline Assisted Living Home LLC,100620,4,Skyline Assisted Living Home LLC,598-1993,tanashepard@hotmail.com; skyline-ALH-LLC@hotmail.c,63540 Skyline Drive,Homer,99603
Smith ALH,100378,3,Jackie Smith,376-1096,jls907ak@gmail.com,2375 E. Vision View Drive,Wasilla,99654
"Snow Circle ALH, LLC",100903,5,"Snow Circle ALH, LLC",677-8562,snowcirclealh@yahoo.com,"2634 Carroll Place, Unit 1",Anchorage,99508
Snow City Assisted Living Home,101403,5,Marinelle Mantojac,,snowcirclealh@yahoo.com,2634 Carroll Place Unit B,Anchorage,99508
"Southern Living Assisted Living Home, LTD",207,5,"Southern Living Assisted Living Home, LTD",349-0999/351-0411 cell,nursemate43@yahoo.com,9639 Musket Ball Circle,Anchorage,99507
St. Anne Assisted Living Home,166,4,"St. Anne Assisted Living Home, Inc.",336-4010,saintannealh@yahoo.com,9140 Shady Bay Circle,Anchorage,99507
St. Anne II Assisted Living Home,215,5,"St. Anne Assisted Living Home, Inc.",336-4010,saintannealh@yahoo.com,7452 Nathan Drive,Anchorage,99518
"St. Bernadette ALH, LLC",101401,5,"St. Bernadette ALH, LLC",,rallanfran@aol.com,8211 Majestic Drive,Anchorage,99504
St. Joseph Assisted Living,101427,2,DeBand Global LLC,313-9278,masslawal@yahoo.com,13900 Specking Avenue,Anchorage,99515
St. Lawrence Assisted Living Home II,205,5,"St. Lawrence ALH, Inc.",244-9267,tessergio_alh88@hotmail.com,9310 Aphrodite Drive,Anchorage,99515
St. Lawrence Assisted Living Home III,100772,5,"St. Lawrence ALH, Inc.",244-9267,tessergio_alh88@hotmail.com,600 E. 120th Avenue,Anchorage,99515
St. Mary's ALH #2,100566,5,Teresa Gauthier,929-1588,tgauthier1014@aol.com,4001 E. 3rd Avenue,Anchorage,99508
St. Mary's Assisted Living Home,284,5,Teresa Gauthier,349-0446,tgauthier1014@aol.com,441 Bonnie Jean Court,Anchorage,99515
St. Paul Home Care Services ALH,100929,2,Jennie D. Tianggo,N/A,stpaulhomecare@yahoo.com,3505 E. 18th Avenue,Anchorage,99508
St. Thomas II ALH,100720,5,Fledz Lastimoso,727-1965,fledz1966@yahoo.com,6885 Town and Country Place,Anchorage,99502
Stearns Assisted Living,100098,2,Bruce Farnsworth,333-6903,whenpoetsfly@hotmail.com,3802 Deborah Lane,Anchorage,99504
Sterling Care Group Home,100860,4,"Southern Home Care Services, Inc. dba All Ways Caring HomeCare",262-9400,Marcella.Livesay@rescare.com; wendy.stroman@allwayscaring.com,48390 Moose Run Avenue,Soldotna,99669
Sterling Silver Assisted Living Home,101336,12,"Sterling Silver Assisted Living Home, LLC.",262-5355,sterling.silver.cares@gmail.com,39355 Dudley Ave.,Soldotna,99669
Strong Care Castle,101017,4,Sharon Strong,223-6377,strongs95@yahoo.com,1533 Latouche Street,Anchorage,99501
"Sunrise Assisted Living Facility, LLC.",101344,15,Andrea Abena,481-1607,andrea.abena67@yahoo.com,309 Erksine Avenue,Kodiak,99615
Sunrise Assisted Living Home,101062,5,Maritte Odron,868-1229,sunrisealh@yahoo.com,8421 Greenhill Way,Anchorage,99502
Sunrise Assisted Living Home II,101125,5,Maritte Odron,868-1229,sunrisealh@yahoo.com,6261 Collins Way,Anchorage,99502
"Sunrise Community Living, LLC",101296,5,"Sunrise Community Living, LLC",644-0929,jamie@sunrisealaska.org,1707 Sunrise Drive,Anchorage,99508
Sunrise Manor ALH,227,7,Paulette Jimenez,746-7230,sunrisemanor@icloud.com,3201 Sparrow Court,Palmer,99645
Sunrise Mountain,101347,2,"All Good Homes, LLC",357-3046,jennifer@allgoodhomesllc.com,6052 West Sunrise Road,Wasilla,99654
"Sunshine Haven Assisted Living Home, LLC.",101134,2,"Sunshine Haven Assisted Living Home, LLC.",887-4416,sunshinehavenalh@gmail.com,15944 Sunset Bend Circle,Anchorage,99516
Sunview Care Assisted Living Home,101270,4,Sacred Heart Care Center LLC,,sunviewcare@gmail.com,9331 Aphrodite Drive,Anchorage,99515
Supreme Home - Bryant Circle,101084,5,"Supreme Home, LLC",830-6959,olohima@yahoo.com,2600 Bryant Circle Unit A,Anchorage,99507
"Supreme Home, LLC",100466,5,"Supreme Home, LLC",830-6959,olohima@yahoo.com,1735 Minerva Way,Anchorage,99515
"Susan's ALH,  LLC",100546,2,"Susan's Assisted Living Home, LLC",229-0496,sdweaverak@gmail.com,1506 Turpin Street,Anchorage,99504
Susitna Gardens ALH LLC,101381,5,Rebeca Jackson,,rebeca_jackson@yahoo.com,7451 Tyone Court,Anchorage,99504
Sweet Success,100939,7,"Sweet Success ALH, LLC.",444-8558,sweetsuccessalh@gmail.com,2517 West 67th Avenue,Anchorage,99502
"Symphony, ALH, LLC",101335,12,"Symphony, ALH, LLC",444-7650,symphonyalh@gmail.com,3201 E. Tudor Rd.,Anchorage,99507
Tanana Native Council,44,9,Tanana Native Council,,elders@tananatribe.org,100 Front Street,Tanana,99777
Tasi Assisted Living Home,101423,5,"Tasi Assisted Living Home, LLC",203-5768,paligutanlorraine@yahoo.com,2812 W. 29th Ave,Anchorage,99517
"TC ALH, Corp",101366,5,"TC ALH, LLC",336-9220,mcerna@gci.net,9200 Aphrodited Dr,Anchorage,99515
Tender Hearts Assisted Living,101339,2,Khaddy Jobarteh,227-7384,thejobartehs@yahoo.com,7827 Stanley Drive,Anchorage,99518
"Tendo Assisted Living Home, LLC",101214,11,"Tendo Assisted Living Home, LLC",,carolpr907@gmail.com,3500 Upland Drive,Anchorage,99504
The Anchor ALH,101231,2,Luseane Tau,929-1337,theanchoralh@gmail.com,275 Creekside Street,Anchorage,99504
The Angelus ALH,101309,5,Angelus Assisted Living Home LLC,,angelusalh@gmail.com,2220 Paxson Dr.,Anchorage,99504
The Ark of Emmanuel,100678,5,Ark of Emmanuel Assisted Living LLC,677-9289,randyvous75@yahoo.com,5454 Emmanuel Avenue,Anchorage,99508
The Ark of Emmanuel II,100898,5,Ark of Emmanuel Assisted Living LLC,830 - 5074,randyvous75@yahoo.com,8231 Majestic Drive,Anchorage,99504
The Cozy Chalet,101310,5,The Cozy Chalet Assisted Living Home LLC,441-2994,thecozychaletalh@gmail.com,3707 Mt. Blanc Circle,Anchorage,99508
The Four Angels Assisted Living,101415,5,Gladys and Jordan Stoebner,,gladysstoebner@gmail.com,3713 Robin Street,Anchorage,99504
The Joy of Living,101368,2,Patrick Sullivan,907-230-7215,joyofliving.alh@gmail.com,3314 Dickson Rd.,Anchorage,99504
The Manor,100,12,Dee Wright,247-8748,the.manor93@gmail.com,250 Heckman Street,Ketchikan,99901
The Marietta House,101094,5,Bonnie & Alex Lommel,,themariettahouse@gmail.com,3832 Young Street,Anchorage,99508
The New Creation,100477,3,Sol C. Dimapiles,744-2759,solbaltazar88@yahoo.com,4101 Northwood Drive Unit B,Anchorage,99517
The Terrace,53,40,Homer Senior Citizens Inc.,235-7655,keren@homerseniors.com,250 Herndon Avenue,Homer,99603
Thrive Assisted Living,101311,16,"Thrive Assisted Living, LLC.",952-2092,rgoodroe@hopealaska.org,9435 Nickell Circle,Anchorage,99507
Titus Assisted Living Home,100413,1,Ted & Carol Titus,,ted.titus@acsalaska.net,49840 Eider Drive,Kenai,99611
TLC Assisted Living Home,100561,6,Stefanie Hall,317-3768,Frugalicious68@yahoo.com,1023 State Street Unit A,Anchorage,99504
Tranquility Manor Estates,100954,17,Tranquility Manor LLC,746-4220,bckorman@mtaonline.net,1950 Hemmer Road,Palmer,99645
Treasures Angels,101283,2,Treasures Angels Inc.,929-0919,treasuresangels@yahoo.com,3307 Oregon Drive Unit B,Anchorage,99517
Treasures Angels 2,101400,2,Treasures Angels Inc.,764-2878,treasuresangels@yahoo.com,625 Mumford Street,Anchorage,99508
"TruCare ALH, LLC",101437,5,"TruCare ALH, LLC",644-1005,trucare.alh@gmail.com,9300 Aphrodite Drive,Anchorage,99515
True Love Assisted Living Home,100786,5,"True Love Assisted Living Home, LLC",306-2522,truelove@gci.net,8340 Northwood Street,Anchorage,99502
True Love Too ALH,100876,5,"True Love Assisted Living Home, LLC",306-2522,truelove@gci.net,2729 Beluga Bay Circle,Anchorage,99507
True North Assisted Living,101266,4,"True North Assisted Living, LLC",602-7142,tnalllc@gmail.com,9321 Aphrodite Drive,Anchorage,99515
Turnagain Assisted Living LLC,101355,5,Turnagain Assisted Living LLC,884-5410,brhunte11119@gmail.com,3406 Seppala Drive Unit B,Anchorage,99517
Twin Hearts Assisted Living for the Elderly,100593,5,Iluminada P and Eduardo Flores,339-9328,ip_flores@yahoo.com,1331 Valley St.,Anchorage,99504
UBA ALH,101290,4,Sadiku Mohammed,,dique75@yahoo.com,6730 E. 10th,Anchorage,99504
Unique Assisted Living Home,101419,5,Sarku Mboge,744-8081,sceesay16@gmail.com,1701 Tammy Avenue,Anchorage,99515
"UR Precious Assisted Living Home 2, LLC.",517649,4,"UR Precious Assisted Living Home, LLC.",770-6268,rvanjay@yahoo.com,3912 Merrill Drive,Anchorage,99517
Utopia ALH,101000,4,Wendy Hudzinski,907-841-6779,whudzinski@gmail.com,6651 N Grouse Loop,Wasilla,99654
"Valleywood ALH, LLC",101263,4,"Valleywood ALH, LLC",743-9045,jayrah0415@gmail.com,2203 Roosevelt Drive,Anchorage,99517
Wanamingo Group Home,100859,3,"Southern Home Care Services, Inc. dba ResCare HomeCare Alaska",262-9400,amber.comeau@allwayscaring.com;jstrode@allwayscaring.com,2930 Wanamingo Drive,Wasilla,99654
"Wasilla Group Home, LLC",101233,3,"Wasilla Group Home, LLC",357-0103,renne@gci.net,3660 W. Lynn Drive,Wasilla,99654
Wendy's Assisted Living Home,100887,2,Wendy Goss,738-6577,wengoss1952@yahoo.com,108 Donna Drive,Sitka,99835
"Wickersham House, LLC",100366,11,"Wickersham House, LLC",357-8342,execdir@mtaonline.net / wickershamhouse@gmail.com,3950 Wickersham Way,Wasilla,99654
Wild Iris Comfort Care,100585,6,"Candace ""Candy"" Carroll",452-2345,candace_carroll@yahoo.com,1221 3rd Avenue,Fairbanks,99701
Wild Rose Gardens # A,100134,2,Mary J Hill,746-4777,N/A,13900 Rose Garden Circle,Palmer,99645
Williams Assisted Living Home,100499,2,Leatha Williams,235-4763,havenwc@gmail.com,62100 Quinalt Avenue,Homer,99603
Williams-Reid ALH,101100,4,Frances Williams,301-3355,franwilliams1011@yahoo.com,1830 Twining Drive,Anchorage,99504
Willow Tree House,101241,2,Marcella Foisy,,marcellafoisy@hotmail.com,7310 E. Riley Alexander Circle,Palmer,99645
Winding Brook House A,101216,3,Birchtree Residential Care LLC,745-4423,russwhitney@yahoo.com,1220 N Winding Brook Loop,Palmer,99645
Winding Brook House B,101321,3,"Birchtree Residential Care, LLC",745-4423,russwhitney@yahoo.com,1220 N. Winding Brook Loop,Palmer,99645
Windy Ridge ALH,100183,3,"Lake Haven Homes, LLC",841-1380,windyridge@mtaonline.net,7781 Dean Drive,Wasilla,99654
Wing and A Prayer Assisted Living,101306,5,Deborah Sellers,907-250-7487,di.sellers@yahoo.com,9036 Kruger Dr.,Anchorage,99502
Wolf,101212,4,Genacta In-Home Care,907-631-3078,jeanne.owen@genacta.com,5545 S. Irwin Drive #2,Wasilla,99654
Yancey ALH,100484,1,Ronda Yancey,357-4674,y_ronda@yahoo.com,2200 W. Glacier Avenue,Wasilla,99654
YKHC - Bautista House,231002,10,Yukon-Kuskokwim Health Corporation,543-2242,Richard_Robb@ykhc.org,381 4th Avenue,Bethel,99559
YKHC - Camai House,101431,5,Yukon-Kuskokwim Health Corporation,543-6743,richard_robb@ykhc.org,185 Hoffman Road,Bethel,99559
YKHC - Malone Home,360146,5,Yukon-Kuskokwim Health Corporation,543-2740,Richard_Robb@ykhc.org,841 Chief Eddie Hoffman Hwy,Bethel,99559
Your Home Now ALH,100998,5,"Your Home Now ALH, LLC",929-2535,nanhette322004@yahoo.com,540 Carin Place,Anchorage,99504
Yukon Koyukuk Elder Assisted Living Facility,100907,9,Yukon Koyukuk Elder Assisted Living Consortium,656-2574,a.m.sweetsir@gmail.com,2 Mile Campion Road,Galena,99741