Facility Name,License Number,State Facility Type 2 Literal,Status,Address,City,State,Zip Code,County,Phone Number,State Facility Type 1 Literal,Capacity
10 ELIZABETH FARMS LANE UNIT #5,RCA39311,LEVEL I RESIDENTIAL CARE FACILITY,ACTIVE,10 ELIZABETH FARMS LN UNIT 5,GRAY,ME,04039-4412,CUMBERLAND,+1 (207) 878-3221,ASSISTED HOUSING,2
10 ELIZABETH FARMS LANE UNIT #6,RCA39310,LEVEL I RESIDENTIAL CARE FACILITY,ACTIVE,10 ELIZABETH FARMS LN UNIT 6,GRAY,ME,04039-4412,CUMBERLAND,+1 (207) 878-3221,ASSISTED HOUSING,2
10 ELIZABETH FARMS LANE UNIT #7,RCA39313,LEVEL I RESIDENTIAL CARE FACILITY,ACTIVE,10 ELIZABETH FARMS LN UNIT 7,GRAY,ME,04039-4412,CUMBERLAND,+1 (207) 878-3221,ASSISTED HOUSING,2
10 ELIZABETH FARMS LANE UNIT #8,RCA39312,LEVEL I RESIDENTIAL CARE FACILITY,ACTIVE,10 ELIZABETH FARMS LN UNIT 8,GRAY,ME,04039-4412,CUMBERLAND,+1 (207) 878-3221,ASSISTED HOUSING,2
10 LEGION DRIVE,PNC2326,PNMI LEVEL III RESIDENTIAL CARE FACILITY,ACTIVE,10 LEGION DR,AUGUSTA,ME,04330-6850,KENNEBEC,+1 (207) 582-8021,ASSISTED HOUSING,5
10 N GROUP HOME,RCA39185,LEVEL I RESIDENTIAL CARE FACILITY,ACTIVE,10 N ST,BANGOR,ME,04401-2561,PENOBSCOT,+1 (800) 434-3000,ASSISTED HOUSING,1
10 PINE,RCC39225,LEVEL III RESIDENTIAL CARE FACILITY,ACTIVE,10 PINE ST,AUBURN,ME,04210-5432,ANDROSCOGGIN,+1 (207) 241-8023,ASSISTED HOUSING,3
1033 HIGH STREET,RCA38921,LEVEL I RESIDENTIAL CARE FACILITY,ACTIVE,1033 HIGH ST,BATH,ME,04530-2216,SAGADAHOC,+1 (207) 504-5683,ASSISTED HOUSING,2
11 BRANCH ROAD,RCA39008,LEVEL I RESIDENTIAL CARE FACILITY,ACTIVE,11 BRANCH RD,SANFORD,ME,04073-4450,YORK,+1 (207) 608-0800,ASSISTED HOUSING,2
11 SUSAN LANE,RCC39130,LEVEL III RESIDENTIAL CARE FACILITY,ACTIVE,11 SUSAN LN,FALMOUTH,ME,04105-2527,CUMBERLAND,+1 (207) 536-4937,ASSISTED HOUSING,3
111 PROSPECT AVE,RCA39235,LEVEL I RESIDENTIAL CARE FACILITY,ACTIVE,111 PROSPECT AVE,LEWISTON,ME,04240-8718,ANDROSCOGGIN,+1 (207) 241-2810,ASSISTED HOUSING,2
112 BIRCH HILL GROUP HOME,RCA39183,LEVEL I RESIDENTIAL CARE FACILITY,ACTIVE,112 BIRCH HILL EST,BANGOR,ME,04401-2558,PENOBSCOT,+1 (800) 434-3000,ASSISTED HOUSING,1
113 CENTER STREET,ALP38775,ASSISTED LIVING PROGRAM,ACTIVE,113 CENTER ST,BANGOR,ME,04401-5072,PENOBSCOT,+1 (207) 907-7898,ASSISTED HOUSING,5
115 CENTER STREET,ALP38776,ASSISTED LIVING PROGRAM,ACTIVE,115 CENTER ST,BANGOR,ME,04401-5073,PENOBSCOT,+1 (207) 907-7898,ASSISTED HOUSING,3
116 SUMMER ST,RCC39239,LEVEL III RESIDENTIAL CARE FACILITY,ACTIVE,116 SUMMER ST,LEWISTON,ME,04240-7529,ANDROSCOGGIN,+1 (207) 241-2810,ASSISTED HOUSING,3
12 A RIVERVIEW STREET,RCC2313,LEVEL III RESIDENTIAL CARE FACILITY,ACTIVE,12A RIVERVIEW ST,SANFORD,ME,04073-2812,YORK,+1 (207) 324-8755,ASSISTED HOUSING,3
12 CLEAVES,RCA39237,LEVEL I RESIDENTIAL CARE FACILITY,ACTIVE,12 CLEAVES ST,AUBURN,ME,04210-4218,ANDROSCOGGIN,+1 (207) 241-8023,ASSISTED HOUSING,2
12 KATANA DRIVE,RCA39379,LEVEL I RESIDENTIAL CARE FACILITY,ACTIVE,12 KATANA DR,SOUTH PORTLAND,ME,04106-5528,CUMBERLAND,+1 (207) 878-3221,ASSISTED HOUSING,2
12 PRIMROSE,RCA39286,LEVEL I RESIDENTIAL CARE FACILITY,ACTIVE,12 PRIMROSE LN,GORHAM,ME,04038-1139,CUMBERLAND,+1 (207) 222-0605,ASSISTED HOUSING,2
129 FOSS STREET,RCB39124,LEVEL II RESIDENTIAL CARE FACILITY,ACTIVE,129 FOSS ST,BIDDEFORD,ME,04005-3516,YORK,+1 (207) 939-1009,ASSISTED HOUSING,3
13 A GROUP HOME,RCA39140,LEVEL I RESIDENTIAL CARE FACILITY,ACTIVE,13 A ST,BANGOR,ME,04401-2516,PENOBSCOT,+1 (800) 434-3000,ASSISTED HOUSING,2
13 D GROUP HOME,RCA39184,LEVEL I RESIDENTIAL CARE FACILITY,ACTIVE,13 D ST,BANGOR,ME,04401-2539,PENOBSCOT,+1 (800) 434-3000,ASSISTED HOUSING,1
13 LAWN AVE,RCA39277,LEVEL I RESIDENTIAL CARE FACILITY,ACTIVE,13 LAWN AVE,GORHAM,ME,04038-1118,CUMBERLAND,+1 (207) 222-0068,ASSISTED HOUSING,2
130 DOUGLAS STREET,RCA39131,LEVEL I RESIDENTIAL CARE FACILITY,ACTIVE,130 DOUGLASS ST,PORTLAND,ME,04102-2584,CUMBERLAND,+1 (207) 855-0416,ASSISTED HOUSING,2
1324 HOTEL ROAD,RCA39030,LEVEL I RESIDENTIAL CARE FACILITY,ACTIVE,1324 HOTEL RD,AUBURN,ME,04210-4025,ANDROSCOGGIN,+1 (207) 782-2726,ASSISTED HOUSING,2
133 BOLLING GROUP HOME,RCC39091,LEVEL III RESIDENTIAL CARE FACILITY,ACTIVE,133 BOLLING DR,BANGOR,ME,04401-2808,PENOBSCOT,+1 (800) 434-3000,ASSISTED HOUSING,3
134 SOUTH AVE,RCC39224,LEVEL III RESIDENTIAL CARE FACILITY,ACTIVE,134 SOUTH AVE,LEWISTON,ME,04240-5759,ANDROSCOGGIN,+1 (207) 241-2810,ASSISTED HOUSING,3
135 BOLLING GROUP HOME,RCC39092,LEVEL III RESIDENTIAL CARE FACILITY,ACTIVE,135 BOLLING DR,BANGOR,ME,04401-2808,PENOBSCOT,+1 (800) 434-3000,ASSISTED HOUSING,3
1375 HOTEL RD,RCC39226,LEVEL III RESIDENTIAL CARE FACILITY,ACTIVE,1375 HOTEL RD,AUBURN,ME,04210-4082,ANDROSCOGGIN,+1 (207) 241-8023,ASSISTED HOUSING,3
14 E GROUP HOME,RCA39181,LEVEL I RESIDENTIAL CARE FACILITY,ACTIVE,14 E ST,BANGOR,ME,04401-2549,PENOBSCOT,+1 (800) 434-3000,ASSISTED HOUSING,2
14 GLENRIDGE DRIVE,PND2186,PNMI LEVEL IV RESIDENTIAL CARE FACILITY,ACTIVE,14 GLENRIDGE DR,AUGUSTA,ME,04330-6606,KENNEBEC,+1 (207) 626-5793,ASSISTED HOUSING,8
14 RIDGE DRIVE,RCC39128,LEVEL III RESIDENTIAL CARE FACILITY,ACTIVE,14 RIDGE DR,WINDHAM,ME,04062-5411,CUMBERLAND,+1 (207) 536-4937,ASSISTED HOUSING,3
146 RIDEOUT AVE,RCC39240,LEVEL III RESIDENTIAL CARE FACILITY,ACTIVE,146 RIDEOUT AVE,LEWISTON,ME,04240-3458,ANDROSCOGGIN,+1 (207) 241-2810,ASSISTED HOUSING,3
15 BILLABONG WAY,RCC1592,LEVEL III RESIDENTIAL CARE FACILITY,ACTIVE,15 BILLABONG WAY,WINDHAM,ME,04062-3358,CUMBERLAND,+1 (207) 893-2460,ASSISTED HOUSING,3
15 LEAVITT GROUP HOME,RCA39182,LEVEL I RESIDENTIAL CARE FACILITY,ACTIVE,15 LEAVITT LN,GLENBURN,ME,04401-1013,PENOBSCOT,+1 (800) 434-3000,ASSISTED HOUSING,2
15 OAK LANE,RCA39106,LEVEL I RESIDENTIAL CARE FACILITY,ACTIVE,15 OAK LN,WINDHAM,ME,04062-5510,CUMBERLAND,+1 (207) 893-8121,ASSISTED HOUSING,2
16 CALDWELL PNMI,RCC38866,LEVEL III RESIDENTIAL CARE FACILITY,ACTIVE,16 CALDWELL RD,AUGUSTA,ME,04330-5735,KENNEBEC,+1 (207) 873-2136,ASSISTED HOUSING,6
16 E GROUP HOME,RCA39256,LEVEL I RESIDENTIAL CARE FACILITY,ACTIVE,16 E ST,BANGOR,ME,04401-2549,PENOBSCOT,+1 (800) 434-3000,ASSISTED HOUSING,2
16 LEWIS AVENUE,RCC39035,LEVEL III RESIDENTIAL CARE FACILITY,ACTIVE,16 LEWIS AVE,RANDOLPH,ME,04346-5327,KENNEBEC,+1 (207) 588-7598,ASSISTED HOUSING,5
16 PLEASANT HILL DRIVE,RCC1548,LEVEL III RESIDENTIAL CARE FACILITY,ACTIVE,16 PLEASANT HILL DR,WATERVILLE,ME,04901-4105,KENNEBEC,+1 (207) 582-8021,ASSISTED HOUSING,4
16 ROCKY HILL DRIVE,RCC38869,LEVEL III RESIDENTIAL CARE FACILITY,ACTIVE,16 ROCKY HILL DR,BRUNSWICK,ME,04011-7145,CUMBERLAND,+1 (207) 504-5811,ASSISTED HOUSING,4
166 FALMOUTH STREET,RCA39358,LEVEL I RESIDENTIAL CARE FACILITY,ACTIVE,166 FALMOUTH ST,WESTBROOK,ME,,,+1 (207) 939-1009,ASSISTED HOUSING,2
1661 MAIN STREET,PNC1980,PNMI LEVEL III RESIDENTIAL CARE FACILITY,ACTIVE,1661 MAIN ST,LEWISTON,ME,04240-2616,ANDROSCOGGIN,+1 (207) 786-2572,ASSISTED HOUSING,5
1665 MAIN STREET,PNC1979,PNMI LEVEL III RESIDENTIAL CARE FACILITY,ACTIVE,1665 MAIN ST,LEWISTON,ME,04240-2616,ANDROSCOGGIN,+1 (207) 786-3344,ASSISTED HOUSING,5
167 MAYO ROAD,RCA39209,LEVEL I RESIDENTIAL CARE FACILITY,ACTIVE,167 MAYO RD,HAMPDEN,ME,04444-1325,PENOBSCOT,+1 (207) 862-2643,ASSISTED HOUSING,2
168 SACO AVENUE,RCA39380,LEVEL I RESIDENTIAL CARE FACILITY,ACTIVE,168 SACO AVE,OLD ORCHARD BEACH,ME,04064-1672,YORK,+1 (207) 878-3221,ASSISTED HOUSING,2
17 A GROUP HOME,RCA39141,LEVEL I RESIDENTIAL CARE FACILITY,ACTIVE,17 A ST,BANGOR,ME,04401-2516,PENOBSCOT,+1 (800) 434-3000,ASSISTED HOUSING,2
17 CHAMPLAIN AVE,RCC39238,LEVEL III RESIDENTIAL CARE FACILITY,ACTIVE,17 CHAMPLAIN AVE,LEWISTON,ME,04240-5218,ANDROSCOGGIN,+1 (207) 241-2810,ASSISTED HOUSING,3
17 E GROUP HOME,RCA39257,LEVEL I RESIDENTIAL CARE FACILITY,ACTIVE,17 E ST,BANGOR,ME,04401-2557,PENOBSCOT,+1 (800) 434-3000,ASSISTED HOUSING,2
17 WEYMOUTH ST,RCA39267,LEVEL I RESIDENTIAL CARE FACILITY,ACTIVE,17 WEYMOUTH ST,SACO,ME,04072-2840,YORK,+1 (207) 878-3221,ASSISTED HOUSING,2
1704 ROUTE 202,RCC38708,LEVEL III RESIDENTIAL CARE FACILITY,ACTIVE,1704 US ROUTE 202,WINTHROP,ME,04364-1571,KENNEBEC,+1 (207) 395-5511,ASSISTED HOUSING,5
18 DEERING ROAD,RCC1523,LEVEL III RESIDENTIAL CARE FACILITY,ACTIVE,18 DEERING RD,GORHAM,ME,04038-1921,CUMBERLAND,+1 (207) 828-0048,ASSISTED HOUSING,3
18 VENTURA ST,RCC39241,LEVEL III RESIDENTIAL CARE FACILITY,ACTIVE,18 VENTURA ST,LEWISTON,ME,04240-4638,ANDROSCOGGIN,+1 (207) 241-2810,ASSISTED HOUSING,3
181 COOK,RCA39234,LEVEL I RESIDENTIAL CARE FACILITY,ACTIVE,181 COOK ST,AUBURN,ME,04210-5377,ANDROSCOGGIN,+1 (207) 241-8023,ASSISTED HOUSING,2
19 JUDSON GROUP HOME,RCA39258,LEVEL I RESIDENTIAL CARE FACILITY,ACTIVE,19 JUDSON BLVD,BANGOR,ME,04401-2515,PENOBSCOT,+1 (800) 434-3000,ASSISTED HOUSING,2
20 COTTAGE STREET,RCC2058,LEVEL III RESIDENTIAL CARE FACILITY,ACTIVE,20 COTTAGE ST,BANGOR,ME,04401-3728,PENOBSCOT,+1 (207) 951-6015,ASSISTED HOUSING,3
200 STATE STREET,RCA39273,LEVEL I RESIDENTIAL CARE FACILITY,ACTIVE,22 WHOOPIE PIE WAY,GORHAM,ME,04038-1179,CUMBERLAND,+1 (207) 878-3221,ASSISTED HOUSING,2
205 EAST AVE,RCB39221,LEVEL II RESIDENTIAL CARE FACILITY,ACTIVE,205 EAST AVE,LEWISTON,ME,04240-5516,ANDROSCOGGIN,+1 (207) 241-2810,ASSISTED HOUSING,3
21 A GROUP HOME,RCA39142,LEVEL I RESIDENTIAL CARE FACILITY,ACTIVE,21 A ST,BANGOR,ME,04401-2516,PENOBSCOT,+1 (800) 434-3000,ASSISTED HOUSING,2
21 B GROUP HOME,RCA39259,LEVEL I RESIDENTIAL CARE FACILITY,ACTIVE,21 B ST,BANGOR,ME,04401-2522,PENOBSCOT,+1 (800) 434-3000,ASSISTED HOUSING,2
22 GREEN STREET,PNC1928,PNMI LEVEL III RESIDENTIAL CARE FACILITY,ACTIVE,22 GREEN ST STE 1,AUGUSTA,ME,04330-7473,KENNEBEC,+1 (207) 624-0500,ASSISTED HOUSING,5
222 NORTHERN AVE.,RCC2158,LEVEL III RESIDENTIAL CARE FACILITY,ACTIVE,222 NORTHERN AVE,FARMINGDALE,ME,04344-4635,KENNEBEC,+1 (207) 588-6617,ASSISTED HOUSING,5
24 B ROCKY ROAD,PNC38994,PNMI LEVEL III RESIDENTIAL CARE FACILITY,ACTIVE,24B ROCKY RD,HEBRON,ME,04238-3584,OXFORD,+1 (207) 783-3446,ASSISTED HOUSING,3
240 CENTRAL - SUPPORT SOLUTIONS,RCA39244,LEVEL I RESIDENTIAL CARE FACILITY,ACTIVE,240 CENTRAL AVE,LEWISTON,ME,04240-4724,ANDROSCOGGIN,+1 (207) 784-2757,ASSISTED HOUSING,2
240 GRAY ROAD,RCA39006,LEVEL I RESIDENTIAL CARE FACILITY,ACTIVE,240 GRAY RD,FALMOUTH,ME,04105-2563,CUMBERLAND,+1 (207) 747-4115,ASSISTED HOUSING,2
247 DINGLEY SPRINGS,RCC2365,LEVEL III RESIDENTIAL CARE FACILITY,ACTIVE,247 DINGLEY SPRING RD,GORHAM,ME,04038-2169,CUMBERLAND,+1 (207) 828-0048,ASSISTED HOUSING,5
249 LIBBY AVENUE,RCC1639,LEVEL III RESIDENTIAL CARE FACILITY,ACTIVE,249 LIBBY AVE,GORHAM,ME,04038-2617,CUMBERLAND,+1 (207) 839-6085,ASSISTED HOUSING,4
265 GRIFFIN GROUP HOME,RCC39089,LEVEL III RESIDENTIAL CARE FACILITY,ACTIVE,265 GRIFFIN RD,BANGOR,ME,04401-2812,PENOBSCOT,+1 (800) 434-3000,ASSISTED HOUSING,3
28 PUTNAM DRIVE,RCC1535,LEVEL III RESIDENTIAL CARE FACILITY,ACTIVE,28 PUTNAM DR,FARMINGDALE,ME,04344-2818,KENNEBEC,+1 (207) 582-8021,ASSISTED HOUSING,4
286 HIGHLAND AVENUE,RCC2154,LEVEL III RESIDENTIAL CARE FACILITY,ACTIVE,286 HIGHLAND AVE,GARDINER,ME,04345-6005,KENNEBEC,+1 (207) 582-8021,ASSISTED HOUSING,5
28-A OLD MILL,RCA39077,LEVEL I RESIDENTIAL CARE FACILITY,ACTIVE,28A OLD MILL RD,SANFORD,ME,04073-4208,YORK,+1 (207) 520-1512,ASSISTED HOUSING,2
28-B OLD MILL,RCA39078,LEVEL I RESIDENTIAL CARE FACILITY,ACTIVE,28B OLD MILL RD,SANFORD,ME,04073-4208,YORK,+1 (207) 520-1512,ASSISTED HOUSING,2
29 A GROUP HOME,RCA39143,LEVEL I RESIDENTIAL CARE FACILITY,ACTIVE,29 A ST,BANGOR,ME,04401-2516,PENOBSCOT,+1 (800) 434-3000,ASSISTED HOUSING,2
3 GARNETT AVE,RCA39236,LEVEL I RESIDENTIAL CARE FACILITY,ACTIVE,3 GARNETT AVE,LEWISTON,ME,04240-6617,ANDROSCOGGIN,+1 (207) 241-2810,ASSISTED HOUSING,2
30 ROSEDALE ST,RCA39232,LEVEL I RESIDENTIAL CARE FACILITY,ACTIVE,30 ROSEDALE ST,LEWISTON,ME,04240-6134,ANDROSCOGGIN,+1 (207) 241-2810,ASSISTED HOUSING,1
306 PINE STREET GROUP HOME,PNC1600,PNMI LEVEL III RESIDENTIAL CARE FACILITY,ACTIVE,306 PINE ST,LEWISTON,ME,04240-6309,ANDROSCOGGIN,+1 (207) 783-4658,ASSISTED HOUSING,5
31 REDWOOD LANE,RCA39007,LEVEL I RESIDENTIAL CARE FACILITY,FAILED TO RENEW,31 REDWOOD LN,SANFORD,ME,04073-5270,YORK,+1 (207) 850-4058,ASSISTED HOUSING,2
33 MT. PLEASANT A,RCA39270,LEVEL I RESIDENTIAL CARE FACILITY,ACTIVE,33 MOUNT PLEASANT ST,BIDDEFORD,ME,04005-2111,YORK,+1 (207) 878-3224,ASSISTED HOUSING,2
33 PINEWOOD DRIVE,RCC39127,LEVEL III RESIDENTIAL CARE FACILITY,ACTIVE,33 PINEWOOD DR,CUMBERLAND,ME,04021-4045,CUMBERLAND,+1 (207) 536-4937,ASSISTED HOUSING,3
330 ALFRED A PLOURDE PARKWAY,RCA39405,LEVEL I RESIDENTIAL CARE FACILITY,ACTIVE,"330 ALFRED A PLOURDE PKWY, GRANITE BAY CARE INC",LEWISTON,ME,04240-1033,ANDROSCOGGIN,+1 (207) 878-3221,ASSISTED HOUSING,2
345 PLEASANT,RCC39222,LEVEL III RESIDENTIAL CARE FACILITY,ACTIVE,345 PLEASANT ST,LEWISTON,ME,04240-4534,ANDROSCOGGIN,+1 (207) 241-2810,ASSISTED HOUSING,3
35 ORANGE ST,RCC39220,LEVEL III RESIDENTIAL CARE FACILITY,ACTIVE,35 ORANGE ST,LEWISTON,ME,04240-5529,ANDROSCOGGIN,+1 (207) 241-2810,ASSISTED HOUSING,3
374 KENNEBEC ROAD,RCA39190,LEVEL I RESIDENTIAL CARE FACILITY,ACTIVE,374 KENNEBEC RD,HAMPDEN,ME,04444-2014,PENOBSCOT,+1 (207) 862-2643,ASSISTED HOUSING,2
39 DOW ROAD,RCC39129,LEVEL III RESIDENTIAL CARE FACILITY,ACTIVE,39 DOW RD,GORHAM,ME,04038-2003,CUMBERLAND,+1 (207) 222-0784,ASSISTED HOUSING,3
397 LAKE ST,RCC39223,LEVEL III RESIDENTIAL CARE FACILITY,ACTIVE,397 LAKE ST,AUBURN,ME,04210-8548,ANDROSCOGGIN,+1 (207) 241-8023,ASSISTED HOUSING,3
41 UNIVERSITY STREET,RCA39374,LEVEL I RESIDENTIAL CARE FACILITY,ACTIVE,41 UNIVERSITY ST,PRESQUE ISLE,ME,04769-2821,AROOSTOOK,+1 (207) 540-1416,ASSISTED HOUSING,2
410 MEADOW ROAD,RCA39203,LEVEL I RESIDENTIAL CARE FACILITY,ACTIVE,274 WESTERN AVE,HAMPDEN,ME,04444-1004,PENOBSCOT,+1 (207) 862-2643,ASSISTED HOUSING,2
42 CHARLES ST,RCC39217,LEVEL III RESIDENTIAL CARE FACILITY,ACTIVE,42 CHARLES ST,LEWISTON,ME,04240-4818,ANDROSCOGGIN,+1 (207) 689-3138,ASSISTED HOUSING,3
42 GLENWOOD,RCA39122,LEVEL I RESIDENTIAL CARE FACILITY,ACTIVE,42 GLENWOOD AVE,SACO,ME,04072-2943,YORK,+1 (207) 571-8021,ASSISTED HOUSING,2
42 MAGGIE LANE,RCA38922,LEVEL I RESIDENTIAL CARE FACILITY,ACTIVE,42 MAGGIE LN,PORTLAND,ME,04103-6502,CUMBERLAND,+1 (207) 828-0048 x155,ASSISTED HOUSING,2
43 MAST ROAD,RCC39126,LEVEL III RESIDENTIAL CARE FACILITY,ACTIVE,43 MAST RD,WESTBROOK,ME,04092-2516,CUMBERLAND,+1 (207) 536-4937,ASSISTED HOUSING,3
433 SOUTH STREET,RCC39125,LEVEL III RESIDENTIAL CARE FACILITY,ACTIVE,433 SOUTH ST,GORHAM,ME,04038-1942,CUMBERLAND,+1 (207) 536-4937,ASSISTED HOUSING,3
44 GLENWOOD,RCA39121,LEVEL I RESIDENTIAL CARE FACILITY,ACTIVE,44 GLENWOOD AVE,SACO,ME,04072-2943,YORK,+1 (207) 571-8021,ASSISTED HOUSING,2
44 MAGGIE LANE,RCA38923,LEVEL I RESIDENTIAL CARE FACILITY,ACTIVE,44 MAGGIE LN,PORTLAND,ME,04103-6502,CUMBERLAND,+1 (207) 828-0048 x155,ASSISTED HOUSING,2
445 KENNEBEC ROAD,RCA39205,LEVEL I RESIDENTIAL CARE FACILITY,ACTIVE,445 KENNEBEC RD,HAMPDEN,ME,04444-2011,PENOBSCOT,+1 (207) 862-2643,ASSISTED HOUSING,2
45 ESSEX STREET,RCC1676,LEVEL III RESIDENTIAL CARE FACILITY,ACTIVE,45 ESSEX ST,SANFORD,ME,04073-3229,YORK,+1 (207) 324-2426,ASSISTED HOUSING,3
46 GLENWOOD,RCA39260,LEVEL I RESIDENTIAL CARE FACILITY,ACTIVE,46 GLENWOOD AVE,SACO,ME,04072-2943,YORK,+1 (207) 283-0883,ASSISTED HOUSING,2
47 SUMMER STREET,RCC2100,LEVEL III RESIDENTIAL CARE FACILITY,ACTIVE,47 SUMMER ST,GARDINER,ME,04345-1902,KENNEBEC,+1 (207) 588-6394,ASSISTED HOUSING,4
470 ROOSEVELT TRAIL,RCA39113,LEVEL I RESIDENTIAL CARE FACILITY,ACTIVE,470 ROOSEVELT TRL,WINDHAM,ME,04062-6931,CUMBERLAND,+1 (207) 572-1032,ASSISTED HOUSING,2
5 COLBY LANE,RCA2379,LEVEL I RESIDENTIAL CARE FACILITY,ACTIVE,5 COLBY LN,KENNEBUNK,ME,04043-6116,YORK,+1 (207) 985-0916,ASSISTED HOUSING,2
5 NELSEN ROAD,RCB39135,LEVEL II RESIDENTIAL CARE FACILITY,ACTIVE,5 NELSON RD,WESTBROOK,ME,04092-3793,CUMBERLAND,+1 (207) 939-1009,ASSISTED HOUSING,3
5 RIVERSIDE,RCA39233,LEVEL I RESIDENTIAL CARE FACILITY,ACTIVE,5 RIVERSIDE PL,LEWISTON,ME,04240-6244,ANDROSCOGGIN,+1 (207) 241-0476,ASSISTED HOUSING,1
5 VINE STREET,ALP38774,ASSISTED LIVING PROGRAM,ACTIVE,5 VINE ST,BIDDEFORD,ME,04005-3415,YORK,+1 (207) 571-3387,ASSISTED HOUSING,9
50 MAYO ROAD,RCA39194,LEVEL I RESIDENTIAL CARE FACILITY,ACTIVE,50 MAYO RD,HAMPDEN,ME,04444-1321,PENOBSCOT,+1 (207) 862-2643,ASSISTED HOUSING,2
53 LONGFELLOW ROAD,RCA38926,LEVEL I RESIDENTIAL CARE FACILITY,ACTIVE,53 LONGFELLOW RD,GORHAM,ME,04038-1883,CUMBERLAND,+1 (207) 828-0048 x155,ASSISTED HOUSING,2
53 MAPLE LANE,RCA39295,LEVEL I RESIDENTIAL CARE FACILITY,ACTIVE,53 MAPLE LANE,MILFORD,ME,4461,,+1 (207) 817-0237,ASSISTED HOUSING,2
54 UNIVERSITY WAIVER HOME,RCB39214,LEVEL II RESIDENTIAL CARE FACILITY,ACTIVE,54 UNIVERSITY ST,PRESQUE ISLE,ME,04769-2898,AROOSTOOK,+1 (207) 764-0134,ASSISTED HOUSING,3
55 PALM STREET,RCC1575,LEVEL III RESIDENTIAL CARE FACILITY,ACTIVE,55 PALM ST,BANGOR,ME,04401-5403,PENOBSCOT,+1 (207) 307-7540,ASSISTED HOUSING,4
55 WINSTON WAY,RCA38967,LEVEL I RESIDENTIAL CARE FACILITY,ACTIVE,55 WINSTON WAY,NEW GLOUCESTER,ME,04260-4246,CUMBERLAND,+1 (207) 320-2122,ASSISTED HOUSING,2
56 ELM STREET ASSISTED LIVING,RCD39153,LEVEL IV RESIDENTIAL CARE FACILITY,ACTIVE,56 ELM ST,TOPSHAM,ME,04086-1417,SAGADAHOC,+1 (207) 725-1134,ASSISTED HOUSING,8
57 WINSTON WAY,RCA38968,LEVEL I RESIDENTIAL CARE FACILITY,ACTIVE,57 WINSTON WAY,NEW GLOUCESTER,ME,04260-4246,CUMBERLAND,+1 (207) 320-2122,ASSISTED HOUSING,2
57 WINTHROP STREET,PND38730,PNMI LEVEL IV RESIDENTIAL CARE FACILITY,ACTIVE,57 WINTHROP ST,AUGUSTA,ME,04330-5502,KENNEBEC,+1 (207) 624-0557,ASSISTED HOUSING,8
58 HIGHLAND AVENUE,RCC1695,LEVEL III RESIDENTIAL CARE FACILITY,ACTIVE,58 HIGHLAND AVE,SCARBOROUGH,ME,04074-7104,CUMBERLAND,+1 (207) 883-5126,ASSISTED HOUSING,4
6 ROOSEVELT,RCD2183,LEVEL IV RESIDENTIAL CARE FACILITY,ACTIVE,6 ROOSEVELT AVE,BREWER,ME,04412-2510,PENOBSCOT,+1 (207) 460-9303,ASSISTED HOUSING,8
65 DIRIGO GROUP HOME,RCA39088,LEVEL I RESIDENTIAL CARE FACILITY,ACTIVE,65 DIRIGO DR,BANGOR,ME,04401-2355,PENOBSCOT,+1 (800) 434-3000,ASSISTED HOUSING,2
653 MAIN STREET,RCC39022,LEVEL III RESIDENTIAL CARE FACILITY,ACTIVE,653 MAIN ST,SPRINGVALE,ME,04083-1727,YORK,+1 (207) 490-4930,ASSISTED HOUSING,3
655-A MAIN STREET,RCA39075,LEVEL I RESIDENTIAL CARE FACILITY,ACTIVE,655 A MAIN STREET,SANFORD,ME,,,+1 (207) 324-5042,ASSISTED HOUSING,2
655-C MAIN STREET,RCA39076,LEVEL I RESIDENTIAL CARE FACILITY,ACTIVE,655 C MAIN STREET,SANFORD,ME,,,+1 (207) 490-2435,ASSISTED HOUSING,2
66 WINTHROP STREET PROGRAM,PND38632,PNMI LEVEL IV RESIDENTIAL CARE FACILITY,ACTIVE,66 WINTHROP ST,AUGUSTA,ME,04330-5506,KENNEBEC,+1 (207) 626-3466,ASSISTED HOUSING,8
7 A GROUP HOME,RCA39139,LEVEL I RESIDENTIAL CARE FACILITY,ACTIVE,7 A ST,BANGOR,ME,04401-2505,PENOBSCOT,+1 (800) 434-3000,ASSISTED HOUSING,2
7 RIVERVIEW STREET,RCC2107,LEVEL III RESIDENTIAL CARE FACILITY,ACTIVE,7 RIVERVIEW ST,SANFORD,ME,04073-2844,YORK,+1 (207) 490-3889,ASSISTED HOUSING,4
725 RIVER ROAD,RCA39100,LEVEL I RESIDENTIAL CARE FACILITY,ACTIVE,725 RIVER RD,WINDHAM,ME,04062-4750,CUMBERLAND,+1 (207) 893-8808,ASSISTED HOUSING,2
73 BAILEY AVENUE,RCC2084,LEVEL III RESIDENTIAL CARE FACILITY,ACTIVE,73 BAILEY AVE,LEWISTON,ME,04240-3304,ANDROSCOGGIN,+1 (207) 689-3424,ASSISTED HOUSING,4
75 FERN STREET,RCA39404,LEVEL I RESIDENTIAL CARE FACILITY,ACTIVE,"75 FERN ST, GRANITE BAY CARE INC",AUBURN,ME,04210-4418,ANDROSCOGGIN,+1 (207) 878-3221,ASSISTED HOUSING,2
776 MAIN STREET,RCA39294,LEVEL I RESIDENTIAL CARE FACILITY,ACTIVE,776 MAIN ST APT 2,OLD TOWN,ME,04468-2030,PENOBSCOT,+1 (207) 817-0659,ASSISTED HOUSING,2
79 CARRIER COURT,RCC2136,LEVEL III RESIDENTIAL CARE FACILITY,ACTIVE,79 CARRIER CT,AUBURN,ME,04210-8216,ANDROSCOGGIN,+1 (207) 376-4845,ASSISTED HOUSING,4
8 BLANCHETTE STREET,RCC2083,LEVEL III RESIDENTIAL CARE FACILITY,ACTIVE,8 BLANCHETTE ST,LEWISTON,ME,04240-4730,ANDROSCOGGIN,+1 (207) 689-3224,ASSISTED HOUSING,4
823 CONGRESS STREET,RCA38927,LEVEL I RESIDENTIAL CARE FACILITY,ACTIVE,823 CONGRESS ST APT 3,PORTLAND,ME,04102-3140,CUMBERLAND,+1 (207) 828-0048 x155,ASSISTED HOUSING,2
85 DIRIGO GROUP HOME,RCA39090,LEVEL I RESIDENTIAL CARE FACILITY,ACTIVE,85 DIRIGO DR,BANGOR,ME,04401-2355,PENOBSCOT,+1 (800) 434-3000,ASSISTED HOUSING,2
89 WEST PLEASANT STREET,RCB39123,LEVEL II RESIDENTIAL CARE FACILITY,ACTIVE,89 W PLEASANT ST,WESTBROOK,ME,04092-2745,CUMBERLAND,+1 (207) 939-1009,ASSISTED HOUSING,3
93 RIDLEY ROAD,RCC2366,LEVEL III RESIDENTIAL CARE FACILITY,ACTIVE,93 RIDLEY RD,SANFORD,ME,04073-6215,YORK,+1 (207) 850-1049,ASSISTED HOUSING,3
97 GOOGIN,RCA39219,LEVEL I RESIDENTIAL CARE FACILITY,ACTIVE,97 GOOGIN ST,LEWISTON,ME,04240-5313,ANDROSCOGGIN,+1 (207) 333-5156,ASSISTED HOUSING,2
ABBOT HOUSE,RCC38829,LEVEL III RESIDENTIAL CARE FACILITY,ACTIVE,76 WEST RD,ABBOT,ME,04406-3022,PISCATAQUIS,+1 (207) 876-3703,ASSISTED HOUSING,6
ACHIEVEMENT HOUSE,RCC16,LEVEL III RESIDENTIAL CARE FACILITY,ACTIVE,54 BARROWS DR,TOPSHAM,ME,04086-1324,SAGADAHOC,+1 (207) 844-8491,ASSISTED HOUSING,4
ADAMS STREET,ALP39061,ASSISTED LIVING PROGRAM,ACTIVE,65 ADAMS ST,BIDDEFORD,ME,04005-2581,YORK,+1 (207) 282-4029,ASSISTED HOUSING,6
ADDISON HOUSE,RCC17,LEVEL III RESIDENTIAL CARE FACILITY,ACTIVE,2 RIVERVIEW LANE,ADDISON,ME,4606,WASHINGTON,+1 (207) 483-4341,ASSISTED HOUSING,4
AIDEN DRIVE,RCA39317,LEVEL I RESIDENTIAL CARE FACILITY,ACTIVE,48 AIDEN DR,SABATTUS,ME,04280-4458,ANDROSCOGGIN,+1 (207) 375-3044,ASSISTED HOUSING,1
ALBANY STREET,RCC1301,LEVEL III RESIDENTIAL CARE FACILITY,ACTIVE,49 ALBANY STREET EXT,SOUTH PORTLAND,ME,04106-6007,CUMBERLAND,+1 (207) 828-9469,ASSISTED HOUSING,3
ALLISON AVENUE,RCC2241,LEVEL III RESIDENTIAL CARE FACILITY,ACTIVE,56 ALLISON AVE,PORTLAND,ME,04103-1655,CUMBERLAND,+1 (207) 774-7911,ASSISTED HOUSING,4
ALORA STREET,RCC2127,LEVEL III RESIDENTIAL CARE FACILITY,ACTIVE,19 ALORA ST,LISBON FALLS,ME,04252-1442,ANDROSCOGGIN,+1 (207) 353-8295,ASSISTED HOUSING,3
ALWAYS ONE,RCC1331,LEVEL III RESIDENTIAL CARE FACILITY,ACTIVE,172 GROVE ST,BANGOR,ME,04401-4008,PENOBSCOT,+1 (207) 307-7549,ASSISTED HOUSING,3
ALZHEIMERS CARE CENTER,PND24,PNMI LEVEL IV RESIDENTIAL CARE FACILITY,ACTIVE,154 DRESDEN AVE,GARDINER,ME,04345-2615,KENNEBEC,+1 (207) 626-1770,ASSISTED HOUSING,30
ALZHEIMER'S CARE CENTER ADULT DAY SERVICES,ADS23,ADULT DAY SERVICES PROGRAM,ACTIVE,154 DRESDEN AVE,GARDINER,ME,04345-2615,KENNEBEC,+1 (207) 626-1834,ASSISTED HOUSING,20
AMHERST HOUSE,RCC38689,LEVEL III RESIDENTIAL CARE FACILITY,ACTIVE,25 AMHERST ST,BIDDEFORD,ME,04005-2966,YORK,+1 (207) 622-7566,ASSISTED HOUSING,3
ANCHOR SENIOR CARE RESIDENCE,RCD38832,LEVEL IV RESIDENTIAL CARE FACILITY,ACTIVE,25 OAK ST,SPRINGVALE,ME,04083-1927,YORK,+1 (207) 324-4046,ASSISTED HOUSING,8
ANDERSON LANE WAIVER-ALW,RCC2041,LEVEL III RESIDENTIAL CARE FACILITY,ACTIVE,15 ANDERSON LN,CANAAN,ME,04924-3720,SOMERSET,+1 (207) 612-0024,ASSISTED HOUSING,3
ANDERSON ROAD,RCA39066,LEVEL I RESIDENTIAL CARE FACILITY,ACTIVE,24 ANDERSON RD,WINDHAM,ME,04062-4010,CUMBERLAND,+1 (207) 937-8260,ASSISTED HOUSING,2
ANDREWS HOUSE MEMORY CARE,ALP38671,ASSISTED LIVING PROGRAM,ACTIVE,3 MARKET SQ,SOUTH PARIS,ME,04281-1114,OXFORD,+1 (207) 743-7086,ASSISTED HOUSING,16
ANDROSCOGGIN DOWN-SUPPORT SOLUTIONS,RCA39245,LEVEL I RESIDENTIAL CARE FACILITY,ACTIVE,69 ANDROSCOGGIN AVE FL 1,LEWISTON,ME,04240-6601,ANDROSCOGGIN,+1 (207) 241-2308,ASSISTED HOUSING,2
ANDROSCOGGIN UP-SUPPORT SOLUTIONS,RCA39246,LEVEL I RESIDENTIAL CARE FACILITY,ACTIVE,69 ANDROSCOGGIN AVE FL 2,LEWISTON,ME,04240-6601,ANDROSCOGGIN,+1 (207) 241-2308,ASSISTED HOUSING,2
ANDY'S PLACE,PNC2385,PNMI LEVEL III RESIDENTIAL CARE FACILITY,ACTIVE,409 MAPLE ST,RUMFORD,ME,04276-2115,OXFORD,+1 (207) 364-3549,ASSISTED HOUSING,4
ANGEL HAVEN ASSISTED LIVING,RCC2066,LEVEL III RESIDENTIAL CARE FACILITY,ACTIVE,532 UNION ST,BANGOR,ME,04401-3751,PENOBSCOT,+1 (207) 460-9303,ASSISTED HOUSING,6
ANNETTE OVERLOCK HOME,RCC28,LEVEL III RESIDENTIAL CARE FACILITY,ACTIVE,22 CANNS BEACH RD,OWLS HEAD,ME,04854-3627,KNOX,+1 (207) 594-2537,ASSISTED HOUSING,4
ANSON STREET,RCC1634,LEVEL III RESIDENTIAL CARE FACILITY,ACTIVE,118 ANSON ST,FARMINGTON,ME,04938-5735,FRANKLIN,+1 (207) 860-4055,ASSISTED HOUSING,5
APPLE RIDGE,RCC34,LEVEL III RESIDENTIAL CARE FACILITY,ACTIVE,27 STODDARD POND RD,BOWDOIN,ME,04287-7745,SAGADAHOC,+1 (207) 666-8130,ASSISTED HOUSING,3
ARBOR TERRACE,PND38678,PNMI LEVEL IV RESIDENTIAL CARE FACILITY,ACTIVE,13 PLAISTED ST,GARDINER,ME,04345-1821,KENNEBEC,+1 (207) 582-1878,ASSISTED HOUSING,41
ARBOR VIEW,RCC1993,LEVEL III RESIDENTIAL CARE FACILITY,ACTIVE,9 ARBOR VIEW LN,SCARBOROUGH,ME,04074-8389,CUMBERLAND,+1 (207) 883-0381,ASSISTED HOUSING,3
ARMANDO'S MANOR,RCD38864,LEVEL IV RESIDENTIAL CARE FACILITY,ACTIVE,1592 US HWY 1,HANCOCK,ME,04640-3840,HANCOCK,+1 (207) 422-0029,ASSISTED HOUSING,8
AROOSTOOK AREA AGENCY ON AGING-ADULT DAY SERVICES,ADS38643,ADULT DAY SERVICES PROGRAM,ACTIVE,33 DAVIS ST,PRESQUE ISLE,ME,04769-2218,AROOSTOOK,+1 (207) 764-6185,ASSISTED HOUSING,20
ARUNDEL A,RCC2156,LEVEL III RESIDENTIAL CARE FACILITY,ACTIVE,84 S SKILLINGS RD,ARUNDEL,ME,04046-8517,YORK,+1 (207) 795-0672,ASSISTED HOUSING,3
ARUNDEL B,RCC1960,LEVEL III RESIDENTIAL CARE FACILITY,ACTIVE,81 S SKILLINGS RD,ARUNDEL,ME,04046-8516,YORK,+1 (207) 795-0672,ASSISTED HOUSING,3
ASI-FAIRFIELD,PNC37,PNMI LEVEL III RESIDENTIAL CARE FACILITY,ACTIVE,24 SUMMIT ST,FAIRFIELD,ME,04937-1212,SOMERSET,+1 (207) 453-9845,ASSISTED HOUSING,3
ASI-LEIGHTON STREET,PNC38767,PNMI LEVEL III RESIDENTIAL CARE FACILITY,ACTIVE,1 LEIGHTON ST,WATERVILLE,ME,04901-6662,KENNEBEC,+1 (207) 873-0184,ASSISTED HOUSING,5
ATHENS HOUSE,PNC1753,PNMI LEVEL III RESIDENTIAL CARE FACILITY,ACTIVE,21 NORTH RD,ATHENS,ME,04912-4001,SOMERSET,+1 (207) 654-2204,ASSISTED HOUSING,3
ATLANTIC SHORES,RCC38876,LEVEL III RESIDENTIAL CARE FACILITY,ACTIVE,100 MARSHVILLE RD,HARRINGTON,ME,04643-3121,WASHINGTON,+1 (207) 483-8041,ASSISTED HOUSING,6
ATRIA KENNEBUNK,ALP40,ASSISTED LIVING PROGRAM,ACTIVE,1 PENNY LN,KENNEBUNK,ME,04043-6635,YORK,+1 (207) 985-5866,ASSISTED HOUSING,74
AUBURN,PNC38605,PNMI LEVEL III RESIDENTIAL CARE FACILITY,ACTIVE,30 SACRED HEART PL,AUBURN,ME,04210-4938,ANDROSCOGGIN,+1 (207) 312-5726,ASSISTED HOUSING,5
AUBURN GROUP HOME,PND38682,PNMI LEVEL IV RESIDENTIAL CARE FACILITY,ACTIVE,109 DAVIS AVE,AUBURN,ME,04210-4767,ANDROSCOGGIN,+1 (207) 783-8671,ASSISTED HOUSING,7
AUBURN HOUSE,PND38808,PNMI LEVEL IV RESIDENTIAL CARE FACILITY,ACTIVE,15 CROQUET LN,PORTLAND,ME,04103-2181,CUMBERLAND,+1 (207) 878-6620,ASSISTED HOUSING,7
AUDREY G. MERCIER,RCB2310,LEVEL II RESIDENTIAL CARE FACILITY,FAILED TO RENEW,,,,,,+1 (207) 785-4606,ASSISTED HOUSING,3
AUGUSTA HOUSE,ALP38756,ASSISTED LIVING PROGRAM,ACTIVE,64 WINTHROP ST,AUGUSTA,ME,04330-5568,KENNEBEC,+1 (207) 873-2136,ASSISTED HOUSING,8
AUGUSTA ONE,RCC38619,LEVEL III RESIDENTIAL CARE FACILITY,ACTIVE,26 CREATIVE WAY,AUGUSTA,ME,04330-8329,KENNEBEC,+1 (207) 423-0531,ASSISTED HOUSING,3
AUGUSTA TWO,RCC38618,LEVEL III RESIDENTIAL CARE FACILITY,ACTIVE,33 CREATIVE WAY,AUGUSTA,ME,04330-8329,KENNEBEC,+1 (207) 423-0531,ASSISTED HOUSING,5
AVITA OF BRUNSWICK,PND38857,PNMI LEVEL IV RESIDENTIAL CARE FACILITY,ACTIVE,89 ADMIRAL FITCH AVE,BRUNSWICK,ME,04011-2700,CUMBERLAND,+1 (207) 729-6222,ASSISTED HOUSING,75
AVITA OF STROUDWATER,PND38858,PNMI LEVEL IV RESIDENTIAL CARE FACILITY,ACTIVE,113 LANDING RD,WESTBROOK,ME,04092-4094,CUMBERLAND,+1 (207) 857-9007,ASSISTED HOUSING,75
AVITA OF WELLS,PND38859,PNMI LEVEL IV RESIDENTIAL CARE FACILITY,ACTIVE,86 SANFORD RD,WELLS,ME,04090-5532,YORK,+1 (207) 646-3444,ASSISTED HOUSING,75
BACK WINTERPORT ROAD,RCA39202,LEVEL I RESIDENTIAL CARE FACILITY,ACTIVE,487 BACK WINTERPORT RD,HAMPDEN,ME,04444-1120,PENOBSCOT,+1 (207) 862-2643,ASSISTED HOUSING,2
BACON STREET,PND38849,PNMI LEVEL IV RESIDENTIAL CARE FACILITY,ACTIVE,72 BACON ST,BIDDEFORD,ME,04005-3199,YORK,+1 (207) 282-6633,ASSISTED HOUSING,10
BALSAM HOUSE,RCD2175,LEVEL IV RESIDENTIAL CARE FACILITY,ACTIVE,256 GORDEN RD,READFIELD,ME,04355-3016,KENNEBEC,+1 (207) 685-3286,ASSISTED HOUSING,10
BANCROFT,RCA39149,LEVEL I RESIDENTIAL CARE FACILITY,ACTIVE,15 BANCROFT CT,PORTLAND,ME,04102-1731,CUMBERLAND,+1 (207) 835-0099,ASSISTED HOUSING,2
BARIBEAU DRIVE,RCC38998,LEVEL III RESIDENTIAL CARE FACILITY,ACTIVE,87 BARIBEAU DR,BRUNSWICK,ME,04011-3229,CUMBERLAND,+1 (207) 504-5683,ASSISTED HOUSING,6
BARRON CENTER ADULT DAY CARE I,ADS71,ADULT DAY SERVICES PROGRAM,ACTIVE,1145 BRIGHTON AVE,PORTLAND,ME,04102-1025,CUMBERLAND,+1 (207) 541-6620,ASSISTED HOUSING,25
BARRON CENTER ADULT DAY CARE II,ADS72,ADULT DAY SERVICES PROGRAM,ACTIVE,1145 BRIGHTON AVE,PORTLAND,ME,04102-1025,CUMBERLAND,+1 (207) 541-6620,ASSISTED HOUSING,20
BARTLETT WOODS,ALP1807,ASSISTED LIVING PROGRAM,ACTIVE,180 TALBOT AVENUE,ROCKLAND,ME,4841,KNOX,+1 (207) 594-1163,ASSISTED HOUSING,35
BATH STREET HOME,RCC1578,LEVEL III RESIDENTIAL CARE FACILITY,ACTIVE,68 BATH ST,BATH,ME,04530-1940,SAGADAHOC,+1 (207) 386-5163,ASSISTED HOUSING,3
BAY SQUARE AT YARMOUTH,ALP38901,ASSISTED LIVING PROGRAM,ACTIVE,27 FOREST FALLS DR,YARMOUTH,ME,04096-6972,CUMBERLAND,+1 (207) 846-0044,ASSISTED HOUSING,60
BAY SQUARE AT YARMOUTH ADULT DAY,ADS38900,ADULT DAY SERVICES PROGRAM,ACTIVE,27 FOREST FALLS DR,YARMOUTH,ME,04096-6972,CUMBERLAND,+1 (207) 846-0044,ASSISTED HOUSING,10
BAYVIEW MANOR,PND76,PNMI LEVEL IV RESIDENTIAL CARE FACILITY,ACTIVE,45 WEST MAIN STREET,SEARSPORT,ME,4974,WALDO,+1 (207) 548-2415,ASSISTED HOUSING,30
BEACH STREET HOUSE,RCD1566,LEVEL IV RESIDENTIAL CARE FACILITY,ACTIVE,255 BEACH ST,SACO,ME,04072-2935,YORK,+1 (207) 282-2617,ASSISTED HOUSING,7
BEAL STREET,RCC38690,LEVEL III RESIDENTIAL CARE FACILITY,ACTIVE,7 BEAL ST,NORWAY,ME,04268-6040,OXFORD,+1 (207) 743-6902,ASSISTED HOUSING,4
BEAN'S CORNER WAIVER,RCC2162,LEVEL III RESIDENTIAL CARE FACILITY,ACTIVE,723 CANAAN RD,PITTSFIELD,ME,04967-5542,SOMERSET,+1 (207) 938-4615,ASSISTED HOUSING,3
BECKET HOUSE,RCD39099,LEVEL IV RESIDENTIAL CARE FACILITY,ACTIVE,224 PINE TREE RD,LITCHFIELD,ME,04350-3809,KENNEBEC,+1 (207) 268-3810,ASSISTED HOUSING,10
BEDSIDE MANOR,RCD2197,LEVEL IV RESIDENTIAL CARE FACILITY,ACTIVE,461 BELGRADE RD,OAKLAND,ME,04963-4401,KENNEBEC,+1 (207) 465-2527,ASSISTED HOUSING,10
BEDSIDE MANOR EAST,RCD2364,LEVEL IV RESIDENTIAL CARE FACILITY,ACTIVE,210 COUNTRY CLUB RD,OAKLAND,ME,04963-4815,KENNEBEC,+1 (207) 465-8382,ASSISTED HOUSING,16
BEECH GROVE,RCC38824,LEVEL III RESIDENTIAL CARE FACILITY,ACTIVE,8 BEECH GROVE AVE,GLENBURN,ME,04401-1432,PENOBSCOT,+1 (207) 307-7914,ASSISTED HOUSING,4
BELLA POINT BRIDGTON,PND38813,PNMI LEVEL IV RESIDENTIAL CARE FACILITY,ACTIVE,186 PORTLAND RD,BRIDGTON,ME,04009-4224,CUMBERLAND,+1 (207) 594-4990,ASSISTED HOUSING,57
BELLA POINT CAMDEN,PND38738,PNMI LEVEL IV RESIDENTIAL CARE FACILITY,ACTIVE,51 MECHANIC ST,CAMDEN,ME,04843-1845,KNOX,+1 (207) 236-3600,ASSISTED HOUSING,47
BELLA POINT FREEPORT,PND38814,PNMI LEVEL IV RESIDENTIAL CARE FACILITY,ACTIVE,3 EAST ST,FREEPORT,ME,04032-1405,CUMBERLAND,+1 (207) 594-4990,ASSISTED HOUSING,60
BELLA POINT FRYEBURG,PND38815,PNMI LEVEL IV RESIDENTIAL CARE FACILITY,ACTIVE,70 FAIRVIEW DR,FRYEBURG,ME,04037-1524,OXFORD,+1 (207) 594-4990,ASSISTED HOUSING,60
BELLA POINT SIDNEY,PND38733,PNMI LEVEL IV RESIDENTIAL CARE FACILITY,ACTIVE,888 POND RD,SIDNEY,ME,04330-2127,KENNEBEC,+1 (207) 594-4990,ASSISTED HOUSING,22
BEN AVENUE,RCC82,LEVEL III RESIDENTIAL CARE FACILITY,ACTIVE,4 BEN AVE,BIDDEFORD,ME,04005-9778,YORK,+1 (207) 283-9442,ASSISTED HOUSING,3
BENNETT APARTMENT-SUPPORT SOLUTIONS,RCA39247,LEVEL I RESIDENTIAL CARE FACILITY,ACTIVE,114 BENNETT AVE,AUBURN,ME,04210-4282,ANDROSCOGGIN,+1 (207) 241-0861,ASSISTED HOUSING,1
BENNETT HOUSE-SUPPORT SOLUTIONS,RCA39248,LEVEL I RESIDENTIAL CARE FACILITY,ACTIVE,114 BENNETT AVE,AUBURN,ME,04210-4282,ANDROSCOGGIN,+1 (207) 241-0861,ASSISTED HOUSING,2
BERWICK ESTATES,PND38679,PNMI LEVEL IV RESIDENTIAL CARE FACILITY,ACTIVE,79 PORTLAND ST,SOUTH BERWICK,ME,03908-1223,YORK,+1 (207) 384-2715,ASSISTED HOUSING,37
BETHEL ROAD HOME,RCA39187,LEVEL I RESIDENTIAL CARE FACILITY,ACTIVE,"144 BETHEL ROAD, APT 6",WEST PARIS,ME,,,,ASSISTED HOUSING,1
BFLI-ARBORETUM,RCC1618,LEVEL III RESIDENTIAL CARE FACILITY,ACTIVE,133 ARBORETUM PARK DR,WARREN,ME,04864-4284,KNOX,+1 (207) 354-3592,ASSISTED HOUSING,4
BFLI-HARBORVIEW,RCC1616,LEVEL III RESIDENTIAL CARE FACILITY,ACTIVE,7 TOTE ROAD,OWLS HEAD,ME,4854,KNOX,+1 (207) 594-2631,ASSISTED HOUSING,6
BFLI-WARREN HOUSE,RCC1617,LEVEL III RESIDENTIAL CARE FACILITY,ACTIVE,1116 MIDDLE RD,WARREN,ME,04864-4425,KNOX,+1 (207) 338-0889,ASSISTED HOUSING,3
BIDDEFORD ESTATES,PND38680,PNMI LEVEL IV RESIDENTIAL CARE FACILITY,ACTIVE,2 DARTMOUTH ST,BIDDEFORD,ME,04005-2958,YORK,+1 (207) 283-0111,ASSISTED HOUSING,89
BIGELOW HILL HOUSE,PNC38638,PNMI LEVEL III RESIDENTIAL CARE FACILITY,ACTIVE,22 BIGELOW HILL RD,SKOWHEGAN,ME,04976-5127,SOMERSET,+1 (207) 858-8629,ASSISTED HOUSING,6
BILLIE'S ARCH,RCC1795,LEVEL III RESIDENTIAL CARE FACILITY,ACTIVE,8 LEONARD ST,HOULTON,ME,04730-1708,AROOSTOOK,+1 (207) 532-3952,ASSISTED HOUSING,6
BIRCH BAY RETIREMENT VILLAGE,ALP1953,ASSISTED LIVING PROGRAM,ACTIVE,25 VILLAGE INN RD,BAR HARBOR,ME,04609-7451,HANCOCK,+1 (207) 288-8014,ASSISTED HOUSING,23
BIRCH BAY VILLAGE INN,PND1657,PNMI LEVEL IV RESIDENTIAL CARE FACILITY,ACTIVE,25 VILLAGE INN RD,BAR HARBOR,ME,04609-7451,HANCOCK,+1 (207) 288-8014,ASSISTED HOUSING,40
BIRCH GROVE,RCC38878,LEVEL III RESIDENTIAL CARE FACILITY,ACTIVE,26 OLD LISBON RD,LEWISTON,ME,04240-1500,ANDROSCOGGIN,+1 (207) 786-5248,ASSISTED HOUSING,5
BIRCH LANE,RCC95,LEVEL III RESIDENTIAL CARE FACILITY,ACTIVE,17 BIRCH LN,OLD ORCHARD BEACH,ME,04064-1550,YORK,+1 (207) 934-8570,ASSISTED HOUSING,3
BIRCHWOOD,RCC99,LEVEL III RESIDENTIAL CARE FACILITY,ACTIVE,106 HUSSEY HILL RD,OAKLAND,ME,04963-5117,KENNEBEC,+1 (207) 671-3565,ASSISTED HOUSING,5
BIRCHWOODS AT CANCO ASSISTED LIVING,ALP38676,ASSISTED LIVING PROGRAM,ACTIVE,86 HOLIDAY DR,PORTLAND,ME,04103-4368,CUMBERLAND,+1 (207) 772-1080,ASSISTED HOUSING,80
BISHOP HOUSE,PNC38691,PNMI LEVEL III RESIDENTIAL CARE FACILITY,ACTIVE,11 BISHOP DR,WINDHAM,ME,04062-4649,CUMBERLAND,+1 (207) 892-1446,ASSISTED HOUSING,4
BLANCHARD HOUSE,PND38801,PNMI LEVEL IV RESIDENTIAL CARE FACILITY,ACTIVE,154 CLARK ST,PORTLAND,ME,04102-3831,CUMBERLAND,+1 (207) 874-1092,ASSISTED HOUSING,7
BLUESTAR HOMECARE,RCA38752,LEVEL I RESIDENTIAL CARE FACILITY,ACTIVE,23 MYRTLE ST APT 102,BIDDEFORD,ME,04005-3578,YORK,+1 (207) 210-1090,ASSISTED HOUSING,2
BOARDMAN COTTAGE,RCD1793,LEVEL IV RESIDENTIAL CARE FACILITY,ACTIVE,131 MAIN RD,ISLESBORO,ME,04848-4556,WALDO,+1 (207) 734-2100,ASSISTED HOUSING,8
BOLSTER HEIGHTS RESIDENTIAL CARE,PND109,PNMI LEVEL IV RESIDENTIAL CARE FACILITY,ACTIVE,26 BOLSTER ST,AUBURN,ME,04210-5302,ANDROSCOGGIN,+1 (207) 784-1364,ASSISTED HOUSING,84
BOLTON HILL HOUSE I,RCC39080,LEVEL III RESIDENTIAL CARE FACILITY,ACTIVE,196 BOLTON HILL RD,AUGUSTA,ME,04330-0232,KENNEBEC,,ASSISTED HOUSING,5
BOLTON HILL HOUSE II,PNC39024,PNMI LEVEL III RESIDENTIAL CARE FACILITY,ACTIVE,204 BOLTON HILL RD,AUGUSTA,ME,04330-0233,KENNEBEC,,ASSISTED HOUSING,5
BOLTON HILL HOUSE III,PNC39079,PNMI LEVEL III RESIDENTIAL CARE FACILITY,ACTIVE,212 BOLTON HILL RD,AUGUSTA,ME,04330-0233,KENNEBEC,,ASSISTED HOUSING,5
BONNY BRIAR,RCA39392,LEVEL I RESIDENTIAL CARE FACILITY,ACTIVE,45 BONNYBRIAR RD,SOUTH PORTLAND,ME,04106-6308,CUMBERLAND,+1 (207) 883-5126,ASSISTED HOUSING,2
BOOTHBAY GREEN,RCC1124,LEVEL III RESIDENTIAL CARE FACILITY,ACTIVE,8 COUNTRY CLUB RD,BOOTHBAY,ME,04537-4661,LINCOLN,+1 (207) 633-2440,ASSISTED HOUSING,6
BORDERVIEW REHABILITATION & LIVING CENTER,RCD38596,LEVEL IV RESIDENTIAL CARE FACILITY,ACTIVE,208 STATE ST,VAN BUREN,ME,04785-1618,AROOSTOOK,+1 (207) 868-5211,ASSISTED HOUSING,53
BOUNDARY ROAD,RCA39063,LEVEL I RESIDENTIAL CARE FACILITY,ACTIVE,760 BOUNDARY RD,STANDISH,ME,,,+1 (207) 937-8260,ASSISTED HOUSING,2
BOUTELLE,RCA38960,LEVEL I RESIDENTIAL CARE FACILITY,ACTIVE,30 BOUTELLE AVE APT 1,WATERVILLE,ME,04901-4869,KENNEBEC,+1 (207) 795-6737,ASSISTED HOUSING,2
BOWDOINHAM HOUSE,PNC2050,PNMI LEVEL III RESIDENTIAL CARE FACILITY,ACTIVE,336 FISHER RD,BOWDOINHAM,ME,04008-4209,SAGADAHOC,+1 (207) 666-3663,ASSISTED HOUSING,6
BRACKETT STREET HOUSE,PNC1827,PNMI LEVEL III RESIDENTIAL CARE FACILITY,ACTIVE,232 BRACKETT ST,PORTLAND,ME,04102-3227,CUMBERLAND,+1 (207) 553-2188,ASSISTED HOUSING,6
"BRADFORD ON THE COMMON, BRADFORD COURT",RCD1825,LEVEL IV RESIDENTIAL CARE FACILITY,ACTIVE,3 HUNTINGTON COMMON DR,KENNEBUNK,ME,04043-6571,YORK,+1 (207) 985-2810,ASSISTED HOUSING,144
BRADMAN PLACE,RCC125,LEVEL III RESIDENTIAL CARE FACILITY,ACTIVE,7 BRADMAN PL,AUBURN,ME,04210-6332,ANDROSCOGGIN,+1 (207) 782-2726,ASSISTED HOUSING,4
BRAE DRIVE HOME - DEHI,RCC39087,LEVEL III RESIDENTIAL CARE FACILITY,ACTIVE,13 BRAE DR,ELLSWORTH,ME,04605-1868,HANCOCK,+1 (207) 412-2439,ASSISTED HOUSING,3
BREMEN HOUSE,RCA39172,LEVEL I RESIDENTIAL CARE FACILITY,ACTIVE,4 DINISTON RD,BREMEN,ME,04551-3300,LINCOLN,+1 (207) 529-4106,ASSISTED HOUSING,2
BREWER GROUP HOME,RCC133,LEVEL III RESIDENTIAL CARE FACILITY,ACTIVE,1104 N MAIN ST,BREWER,ME,04412-1238,PENOBSCOT,+1 (207) 573-4025,ASSISTED HOUSING,3
BRICK HOUSE,RCC38692,LEVEL III RESIDENTIAL CARE FACILITY,ACTIVE,642 MAIN ST,MADISON,ME,04950-4213,SOMERSET,+1 (207) 696-4317,ASSISTED HOUSING,5
BRIDGE HILL MANOR,RCD38817,LEVEL IV RESIDENTIAL CARE FACILITY,FAILED TO RENEW,64 BUCKSPORT RD,ELLSWORTH,ME,04605-2230,HANCOCK,+1 (207) 951-6800,ASSISTED HOUSING,8
"BRIDGE, THE",PND38881,PNMI LEVEL IV RESIDENTIAL CARE FACILITY,ACTIVE,1085 BRIGHTON AVE,PORTLAND,ME,04102-1024,CUMBERLAND,+1 (207) 553-5800 x7080,ASSISTED HOUSING,15
BRIGHTON A,RCA38891,LEVEL I RESIDENTIAL CARE FACILITY,ACTIVE,408 BRIGHTON AVE,PORTLAND,ME,04102-2328,CUMBERLAND,+1 (207) 578-9475,ASSISTED HOUSING,2
BRIGHTON B,RCC367,LEVEL III RESIDENTIAL CARE FACILITY,ACTIVE,408B BRIGHTON AVE,PORTLAND,ME,04102-2328,CUMBERLAND,+1 (207) 899-2245,ASSISTED HOUSING,4
BROADWAY HOUSE,PNC1367,PNMI LEVEL III RESIDENTIAL CARE FACILITY,ACTIVE,166 BROADWAY,BANGOR,ME,04401-5208,PENOBSCOT,+1 (207) 947-9630,ASSISTED HOUSING,6
BROOK BEND FARM,RCA138,LEVEL I RESIDENTIAL CARE FACILITY,ACTIVE,28 DYER RD,DAYTON,ME,04005-7204,YORK,+1 (207) 929-4970,ASSISTED HOUSING,2
BROOK STREET WAIVER,RCC38916,LEVEL III RESIDENTIAL CARE FACILITY,ACTIVE,20 BROOK ST,WATERVILLE,ME,04901-5540,KENNEBEC,+1 (207) 873-0636,ASSISTED HOUSING,2
BROOKSIDE APARTMENTS,ALP38726,ASSISTED LIVING PROGRAM,ACTIVE,245 MAIN ST,NORWAY,ME,04268-5968,OXFORD,+1 (207) 743-7890,ASSISTED HOUSING,3
BROOKVIEW RESIDENTIAL,RCC38818,LEVEL III RESIDENTIAL CARE FACILITY,ACTIVE,740 VERNON ST,ALBANY TWP,ME,04217-6221,OXFORD,+1 (207) 381-0184,ASSISTED HOUSING,6
BRULE STREET,RCA39069,LEVEL I RESIDENTIAL CARE FACILITY,ACTIVE,7 BRULE ST,LEWISTON,ME,04240-3309,ANDROSCOGGIN,+1 (207) 937-8260,ASSISTED HOUSING,2
BRUNSWICK AREA RESPITE CARE,ADS38942,ADULT DAY SERVICES PROGRAM,ACTIVE,9 PARK ST RM 118,BATH,ME,04530-2828,SAGADAHOC,+1 (207) 729-8571,ASSISTED HOUSING,20
BSS APT 98B,RCA38970,LEVEL I RESIDENTIAL CARE FACILITY,ACTIVE,98 BEACH ST APT 98B,SACO,ME,04072-2986,YORK,+1 (207) 878-9663,ASSISTED HOUSING,1
BSS APT. 100,RCA38972,LEVEL I RESIDENTIAL CARE FACILITY,ACTIVE,100 BEACH ST APT 100,SACO,ME,04072-2812,YORK,+1 (207) 878-9663,ASSISTED HOUSING,2
BSS APT. 100B,RCA38971,LEVEL I RESIDENTIAL CARE FACILITY,ACTIVE,100 BEACH ST APT 100B,SACO,ME,04072-2812,YORK,+1 (207) 878-9663,ASSISTED HOUSING,2
BSS APT. 98,RCA38969,LEVEL I RESIDENTIAL CARE FACILITY,ACTIVE,98 BEACH ST APT 98,SACO,ME,04072-2986,YORK,+1 (207) 878-9663,ASSISTED HOUSING,2
BURLEIGH LANE,RCA39108,LEVEL I RESIDENTIAL CARE FACILITY,ACTIVE,3 BURLEIGH CIR,BIDDEFORD,ME,04005-9719,YORK,+1 (207) 571-9775,ASSISTED HOUSING,2
"BURNS ROAD, CLA",PNC150,PNMI LEVEL III RESIDENTIAL CARE FACILITY,ACTIVE,74 BURNS RD,AUGUSTA,ME,04330-7859,KENNEBEC,+1 (207) 622-5688,ASSISTED HOUSING,3
"BURR HOME, THE",RCC151,LEVEL III RESIDENTIAL CARE FACILITY,ACTIVE,108 STATE ST,BREWER,ME,04412-1914,PENOBSCOT,+1 (207) 989-3663,ASSISTED HOUSING,6
"BUTLER HOUSE, JENKINS",RCD38768,LEVEL IV RESIDENTIAL CARE FACILITY,ACTIVE,244 JENKINS RD,SACO,ME,04072-9007,YORK,+1 (207) 283-4967,ASSISTED HOUSING,8
C&C HOMES,RCC1768,LEVEL III RESIDENTIAL CARE FACILITY,ACTIVE,97 SILK ST,BREWER,ME,04412-1862,PENOBSCOT,+1 (207) 989-5790,ASSISTED HOUSING,4
CADIGAN LODGE,ALP2095,ASSISTED LIVING PROGRAM,ACTIVE,54 GOVERNORS WAY,TOPSHAM,ME,04086-1470,SAGADAHOC,+1 (207) 725-2650,ASSISTED HOUSING,60
CALAIS ALTERNATIVE CARE,RCD2031,LEVEL IV RESIDENTIAL CARE FACILITY,ACTIVE,152 SOUTH ST,CALAIS,ME,04619-1324,WASHINGTON,+1 (207) 454-8960,ASSISTED HOUSING,8
CALAIS BOARDING HOME,PNC155,PNMI LEVEL III RESIDENTIAL CARE FACILITY,ACTIVE,36 CALAIS AVE,CALAIS,ME,04619-1632,WASHINGTON,+1 (207) 454-0158,ASSISTED HOUSING,6
CAMBRIDGE COMMON CONGREGATE HOUSING,ALP156,ASSISTED LIVING PROGRAM,ACTIVE,50 NEW PORTLAND RD,GORHAM,ME,04038-1542,CUMBERLAND,+1 (207) 839-5757,ASSISTED HOUSING,42
CAMERA RESIDENTIAL HOME,RCA1285,LEVEL I RESIDENTIAL CARE FACILITY,FAILED TO RENEW,131 OAKLAND RD,FAIRFIELD,ME,04937-3229,SOMERSET,+1 (207) 453-9152,ASSISTED HOUSING,2
CANOE CLUB ROAD,RCA39207,LEVEL I RESIDENTIAL CARE FACILITY,ACTIVE,27 CANOE CLUB RD,HAMPDEN,ME,04444-1308,PENOBSCOT,+1 (207) 862-2643,ASSISTED HOUSING,2
CAPE MEMORY CARE,PND2073,PNMI LEVEL IV RESIDENTIAL CARE FACILITY,ACTIVE,126 SCOTT DYER RD,CAPE ELIZABETH,ME,04107-2230,CUMBERLAND,+1 (207) 553-9616,ASSISTED HOUSING,72
CAPITOL CITY MANOR,PND165,PNMI LEVEL IV RESIDENTIAL CARE FACILITY,ACTIVE,313 STATE ST,AUGUSTA,ME,04330-7037,KENNEBEC,+1 (207) 622-6823,ASSISTED HOUSING,29
"CAPTAIN LEWIS RESIDENCE, THE",RCD1276,LEVEL IV RESIDENTIAL CARE FACILITY,ACTIVE,270 MAINE AVE,FARMINGDALE,ME,04344-4514,KENNEBEC,+1 (207) 582-6674,ASSISTED HOUSING,34
CAPTAIN MILLER HOUSE,RCA39097,LEVEL I RESIDENTIAL CARE FACILITY,ACTIVE,42 MECHANIC ST,DOVER FOXCROFT,ME,04426-1036,PISCATAQUIS,+1 (207) 802-3081,ASSISTED HOUSING,2
CAPTAIN MILLER HOUSE APARTMENTS,ALP39098,ASSISTED LIVING PROGRAM,ACTIVE,40 MECHANIC ST,DOVER FOXCROFT,ME,04426-1082,PISCATAQUIS,+1 (207) 802-3081,ASSISTED HOUSING,4
CARE RIDGE ESTATES,PND1814,PNMI LEVEL IV RESIDENTIAL CARE FACILITY,ACTIVE,35 RIDGE RD,LEE,ME,04455-4418,PENOBSCOT,+1 (207) 738-4663,ASSISTED HOUSING,11
CARING HANDS ADULT DAY RESPITE,ADS38889,ADULT DAY SERVICES PROGRAM,ACTIVE,93 MAIN ST STE 1,FAIRFIELD,ME,04937-1569,SOMERSET,+1 (207) 742-0002,ASSISTED HOUSING,10
CARLISLE STREET HOME,RCC38837,LEVEL III RESIDENTIAL CARE FACILITY,ACTIVE,23 CARLISLE STREET,ELLSWORTH,ME,4605,HANCOCK,+1 (207) 667-7464,ASSISTED HOUSING,6
CARON STREET HOUSE,RCC173,LEVEL III RESIDENTIAL CARE FACILITY,ACTIVE,26 CARON ST,PORTLAND,ME,04103-2219,CUMBERLAND,+1 (207) 797-8046,ASSISTED HOUSING,4
CARRIAGE HOUSE 1,ALP38736,ASSISTED LIVING PROGRAM,ACTIVE,54 HIGH ST,SKOWHEGAN,ME,04976-1834,SOMERSET,+1 (207) 858-0791,ASSISTED HOUSING,2
CARRIAGE HOUSE 2,ALP38737,ASSISTED LIVING PROGRAM,ACTIVE,54 HIGH ST,SKOWHEGAN,ME,04976-1834,SOMERSET,+1 (207) 858-0791,ASSISTED HOUSING,4
CASA V,RCC180,LEVEL III RESIDENTIAL CARE FACILITY,ACTIVE,4 QUAIL DR,WINDHAM,ME,04062-3336,CUMBERLAND,+1 (207) 893-0302,ASSISTED HOUSING,3
CASA VII,RCC182,LEVEL III RESIDENTIAL CARE FACILITY,ACTIVE,15 QUAIL DR,WINDHAM,ME,04062-3336,CUMBERLAND,+1 (207) 893-0302,ASSISTED HOUSING,3
CASCO INN RESIDENTIAL CARE FACILITY,PND38874,PNMI LEVEL IV RESIDENTIAL CARE FACILITY,ACTIVE,434 ROOSEVELT TRL,CASCO,ME,04015-3515,CUMBERLAND,+1 (207) 627-7199,ASSISTED HOUSING,39
CEDAR STREET GROUP HOME,PNC38850,PNMI LEVEL III RESIDENTIAL CARE FACILITY,ACTIVE,125 CEDAR ST,ROCKLAND,ME,04841-2304,KNOX,+1 (207) 594-8960,ASSISTED HOUSING,3
CENTER AVE HOME,RCA38990,LEVEL I RESIDENTIAL CARE FACILITY,ACTIVE,8 CENTER STREET AVE,BANGOR,ME,04401-5101,PENOBSCOT,+1 (207) 307-7440,ASSISTED HOUSING,2
CENTER STREET,ALP38803,ASSISTED LIVING PROGRAM,ACTIVE,14 CENTER ST,BIDDEFORD,ME,04005-2445,YORK,+1 (207) 874-1092,ASSISTED HOUSING,7
CENTRAL DOWN-SUPPORT SOLUTIONS,RCA39250,LEVEL I RESIDENTIAL CARE FACILITY,ACTIVE,244 CENTRAL AVE,LEWISTON,ME,04240-4724,ANDROSCOGGIN,+1 (207) 784-8993,ASSISTED HOUSING,2
CENTRAL STREET HOME,RCC190,LEVEL III RESIDENTIAL CARE FACILITY,ACTIVE,60 CENTRAL ST,DANFORTH,ME,4424,WASHINGTON,+1 (207) 448-9019,ASSISTED HOUSING,4
CENTRAL UP-SUPPORT SOLUTIONS,RCA39249,LEVEL I RESIDENTIAL CARE FACILITY,ACTIVE,244 CENTRAL AVE,LEWISTON,ME,04240-4724,ANDROSCOGGIN,+1 (207) 784-2982,ASSISTED HOUSING,2
CHAMBERLAIN 2,RCB39050,LEVEL II RESIDENTIAL CARE FACILITY,ACTIVE,292 CHAMBERLAIN ST APT 2,BREWER,ME,04412-1409,PENOBSCOT,+1 (207) 989-1980,ASSISTED HOUSING,2
CHAMBERLAIN 3,RCA39051,LEVEL I RESIDENTIAL CARE FACILITY,ACTIVE,292 CHAMBERLAIN ST APT 3,BREWER,ME,04412-1409,PENOBSCOT,+1 (207) 989-3175,ASSISTED HOUSING,1
CHAMBERLAIN I,RCC2057,LEVEL III RESIDENTIAL CARE FACILITY,ACTIVE,292 CHAMBERLAIN ST,BREWER,ME,04412-1409,PENOBSCOT,+1 (207) 989-3175,ASSISTED HOUSING,3
CHANDLER STREET,PNC39054,PNMI LEVEL III RESIDENTIAL CARE FACILITY,ACTIVE,140 CHANDLER ST,PITTSFIELD,ME,04967-3711,SOMERSET,,ASSISTED HOUSING,6
CHANDLER STREET HOUSE,PNC2375,PNMI LEVEL III RESIDENTIAL CARE FACILITY,ACTIVE,12 CHANDLER ST,SKOWHEGAN,ME,04976-1902,SOMERSET,+1 (207) 858-8518,ASSISTED HOUSING,3
CHANGING TIDES,RCC2376,LEVEL III RESIDENTIAL CARE FACILITY,ACTIVE,57 E MAIN ST,HARRINGTON,ME,04643-3041,WASHINGTON,+1 (207) 598-8668,ASSISTED HOUSING,6
"CHAPMAN HOUSE, THE",PND1770,PNMI LEVEL IV RESIDENTIAL CARE FACILITY,ACTIVE,41 PLEASANT ST,AUBURN,ME,04210-5936,ANDROSCOGGIN,+1 (207) 783-0961,ASSISTED HOUSING,30
CHASE POINT ASSISTED LIVING FACILITY,ALP197,ASSISTED LIVING PROGRAM,ACTIVE,51 SCHOONER ST,DAMARISCOTTA,ME,04543-4055,LINCOLN,+1 (207) 563-4200,ASSISTED HOUSING,24
CHERRYFIELD AVENUE,RCC1723,LEVEL III RESIDENTIAL CARE FACILITY,ACTIVE,15 CHERRYFIELD AVE,SACO,ME,04072-2431,YORK,+1 (207) 282-2195,ASSISTED HOUSING,3
CHESLEY STREET PROGRAM,PNC198,PNMI LEVEL III RESIDENTIAL CARE FACILITY,ACTIVE,2 CHESLEY ST,WESTBROOK,ME,04092-3317,CUMBERLAND,+1 (207) 857-9419,ASSISTED HOUSING,3
CHESTNUT STREET HOME,RCB2325,LEVEL II RESIDENTIAL CARE FACILITY,ACTIVE,37 CHESTNUT ST,OLD ORCHARD BEACH,ME,04064-4140,YORK,+1 (207) 351-6245,ASSISTED HOUSING,3
CHRISTINE'S FOSTER HOME,RCB199,LEVEL II RESIDENTIAL CARE FACILITY,ACTIVE,110 POPLAR ST,VAN BUREN,ME,04785-1153,AROOSTOOK,+1 (207) 868-3354,ASSISTED HOUSING,4
CHURCH ROAD,RCC2287,LEVEL III RESIDENTIAL CARE FACILITY,ACTIVE,85 CHURCH RD,BRUNSWICK,ME,04011-7306,CUMBERLAND,+1 (207) 504-5682,ASSISTED HOUSING,3
CHURCH ROAD- PENQUIS,RCC38902,LEVEL III RESIDENTIAL CARE FACILITY,ACTIVE,138 CHURCH RD,BANGOR,ME,04401-2136,PENOBSCOT,+1 (207) 307-7761,ASSISTED HOUSING,4
CHURCH STREET,PNC1994,PNMI LEVEL III RESIDENTIAL CARE FACILITY,ACTIVE,20 CHURCH ST,LEWISTON,ME,04240-3608,ANDROSCOGGIN,+1 (207) 783-3446,ASSISTED HOUSING,3
CHURCH WAIVER HOME,RCA39213,LEVEL I RESIDENTIAL CARE FACILITY,ACTIVE,53 CHURCH ST,PRESQUE ISLE,ME,04769-2497,AROOSTOOK,+1 (207) 764-4794,ASSISTED HOUSING,2
CLARK'S TERRACE AT THE PARK DANFORTH,PND203,PNMI LEVEL IV RESIDENTIAL CARE FACILITY,ACTIVE,777 STEVENS AVE,PORTLAND,ME,04103-2675,CUMBERLAND,+1 (207) 797-7710,ASSISTED HOUSING,39
CLOVER LIVING CENTER,ALP204,ASSISTED LIVING PROGRAM,ACTIVE,460 MINOT AVE # 480,AUBURN,ME,04210-4357,ANDROSCOGGIN,+1 (207) 784-3573,ASSISTED HOUSING,34
CLOVER RESIDENTIAL CARE,RCD38015,LEVEL IV RESIDENTIAL CARE FACILITY,ACTIVE,440 MINOT AVE,AUBURN,ME,04210-4332,ANDROSCOGGIN,+1 (207) 784-3573,ASSISTED HOUSING,135
"COASTAL COMMUNITY CARE, LLC",RCA38914,LEVEL I RESIDENTIAL CARE FACILITY,ACTIVE,280 STETSON RD,LEWISTON,ME,04240-2430,ANDROSCOGGIN,+1 (207) 518-0452,ASSISTED HOUSING,2
COASTAL LANDING LLC,ALP2378,ASSISTED LIVING PROGRAM,ACTIVE,142 NEPTUNE DR,BRUNSWICK,ME,04011-2882,CUMBERLAND,+1 (207) 837-6560,ASSISTED HOUSING,82
"COASTAL SHORES, INC.",PND2380,PNMI LEVEL IV RESIDENTIAL CARE FACILITY,ACTIVE,142 NEPTUNE DR,BRUNSWICK,ME,04011-2882,CUMBERLAND,+1 (207) 725-5801,ASSISTED HOUSING,40
COBALT COMPASSION CARE,RCA39073,LEVEL I RESIDENTIAL CARE FACILITY,ACTIVE,3 COBALT CT,WINDHAM,ME,04062-4691,CUMBERLAND,+1 (207) 209-1802,ASSISTED HOUSING,2
"COFFIN-FELKER HOME, THE",PNC38770,PNMI LEVEL III RESIDENTIAL CARE FACILITY,ACTIVE,37 SUNRISE DR,SOUTH PARIS,ME,04281-6573,OXFORD,+1 (207) 743-8049 x5366,ASSISTED HOUSING,5
COLDBROOK ROAD,RCA39206,LEVEL I RESIDENTIAL CARE FACILITY,ACTIVE,10 COLDBROOK RD,HAMPDEN,ME,04444-1636,PENOBSCOT,+1 (207) 862-2643,ASSISTED HOUSING,2
COLLEGE APT-SUPPORT SOLUTIONS,RCA39251,LEVEL I RESIDENTIAL CARE FACILITY,ACTIVE,414 COLLEGE ST,LEWISTON,ME,04240-5332,ANDROSCOGGIN,+1 (207) 312-5686,ASSISTED HOUSING,1
COLLINS FARM,RCC1730,LEVEL III RESIDENTIAL CARE FACILITY,ACTIVE,144 COLLINS FARM ROAD,MANCHESTER,ME,4351,KENNEBEC,+1 (207) 795-0672,ASSISTED HOUSING,2
COLLINS POND,RCA39180,LEVEL I RESIDENTIAL CARE FACILITY,ACTIVE,36 COLLINS POND RD,WINDHAM,ME,04062-5237,CUMBERLAND,+1 (207) 835-0099,ASSISTED HOUSING,2
COLONIAL HEALTH CARE,PND33803,PNMI LEVEL IV RESIDENTIAL CARE FACILITY,ACTIVE,36 WORKMAN TER,LINCOLN,ME,04457-1162,PENOBSCOT,+1 (207) 794-6534,ASSISTED HOUSING,26
COLONY LANE,RCC213,LEVEL III RESIDENTIAL CARE FACILITY,ACTIVE,19 COLONY LANE,SOUTH PORTLAND,ME,4106,CUMBERLAND,+1 (207) 774-0250,ASSISTED HOUSING,3
COMMERCIAL STREET,ALP38766,ASSISTED LIVING PROGRAM,ACTIVE,115 COMMERCIAL ST,AUGUSTA,ME,04330-4635,KENNEBEC,+1 (207) 624-0550,ASSISTED HOUSING,10
"COMMONS AT TALL PINES, THE",RCD37183,LEVEL IV RESIDENTIAL CARE FACILITY,ACTIVE,34 MARTIN LN,BELFAST,ME,04915-6080,WALDO,+1 (207) 338-4117,ASSISTED HOUSING,16
"COMMONSENSE HOUSING, INC - SHERMAN AVE",RCC38877,LEVEL III RESIDENTIAL CARE FACILITY,ACTIVE,97 SHERMAN AVE,BANGOR,ME,04401-3328,PENOBSCOT,+1 (207) 989-1303,ASSISTED HOUSING,3
"COMMONSENSE HOUSING, INC. - 12",RCC216,LEVEL III RESIDENTIAL CARE FACILITY,ACTIVE,29 LAMBERT RD,EDDINGTON,ME,04428-3031,PENOBSCOT,+1 (207) 989-3243,ASSISTED HOUSING,4
"COMMONSENSE HOUSING, INC. - 15",RCC218,LEVEL III RESIDENTIAL CARE FACILITY,ACTIVE,627 MAIN RD,EDDINGTON,ME,04428-3204,PENOBSCOT,+1 (207) 843-7900,ASSISTED HOUSING,3
"COMMONSENSE HOUSING, INC. - 1513 OHIO STREET",RCC1664,LEVEL III RESIDENTIAL CARE FACILITY,ACTIVE,1513 OHIO ST,BANGOR,ME,04401-2327,PENOBSCOT,+1 (207) 945-6232,ASSISTED HOUSING,3
"COMMONSENSE HOUSING, INC. - 23",RCC2067,LEVEL III RESIDENTIAL CARE FACILITY,ACTIVE,55 CLEWLEYVILLE RD,EDDINGTON,ME,04428-3020,PENOBSCOT,+1 (207) 989-5256,ASSISTED HOUSING,3
"COMMONSENSE HOUSING, INC. - 7",RCC223,LEVEL III RESIDENTIAL CARE FACILITY,ACTIVE,739 N MAIN ST,BREWER,ME,04412-1260,PENOBSCOT,+1 (207) 989-0730,ASSISTED HOUSING,4
"COMMONSENSE HOUSING, INC. - EDDINGTON HOUSE",RCC298,LEVEL III RESIDENTIAL CARE FACILITY,ACTIVE,15 RIVERSIDE DR,EDDINGTON,ME,04428-3109,PENOBSCOT,+1 (207) 989-7250,ASSISTED HOUSING,6
"COMMONSENSE HOUSING, INC. - KOUNTRY KORNER",RCC569,LEVEL III RESIDENTIAL CARE FACILITY,ACTIVE,1300 MAIN RD,EDDINGTON,ME,04428-3320,PENOBSCOT,+1 (207) 843-6141,ASSISTED HOUSING,6
CONGRESS STREET CARE,PNA38966,PNMI LEVEL I RESIDENTIAL CARE FACILITY,DENIED,1395 CONGRESS ST,PORTLAND,ME,04102-2120,CUMBERLAND,,ASSISTED HOUSING,2
CONGRESS STREET WEST,ALP38804,ASSISTED LIVING PROGRAM,ACTIVE,829 CONGRESS ST,PORTLAND,ME,04102-3152,CUMBERLAND,+1 (207) 699-2465,ASSISTED HOUSING,10
COOLIDGE,RCA39193,LEVEL I RESIDENTIAL CARE FACILITY,ACTIVE,27 COOLIDGE AVE,HAMPDEN,ME,04444-1821,PENOBSCOT,+1 (207) 862-2643,ASSISTED HOUSING,2
CORLISS STREET,RCC2034,LEVEL III RESIDENTIAL CARE FACILITY,ACTIVE,32 CORLISS ST,BATH,ME,04530-1704,SAGADAHOC,+1 (207) 504-5684,ASSISTED HOUSING,3
CORNISH ASSISTED HOUSING PROGRAM,RCC38613,LEVEL III RESIDENTIAL CARE FACILITY,ACTIVE,7 PUMPKINVILLE RD,CORNISH,ME,04020-3507,YORK,+1 (207) 625-4342,ASSISTED HOUSING,4
COTTAGE HILL HOME,RCC235,LEVEL III RESIDENTIAL CARE FACILITY,ACTIVE,243 COTTAGE ST,SANFORD,ME,04073-1814,YORK,+1 (207) 324-8110,ASSISTED HOUSING,5
COUNTRY CHARM LANE,RCC1627,LEVEL III RESIDENTIAL CARE FACILITY,ACTIVE,15 COUNTRY CHARM LN,NEW GLOUCESTER,ME,04260-3436,CUMBERLAND,+1 (207) 926-6081,ASSISTED HOUSING,3
COUNTRY CLUB,RCC1603,LEVEL III RESIDENTIAL CARE FACILITY,ACTIVE,142 COUNTRY CLUB RD,SANFORD,ME,04073-5224,YORK,+1 (207) 490-5690,ASSISTED HOUSING,4
COUNTRY MANOR NURSING HOME,PND22455,PNMI LEVEL IV RESIDENTIAL CARE FACILITY,ACTIVE,132 MAIN ST,COOPERS MILLS,ME,4341,LINCOLN,+1 (207) 549-7471,ASSISTED HOUSING,22
COUNTRY MEADOWS,PND38683,PNMI LEVEL IV RESIDENTIAL CARE FACILITY,ACTIVE,1605 ESSEX ST,BANGOR,ME,04401-2659,PENOBSCOT,+1 (207) 945-6627,ASSISTED HOUSING,8
COUNTRY VILLAGE ASSISTED LIVING,PND38753,PNMI LEVEL IV RESIDENTIAL CARE FACILITY,ACTIVE,960 MEADOW RD,CASCO,ME,04015-3316,CUMBERLAND,+1 (207) 627-7111,ASSISTED HOUSING,30
COUNTRY VILLAGE ESTATES,PND1962,PNMI LEVEL IV RESIDENTIAL CARE FACILITY,ACTIVE,260 DUGAL DR,MADAWASKA,ME,04756-1517,AROOSTOOK,+1 (207) 728-3570,ASSISTED HOUSING,27
COUNTRY WAY,RCC2032,LEVEL III RESIDENTIAL CARE FACILITY,ACTIVE,1757 POWNAL RD,AUBURN,ME,04210-9687,ANDROSCOGGIN,+1 (207) 783-8731,ASSISTED HOUSING,3
COUNTRYSIDE ADULT FAMILY CARE HOME,RCC1563,LEVEL III RESIDENTIAL CARE FACILITY,ACTIVE,1334 LONG PLAINS RD,BUXTON,ME,04093-6052,YORK,+1 (207) 929-5787,ASSISTED HOUSING,6
COURAGE LIVES,RCC39047,LEVEL III RESIDENTIAL CARE FACILITY,ACTIVE,1200 OHIO STREET,BANGOR,ME,4401,PENOBSCOT,+1 (207) 282-3361,ASSISTED HOUSING,5
COURT STREET,PNC38642,PNMI LEVEL III RESIDENTIAL CARE FACILITY,ACTIVE,470 COURT ST,AUBURN,ME,04210-4383,ANDROSCOGGIN,+1 (207) 783-3446,ASSISTED HOUSING,3
COURTLAND REHAB & L C,PND25010,PNMI LEVEL IV RESIDENTIAL CARE FACILITY,ACTIVE,42 BUCKSPORT RD,ELLSWORTH,ME,04605-2230,HANCOCK,+1 (207) 667-9036,ASSISTED HOUSING,20
"COURTYARD, THE",RCD27118,LEVEL IV RESIDENTIAL CARE FACILITY,ACTIVE,30 COMMUNITY DR,CAMDEN,ME,04843-2061,KNOX,+1 (207) 230-6100,ASSISTED HOUSING,24
COVE STREET HOME,RCC2011,LEVEL III RESIDENTIAL CARE FACILITY,ACTIVE,1 COVE ST,SANFORD,ME,04073-2801,YORK,+1 (207) 490-0903,ASSISTED HOUSING,3
CRAWFORD COMMONS,PND974,PNMI LEVEL IV RESIDENTIAL CARE FACILITY,ACTIVE,132 MIDDLE RD,UNION,ME,04862-4018,KNOX,+1 (207) 785-4419,ASSISTED HOUSING,34
CRESCENT PLACE GROUP HOME,PNC38848,PNMI LEVEL III RESIDENTIAL CARE FACILITY,ACTIVE,15 CRESCENT ST,BIDDEFORD,ME,04005-2519,YORK,+1 (207) 282-4962,ASSISTED HOUSING,6
CREST VIEW MANOR,PND249,PNMI LEVEL IV RESIDENTIAL CARE FACILITY,ACTIVE,361 COURT ST,HOULTON,ME,04730-1957,AROOSTOOK,+1 (207) 532-3498,ASSISTED HOUSING,20
CRG,RCA38976,LEVEL I RESIDENTIAL CARE FACILITY,ACTIVE,68 CRESSEY RD APT 12,GORHAM,ME,04038-2012,CUMBERLAND,+1 (207) 878-9663,ASSISTED HOUSING,2
CRG 6,RCA39082,LEVEL I RESIDENTIAL CARE FACILITY,ACTIVE,68 CRESSEY RD APT 6,GORHAM,ME,04038-2012,CUMBERLAND,+1 (207) 878-9663,ASSISTED HOUSING,2
CROSSROADS,PND38800,PNMI LEVEL IV RESIDENTIAL CARE FACILITY,ACTIVE,735 WASHINGTON AVE,PORTLAND,ME,04103-4928,CUMBERLAND,+1 (207) 773-9931,ASSISTED HOUSING,8
CROSSROADS II,PND38862,PNMI LEVEL IV RESIDENTIAL CARE FACILITY,ACTIVE,575 FOREST AVE,PORTLAND,ME,04101-1513,CUMBERLAND,+1 (207) 773-9931,ASSISTED HOUSING,10
CROSSWINDS RESIDENTIAL CARE,RCD1879,LEVEL IV RESIDENTIAL CARE FACILITY,ACTIVE,40 VILLAGE RD,FORT KENT,ME,04743-1031,AROOSTOOK,+1 (207) 834-3701,ASSISTED HOUSING,45
CROWE'S RESIDENTIAL CARE,PNC250,PNMI LEVEL III RESIDENTIAL CARE FACILITY,ACTIVE,604 LEIGHTON RD,AUGUSTA,ME,04330-7808,KENNEBEC,+1 (207) 623-5355,ASSISTED HOUSING,6
CSP APT. 1,RCA38974,LEVEL I RESIDENTIAL CARE FACILITY,ACTIVE,3 C ST APT 1,SOUTH PORTLAND,ME,04106-2819,CUMBERLAND,+1 (207) 878-9663,ASSISTED HOUSING,2
CSP APT. 2,RCA38983,LEVEL I RESIDENTIAL CARE FACILITY,ACTIVE,3 C ST APT 2,SOUTH PORTLAND,ME,04106-2819,CUMBERLAND,+1 (207) 878-9663,ASSISTED HOUSING,2
CUMMINGS HEALTH CARE FACILITY,RCD22459,LEVEL IV RESIDENTIAL CARE FACILITY,ACTIVE,5 CROCKER STREET,HOWLAND,ME,4448,PENOBSCOT,+1 (207) 732-4121,ASSISTED HOUSING,20
CURLEWIS LANE,RCC2382,LEVEL III RESIDENTIAL CARE FACILITY,FAILED TO RENEW,25 CURLEWIS LN,NEWCASTLE,ME,04553-3242,LINCOLN,+1 (207) 586-5026,ASSISTED HOUSING,3
DAFFRON,RCC604,LEVEL III RESIDENTIAL CARE FACILITY,ACTIVE,317 FOSS RD,LIMERICK,ME,04048-4306,YORK,+1 (207) 797-2512,ASSISTED HOUSING,6
DAVID STREET HOME,RCC259,LEVEL III RESIDENTIAL CARE FACILITY,ACTIVE,10 BURLEIGH STREET,ISLAND FALLS,ME,4747,AROOSTOOK,+1 (207) 463-3414,ASSISTED HOUSING,5
DAVIS ROAD GROUP HOME,RCC261,LEVEL III RESIDENTIAL CARE FACILITY,ACTIVE,125 DAVIS RD,FARMINGTON,ME,04938-6507,FRANKLIN,+1 (207) 778-5086,ASSISTED HOUSING,4
DAY SPRING HOUSE LLC,RCB38898,LEVEL II RESIDENTIAL CARE FACILITY,ACTIVE,218 FERN RD,DEXTER,ME,04930-2609,PENOBSCOT,+1 (207) 924-3818,ASSISTED HOUSING,6
DAY STREET HOME,RCC263,LEVEL III RESIDENTIAL CARE FACILITY,ACTIVE,2 DAY ST,KENNEBUNK,ME,04043-7115,YORK,+1 (207) 467-9060,ASSISTED HOUSING,4
DEAN HOUSE,RCC1258,LEVEL III RESIDENTIAL CARE FACILITY,ACTIVE,272 ESSEX ST,BANGOR,ME,04401-4050,PENOBSCOT,+1 (207) 573-4712,ASSISTED HOUSING,4
DEAN ROAD WAIVER,RCC2103,LEVEL III RESIDENTIAL CARE FACILITY,ACTIVE,21 DEAN RD,CLINTON,ME,04927-3400,KENNEBEC,+1 (207) 426-2806,ASSISTED HOUSING,3
DEBORAH LINCOLN HOUSE,RCC265,LEVEL III RESIDENTIAL CARE FACILITY,ACTIVE,60 CEDAR ST,BELFAST,ME,04915-6302,WALDO,+1 (207) 338-1554,ASSISTED HOUSING,6
DECLARATION,RCA39179,LEVEL I RESIDENTIAL CARE FACILITY,ACTIVE,33 DECLARATION DR,WESTBROOK,ME,04092-4510,CUMBERLAND,+1 (207) 835-0099,ASSISTED HOUSING,2
DEER HILL A,RCA39070,LEVEL I RESIDENTIAL CARE FACILITY,ACTIVE,254A DEER HILL RD,WATERFORD,ME,04088-4035,OXFORD,+1 (207) 743-8049 x202,ASSISTED HOUSING,2
DEER HILL B,RCA39071,LEVEL I RESIDENTIAL CARE FACILITY,ACTIVE,254B DEER HILL RD,WATERFORD,ME,04088-4035,OXFORD,+1 (207) 743-8049 x202,ASSISTED HOUSING,2
DIONNE COMMONS,PND276,PNMI LEVEL IV RESIDENTIAL CARE FACILITY,ACTIVE,24 MAURICE DR,BRUNSWICK,ME,04011-3270,CUMBERLAND,+1 (207) 725-4379,ASSISTED HOUSING,64
DIRIGO PINES INN,RCD38600,LEVEL IV RESIDENTIAL CARE FACILITY,ACTIVE,9 ALUMNI DR,ORONO,ME,04473-3479,PENOBSCOT,+1 (207) 866-3400,ASSISTED HOUSING,50
DON AND BETH STRAUS THERAPEUTIC DAY PROGRAM,ADS2328,ADULT DAY SERVICES PROGRAM,ACTIVE,25 VILLAGE INN RD,BAR HARBOR,ME,04609-7451,HANCOCK,+1 (207) 288-8014,ASSISTED HOUSING,10
DR EUNICE NELSON-BAUMANN HOME,RCC39133,LEVEL III RESIDENTIAL CARE FACILITY,ACTIVE,2 SARAHS SPRING LN,INDIAN ISLAND,ME,04468-1270,PENOBSCOT,+1 (207) 827-0968,ASSISTED HOUSING,6
DRAKE'S EAST RIDGE RESIDENTIAL HOME,RCA1538,LEVEL I RESIDENTIAL CARE FACILITY,ACTIVE,1309 E RIDGE RD,CORNVILLE,ME,04976-6509,SOMERSET,+1 (207) 474-0776,ASSISTED HOUSING,2
DRUMMOND 1,RCA39042,LEVEL I RESIDENTIAL CARE FACILITY,ACTIVE,49 DRUMMOND ST APT 1,AUBURN,ME,04210-5868,ANDROSCOGGIN,+1 (207) 795-0005,ASSISTED HOUSING,1
DRUMMOND 2,RCA39041,LEVEL I RESIDENTIAL CARE FACILITY,ACTIVE,49 DRUMMOND ST APT 2,AUBURN,ME,04210-5868,ANDROSCOGGIN,+1 (207) 795-0005,ASSISTED HOUSING,1
DRUMMOND 3,RCA39040,LEVEL I RESIDENTIAL CARE FACILITY,ACTIVE,49 DRUMMOND ST APT 3,AUBURN,ME,04210-5868,ANDROSCOGGIN,+1 (207) 795-0005,ASSISTED HOUSING,1
DRUMMOND 4,RCA39038,LEVEL I RESIDENTIAL CARE FACILITY,ACTIVE,49 DRUMMOND ST APT 4,AUBURN,ME,04210-5868,ANDROSCOGGIN,+1 (207) 795-0005,ASSISTED HOUSING,1
DUBOIS DRIVE,RCC1604,LEVEL III RESIDENTIAL CARE FACILITY,ACTIVE,4 DUBOIS DR,SANFORD,ME,04073-6134,YORK,+1 (207) 490-5701,ASSISTED HOUSING,3
DURANLEAU HOUSE,RCC923,LEVEL III RESIDENTIAL CARE FACILITY,ACTIVE,81 ROWE AVE,PORTLAND,ME,04102-1421,CUMBERLAND,+1 (207) 899-1985,ASSISTED HOUSING,3
EAST POINT,PND665,PNMI LEVEL IV RESIDENTIAL CARE FACILITY,ACTIVE,96 STACKPOLE DR,MACHIAS,ME,04654-7001,WASHINGTON,+1 (207) 255-6611,ASSISTED HOUSING,37
EAST POND HOME,RCC38674,LEVEL III RESIDENTIAL CARE FACILITY,ACTIVE,1239 E POND RD,SMITHFIELD,ME,04978-3214,SOMERSET,+1 (207) 566-5766,ASSISTED HOUSING,3
EAST SIDE HOME,RCC2371,LEVEL III RESIDENTIAL CARE FACILITY,ACTIVE,1 JOSEPH ST,HOULTON,ME,04730-2359,AROOSTOOK,+1 (207) 532-9446,ASSISTED HOUSING,6
EASTERN AVENUE-MCIR,PNC38731,PNMI LEVEL III RESIDENTIAL CARE FACILITY,ACTIVE,161 EASTERN AVE,BREWER,ME,04412-1335,PENOBSCOT,+1 (207) 989-2034,ASSISTED HOUSING,4
EASTPORT RESIDENTIAL CARE FACILITY,PND296,PNMI LEVEL IV RESIDENTIAL CARE FACILITY,ACTIVE,4 CLARK ST,EASTPORT,ME,04631-1036,WASHINGTON,+1 (207) 853-4540,ASSISTED HOUSING,14
EASTSIDE MANOR,RCD38663,LEVEL IV RESIDENTIAL CARE FACILITY,ACTIVE,51 EASTSIDE RD,HANCOCK,ME,04640-3958,HANCOCK,+1 (207) 442-0029,ASSISTED HOUSING,8
EASY CARE RESIDENTIAL LLC,RCA38885,LEVEL I RESIDENTIAL CARE FACILITY,ACTIVE,62 LELAND ST UNIT 1,PORTLAND,ME,04103-2528,CUMBERLAND,+1 (207) 939-1009,ASSISTED HOUSING,2
"EASY CARE RESIDENTIAL, LLC II",RCA38936,LEVEL I RESIDENTIAL CARE FACILITY,ACTIVE,254 BRADLEY ST UNIT 101,SACO,ME,04072-3181,YORK,+1 (207) 632-6240,ASSISTED HOUSING,2
EDGECOMB GREEN,RCD1846,LEVEL IV RESIDENTIAL CARE FACILITY,ACTIVE,31 CROSS POINT RD,EDGECOMB,ME,04556-3247,LINCOLN,+1 (207) 687-2164,ASSISTED HOUSING,7
EDGEWOOD REHABILITATION & L C,PND22461,PNMI LEVEL IV RESIDENTIAL CARE FACILITY,ACTIVE,221 FAIRBANKS RD,FARMINGTON,ME,04938-5723,FRANKLIN,+1 (207) 778-3386,ASSISTED HOUSING,22
EIGHT HUNDRED EIGHT HIGH STREET,PNC299,PNMI LEVEL III RESIDENTIAL CARE FACILITY,ACTIVE,808 HIGH ST,BATH,ME,04530-2474,SAGADAHOC,+1 (207) 443-1133,ASSISTED HOUSING,6
EIGHT ROD ROAD,RCC38769,LEVEL III RESIDENTIAL CARE FACILITY,ACTIVE,300 EIGHT ROD RD,AUGUSTA,ME,04330-8112,KENNEBEC,+1 (207) 423-0531,ASSISTED HOUSING,5
ELLSWORTH GROUP HOME,PNC305,PNMI LEVEL III RESIDENTIAL CARE FACILITY,ACTIVE,849 RED BRIDGE RD,ELLSWORTH,ME,04605-3228,HANCOCK,+1 (207) 667-7216,ASSISTED HOUSING,4
ELM STREET,PNC2239,PNMI LEVEL III RESIDENTIAL CARE FACILITY,ACTIVE,101 ELM ST,LEWISTON,ME,04240-6715,ANDROSCOGGIN,+1 (207) 241-0574,ASSISTED HOUSING,3
ELM STREET BOARDING HOME,RCC310,LEVEL III RESIDENTIAL CARE FACILITY,ACTIVE,9 ELM ST,SANFORD,ME,04073-3001,YORK,+1 (207) 324-3535,ASSISTED HOUSING,6
ELM STREET HOUSE,PND311,PNMI LEVEL IV RESIDENTIAL CARE FACILITY,ACTIVE,14 ELM ST,AUGUSTA,ME,04330-5110,KENNEBEC,+1 (207) 626-3475,ASSISTED HOUSING,8
EMBDEN I,RCC38693,LEVEL III RESIDENTIAL CARE FACILITY,ACTIVE,46 MOULTON HILL ROAD,EMBDEN,ME,4958,SOMERSET,+1 (207) 643-2230,ASSISTED HOUSING,4
EMBDEN II,RCC38694,LEVEL III RESIDENTIAL CARE FACILITY,ACTIVE,46 MOULTON HILL ROAD,EMBDEN,ME,4958,SOMERSET,+1 (207) 643-3019,ASSISTED HOUSING,4
"EMILIO ESTATES, INC.",PND318,PNMI LEVEL IV RESIDENTIAL CARE FACILITY,ACTIVE,465 W CORINTH RD,CORINTH,ME,04427-3144,PENOBSCOT,+1 (207) 285-7798,ASSISTED HOUSING,18
"ENCLAVE OF SCARBOROUGH, THE",RCD38667,LEVEL IV RESIDENTIAL CARE FACILITY,ACTIVE,18 BLACK POINT RD,SCARBOROUGH,ME,04074-9816,CUMBERLAND,+1 (207) 883-3889,ASSISTED HOUSING,92
ENGEL PLACE,PND22618,PNMI LEVEL IV RESIDENTIAL CARE FACILITY,ACTIVE,758 BROADWAY,BANGOR,ME,04401-3224,PENOBSCOT,+1 (207) 945-5532,ASSISTED HOUSING,24
ESTES AVENUE WAIVER,RCA38909,LEVEL I RESIDENTIAL CARE FACILITY,ACTIVE,271 ESTES AVE,PALMYRA,ME,04965-3830,SOMERSET,+1 (207) 938-2337,ASSISTED HOUSING,2
EUGENE HOUSE,RCA38989,LEVEL I RESIDENTIAL CARE FACILITY,ACTIVE,249 MAIN RD S,HAMPDEN,ME,04444-1203,PENOBSCOT,+1 (207) 862-0076,ASSISTED HOUSING,2
F.A.R.E. HOUSE,RCC2096,LEVEL III RESIDENTIAL CARE FACILITY,ACTIVE,659 LOWER ST,TURNER,ME,04282-3909,ANDROSCOGGIN,+1 (207) 225-5851,ASSISTED HOUSING,4
FALLBROOK WOODS,PND331,PNMI LEVEL IV RESIDENTIAL CARE FACILITY,ACTIVE,60 MERRYMEETING DR,PORTLAND,ME,04103-3960,CUMBERLAND,+1 (207) 878-0788,ASSISTED HOUSING,56
FALMOUTH HOUSE AT OCEANVIEW,ALP333,ASSISTED LIVING PROGRAM,ACTIVE,32 BLUEBERRY LN,FALMOUTH,ME,04105-2807,CUMBERLAND,+1 (207) 781-4621,ASSISTED HOUSING,48
FALMOUTH STREET,RCA39300,LEVEL I RESIDENTIAL CARE FACILITY,ACTIVE,152 FALMOUTH ST,WESTBROOK,ME,04092-3016,CUMBERLAND,+1 (207) 939-1009,ASSISTED HOUSING,2
FARMINGTON CONGREGATE ASSOCIATES,ALP341,ASSISTED LIVING PROGRAM,ACTIVE,136 NORTH ST,FARMINGTON,ME,04938-5935,FRANKLIN,+1 (207) 778-4416,ASSISTED HOUSING,12
FARNHAM,RCA39163,LEVEL I RESIDENTIAL CARE FACILITY,ACTIVE,67 FARNHAM ST,PORTLAND,ME,04103-1209,CUMBERLAND,+1 (207) 835-0099,ASSISTED HOUSING,2
FARWELL MILLS,RCA38963,LEVEL I RESIDENTIAL CARE FACILITY,ACTIVE,"244 LISBON ST APT 12G, FARWELL MILLS #2",LISBON,ME,04250-6877,ANDROSCOGGIN,+1 (207) 795-6737,ASSISTED HOUSING,2
FARWELL STREET,RCC38915,LEVEL III RESIDENTIAL CARE FACILITY,ACTIVE,167 FARWELL ST,LEWISTON,ME,04240-4829,ANDROSCOGGIN,+1 (207) 333-3743,ASSISTED HOUSING,3
FDK,RCA38975,LEVEL I RESIDENTIAL CARE FACILITY,ACTIVE,4 FIELDCREST DR,KENNEBUNK,ME,04043-6625,YORK,+1 (207) 878-9663,ASSISTED HOUSING,2
FENDERSON ROAD,RCD2372,LEVEL IV RESIDENTIAL CARE FACILITY,ACTIVE,15 FENDERSON RD,SACO,ME,04072-9628,YORK,+1 (207) 282-6626,ASSISTED HOUSING,8
FERN COTTAGE,RCC1694,LEVEL III RESIDENTIAL CARE FACILITY,ACTIVE,597 QUAKER RIDGE RD,LEEDS,ME,04263-3606,ANDROSCOGGIN,+1 (207) 671-3565,ASSISTED HOUSING,6
FIELD STONE MANOR 1,RCC2027,LEVEL III RESIDENTIAL CARE FACILITY,ACTIVE,489 S MAIN ST,BREWER,ME,04412-2428,PENOBSCOT,+1 (207) 460-9303,ASSISTED HOUSING,5
FIELDSTONE DRIVE GROUP HOME,PNC346,PNMI LEVEL III RESIDENTIAL CARE FACILITY,ACTIVE,87 FIELDSTONE DR,BANGOR,ME,04401-3279,PENOBSCOT,+1 (207) 990-0459,ASSISTED HOUSING,6
FIFTY EIGHT SARGENT AVENUE,RCC351,LEVEL III RESIDENTIAL CARE FACILITY,ACTIVE,58 SARGEANT ST,LEWISTON,ME,04240-3461,ANDROSCOGGIN,+1 (207) 795-1088,ASSISTED HOUSING,4
FINSON ROAD,PND352,PNMI LEVEL IV RESIDENTIAL CARE FACILITY,ACTIVE,726 FINSON RD,BANGOR,ME,04401-2414,PENOBSCOT,+1 (207) 945-3099,ASSISTED HOUSING,8
FIVE TWENTY NINE ROOSEVELT TRAIL,RCA39177,LEVEL I RESIDENTIAL CARE FACILITY,ACTIVE,529 ROOSEVELT TRL,WINDHAM,ME,04062-4907,CUMBERLAND,+1 (207) 835-0099,ASSISTED HOUSING,2
FLORIDA AVENUE,RCA39353,LEVEL I RESIDENTIAL CARE FACILITY,ACTIVE,117 FLORIDA AVE,PORTLAND,ME,04103-3811,CUMBERLAND,+1 (207) 608-8000,ASSISTED HOUSING,2
FLOYD POWELL WAIVER HOME,RCC356,LEVEL III RESIDENTIAL CARE FACILITY,ACTIVE,38 CARTER STREET,EAGLE LAKE,ME,4739,AROOSTOOK,+1 (207) 444-6224,ASSISTED HOUSING,4
FOGG AVENUE,RCC1543,LEVEL III RESIDENTIAL CARE FACILITY,ACTIVE,4 FOGG AVE,BIDDEFORD,ME,04005-3106,YORK,+1 (207) 284-6977,ASSISTED HOUSING,3
FOGG ROAD,RCC357,LEVEL III RESIDENTIAL CARE FACILITY,ACTIVE,61 FOGG RD,BUXTON,ME,04093-3614,YORK,+1 (207) 727-6783,ASSISTED HOUSING,6
FONTBONNE,PND39437,PNMI LEVEL IV RESIDENTIAL CARE FACILITY,ACTIVE,7 HIGHWOOD ST,WATERVILLE,ME,04901-5739,KENNEBEC,+1 (207) 873-0705,ASSISTED HOUSING,11
FORBES LANE,RCC2172,LEVEL III RESIDENTIAL CARE FACILITY,ACTIVE,109 FORBES LN,WINDHAM,ME,04062-6114,CUMBERLAND,+1 (207) 892-0214,ASSISTED HOUSING,5
FORESIDE HARBOR,ALP22588,ASSISTED LIVING PROGRAM,ACTIVE,191 FORESIDE RD,FALMOUTH,ME,04105-1768,CUMBERLAND,+1 (207) 781-4714,ASSISTED HOUSING,36
FOREST AVE 1,RCA39147,LEVEL I RESIDENTIAL CARE FACILITY,ACTIVE,1410 FOREST AVE,PORTLAND,ME,04103-1737,CUMBERLAND,+1 (207) 835-0099,ASSISTED HOUSING,2
FOREST AVE 2,RCA39148,LEVEL I RESIDENTIAL CARE FACILITY,ACTIVE,1410 FOREST AVE,PORTLAND,ME,04103-1737,CUMBERLAND,+1 (207) 835-0099,ASSISTED HOUSING,2
FOREST AVENUE HOME,RCC361,LEVEL III RESIDENTIAL CARE FACILITY,ACTIVE,5 FOREST AVENUE,ELLSWORTH,ME,4605,HANCOCK,+1 (207) 667-6065,ASSISTED HOUSING,4
FOREST STREET,RCC38623,LEVEL III RESIDENTIAL CARE FACILITY,ACTIVE,77 FOREST ST,SACO,ME,04072-3110,YORK,+1 (207) 450-0306,ASSISTED HOUSING,3
FORTY SEVEN WOOD STREET,PNC363,PNMI LEVEL III RESIDENTIAL CARE FACILITY,ACTIVE,47 WOOD ST,LEWISTON,ME,04240-6844,ANDROSCOGGIN,+1 (207) 784-6996,ASSISTED HOUSING,6
FOSS HOME,RCC2214,LEVEL III RESIDENTIAL CARE FACILITY,ACTIVE,315 FOSS RD,LIMERICK,ME,04048-4306,YORK,+1 (207) 793-2224,ASSISTED HOUSING,3
FOSTER STREET HOME,RCC306,LEVEL III RESIDENTIAL CARE FACILITY,ACTIVE,34 FOSTER ST,ELLSWORTH,ME,04605-2102,HANCOCK,+1 (207) 667-2444,ASSISTED HOUSING,6
FOURTH STREET HOME,RCC368,LEVEL III RESIDENTIAL CARE FACILITY,ACTIVE,22 FOURTH ST,MEXICO,ME,04257-1738,OXFORD,+1 (207) 369-0678,ASSISTED HOUSING,4
FRANCISCAN HOME,PND22585,PNMI LEVEL IV RESIDENTIAL CARE FACILITY,ACTIVE,3400 AROOSTOOK RD,EAGLE LAKE,ME,4739,AROOSTOOK,+1 (207) 444-5152,ASSISTED HOUSING,16
FRANKFORT ASSISTED LIVING LLC-LEFT SIDE,RCD38669,LEVEL IV RESIDENTIAL CARE FACILITY,ACTIVE,112 N SEARSPORT RD,FRANKFORT,ME,04438-3204,WALDO,+1 (207) 952-0240,ASSISTED HOUSING,8
FRANKFORT ASSISTED LIVING LLC-RIGHT SIDE,RCD38670,LEVEL IV RESIDENTIAL CARE FACILITY,ACTIVE,112 N SEARSPORT RD,FRANKFORT,ME,04438-3204,WALDO,+1 (207) 952-0240,ASSISTED HOUSING,8
FRANKLIN HEIGHTS,RCC370,LEVEL III RESIDENTIAL CARE FACILITY,ACTIVE,125 BELCHER RD,FARMINGTON,ME,04938-5713,FRANKLIN,+1 (207) 778-0484,ASSISTED HOUSING,4
FRANKLIN HOME,RCC38651,LEVEL III RESIDENTIAL CARE FACILITY,ACTIVE,53 UNION ST,ELLSWORTH,ME,04605-1552,HANCOCK,+1 (207) 667-0254,ASSISTED HOUSING,3
"FRANKLIN HOUSE, THE",RCD2168,LEVEL IV RESIDENTIAL CARE FACILITY,ACTIVE,80 MAIN ST,FRANKLIN,ME,04634-3114,HANCOCK,+1 (207) 565-8991,ASSISTED HOUSING,8
FRANKLIN-GOLDEN ACRES,RCD2169,LEVEL IV RESIDENTIAL CARE FACILITY,ACTIVE,80 MAIN ST,FRANKLIN,ME,04634-3114,HANCOCK,+1 (207) 565-2352,ASSISTED HOUSING,8
FREDERICK AVENUE FOSTER HOME,RCC371,LEVEL III RESIDENTIAL CARE FACILITY,ACTIVE,3 FREDERICK AVE,SOUTH PARIS,ME,04281-1402,OXFORD,+1 (207) 743-0556,ASSISTED HOUSING,4
FREEPORT PLACE,RCD22474,LEVEL IV RESIDENTIAL CARE FACILITY,ACTIVE,4 OLD COUNTY RD,FREEPORT,ME,04032-6231,CUMBERLAND,+1 (207) 865-3500,ASSISTED HOUSING,30
FREESE'S ASSISTED LIVING PROGRAM,ALP377,ASSISTED LIVING PROGRAM,ACTIVE,10 WATER ST STE 1,BANGOR,ME,04401-6394,PENOBSCOT,+1 (207) 973-3500,ASSISTED HOUSING,39
FREMONT MANOR,RCD38735,LEVEL IV RESIDENTIAL CARE FACILITY,ACTIVE,5 FREEMONTS COR,SULLIVAN,ME,04664-3628,HANCOCK,+1 (207) 422-0029,ASSISTED HOUSING,8
FRIENDSHIP COTTAGE,ADS1969,ADULT DAY SERVICES PROGRAM,ACTIVE,118 ELLSWORTH ROAD,BLUE HILL,ME,4614,HANCOCK,+1 (207) 374-5612,ASSISTED HOUSING,30
FRIENDSHIP COVE,ALP2227,ASSISTED LIVING PROGRAM,ACTIVE,30 GOVERNORS WAY,TOPSHAM,ME,04086-1680,SAGADAHOC,+1 (207) 725-2650,ASSISTED HOUSING,44
FRIENDSHIP HOUSE,PNC38684,PNMI LEVEL III RESIDENTIAL CARE FACILITY,ACTIVE,75 FRANKLIN ST,BUCKSPORT,ME,04416-4033,HANCOCK,+1 (207) 469-6090,ASSISTED HOUSING,6
FROST STREET,RCA39105,LEVEL I RESIDENTIAL CARE FACILITY,ACTIVE,109 FROST ST,PORTLAND,ME,04102-2211,CUMBERLAND,+1 (207) 747-4937,ASSISTED HOUSING,2
FRUIT STREET,RCC1806,LEVEL III RESIDENTIAL CARE FACILITY,ACTIVE,155 FRUIT ST,BANGOR,ME,04401-4141,PENOBSCOT,+1 (207) 307-7757,ASSISTED HOUSING,3
FULLER CORNER WAIVER,RCC2072,LEVEL III RESIDENTIAL CARE FACILITY,ACTIVE,471 FULLER CORNER RD,HARTLAND,ME,04943-3605,SOMERSET,+1 (207) 938-4615,ASSISTED HOUSING,3
GALLAGHER COTTAGE WAIVER,RCC2028,LEVEL III RESIDENTIAL CARE FACILITY,ACTIVE,9 PRATT ROAD,HINCKLEY,ME,4944,SOMERSET,+1 (207) 453-7329,ASSISTED HOUSING,4
GALLANT WAY,PNA38720,PNMI LEVEL I RESIDENTIAL CARE FACILITY,ACTIVE,1 GALLANT WAY,AUGUSTA,ME,04330-8327,KENNEBEC,+1 (207) 480-1021,ASSISTED HOUSING,2
GARDEN CIRCLE,RCA39329,LEVEL I RESIDENTIAL CARE FACILITY,ACTIVE,185 GARDEN CIR,AUBURN,ME,04210-8843,ANDROSCOGGIN,+1 (207) 536-7016,ASSISTED HOUSING,2
"GARDEN, THE",RCD22590,LEVEL IV RESIDENTIAL CARE FACILITY,ACTIVE,58 BARIBEAU DR,BRUNSWICK,ME,04011-3218,CUMBERLAND,+1 (207) 373-3646,ASSISTED HOUSING,17
GARDINER HEALTH CARE FACILITY,RCD22468,LEVEL IV RESIDENTIAL CARE FACILITY,ACTIVE,8 HOLLAND ST,HOULTON,ME,04730-1706,AROOSTOOK,+1 (207) 532-3323,ASSISTED HOUSING,10
GARDNER STREET HOME,RCC1055,LEVEL III RESIDENTIAL CARE FACILITY,ACTIVE,13 GARDNER ST,PATTEN,ME,04765-3078,PENOBSCOT,+1 (207) 463-2156,ASSISTED HOUSING,4
GARLAND ROAD,RCC38821,LEVEL III RESIDENTIAL CARE FACILITY,ACTIVE,487 GARLAND RD,DEXTER,ME,04930-2652,PENOBSCOT,+1 (207) 564-8149,ASSISTED HOUSING,6
GARY AGENCY,RCA39298,LEVEL I RESIDENTIAL CARE FACILITY,ACTIVE,26 ROCKRIDGE RD,DEDHAM,ME,04429-4806,HANCOCK,+1 (207) 944-1848,ASSISTED HOUSING,1
"GATHERING PLACE SOCIAL ADULT DAY CENTER, THE",ADS1981,ADULT DAY SERVICES PROGRAM,ACTIVE,518 US ROUTE 1,KITTERY,ME,03904-2500,YORK,+1 (207) 439-6111,ASSISTED HOUSING,20
GEORGE ROBISHAW HOME,RCC399,LEVEL III RESIDENTIAL CARE FACILITY,ACTIVE,170A RANKIN ST,ROCKLAND,ME,04841-2318,KNOX,+1 (207) 594-0855,ASSISTED HOUSING,4
GEORGIA STREET RESIDENCE,RCC401,LEVEL III RESIDENTIAL CARE FACILITY,ACTIVE,28 GEORGIA ST,PORTLAND,ME,04103-6016,CUMBERLAND,+1 (207) 797-9502,ASSISTED HOUSING,5
GERMAINE DOWN-SUPPORT SOLUTIONS,RCA39252,LEVEL I RESIDENTIAL CARE FACILITY,ACTIVE,18 GERMAINE ST,LEWISTON,ME,04240-6449,ANDROSCOGGIN,+1 (207) 795-5091,ASSISTED HOUSING,2
GERMAINE UP-SUPPORT SOLUTIONS,RCA39253,LEVEL I RESIDENTIAL CARE FACILITY,ACTIVE,18 GERMAINE ST,LEWISTON,ME,04240-6449,ANDROSCOGGIN,+1 (207) 376-3202,ASSISTED HOUSING,2
GETCHELL FOSTER HOMES,RCB1790,LEVEL II RESIDENTIAL CARE FACILITY,ACTIVE,219 BRUCKOFF RD,CLIFTON,ME,04428-6038,PENOBSCOT,+1 (207) 852-7094,ASSISTED HOUSING,5
GILMAN STREET,PNC38805,PNMI LEVEL III RESIDENTIAL CARE FACILITY,ACTIVE,98 GILMAN ST,PORTLAND,ME,04102-3034,CUMBERLAND,+1 (207) 773-1466,ASSISTED HOUSING,6
GLENYS CUSHMAN,RCA38958,LEVEL I RESIDENTIAL CARE FACILITY,ACTIVE,247 MAIN ST,AUBURN,ME,04210-5726,ANDROSCOGGIN,+1 (207) 782-2726,ASSISTED HOUSING,1
GODIN HOUSE,RCC38748,LEVEL III RESIDENTIAL CARE FACILITY,ACTIVE,445 MAIN ST STE A,BIDDEFORD,ME,04005-2142,YORK,+1 (207) 284-7456,ASSISTED HOUSING,3
"GOLDEN YEARS ADULT DAY CARE, THE",ADS38641,ADULT DAY SERVICES PROGRAM,ACTIVE,24 HOYT ST,SPRINGVALE,ME,04083-1710,YORK,+1 (207) 850-4793,ASSISTED HOUSING,10
GOLDENEYE RESIDENCE,RCC412,LEVEL III RESIDENTIAL CARE FACILITY,ACTIVE,29 GOLDENEYE DR,TOPSHAM,ME,04086-1530,SAGADAHOC,+1 (207) 504-5806,ASSISTED HOUSING,4
GORDON GREEN,PND413,PNMI LEVEL IV RESIDENTIAL CARE FACILITY,ACTIVE,23 THIRD ST,SOUTH PORTLAND,ME,04106-2070,CUMBERLAND,+1 (207) 767-2238,ASSISTED HOUSING,8
GORHAM,RCA38897,LEVEL I RESIDENTIAL CARE FACILITY,ACTIVE,22 NEWTON DR,GORHAM,ME,04038-1827,CUMBERLAND,+1 (207) 222-0727,ASSISTED HOUSING,2
GORHAM HOUSE,PND22470,PNMI LEVEL IV RESIDENTIAL CARE FACILITY,ACTIVE,50 NEW PORTLAND RD,GORHAM,ME,04038-1542,CUMBERLAND,+1 (207) 839-5757,ASSISTED HOUSING,35
GORHAM ROAD,RCA39169,LEVEL I RESIDENTIAL CARE FACILITY,ACTIVE,16 GORHAM RD,WISCASSET,ME,04578-4664,LINCOLN,+1 (207) 882-6052,ASSISTED HOUSING,2
"GRACE HOME 2, THE",RCD2179,LEVEL IV RESIDENTIAL CARE FACILITY,ACTIVE,95 WILLEY DISTRICT RD,HARRINGTON,ME,04643-3228,WASHINGTON,+1 (207) 460-3825,ASSISTED HOUSING,8
GRACE STREET GROUP HOME,PNC38851,PNMI LEVEL III RESIDENTIAL CARE FACILITY,ACTIVE,47 GRACE ST,ROCKLAND,ME,04841-2834,KNOX,+1 (207) 594-8960,ASSISTED HOUSING,3
GRACEWOODS LANE I,RCA39109,LEVEL I RESIDENTIAL CARE FACILITY,ACTIVE,27A GRACEWOODS LN,GRAY,ME,04039-5500,CUMBERLAND,+1 (207) 714-9024,ASSISTED HOUSING,2
GRACEWOODS LANE II,RCA39110,LEVEL I RESIDENTIAL CARE FACILITY,ACTIVE,27B GRACEWOODS LN,GRAY,ME,04039-5500,CUMBERLAND,+1 (207) 714-9106,ASSISTED HOUSING,2
GRACEWOODS LANE III,RCA39111,LEVEL I RESIDENTIAL CARE FACILITY,ACTIVE,28A GRACEWOODS LN,GRAY,ME,04039-5500,CUMBERLAND,+1 (207) 714-9068,ASSISTED HOUSING,2
GRACEWOODS LANE IV,RCA39112,LEVEL I RESIDENTIAL CARE FACILITY,ACTIVE,28B GRACEWOODS LN,GRAY,ME,04039-5500,CUMBERLAND,+1 (207) 714-9053,ASSISTED HOUSING,2
GRAFTON STREET,RCC2002,LEVEL III RESIDENTIAL CARE FACILITY,ACTIVE,42 GRAFTON ST,PORTLAND,ME,04103-5008,CUMBERLAND,+1 (207) 775-2868,ASSISTED HOUSING,3
GRANGE WAIVER,RCC2037,LEVEL III RESIDENTIAL CARE FACILITY,ACTIVE,13 PRATT ROAD,HINCKLEY,ME,4944,SOMERSET,+1 (207) 238-9260,ASSISTED HOUSING,6
GRANT MANOR,RCD2248,LEVEL IV RESIDENTIAL CARE FACILITY,ACTIVE,19 MILL ST,BREWER,ME,04412-2508,PENOBSCOT,+1 (207) 460-9303,ASSISTED HOUSING,8
GRAY,RCA39005,LEVEL I RESIDENTIAL CARE FACILITY,ACTIVE,11 MCCONKEY RD,GRAY,ME,04039-9774,CUMBERLAND,+1 (207) 657-5939,ASSISTED HOUSING,2
GREAT EXPLORATIONS,ADS2332,ADULT DAY SERVICES PROGRAM,FAILED TO RENEW,,,,,,,ASSISTED HOUSING,20
GREENE HOME,PNC1956,PNMI LEVEL III RESIDENTIAL CARE FACILITY,ACTIVE,119 MEADOW HILL RD,GREENE,ME,04236-3949,ANDROSCOGGIN,+1 (207) 946-3269,ASSISTED HOUSING,3
GROVE STREET GROUP HOME,PNC427,PNMI LEVEL III RESIDENTIAL CARE FACILITY,ACTIVE,120 GROVE ST,BANGOR,ME,04401-5312,PENOBSCOT,+1 (207) 942-7669,ASSISTED HOUSING,4
GUINEA ROAD,RCC428,LEVEL III RESIDENTIAL CARE FACILITY,ACTIVE,3 AJAC WAY,BIDDEFORD,ME,04005-9121,YORK,+1 (207) 282-2666,ASSISTED HOUSING,4
GUY STREET,RCC1900,LEVEL III RESIDENTIAL CARE FACILITY,ACTIVE,41 GUY STREET,HOULTON,ME,4730,AROOSTOOK,+1 (207) 532-7150,ASSISTED HOUSING,5
H.E.L.P. ADULT RESPITE CARE,ADS38601,ADULT DAY SERVICES PROGRAM,ACTIVE,42 DALLAS HILL RD,RANGELEY,ME,04970-4032,FRANKLIN,+1 (207) 864-4397 x4,ASSISTED HOUSING,10
HALL-DALE MANOR,PND435,PNMI LEVEL IV RESIDENTIAL CARE FACILITY,ACTIVE,647 MAINE AVE,FARMINGDALE,ME,04344-1526,KENNEBEC,+1 (207) 622-7082,ASSISTED HOUSING,26
HAMLIN ROAD,RCC38999,LEVEL III RESIDENTIAL CARE FACILITY,ACTIVE,14 HAMLIN RD,FALMOUTH,ME,04105-2206,CUMBERLAND,+1 (207) 632-6240,ASSISTED HOUSING,3
HAMPDEN MEADOWS,PND38685,PNMI LEVEL IV RESIDENTIAL CARE FACILITY,ACTIVE,1282 KENNEBEC RD,HAMPDEN,ME,04444-3118,PENOBSCOT,+1 (207) 862-4684,ASSISTED HOUSING,8
HAMPDEN WOODS MANOR,RCD39093,LEVEL IV RESIDENTIAL CARE FACILITY,ACTIVE,60 CARMEL RD S,HAMPDEN,ME,04444-3122,PENOBSCOT,+1 (207) 812-8131,ASSISTED HOUSING,8
HANCOCK GOLDEN ACRES,RCD2152,LEVEL IV RESIDENTIAL CARE FACILITY,ACTIVE,1421 US HWY 1,HANCOCK,ME,04640-3462,HANCOCK,+1 (207) 460-3825,ASSISTED HOUSING,8
"HANCOCK HOME 1, THE",RCC1802,LEVEL III RESIDENTIAL CARE FACILITY,ACTIVE,203 EASTSIDE RD,HANCOCK,ME,04640-3906,HANCOCK,+1 (207) 422-3777,ASSISTED HOUSING,3
"HANCOCK HOME 2, THE",RCA39274,LEVEL I RESIDENTIAL CARE FACILITY,ACTIVE,145 OLD ROUTE 1,HANCOCK,ME,04640-3442,HANCOCK,+1 (207) 422-9112,ASSISTED HOUSING,2
"HANCOCK HOUSE, THE",RCD2153,LEVEL IV RESIDENTIAL CARE FACILITY,ACTIVE,1421 US HWY 1,HANCOCK,ME,04640-3462,HANCOCK,+1 (207) 425-2522,ASSISTED HOUSING,8
HANCOCK HOUSE-DEHI,RCC38703,LEVEL III RESIDENTIAL CARE FACILITY,ACTIVE,493 US ROUTE 1,HANCOCK,ME,4840,HANCOCK,+1 (207) 412-2440,ASSISTED HOUSING,3
HANNAH DRIVE,RCC1626,LEVEL III RESIDENTIAL CARE FACILITY,ACTIVE,15 HANNAH DR,GORHAM,ME,04038-5863,CUMBERLAND,+1 (207) 828-0048,ASSISTED HOUSING,3
HARBOR HILL CENTER,RCD22472,LEVEL IV RESIDENTIAL CARE FACILITY,ACTIVE,2 FOOTBRIDGE RD,BELFAST,ME,04915-7206,WALDO,+1 (207) 338-1129,ASSISTED HOUSING,45
HARBOR VIEW COTTAGE,RCD2043,LEVEL IV RESIDENTIAL CARE FACILITY,ACTIVE,34 MAIN ST,NEWCASTLE,ME,04553-3819,LINCOLN,+1 (207) 563-3305,ASSISTED HOUSING,12
HARMONY LANE,RCA1674,LEVEL I RESIDENTIAL CARE FACILITY,ACTIVE,1 HARMONY LN,BIDDEFORD,ME,04005-9389,YORK,+1 (207) 284-5156,ASSISTED HOUSING,2
"HARRINGTON HOUSE, THE",RCD2216,LEVEL IV RESIDENTIAL CARE FACILITY,ACTIVE,95 WILLEY DISTRICT RD,HARRINGTON,ME,04643-3228,WASHINGTON,+1 (207) 483-2247,ASSISTED HOUSING,8
HARRIS ROAD,RCC452,LEVEL III RESIDENTIAL CARE FACILITY,ACTIVE,10 HARRIS RD,MINOT,ME,04258-4240,ANDROSCOGGIN,+1 (207) 345-0956,ASSISTED HOUSING,4
HARTLAND RD WAIVER,RCC2010,LEVEL III RESIDENTIAL CARE FACILITY,ACTIVE,362 ESTES AVE,PALMYRA,ME,04965-3837,SOMERSET,+1 (207) 938-0206,ASSISTED HOUSING,3
HASKELL STREET ASSISTED LIVING FACILITY,RCC2023,LEVEL III RESIDENTIAL CARE FACILITY,ACTIVE,99 HASKELL ST,WESTBROOK,ME,04092-4217,CUMBERLAND,+1 (207) 854-9367,ASSISTED HOUSING,3
HATHAWAY HOUSE,RCA38986,LEVEL I RESIDENTIAL CARE FACILITY,ACTIVE,96 FOREST AVE,BANGOR,ME,04401-5985,PENOBSCOT,+1 (207) 307-7626,ASSISTED HOUSING,2
HEARTWOOD COTTAGE,RCA39039,LEVEL I RESIDENTIAL CARE FACILITY,ACTIVE,61 BARROWS DR,TOPSHAM,ME,04086-1327,SAGADAHOC,+1 (207) 798-6706,ASSISTED HOUSING,2
HEATH HOUSE,RCC38746,LEVEL III RESIDENTIAL CARE FACILITY,ACTIVE,45 HEATH RD,SACO,ME,04072-9335,YORK,+1 (207) 286-3481,ASSISTED HOUSING,5
HEBERT,RCA39176,LEVEL I RESIDENTIAL CARE FACILITY,ACTIVE,5 HEBERT WAY,GORHAM,ME,04038-2359,CUMBERLAND,+1 (207) 835-0099,ASSISTED HOUSING,2
HELEN WINSLOW RAY HOUSE,PND38904,PNMI LEVEL IV RESIDENTIAL CARE FACILITY,ACTIVE,705 WESTBROOK ST,SOUTH PORTLAND,ME,04106-1930,CUMBERLAND,,ASSISTED HOUSING,8
HELEN'S FAMILY HOME,RCB1530,LEVEL II RESIDENTIAL CARE FACILITY,ACTIVE,516 GREENWOOD RD,NORWAY,ME,04268-4412,OXFORD,+1 (207) 527-2760,ASSISTED HOUSING,3
HELMS WAY,RCC2275,LEVEL III RESIDENTIAL CARE FACILITY,ACTIVE,43 HELMS WAY,GORHAM,ME,04038-1892,CUMBERLAND,+1 (207) 839-7002,ASSISTED HOUSING,3
HENRY'S PLACE,RCA38988,LEVEL I RESIDENTIAL CARE FACILITY,ACTIVE,3 MAIN RD,EDDINGTON,ME,04428-3000,PENOBSCOT,+1 (207) 307-7729,ASSISTED HOUSING,2
HERITAGE REHABILITATION AND LIVING CENTER,PND22487,PNMI LEVEL IV RESIDENTIAL CARE FACILITY,ACTIVE,457 OLD LEWISTON RD,WINTHROP,ME,04364-4111,KENNEBEC,+1 (207) 377-9965,ASSISTED HOUSING,24
HIDDEN LAKE HOME,RCC38820,LEVEL III RESIDENTIAL CARE FACILITY,ACTIVE,151 HIDDEN LAKE RD,OTISFIELD,ME,04270-6021,OXFORD,+1 (207) 539-4261,ASSISTED HOUSING,4
HIGH STREET,PND38847,PNMI LEVEL IV RESIDENTIAL CARE FACILITY,ACTIVE,5 HIGH ST,SANFORD,ME,04073-2769,YORK,+1 (207) 490-4960,ASSISTED HOUSING,10
HIGH STREET FOSTER HOME,RCC472,LEVEL III RESIDENTIAL CARE FACILITY,ACTIVE,89 HIGH ST,HOULTON,ME,04730-1941,AROOSTOOK,+1 (207) 532-9001,ASSISTED HOUSING,6
HIGHLAND AVENUE,RCC1830,LEVEL III RESIDENTIAL CARE FACILITY,ACTIVE,56 HIGHLAND AVE,SCARBOROUGH,ME,04074-9346,CUMBERLAND,+1 (207) 883-4696,ASSISTED HOUSING,3
"HILLHOUSE, INC.",RCD485,LEVEL IV RESIDENTIAL CARE FACILITY,ACTIVE,166 WHISKEAG RD,BATH,ME,04530-4135,SAGADAHOC,+1 (207) 443-6301,ASSISTED HOUSING,56
HILLSIDE,RCC38822,LEVEL III RESIDENTIAL CARE FACILITY,ACTIVE,1172 DEXTER RD,DOVER FOXCROFT,ME,04426-3600,PISCATAQUIS,+1 (207) 564-3091,ASSISTED HOUSING,3
HILLSIDE- SUPPORT SOLUTIONS,RCA39254,LEVEL I RESIDENTIAL CARE FACILITY,ACTIVE,18 HILLSIDE AVE,MINOT,ME,04258-4449,ANDROSCOGGIN,+1 (207) 345-7135,ASSISTED HOUSING,2
"HILLSIDE TERRACE OF HALLOWELL, LLC",PND486,PNMI LEVEL IV RESIDENTIAL CARE FACILITY,ACTIVE,21 WARREN ST,HALLOWELL,ME,04347-1247,KENNEBEC,+1 (207) 622-5644,ASSISTED HOUSING,21
HILLSIDE WAIVER HOME,RCB39212,LEVEL II RESIDENTIAL CARE FACILITY,ACTIVE,3 HILLSIDE ST,PRESQUE ISLE,ME,04769-2425,AROOSTOOK,+1 (207) 764-2818,ASSISTED HOUSING,3
HILLTOP HOME,RCC2383,LEVEL III RESIDENTIAL CARE FACILITY,ACTIVE,47 BEALS AVE,ELLSWORTH,ME,04605-1701,HANCOCK,+1 (207) 667-0344,ASSISTED HOUSING,4
HILLTOP MANOR,PND487,PNMI LEVEL IV RESIDENTIAL CARE FACILITY,ACTIVE,462 ESSEX ST,DOVER FOXCROFT,ME,04426-1311,PISCATAQUIS,+1 (207) 564-3049,ASSISTED HOUSING,32
HODGDON GREEN BOARDING HOME,PND488,PNMI LEVEL IV RESIDENTIAL CARE FACILITY,ACTIVE,6 HODGDON ST,DAMARISCOTTA,ME,04543-4638,LINCOLN,+1 (207) 563-2148,ASSISTED HOUSING,16
HOLBROOK ASSISTED LIVING AT PIPER SHORES,PND27486,PNMI LEVEL IV RESIDENTIAL CARE FACILITY,ACTIVE,15 PIPER RD,SCARBOROUGH,ME,04074-9473,CUMBERLAND,+1 (207) 883-8700,ASSISTED HOUSING,54
HOLDEN HOUSE,PNC38712,PNMI LEVEL III RESIDENTIAL CARE FACILITY,ACTIVE,505 MAIN RD,HOLDEN,ME,04429-7136,PENOBSCOT,+1 (207) 989-9680,ASSISTED HOUSING,4
HOLLIS HOUSE,RCC38880,LEVEL III RESIDENTIAL CARE FACILITY,ACTIVE,310 CAPE RD,HOLLIS CENTER,ME,04042-3711,YORK,+1 (207) 369-1202,ASSISTED HOUSING,3
HOLLIS HOUSE II,RCA38879,LEVEL I RESIDENTIAL CARE FACILITY,ACTIVE,304 CAPE RD,HOLLIS CENTER,ME,04042-3711,YORK,+1 (207) 369-1202,ASSISTED HOUSING,2
HOLMES HOUSE,RCC490,LEVEL III RESIDENTIAL CARE FACILITY,ACTIVE,55 TIMBER LN,NEWCASTLE,ME,04553-3320,LINCOLN,+1 (207) 563-2473,ASSISTED HOUSING,5
"HOME AT PLEASANT STREET, THE",RCA38887,LEVEL I RESIDENTIAL CARE FACILITY,ACTIVE,95 PLEASANT ST,OXFORD,ME,4270,,+1 (207) 743-8049 x202,ASSISTED HOUSING,2
HOMEPORT AT ISLAND NURSING HOME,RCD22494,LEVEL IV RESIDENTIAL CARE FACILITY,ACTIVE,587 N DEER ISLE RD,DEER ISLE,ME,04627-3438,HANCOCK,+1 (207) 348-2351,ASSISTED HOUSING,32
HOMEWOOD BLVD,RCA39068,LEVEL I RESIDENTIAL CARE FACILITY,ACTIVE,33 HOMEWOOD BLVD,OLD ORCHARD BEACH,ME,04064-1164,YORK,+1 (207) 937-8260,ASSISTED HOUSING,2
HOPE SPRINGS HAVEN,RCA38661,LEVEL I RESIDENTIAL CARE FACILITY,FAILED TO RENEW,195 MILES RD,NEWBURGH,ME,04444-4733,PENOBSCOT,+1 (207) 234-7727,ASSISTED HOUSING,2
HOPE SPRINGS HAVEN,RCC38868,LEVEL III RESIDENTIAL CARE FACILITY,ACTIVE,195 MILES RD,NEWBURGH,ME,04444-4733,PENOBSCOT,+1 (207) 234-7727,ASSISTED HOUSING,3
HORIZONS UNLIMITED,PND497,PNMI LEVEL IV RESIDENTIAL CARE FACILITY,ACTIVE,319 SWAIN RD,RUMFORD,ME,04276-3803,OXFORD,+1 (207) 364-8842,ASSISTED HOUSING,7
HOTEL ROAD,RCC498,LEVEL III RESIDENTIAL CARE FACILITY,ACTIVE,1092 HOTEL RD,AUBURN,ME,04210-8980,ANDROSCOGGIN,+1 (207) 784-3951,ASSISTED HOUSING,4
HOUGHTON HOUSE,RCC38695,LEVEL III RESIDENTIAL CARE FACILITY,ACTIVE,3 E HOUGHTON ST,MADISON,ME,04950-1304,SOMERSET,+1 (207) 696-8529,ASSISTED HOUSING,5
HOUSE IN SHAWMUT,PNC502,PNMI LEVEL III RESIDENTIAL CARE FACILITY,ACTIVE,81 BRAY AVENUE,SHAWMUT,ME,4975,SOMERSET,+1 (207) 453-7638,ASSISTED HOUSING,6
HUNTINGTON COMMON,ALP1824,ASSISTED LIVING PROGRAM,ACTIVE,1 HUNTINGTON COMMON DR,KENNEBUNK,ME,04043-6558,YORK,+1 (207) 985-2810,ASSISTED HOUSING,82
HUNTINGTON HILL,RCC1946,LEVEL III RESIDENTIAL CARE FACILITY,ACTIVE,70 HUNTINGTON HILL RD,LITCHFIELD,ME,04350-3721,KENNEBEC,+1 (207) 268-3824,ASSISTED HOUSING,3
HUSSON HOLLOW GROUP HOME,PND1797,PNMI LEVEL IV RESIDENTIAL CARE FACILITY,ACTIVE,107 HUSSON AVE,BANGOR,ME,04401-3286,PENOBSCOT,+1 (207) 941-8552,ASSISTED HOUSING,8
IDA W. LOCKHART RESIDENCE,RCC1274,LEVEL III RESIDENTIAL CARE FACILITY,ACTIVE,76 PARK ST,ELLSWORTH,ME,04605-1631,HANCOCK,+1 (207) 667-6129,ASSISTED HOUSING,6
INDEPENDENCE HOUSE 1,PNC1785,PNMI LEVEL III RESIDENTIAL CARE FACILITY,ACTIVE,31 SCHOOL ST,FREEPORT,ME,04032-1326,CUMBERLAND,+1 (207) 504-5820,ASSISTED HOUSING,6
INDUSTRY ROAD,RCC38662,LEVEL III RESIDENTIAL CARE FACILITY,ACTIVE,777 INDUSTRY RD,NEW SHARON,ME,04955-3038,FRANKLIN,+1 (207) 893-6083,ASSISTED HOUSING,3
INGALLS ROAD ASSISTED HOUSING PROGRAM,RCA38610,LEVEL I RESIDENTIAL CARE FACILITY,FAILED TO RENEW,,,,,,+1 (207) 647-8643,ASSISTED HOUSING,2
INGRAHAM HOUSE,PNC513,PNMI LEVEL III RESIDENTIAL CARE FACILITY,ACTIVE,79 HIGH ST,PORTLAND,ME,04101-3844,CUMBERLAND,+1 (207) 761-8450,ASSISTED HOUSING,4
"INN AT ATLANTIC HEIGHTS, THE",ALP2021,ASSISTED LIVING PROGRAM,ACTIVE,100 HARBOR DR,SACO,ME,04072-2173,YORK,+1 (207) 283-3022,ASSISTED HOUSING,46
"INN AT ATLANTIC HEIGHTS-RCF, THE",PND2195,PNMI LEVEL IV RESIDENTIAL CARE FACILITY,ACTIVE,100 HARBOR DR,SACO,ME,04072-2173,YORK,+1 (207) 283-3022,ASSISTED HOUSING,34
"INN AT CITY HALL, THE",ALP1550,ASSISTED LIVING PROGRAM,ACTIVE,1 CONY ST,AUGUSTA,ME,04330-5243,KENNEBEC,+1 (207) 623-0840,ASSISTED HOUSING,31
"INN AT DIRIGO PINES, THE",ALP38599,ASSISTED LIVING PROGRAM,ACTIVE,9 ALUMNI DR,ORONO,ME,04473-3479,PENOBSCOT,+1 (207) 866-3400,ASSISTED HOUSING,73
"INN AT SEAPORT VILLAGE, THE",RCD38597,LEVEL IV RESIDENTIAL CARE FACILITY,ACTIVE,11 GENERAL MOORE WAY,ELLSWORTH,ME,04605-1860,HANCOCK,+1 (207) 667-9336,ASSISTED HOUSING,30
INN AT VILLAGE SQUARE,PND514,PNMI LEVEL IV RESIDENTIAL CARE FACILITY,ACTIVE,123 SCHOOL ST,GORHAM,ME,04038-1084,CUMBERLAND,+1 (207) 839-5101,ASSISTED HOUSING,37
INN OF ST. ANDREWS VILLAGE,ALP38861,ASSISTED LIVING PROGRAM,ACTIVE,145 EMERY LN,BOOTHBAY HARBOR,ME,04538-1963,LINCOLN,+1 (207) 633-0920,ASSISTED HOUSING,41
IRENE STREET,RCA39103,LEVEL I RESIDENTIAL CARE FACILITY,ACTIVE,17 IRENE ST,LISBON,ME,04250-6618,ANDROSCOGGIN,+1 (207) 407-4023,ASSISTED HOUSING,2
IRIS PARK APARTMENTS,ALP1832,ASSISTED LIVING PROGRAM,ACTIVE,201 PARK AVE,PORTLAND,ME,04102-2938,CUMBERLAND,+1 (207) 774-6273,ASSISTED HOUSING,30
ISLAND COMMONS RESOURCE CENTER,PND521,PNMI LEVEL IV RESIDENTIAL CARE FACILITY,ACTIVE,132 LITTLEFIELD RD,CHEBEAGUE ISLAND,ME,04017-3316,CUMBERLAND,+1 (207) 846-5610,ASSISTED HOUSING,7
IVAN CALDERWOOD HOME,PND1345,PNMI LEVEL IV RESIDENTIAL CARE FACILITY,ACTIVE,18 BEAVER DAM RD,VINALHAVEN,ME,04863-3915,KNOX,+1 (207) 863-4600,ASSISTED HOUSING,8
"JACOB'S RESIDENTIAL CARE CENTER, INC.",PNC525,PNMI LEVEL III RESIDENTIAL CARE FACILITY,ACTIVE,7 CHURCH ST,ANSON,ME,04911-3382,SOMERSET,+1 (207) 696-4466,ASSISTED HOUSING,5
JAY 1,RCA38997,LEVEL I RESIDENTIAL CARE FACILITY,ACTIVE,1 HORAN ST APT 2,JAY,ME,04239-1836,FRANKLIN,+1 (207) 320-2122,ASSISTED HOUSING,1
JAY 2,RCA38996,LEVEL I RESIDENTIAL CARE FACILITY,ACTIVE,1 HORAN ST APT 3,JAY,ME,04239-1836,FRANKLIN,+1 (207) 320-2122,ASSISTED HOUSING,1
JAY 3,RCA38995,LEVEL I RESIDENTIAL CARE FACILITY,ACTIVE,1 HORAN ST APT 4,JAY,ME,04239-1836,FRANKLIN,+1 (207) 320-2122,ASSISTED HOUSING,1
JED PROUTY RESIDENTIAL CARE HOME-FIRST FLOOR,RCD2140,LEVEL IV RESIDENTIAL CARE FACILITY,ACTIVE,57 MAIN ST,BUCKSPORT,ME,4416,HANCOCK,+1 (207) 952-0240,ASSISTED HOUSING,8
JED PROUTY RESIDENTIAL CARE HOME-SECOND FL.,RCD2141,LEVEL IV RESIDENTIAL CARE FACILITY,ACTIVE,57 MAIN ST,BUCKSPORT,ME,4416,HANCOCK,+1 (207) 952-0240,ASSISTED HOUSING,8
JED PROUTY RESIDENTIAL CARE HOME-THIRD FLOOR,RCC38782,LEVEL III RESIDENTIAL CARE FACILITY,ACTIVE,57 MAIN ST,BUCKSPORT,ME,4416,HANCOCK,+1 (207) 902-1220,ASSISTED HOUSING,3
JEFFERSON GREEN,RCC1583,LEVEL III RESIDENTIAL CARE FACILITY,ACTIVE,77 WALDOBORO RD,JEFFERSON,ME,04348-3875,LINCOLN,+1 (207) 687-2164,ASSISTED HOUSING,6
JEFFERSON HOUSE UNIT 1,RCA39094,LEVEL I RESIDENTIAL CARE FACILITY,ACTIVE,27 JEFFERSON ST UNIT 1,WESTBROOK,ME,04092-2108,CUMBERLAND,+1 (207) 847-2273,ASSISTED HOUSING,2
JEFFERSON HOUSE UNIT 2,RCA39095,LEVEL I RESIDENTIAL CARE FACILITY,ACTIVE,27 JEFFERSON ST UNIT 2,WESTBROOK,ME,04092-2108,CUMBERLAND,+1 (207) 847-2273,ASSISTED HOUSING,2
JEFFERSON HOUSE UNIT 3,RCA39096,LEVEL I RESIDENTIAL CARE FACILITY,ACTIVE,27 JEFFERSON ST UNIT 3,WESTBROOK,ME,04092-2108,CUMBERLAND,+1 (207) 847-2273,ASSISTED HOUSING,2
JENKINS 209,RCC38863,LEVEL III RESIDENTIAL CARE FACILITY,ACTIVE,209 JENKINS RD,SACO,ME,04072-9796,YORK,+1 (207) 879-1140,ASSISTED HOUSING,3
JENKINS HOME 1,RCA39230,LEVEL I RESIDENTIAL CARE FACILITY,ACTIVE,170B RANKIN ST,ROCKLAND,ME,04841-2318,KNOX,+1 (207) 594-3048,ASSISTED HOUSING,1
JENKINS HOME 2,RCA39231,LEVEL I RESIDENTIAL CARE FACILITY,ACTIVE,170C RANKIN ST,ROCKLAND,ME,04841-2318,KNOX,+1 (207) 594-3048,ASSISTED HOUSING,2
JO-ANN'S FOSTER HOME,RCA534,LEVEL I RESIDENTIAL CARE FACILITY,ACTIVE,130 HORN HILL RD,FAIRFIELD,ME,04937-3029,SOMERSET,+1 (207) 465-2080,ASSISTED HOUSING,2
JOSEPH STREET FOSTER HOME,RCC350,LEVEL III RESIDENTIAL CARE FACILITY,ACTIVE,6 JOSEPH ST,HOULTON,ME,04730-2358,AROOSTOOK,+1 (207) 532-1358,ASSISTED HOUSING,6
KATAHDIN HOUSE,RCC548,LEVEL III RESIDENTIAL CARE FACILITY,ACTIVE,55 TIMBER LN # 1,NEWCASTLE,ME,04553-3320,LINCOLN,+1 (207) 563-2895,ASSISTED HOUSING,4
KATAHDIN STREET HOME,RCC1100,LEVEL III RESIDENTIAL CARE FACILITY,ACTIVE,15A KATAHDIN ST,PATTEN,ME,04765-3069,PENOBSCOT,+1 (207) 528-2929,ASSISTED HOUSING,4
KEEP HOUSE I,RCC38883,LEVEL III RESIDENTIAL CARE FACILITY,ACTIVE,669 HANCOCK ST,RUMFORD,ME,04276-1504,OXFORD,+1 (207) 364-7281,ASSISTED HOUSING,3
KELLY A,RCC553,LEVEL III RESIDENTIAL CARE FACILITY,ACTIVE,50 WESTMINSTER AVE,PORTLAND,ME,04103-2431,CUMBERLAND,+1 (207) 899-2565,ASSISTED HOUSING,3
KELLY B,RCA38893,LEVEL I RESIDENTIAL CARE FACILITY,ACTIVE,52 WESTMINSTER AVE,PORTLAND,ME,04103-2431,CUMBERLAND,+1 (207) 899-2525,ASSISTED HOUSING,2
KELLY DRIVE GROUP HOME,PNC1557,PNMI LEVEL III RESIDENTIAL CARE FACILITY,ACTIVE,46 KELLY DR,SABATTUS,ME,04280-4320,ANDROSCOGGIN,+1 (207) 375-8920,ASSISTED HOUSING,6
KENDALL LANE,RCC555,LEVEL III RESIDENTIAL CARE FACILITY,ACTIVE,4 KENDALL LN,FREEPORT,ME,04032-1414,CUMBERLAND,+1 (207) 865-3689,ASSISTED HOUSING,3
KENNEBAGO DRIVE,RCC2204,LEVEL III RESIDENTIAL CARE FACILITY,ACTIVE,16 KENNEBAGO DR,SCARBOROUGH,ME,04074-9303,CUMBERLAND,+1 (207) 883-0097,ASSISTED HOUSING,4
KENNEDY FOSTER HOME,RCC559,LEVEL III RESIDENTIAL CARE FACILITY,FAILED TO RENEW,31 DEVOE BROOK RD,EAGLE LAKE,ME,4739,AROOSTOOK,+1 (207) 444-5434,ASSISTED HOUSING,4
KEYSTONE,PND39436,PNMI LEVEL IV RESIDENTIAL CARE FACILITY,ACTIVE,7 HIGHWOOD ST,WATERVILLE,ME,04901-5739,KENNEBEC,+1 (207) 873-0705,ASSISTED HOUSING,16
KIMBALL AVENUE,RCC2142,LEVEL III RESIDENTIAL CARE FACILITY,FAILED TO RENEW,34 KIMBALL AVE,MEXICO,ME,04257-1237,OXFORD,+1 (207) 364-2439,ASSISTED HOUSING,3
KIMBALL AVENUE,RCC38798,LEVEL III RESIDENTIAL CARE FACILITY,ACTIVE,34 KIMBALL AVE,MEXICO,ME,04257-1237,OXFORD,+1 (207) 364-2439,ASSISTED HOUSING,3
KINGSBURY ROAD WAIVER HOME,RCC38825,LEVEL III RESIDENTIAL CARE FACILITY,ACTIVE,76 WEST RD,ABBOT,ME,04406-3022,PISCATAQUIS,+1 (207) 564-8149,ASSISTED HOUSING,4
KINGSBURY ROAD WAIVER HOME 2,RCC38941,LEVEL III RESIDENTIAL CARE FACILITY,ACTIVE,76 WEST RD,ABBOT,ME,04406-3022,PISCATAQUIS,+1 (207) 876-4706,ASSISTED HOUSING,3
KNOX ROAD HOUSE,RCC68,LEVEL III RESIDENTIAL CARE FACILITY,ACTIVE,276 KNOX RD,BAR HARBOR,ME,04609-7730,HANCOCK,+1 (207) 288-9737,ASSISTED HOUSING,6
LAASE,RCA39014,LEVEL I RESIDENTIAL CARE FACILITY,ACTIVE,15 LAASE AVE,LEWISTON,ME,04240-5105,ANDROSCOGGIN,+1 (207) 783-4410,ASSISTED HOUSING,2
LAKEVIEW DRIVE HOUSE,PNC2387,PNMI LEVEL III RESIDENTIAL CARE FACILITY,ACTIVE,176 LAKEVIEW DR,SOUTH CHINA,ME,04358-5627,KENNEBEC,+1 (207) 445-8082,ASSISTED HOUSING,3
LAKEVIEW TERRACE RESIDENTIAL CARE FACILITY,PND577,PNMI LEVEL IV RESIDENTIAL CARE FACILITY,ACTIVE,74 TAYLOR ST,LINCOLN,ME,04457-1145,PENOBSCOT,+1 (207) 794-6086,ASSISTED HOUSING,13
LAMBS MILL ROAD HOME,RCC38612,LEVEL III RESIDENTIAL CARE FACILITY,ACTIVE,31 LAMBS MILL RD,NAPLES,ME,04055-3222,CUMBERLAND,+1 (207) 693-4543,ASSISTED HOUSING,4
"LAMP MEMORY CARE CENTER, THE",PND2291,PNMI LEVEL IV RESIDENTIAL CARE FACILITY,ACTIVE,64 LISBON ST,LISBON,ME,04250-6017,ANDROSCOGGIN,+1 (207) 353-4318,ASSISTED HOUSING,28
LAMSON ROAD,RCC1554,LEVEL III RESIDENTIAL CARE FACILITY,ACTIVE,1170 LAMSON RD,AUGUSTA,ME,04330-8562,KENNEBEC,+1 (207) 623-0838,ASSISTED HOUSING,4
"LANDING AT CAPE ELIZABETH, THE",ALP39242,ASSISTED LIVING PROGRAM,ACTIVE,78 SCOTT DYER RD,CAPE ELIZABETH,ME,04107-2200,CUMBERLAND,+1 (207) 799-7332,ASSISTED HOUSING,60
"LANDING AT SACO BAY SENIOR DAY PROGRAM, THE",ADS39276,ADULT DAY SERVICES PROGRAM,ACTIVE,392 MAIN ST,SACO,ME,04072-1521,YORK,+1 (207) 284-0900,ASSISTED HOUSING,10
"LANDING AT SACO BAY, THE",RCD39243,LEVEL IV RESIDENTIAL CARE FACILITY,ACTIVE,392 MAIN ST,SACO,ME,04072-1521,YORK,+1 (207) 284-0900,ASSISTED HOUSING,53
LANGLEY STREET,RCA39340,LEVEL I RESIDENTIAL CARE FACILITY,ACTIVE,114 LANGLEY ST,BANGOR,ME,04401-2846,PENOBSCOT,+1 (207) 900-6639,ASSISTED HOUSING,2
LARK STREET,RCC39021,LEVEL III RESIDENTIAL CARE FACILITY,ACTIVE,3 LARK ST,WESTBROOK,ME,04092-3616,CUMBERLAND,,ASSISTED HOUSING,4
LAWN AVENUE,RCC592,LEVEL III RESIDENTIAL CARE FACILITY,ACTIVE,18 LAWN AVE,SACO,ME,04072-2950,YORK,+1 (207) 284-4627,ASSISTED HOUSING,3
LAWN AVENUE - APT 1,RCA38933,LEVEL I RESIDENTIAL CARE FACILITY,ACTIVE,18 LAWN AVE APT 1,SACO,ME,04072-2950,YORK,+1 (207) 282-3862,ASSISTED HOUSING,1
LEAP'S HOME SUPPORTS - AM,RCA38929,LEVEL I RESIDENTIAL CARE FACILITY,ACTIVE,208 BARLEN ST,FARMINGTON,ME,04938-5513,FRANKLIN,,ASSISTED HOUSING,1
LEAP'S HOME SUPPORTS - WV,RCA38930,LEVEL I RESIDENTIAL CARE FACILITY,ACTIVE,114 THOMPSON WALTON CT APT 111,FARMINGTON,ME,04938-5648,FRANKLIN,,ASSISTED HOUSING,1
LEAP'S HOME SUPPORTS-AV,RCA38931,LEVEL I RESIDENTIAL CARE FACILITY,ACTIVE,120 THOMPSON WALTON CT APT 33,FARMINGTON,ME,04938-5654,FRANKLIN,,ASSISTED HOUSING,1
LEAP'S OUR HOUSE 1,RCC2033,LEVEL III RESIDENTIAL CARE FACILITY,ACTIVE,148 WHITTIER RD,FARMINGTON,ME,04938-6323,FRANKLIN,+1 (207) 778-9651,ASSISTED HOUSING,4
"LEDGEVIEW ASSISTED LIVING, LLC",RCD1581,LEVEL IV RESIDENTIAL CARE FACILITY,ACTIVE,92 US ROUTE 1,CUMBERLAND FORESIDE,ME,04110-1315,CUMBERLAND,+1 (207) 781-2408,ASSISTED HOUSING,24
LEGACY MEMORY CARE,ALP2262,ASSISTED LIVING PROGRAM,ACTIVE,4 SCHOOL HOUSE DR,FALMOUTH,ME,04105-1994,CUMBERLAND,+1 (207) 781-4428,ASSISTED HOUSING,29
LEIGHTON,RCA39165,LEVEL I RESIDENTIAL CARE FACILITY,ACTIVE,5 LEIGHTON AVE,PORTLAND,ME,04103-1022,CUMBERLAND,+1 (207) 835-0099,ASSISTED HOUSING,2
LEIGHTON MANOR,RCD2106,LEVEL IV RESIDENTIAL CARE FACILITY,ACTIVE,110 HIGHLAND AVE,BANGOR,ME,04401-4659,PENOBSCOT,+1 (207) 460-9303,ASSISTED HOUSING,8
LENOX STREET HOME,RCC599,LEVEL III RESIDENTIAL CARE FACILITY,ACTIVE,45 LENOX ST,SANFORD,ME,04073-3209,YORK,+1 (207) 324-2423,ASSISTED HOUSING,6
LEWIS FOSTER HOME,RCA601,LEVEL I RESIDENTIAL CARE FACILITY,ACTIVE,223 SILVER RD,BANGOR,ME,04401-5831,PENOBSCOT,+1 (207) 974-9948,ASSISTED HOUSING,1
LILY OF THE VALLEY HAVEN,RCC38993,LEVEL III RESIDENTIAL CARE FACILITY,ACTIVE,988 N MAIN ST,WINTERPORT,ME,,,+1 (207) 223-5528,ASSISTED HOUSING,4
"LINCOLN HOME, THE",ALP1068,ASSISTED LIVING PROGRAM,ACTIVE,22 RIVER RD,NEWCASTLE,ME,04553-3851,LINCOLN,+1 (207) 563-3350,ASSISTED HOUSING,28
LINCOLN STREET GROUP HOME,PNC607,PNMI LEVEL III RESIDENTIAL CARE FACILITY,ACTIVE,18 LINCOLN ST,PORTLAND,ME,04103-4408,CUMBERLAND,+1 (207) 774-2552,ASSISTED HOUSING,6
LINTON STREET FACILITY,RCA610,LEVEL I RESIDENTIAL CARE FACILITY,ACTIVE,66 LINTON ST,SOUTH PORTLAND,ME,04106-3319,CUMBERLAND,+1 (207) 772-7255,ASSISTED HOUSING,2
LIVING WELL ADULT DAY HEALTH BRUNSWICK,ADS38871,ADULT DAY SERVICES PROGRAM,ACTIVE,89 ADMIRAL FITCH AVE,BRUNSWICK,ME,04011-2700,CUMBERLAND,+1 (207) 729-6222,ASSISTED HOUSING,20
LIVING WELL ADULT DAY HEALTH STROUDWATER,ADS38872,ADULT DAY SERVICES PROGRAM,ACTIVE,113 LANDING RD,WESTBROOK,ME,04092-4094,CUMBERLAND,+1 (207) 857-9007,ASSISTED HOUSING,20
LIVING WELL ADULT DAY HEALTH WELLS,ADS38873,ADULT DAY SERVICES PROGRAM,ACTIVE,86 SANFORD RD,WELLS,ME,04090-5532,YORK,+1 (207) 646-3444,ASSISTED HOUSING,20
LODGES CARE CENTER,PND1731,PNMI LEVEL IV RESIDENTIAL CARE FACILITY,ACTIVE,51 MAIN ST,SPRINGVALE,ME,04083-1843,YORK,+1 (207) 324-4757,ASSISTED HOUSING,57
LOMBARD STREET WAIVER HOME,RCC1775,LEVEL III RESIDENTIAL CARE FACILITY,ACTIVE,112 LOMBARD ST,PRESQUE ISLE,ME,04769-2448,AROOSTOOK,+1 (207) 764-7127,ASSISTED HOUSING,5
LOOKOUT,RCC38764,LEVEL III RESIDENTIAL CARE FACILITY,ACTIVE,924 DOVER RD,DEXTER,ME,04930-2547,PENOBSCOT,+1 (207) 924-0098,ASSISTED HOUSING,3
LOTHROP FOSTER HOME,RCB619,LEVEL II RESIDENTIAL CARE FACILITY,ACTIVE,62 HOPKINS HILL RD,NEWCASTLE,ME,04553-3600,LINCOLN,+1 (207) 563-2727,ASSISTED HOUSING,3
LUBEAR WAY,RCC38944,LEVEL III RESIDENTIAL CARE FACILITY,ACTIVE,47 LUBEAR WAY,AUBURN,ME,04210-8281,ANDROSCOGGIN,+1 (207) 795-6737,ASSISTED HOUSING,4
LUCETTE'S BOARDING HOME,PND622,PNMI LEVEL IV RESIDENTIAL CARE FACILITY,ACTIVE,61 MAIN ST,THOMASTON,ME,04861-3650,KNOX,+1 (207) 354-6746,ASSISTED HOUSING,18
LUDLOW,RCA39151,LEVEL I RESIDENTIAL CARE FACILITY,ACTIVE,474 LUDLOW ST,PORTLAND,ME,04102-1543,CUMBERLAND,+1 (207) 835-0099,ASSISTED HOUSING,2
MAC-AUTUMN HOUSE,RCC2024,LEVEL III RESIDENTIAL CARE FACILITY,ACTIVE,443 MAIN ST,MADISON,ME,04950-4203,SOMERSET,+1 (207) 566-5766,ASSISTED HOUSING,4
MAC-HARVEST HILL HOME,RCC1848,LEVEL III RESIDENTIAL CARE FACILITY,ACTIVE,60A DUNBAR HILL RD,EMBDEN,ME,4958,SOMERSET,+1 (207) 566-5766,ASSISTED HOUSING,5
MACHIAS BOARDING HOME,PNC626,PNMI LEVEL III RESIDENTIAL CARE FACILITY,ACTIVE,2 NORTH ST,MACHIAS,ME,04654-1193,WASHINGTON,+1 (207) 255-8596,ASSISTED HOUSING,6
MAC-HOUSE,RCC625,LEVEL III RESIDENTIAL CARE FACILITY,ACTIVE,60B DUNBAR HILL RD,EMBDEN,ME,4958,SOMERSET,+1 (207) 566-5766,ASSISTED HOUSING,5
MACSULLIVAN HOME,RCC1662,LEVEL III RESIDENTIAL CARE FACILITY,ACTIVE,1 MACSULLIVAN ST,LEWISTON,ME,04240-4022,ANDROSCOGGIN,+1 (207) 786-3270,ASSISTED HOUSING,3
MADAWASKA GROUP HOME,PND628,PNMI LEVEL IV RESIDENTIAL CARE FACILITY,ACTIVE,704 MAIN ST,MADAWASKA,ME,04756-3043,AROOSTOOK,+1 (207) 728-6727,ASSISTED HOUSING,7
MADDOCKS AVENUE HOME,RCA38938,LEVEL I RESIDENTIAL CARE FACILITY,ACTIVE,20 MADDOCKS AVE,ELLSWORTH,ME,04605-1508,HANCOCK,+1 (207) 667-7464,ASSISTED HOUSING,2
MADIGAN ESTATES ADULT DAY PROGRAM,ADS631,ADULT DAY SERVICES PROGRAM,ACTIVE,93 MILITARY ST,HOULTON,ME,04730-2421,AROOSTOOK,+1 (207) 532-6593,ASSISTED HOUSING,20
MADIGAN HOUSE,RCD22498,LEVEL IV RESIDENTIAL CARE FACILITY,ACTIVE,93 MILITARY ST,HOULTON,ME,04730-2421,AROOSTOOK,+1 (207) 532-6593,ASSISTED HOUSING,47
MADISON HOUSE,RCC38696,LEVEL III RESIDENTIAL CARE FACILITY,ACTIVE,92 WHITE SCHOOL HOUSE RD,MADISON,ME,04950-4007,SOMERSET,+1 (207) 696-0807,ASSISTED HOUSING,4
MAIN STREET MANOR,RCC39085,LEVEL III RESIDENTIAL CARE FACILITY,ACTIVE,641 MAIN ST,OLD TOWN,ME,04468-1920,PENOBSCOT,+1 (207) 951-6800,ASSISTED HOUSING,5
MAIN STREET WEST,ALP2373,ASSISTED LIVING PROGRAM,ACTIVE,1037 W MAIN ST,DOVER FOXCROFT,ME,04426-3752,PISCATAQUIS,+1 (207) 564-8129,ASSISTED HOUSING,14
"MAINE FAMILY SERVICES, LLC II",RCA38831,LEVEL I RESIDENTIAL CARE FACILITY,ACTIVE,1470 FOREST AVE,PORTLAND,ME,04103-1802,CUMBERLAND,+1 (207) 536-4937,ASSISTED HOUSING,2
MAINE VETERANS' HOME - AUGUSTA,RCD22505,LEVEL IV RESIDENTIAL CARE FACILITY,ACTIVE,310 CONY RD,AUGUSTA,ME,04330-0513,KENNEBEC,+1 (207) 622-2454,ASSISTED HOUSING,30
MAINE VETERANS' HOME - BANGOR,PND22507,PNMI LEVEL IV RESIDENTIAL CARE FACILITY,ACTIVE,44 HOGAN RD,BANGOR,ME,04401-5602,PENOBSCOT,+1 (207) 942-2333,ASSISTED HOUSING,30
MAINE VETERANS' HOME - CARIBOU,RCD22511,LEVEL IV RESIDENTIAL CARE FACILITY,ACTIVE,163 VAN BUREN RD STE 2,CARIBOU,ME,04736-3567,AROOSTOOK,+1 (207) 498-6074,ASSISTED HOUSING,30
MAINE VETERANS' HOME - MACHIAS,PND1803,PNMI LEVEL IV RESIDENTIAL CARE FACILITY,ACTIVE,32 VETERANS WAY,MACHIAS,ME,04654-3324,WASHINGTON,+1 (207) 255-0162,ASSISTED HOUSING,30
MAINE VETERANS' HOME - SCARBOROUGH,PND22514,PNMI LEVEL IV RESIDENTIAL CARE FACILITY,ACTIVE,290 US ROUTE 1,SCARBOROUGH,ME,04074-8370,CUMBERLAND,+1 (207) 883-7184,ASSISTED HOUSING,30
MAINE VETERANS' HOME - SOUTH PARIS,PND22516,PNMI LEVEL IV RESIDENTIAL CARE FACILITY,ACTIVE,477 HIGH ST,SOUTH PARIS,ME,04281-6507,OXFORD,+1 (207) 743-6300,ASSISTED HOUSING,28
MAINESTAY,PND38905,PNMI LEVEL IV RESIDENTIAL CARE FACILITY,ACTIVE,165 CUMBERLAND AVE,PORTLAND,ME,04101-3129,CUMBERLAND,+1 (207) 221-8656,ASSISTED HOUSING,12
MAMIE POWELL WAIVER HOME,RCC646,LEVEL III RESIDENTIAL CARE FACILITY,ACTIVE,38 CARTER ST,EAGLE LAKE,ME,4739,AROOSTOOK,+1 (207) 444-6225,ASSISTED HOUSING,4
MAPLE AVENUE,RCC39009,LEVEL III RESIDENTIAL CARE FACILITY,ACTIVE,55 MAPLE AVE,SCARBOROUGH,ME,04074-8269,CUMBERLAND,+1 (207) 879-1140,ASSISTED HOUSING,4
MAPLE LANE,RCB2296,LEVEL II RESIDENTIAL CARE FACILITY,FAILED TO RENEW,,,,,,+1 (207) 232-2999,ASSISTED HOUSING,3
MAPLECREST REHAB AND LIVING CTR ADC PROGRAM,ADS653,ADULT DAY SERVICES PROGRAM,ACTIVE,174 MAIN ST,MADISON,ME,04950-1523,SOMERSET,+1 (207) 696-8225,ASSISTED HOUSING,20
MAPLETON WAIVER HOME,RCC2312,LEVEL III RESIDENTIAL CARE FACILITY,ACTIVE,46 FORDS LN,MAPLETON,ME,04757-4324,AROOSTOOK,+1 (207) 764-1836,ASSISTED HOUSING,3
MARCOUX WAIVER HOME,RCC1715,LEVEL III RESIDENTIAL CARE FACILITY,ACTIVE,36 MAKAYLA DRIVE,EAGLE LAKE,ME,4739,AROOSTOOK,+1 (207) 444-6223,ASSISTED HOUSING,4
"MARKET SQUARE HEALTH CARE CENTER, LLC",PND22579,PNMI LEVEL IV RESIDENTIAL CARE FACILITY,ACTIVE,3 MARKET SQ,SOUTH PARIS,ME,04281-1114,OXFORD,+1 (207) 743-7086,ASSISTED HOUSING,24
MARLU STREET,RCA2321,LEVEL I RESIDENTIAL CARE FACILITY,ACTIVE,26 MARLU ST,WESTBROOK,ME,04092-4649,CUMBERLAND,+1 (207) 879-1140,ASSISTED HOUSING,2
MARSH ROAD,RCC38763,LEVEL III RESIDENTIAL CARE FACILITY,ACTIVE,69 MARSH RD,CORINTH,ME,04427-3200,PENOBSCOT,+1 (207) 285-0090,ASSISTED HOUSING,4
MARSHALL,RCA38954,LEVEL I RESIDENTIAL CARE FACILITY,ACTIVE,40 MARSHALL ST,MECHANIC FALLS,ME,04256-5106,ANDROSCOGGIN,+1 (207) 782-2726,ASSISTED HOUSING,2
MARSTON APT-SUPPORT SOLUTIONS,RCA39255,LEVEL I RESIDENTIAL CARE FACILITY,ACTIVE,57 MARSTON ST,AUBURN,ME,04210-4325,ANDROSCOGGIN,+1 (207) 312-5152,ASSISTED HOUSING,1
MARSTON STREET HOME,PNC38686,PNMI LEVEL III RESIDENTIAL CARE FACILITY,ACTIVE,16 MARSTON ST,NORWAY,ME,04268-5776,OXFORD,+1 (207) 743-2171,ASSISTED HOUSING,4
MARTHA BALLARD ASSISTED LIVING,ALP38939,ASSISTED LIVING PROGRAM,ACTIVE,60 BALSAM DR,HALLOWELL,ME,04347-3008,KENNEBEC,+1 (207) 626-7786,ASSISTED HOUSING,24
MARTIN DRIVE,PNC2102,PNMI LEVEL III RESIDENTIAL CARE FACILITY,ACTIVE,30 MARTIN DR # 32,LEWISTON,ME,04240-5041,ANDROSCOGGIN,+1 (207) 376-4809,ASSISTED HOUSING,4
MARY LANE,RCC100,LEVEL III RESIDENTIAL CARE FACILITY,ACTIVE,84 MARY LN,OAKLAND,ME,04963-5124,KENNEBEC,+1 (207) 465-7201,ASSISTED HOUSING,4
MAST LANDING RESIDENCE,RCC1737,LEVEL III RESIDENTIAL CARE FACILITY,ACTIVE,4 DIKES LANDING RD,BATH,ME,04530-2867,SAGADAHOC,+1 (207) 386-5160,ASSISTED HOUSING,3
MAYFLOWER PLACE,ALP38844,ASSISTED LIVING PROGRAM,ACTIVE,27 MAYFLOWER ST,SANFORD,ME,04073-3645,YORK,+1 (207) 490-0400,ASSISTED HOUSING,36
MCCARTY HOUSE,RCA38987,LEVEL I RESIDENTIAL CARE FACILITY,ACTIVE,208 PALM ST,BANGOR,ME,04401-4022,PENOBSCOT,+1 (207) 307-7813,ASSISTED HOUSING,2
MEADOW ROAD HOME ASSISTED HOUSING PROGRAM,RCC38616,LEVEL III RESIDENTIAL CARE FACILITY,ACTIVE,113 SANDY CREEK RD,BRIDGTON,ME,04009-4135,CUMBERLAND,+1 (207) 647-9385,ASSISTED HOUSING,4
"MEADOWS HOME, THE",RCC2247,LEVEL III RESIDENTIAL CARE FACILITY,ACTIVE,244 RAY ST,PORTLAND,ME,04103-4305,CUMBERLAND,+1 (207) 747-5463,ASSISTED HOUSING,4
"MEADOWS, THE",PND1069,PNMI LEVEL IV RESIDENTIAL CARE FACILITY,ACTIVE,110 PERKINS AVE,OLD TOWN,ME,04468-1763,PENOBSCOT,+1 (207) 827-0547,ASSISTED HOUSING,16
MEADOWVIEW GROUP HOME,PND680,PNMI LEVEL IV RESIDENTIAL CARE FACILITY,ACTIVE,90 PARK ST,ORONO,ME,04473-4408,PENOBSCOT,+1 (207) 866-4214,ASSISTED HOUSING,8
MELISSA DRIVE,RCA39146,LEVEL I RESIDENTIAL CARE FACILITY,ACTIVE,23 MELISSA DR,YARMOUTH,ME,04096-7717,CUMBERLAND,+1 (207) 835-0099,ASSISTED HOUSING,2
MELODY LANE,RCA39015,LEVEL I RESIDENTIAL CARE FACILITY,ACTIVE,17 MELODY LN,LEWISTON,ME,04240-1613,ANDROSCOGGIN,+1 (207) 333-5005,ASSISTED HOUSING,2
MEMORY LANE ASSISTED LIVING LLC,RCC39036,LEVEL III RESIDENTIAL CARE FACILITY,ACTIVE,2472 ROUTE 2,HERMON,ME,04401-0624,PENOBSCOT,+1 (207) 605-0144,ASSISTED HOUSING,3
MERCY HOME,PND33876,PNMI LEVEL IV RESIDENTIAL CARE FACILITY,ACTIVE,3402 AROOSTOOK RD,EAGLE LAKE,ME,04739-3240,AROOSTOOK,+1 (207) 444-5152,ASSISTED HOUSING,10
MERRY GARDENS ESTATES,ALP684,ASSISTED LIVING PROGRAM,ACTIVE,87 JOHN ST,CAMDEN,ME,04843-1953,KNOX,+1 (207) 230-0618,ASSISTED HOUSING,30
MID COAST SENIOR HEALTH CENTER-THORNTON HALL,ALP1692,ASSISTED LIVING PROGRAM,ACTIVE,56 BARIBEAU DR,BRUNSWICK,ME,04011-3251,CUMBERLAND,+1 (207) 373-3646,ASSISTED HOUSING,41
MIDDLE STREET HOUSE,PNC1932,PNMI LEVEL III RESIDENTIAL CARE FACILITY,ACTIVE,45 MIDDLE ST,AUGUSTA,ME,04330-5728,KENNEBEC,+1 (207) 626-3484,ASSISTED HOUSING,6
MIDDLESEX RESIDENCE - T2,RCC39399,LEVEL III RESIDENTIAL CARE FACILITY,ACTIVE,563 MIDDLESEX RD,TOPSHAM,ME,04086-5340,SAGADAHOC,+1 (207) 443-9783,ASSISTED HOUSING,6
MILBRIDGE RESIDENCE,PNC690,PNMI LEVEL III RESIDENTIAL CARE FACILITY,ACTIVE,4 HARBOR LN,MILBRIDGE,ME,04658-3550,WASHINGTON,+1 (207) 546-5015,ASSISTED HOUSING,6
MILL STREET,RCA38947,LEVEL I RESIDENTIAL CARE FACILITY,ACTIVE,143 MILL ST APT 108,AUBURN,ME,04210-5650,ANDROSCOGGIN,+1 (207) 795-7619,ASSISTED HOUSING,1
MILLER TERRACES,PND693,PNMI LEVEL IV RESIDENTIAL CARE FACILITY,ACTIVE,60 OHIO ST,BANGOR,ME,04401-4732,PENOBSCOT,+1 (207) 942-8603,ASSISTED HOUSING,10
MILLIE MORRILL HOUSE,RCC623,LEVEL III RESIDENTIAL CARE FACILITY,ACTIVE,205 LUDLOW ST,PORTLAND,ME,04102-1807,CUMBERLAND,+1 (207) 420-3281,ASSISTED HOUSING,6
MINUTEMAN DRIVE,RCC696,LEVEL III RESIDENTIAL CARE FACILITY,ACTIVE,1 MINUTEMAN DR,SCARBOROUGH,ME,04074-8716,CUMBERLAND,+1 (207) 885-0831,ASSISTED HOUSING,3
MONARCH,RCC38830,LEVEL III RESIDENTIAL CARE FACILITY,ACTIVE,1164 W MAIN ST,DOVER FOXCROFT,ME,04426-3716,PISCATAQUIS,+1 (207) 802-8087,ASSISTED HOUSING,3
MONMOUTH ACRES,RCC38710,LEVEL III RESIDENTIAL CARE FACILITY,ACTIVE,89 ROUTE 135,MONMOUTH,ME,04259-6513,KENNEBEC,+1 (207) 933-8060,ASSISTED HOUSING,6
MONROE HOME,RCC701,LEVEL III RESIDENTIAL CARE FACILITY,ACTIVE,20 MONROE AVE,WESTBROOK,ME,04092-4017,CUMBERLAND,+1 (207) 854-9521,ASSISTED HOUSING,4
MONTELLO COMMONS,PND22592,PNMI LEVEL IV RESIDENTIAL CARE FACILITY,ACTIVE,540 COLLEGE ST,LEWISTON,ME,04240-5228,ANDROSCOGGIN,+1 (207) 783-6244,ASSISTED HOUSING,44
MONTELLO HEIGHTS RETIREMENT COMMUNITY,ALP1757,ASSISTED LIVING PROGRAM,ACTIVE,550 COLLEGE ST,LEWISTON,ME,04240-2464,ANDROSCOGGIN,+1 (207) 786-7149,ASSISTED HOUSING,80
MONTELLO STREET,RCA38945,LEVEL I RESIDENTIAL CARE FACILITY,ACTIVE,146 MONTELLO ST,LEWISTON,ME,04240-4631,ANDROSCOGGIN,+1 (207) 241-0263,ASSISTED HOUSING,2
MOODY'S FOSTER HOME,RCA707,LEVEL I RESIDENTIAL CARE FACILITY,ACTIVE,198 BIRMINGHAM RD,CHELSEA,ME,04330-1189,KENNEBEC,+1 (207) 582-0016,ASSISTED HOUSING,2
"MOORING AT THE DOWNS, THE",RCD39048,LEVEL IV RESIDENTIAL CARE FACILITY,ACTIVE,7 MILL COMMONS DR,SCARBOROUGH,ME,04074-8392,CUMBERLAND,+1 (207) 272-2797,ASSISTED HOUSING,13
"MOORING ON FORESIDE, THE",RCD38666,LEVEL IV RESIDENTIAL CARE FACILITY,ACTIVE,301 US ROUTE 1,CUMBERLAND FORESIDE,ME,04110-1356,CUMBERLAND,+1 (207) 272-2797,ASSISTED HOUSING,13
MORGAN BROOK,RCC38935,LEVEL III RESIDENTIAL CARE FACILITY,ACTIVE,222 WOODMAN HILL RD,MINOT,ME,04258-4637,ANDROSCOGGIN,+1 (207) 345-0982,ASSISTED HOUSING,3
MORRELLS MILL HOME,RCC711,LEVEL III RESIDENTIAL CARE FACILITY,ACTIVE,104 MORRILLS MILL RD,NORTH BERWICK,ME,03906-6129,YORK,+1 (207) 676-8535,ASSISTED HOUSING,4
MORRELL'S MILL ROAD,RCA39067,LEVEL I RESIDENTIAL CARE FACILITY,ACTIVE,179 MORRILLS MILL RD,NORTH BERWICK,ME,03906-6126,YORK,+1 (207) 937-8260,ASSISTED HOUSING,2
MORSE BROOK,RCA39004,LEVEL I RESIDENTIAL CARE FACILITY,ACTIVE,15 MORSE BROOK DR,SOUTH PARIS,ME,04281-6576,OXFORD,+1 (207) 744-2072,ASSISTED HOUSING,2
MOUNT PROSPECT,RCA38953,LEVEL I RESIDENTIAL CARE FACILITY,ACTIVE,1176 WOODMAN HILL RD,MINOT,ME,04258-5400,ANDROSCOGGIN,+1 (207) 782-2726,ASSISTED HOUSING,2
MOUNTAIN ROAD WAIVER,RCC2205,LEVEL III RESIDENTIAL CARE FACILITY,ACTIVE,177 MOUNTAIN RD,SAINT ALBANS,ME,04971-7401,SOMERSET,+1 (207) 938-3201,ASSISTED HOUSING,2
MOUNTAIN VISTA MANOR,RCD2180,LEVEL IV RESIDENTIAL CARE FACILITY,ACTIVE,44 S BAY RD,FRANKLIN,ME,04634-3140,HANCOCK,+1 (207) 565-3804,ASSISTED HOUSING,8
MOUNTAINVIEW DRIVE,RCA39020,LEVEL I RESIDENTIAL CARE FACILITY,ACTIVE,33 MOUNTAIN VIEW DR,SOUTH PARIS,ME,04281-6301,OXFORD,+1 (207) 744-2249,ASSISTED HOUSING,2
MUNROE HOUSE I,RCC724,LEVEL III RESIDENTIAL CARE FACILITY,ACTIVE,72 EMERY ST,PORTLAND,ME,04102-3707,CUMBERLAND,+1 (207) 828-0048,ASSISTED HOUSING,4
MUNROE HOUSE II,RCC725,LEVEL III RESIDENTIAL CARE FACILITY,ACTIVE,70 EMERY ST,PORTLAND,ME,04102-3707,CUMBERLAND,+1 (207) 828-0048,ASSISTED HOUSING,4
MURPHY'S LAKEVIEW MANOR,RCC38839,LEVEL III RESIDENTIAL CARE FACILITY,ACTIVE,10 E BROADWAY,LINCOLN,ME,04457-1416,PENOBSCOT,+1 (207) 951-7291,ASSISTED HOUSING,6
MURPHY'S MANOR,RCC38625,LEVEL III RESIDENTIAL CARE FACILITY,ACTIVE,340 STATE ST,BANGOR,ME,04401-5531,PENOBSCOT,+1 (207) 573-1681,ASSISTED HOUSING,6
MUSKIE CENTER ADULT DAY SERVICES,ADS727,ADULT DAY SERVICES PROGRAM,ACTIVE,38 GOLD ST,WATERVILLE,ME,04901-5919,KENNEBEC,+1 (207) 622-9212,ASSISTED HOUSING,40
MUSSEY,RCA39175,LEVEL I RESIDENTIAL CARE FACILITY,ACTIVE,166 MUSSEY ST,SOUTH PORTLAND,ME,04106-3815,CUMBERLAND,+1 (207) 835-0099,ASSISTED HOUSING,2
MVRA 50 MAPLE,RCA39057,LEVEL I RESIDENTIAL CARE FACILITY,ACTIVE,50 MAPLE ST,BANGOR,ME,04401-5407,PENOBSCOT,+1 (207) 990-1666,ASSISTED HOUSING,2
MVRA-17 MIDDLE STREET,RCC38773,LEVEL III RESIDENTIAL CARE FACILITY,ACTIVE,17 MIDDLE ST,HALLOWELL,ME,04347-1101,KENNEBEC,+1 (207) 774-4248,ASSISTED HOUSING,3
MVRA-HAMPDEN,RCC38772,LEVEL III RESIDENTIAL CARE FACILITY,ACTIVE,569 BACK WINTERPORT RD,HAMPDEN,ME,04444-1123,PENOBSCOT,+1 (207) 990-1666,ASSISTED HOUSING,3
MY FRIEND'S PLACE,ADS1321,ADULT DAY SERVICES PROGRAM,ACTIVE,703 ESSEX ST,BANGOR,ME,04401-3509,PENOBSCOT,+1 (207) 945-0122,ASSISTED HOUSING,20
NARRAGUAGUS BAY HEALTH CENTER,RCD22598,LEVEL IV RESIDENTIAL CARE FACILITY,ACTIVE,3 MAIN ST,MILBRIDGE,ME,04658-3500,WASHINGTON,+1 (207) 546-2371,ASSISTED HOUSING,23
"NEIGHBORHOOD RESIDENTIAL, INC.",RCC38637,LEVEL III RESIDENTIAL CARE FACILITY,ACTIVE,36 HADLEY LAKE RD,MARSHFIELD,ME,04654-5108,WASHINGTON,+1 (207) 263-4783,ASSISTED HOUSING,6
NEURORESTORATIVE 246 HARDY ROAD,RCC38875,LEVEL III RESIDENTIAL CARE FACILITY,ACTIVE,246 HARDY RD,WESTBROOK,ME,04092-2515,CUMBERLAND,+1 (207) 229-0547,ASSISTED HOUSING,5
NEURORESTORATIVE GORHAM,RCC38816,LEVEL III RESIDENTIAL CARE FACILITY,ACTIVE,9 RIVERS EDGE DR,GORHAM,ME,04038-5866,CUMBERLAND,+1 (207) 229-0547,ASSISTED HOUSING,5
NEURORESTORATIVE KENNEBUNK 1,RCD38630,LEVEL IV RESIDENTIAL CARE FACILITY,ACTIVE,9 POTVIN LN,KENNEBUNK,ME,04043-6176,YORK,+1 (207) 229-0547,ASSISTED HOUSING,8
NEURORESTORATIVE OLD ORCHARD,RCC2368,LEVEL III RESIDENTIAL CARE FACILITY,ACTIVE,35 POPLAR ST,OLD ORCHARD BEACH,ME,04064-1169,YORK,+1 (207) 229-0547,ASSISTED HOUSING,5
NEURORESTORATIVE OLD ORCHARD BEACH 2,RCD2388,LEVEL IV RESIDENTIAL CARE FACILITY,ACTIVE,37 POPLAR ST,OLD ORCHARD BEACH,ME,04064-1169,YORK,+1 (207) 229-0547,ASSISTED HOUSING,8
NEURORESTORATIVE OLD ORCHARD BEACH 3,RCD38629,LEVEL IV RESIDENTIAL CARE FACILITY,ACTIVE,14 POND VIEW RD,OLD ORCHARD BEACH,ME,04064-4149,YORK,+1 (207) 229-0547,ASSISTED HOUSING,8
NEURORESTORATIVE SEBAGO HOUSE,RCD2000,LEVEL IV RESIDENTIAL CARE FACILITY,ACTIVE,986 SEBAGO RD,SEBAGO,ME,04029-3814,CUMBERLAND,+1 (207) 787-2162,ASSISTED HOUSING,8
NEURORESTORATIVE SEBAGO LODGE,RCD38602,LEVEL IV RESIDENTIAL CARE FACILITY,ACTIVE,1014 SEBAGO RD,SEBAGO,ME,04029-3816,CUMBERLAND,+1 (207) 229-0547,ASSISTED HOUSING,8
NEURORESTORATIVE SEBAGO RANCH,RCC2294,LEVEL III RESIDENTIAL CARE FACILITY,ACTIVE,988 SEBAGO RD,SEBAGO,ME,04029-3814,CUMBERLAND,+1 (207) 229-0547,ASSISTED HOUSING,6
NEW BEGINNINGS RESIDENTIAL CARE LLC,RCD2207,LEVEL IV RESIDENTIAL CARE FACILITY,ACTIVE,90 PARK ST,MILO,ME,04463-1738,PISCATAQUIS,+1 (207) 943-6082,ASSISTED HOUSING,8
NEW HOPE HOME,PNC739,PNMI LEVEL III RESIDENTIAL CARE FACILITY,ACTIVE,91 HIGHLAND TER,MEXICO,ME,04257-1721,OXFORD,+1 (207) 369-0019,ASSISTED HOUSING,4
NEW HORIZONS AFCH,RCD38636,LEVEL IV RESIDENTIAL CARE FACILITY,ACTIVE,526 SOUTH ST,CALAIS,ME,04619-1118,WASHINGTON,+1 (207) 454-1141,ASSISTED HOUSING,8
NEWTON STREET RESIDENCE,RCC743,LEVEL III RESIDENTIAL CARE FACILITY,ACTIVE,137 NEWTON ST,PORTLAND,ME,04103-1534,CUMBERLAND,+1 (207) 671-3565,ASSISTED HOUSING,4
NFI NORTH INTERMISSION,PND38908,PNMI LEVEL IV RESIDENTIAL CARE FACILITY,ACTIVE,98 RUSSELL ST,LEWISTON,ME,04240-6004,ANDROSCOGGIN,+1 (207) 784-7144,ASSISTED HOUSING,7
NORTH AVENUE,RCC39074,LEVEL III RESIDENTIAL CARE FACILITY,ACTIVE,67 NORTH AVE,SANFORD,ME,04073-2944,YORK,+1 (207) 850-1198,ASSISTED HOUSING,3
NORTH MAIN,RCA38957,LEVEL I RESIDENTIAL CARE FACILITY,ACTIVE,65 N MAIN ST,MECHANIC FALLS,ME,04256-6320,ANDROSCOGGIN,+1 (207) 782-2726,ASSISTED HOUSING,2
NORTH POND HOMESTEAD,RCC752,LEVEL III RESIDENTIAL CARE FACILITY,ACTIVE,349 N POND RD,WARREN,ME,04864-4428,KNOX,+1 (207) 273-3005,ASSISTED HOUSING,4
NORTH STREET,PNC38809,PNMI LEVEL III RESIDENTIAL CARE FACILITY,ACTIVE,81 NORTH ST,SACO,ME,04072-1924,YORK,+1 (207) 283-1500,ASSISTED HOUSING,4
NORTH STREET ASSISTED LIVING,ALP38811,ASSISTED LIVING PROGRAM,ACTIVE,81 NORTH ST,SACO,ME,04072-1924,YORK,+1 (207) 283-1500,ASSISTED HOUSING,3
NORTH STREET BRIDGE HOME,RCD1912,LEVEL IV RESIDENTIAL CARE FACILITY,ACTIVE,241 NORTH ST,CALAIS,ME,04619-1619,WASHINGTON,+1 (207) 952-0240,ASSISTED HOUSING,7
NORTHERN AVENUE,RCC753,LEVEL III RESIDENTIAL CARE FACILITY,ACTIVE,124 NORTHERN AVE,AUBURN,ME,04210-6200,ANDROSCOGGIN,+1 (207) 777-3110,ASSISTED HOUSING,4
NORTHWOOD MANOR,RCC1671,LEVEL III RESIDENTIAL CARE FACILITY,ACTIVE,35 WALKER ST,ASHLAND,ME,04732-3429,AROOSTOOK,+1 (207) 435-3700,ASSISTED HOUSING,6
"NORWAY CENTER FOR HEALTH & REHABILITATION, LLC",PND22604,PNMI LEVEL IV RESIDENTIAL CARE FACILITY,ACTIVE,29 MARION AVE,NORWAY,ME,04268-5601,OXFORD,+1 (207) 743-7075,ASSISTED HOUSING,28
OAKHILL ROAD,RCC39062,LEVEL III RESIDENTIAL CARE FACILITY,ACTIVE,256 OAK HILL RD,AUBURN,ME,04210-6541,ANDROSCOGGIN,+1 (207) 937-8260,ASSISTED HOUSING,3
OAKS,RCA38895,LEVEL I RESIDENTIAL CARE FACILITY,ACTIVE,15 PIN OAK DR APT 1501,SCARBOROUGH,ME,04074-8254,CUMBERLAND,+1 (207) 219-8530,ASSISTED HOUSING,2
OAKWOOD DRIVE,PNC1863,PNMI LEVEL III RESIDENTIAL CARE FACILITY,ACTIVE,10 OAKWOOD DR,OXFORD,ME,04270-3587,OXFORD,+1 (207) 539-8618,ASSISTED HOUSING,3
OASIS,RCC38826,LEVEL III RESIDENTIAL CARE FACILITY,ACTIVE,10 LOOKOUT AVE,DOVER FOXCROFT,ME,04426-3622,PISCATAQUIS,+1 (207) 564-9061,ASSISTED HOUSING,3
OCEAN HOUSE ROAD,RCA39107,LEVEL I RESIDENTIAL CARE FACILITY,ACTIVE,8 OCEAN HOUSE RD,SOUTH PORTLAND,ME,04106-6648,CUMBERLAND,+1 (207) 835-0175,ASSISTED HOUSING,2
OCEAN PARK ROAD,RCA1675,LEVEL I RESIDENTIAL CARE FACILITY,ACTIVE,36 OCEAN PARK RD,SACO,ME,04072-1620,YORK,+1 (207) 282-7306,ASSISTED HOUSING,2
OCEAN STREET,PND38899,PNMI LEVEL IV RESIDENTIAL CARE FACILITY,ACTIVE,521 OCEAN ST,SOUTH PORTLAND,ME,04106-6625,CUMBERLAND,+1 (207) 874-1175,ASSISTED HOUSING,8
OCEANVIEW MANOR,ALP2381,ASSISTED LIVING PROGRAM,ACTIVE,10 MANOR ST,OCEAN PARK,ME,04063-3000,YORK,+1 (207) 934-2157,ASSISTED HOUSING,6
OCR-26 OLD COUNTY ROAD,RCC2237,LEVEL III RESIDENTIAL CARE FACILITY,ACTIVE,26 OLD COUNTY RD,SCARBOROUGH,ME,04074-9005,CUMBERLAND,+1 (207) 878-4686,ASSISTED HOUSING,4
ODD FELLOWS & REBEKAHS' HOME OF MAINE,PND22608,PNMI LEVEL IV RESIDENTIAL CARE FACILITY,ACTIVE,85 CARON LN,AUBURN,ME,04210-4288,ANDROSCOGGIN,+1 (207) 786-4616,ASSISTED HOUSING,37
ODS #34,RCA38977,LEVEL I RESIDENTIAL CARE FACILITY,ACTIVE,34 OAKWOOD DR,SACO,ME,04072-1855,YORK,+1 (207) 878-9663,ASSISTED HOUSING,2
ODS #36,RCA38980,LEVEL I RESIDENTIAL CARE FACILITY,ACTIVE,36 OAKWOOD DR,SACO,ME,04072-1855,YORK,+1 (207) 878-9663,ASSISTED HOUSING,2
OHI - 113 LINCOLN STREET ASSISTED LIVING FACILITY,RCC1624,LEVEL III RESIDENTIAL CARE FACILITY,ACTIVE,113 LINCOLN ST,BANGOR,ME,04401-6220,PENOBSCOT,+1 (207) 848-5804,ASSISTED HOUSING,3
OHI - 17 CHURCH ROAD,PNC2022,PNMI LEVEL III RESIDENTIAL CARE FACILITY,ACTIVE,17 CHURCH RD,HOLDEN,ME,04429-7150,PENOBSCOT,+1 (207) 989-7725,ASSISTED HOUSING,6
OHI - 175 MOOSEHEAD BLVD.,RCC5,LEVEL III RESIDENTIAL CARE FACILITY,ACTIVE,175 MOOSEHEAD BLVD,BANGOR,ME,04401-2324,PENOBSCOT,+1 (207) 990-4215,ASSISTED HOUSING,4
OHI - 18 GROVE STREET,RCC1702,LEVEL III RESIDENTIAL CARE FACILITY,ACTIVE,18 GROVE ST,BREWER,ME,04412-2304,PENOBSCOT,+1 (207) 989-8928,ASSISTED HOUSING,4
OHI - 19 SOUDER STATION LANE,RCC2128,LEVEL III RESIDENTIAL CARE FACILITY,ACTIVE,19 SOUDER STATION LN,WINTERPORT,ME,04496-3438,WALDO,+1 (207) 848-5804,ASSISTED HOUSING,3
OHI - 247 BIRCH STREET,RCC1677,LEVEL III RESIDENTIAL CARE FACILITY,ACTIVE,247 BIRCH ST,BANGOR,ME,04401-4023,PENOBSCOT,+1 (207) 941-6565,ASSISTED HOUSING,3
OHI - 296 MT. HOPE AVENUE,PNC1800,PNMI LEVEL III RESIDENTIAL CARE FACILITY,ACTIVE,296 MOUNT HOPE AVE,BANGOR,ME,04401-4209,PENOBSCOT,+1 (207) 990-0360,ASSISTED HOUSING,4
OHI - 321 NORTH MAIN STREET,RCC1789,LEVEL III RESIDENTIAL CARE FACILITY,ACTIVE,321 N MAIN ST,BREWER,ME,04412-2616,PENOBSCOT,+1 (207) 989-6930,ASSISTED HOUSING,4
OHI - 34 LONGMEADOW DRIVE,RCC1930,LEVEL III RESIDENTIAL CARE FACILITY,ACTIVE,34 LONGMEADOW DR,BREWER,ME,04412-1309,PENOBSCOT,+1 (207) 989-7328,ASSISTED HOUSING,3
OHI - 35 DEER RUN RD,PND38854,PNMI LEVEL IV RESIDENTIAL CARE FACILITY,ACTIVE,35 DEER RUN RD,GLENBURN,ME,04401-1830,PENOBSCOT,+1 (207) 848-5804,ASSISTED HOUSING,12
OHI - 35 GEORGE STREET,RCC1758,LEVEL III RESIDENTIAL CARE FACILITY,ACTIVE,35 GEORGE ST,HAMPDEN,ME,04444-1605,PENOBSCOT,+1 (207) 862-4497,ASSISTED HOUSING,4
OHI - 52 DIVISION STREET,PNC1919,PNMI LEVEL III RESIDENTIAL CARE FACILITY,ACTIVE,52 DIVISION ST,BANGOR,ME,04401-4835,PENOBSCOT,+1 (207) 942-1603,ASSISTED HOUSING,4
OHI - 546 PINE TREE ROAD,RCC2059,LEVEL III RESIDENTIAL CARE FACILITY,ACTIVE,546 PINETREE RD,HERMON,ME,04401-0124,PENOBSCOT,+1 (207) 848-5003,ASSISTED HOUSING,4
OHI - 57 GLENWOOD,RCC38793,LEVEL III RESIDENTIAL CARE FACILITY,ACTIVE,57 GLENWOOD DR,BANGOR,ME,04401-2905,PENOBSCOT,+1 (207) 848-5804,ASSISTED HOUSING,4
OHI - RANDOLPH DRIVE,RCC884,LEVEL III RESIDENTIAL CARE FACILITY,ACTIVE,180 RANDOLPH DR,BANGOR,ME,04401-2832,PENOBSCOT,+1 (207) 942-3073,ASSISTED HOUSING,4
OHI - THREE HUDSON STREET,PNC1087,PNMI LEVEL III RESIDENTIAL CARE FACILITY,ACTIVE,3 HUDSON ST,BANGOR,ME,04401-4617,PENOBSCOT,+1 (207) 947-0202,ASSISTED HOUSING,6
OHI - WHITNEY COURT,RCC1705,LEVEL III RESIDENTIAL CARE FACILITY,ACTIVE,42 WHITNEY CT,BREWER,ME,04412-1352,PENOBSCOT,+1 (207) 989-3132,ASSISTED HOUSING,4
OHI-100 ELM,RCA39156,LEVEL I RESIDENTIAL CARE FACILITY,ACTIVE,100 ELM ST,BREWER,ME,04412-2518,PENOBSCOT,+1 (207) 848-5804,ASSISTED HOUSING,2
OHI-143 PATTERSON,RCA39010,LEVEL I RESIDENTIAL CARE FACILITY,ACTIVE,143 PATTERSON RD,HAMPDEN,ME,04444-2001,PENOBSCOT,+1 (207) 848-5804,ASSISTED HOUSING,2
OHI-220 BOLLING DRIVE,RCA39029,LEVEL I RESIDENTIAL CARE FACILITY,ACTIVE,220 BOLLING DR,BANGOR,ME,04401-2848,PENOBSCOT,+1 (207) 848-5804,ASSISTED HOUSING,2
OHI-224 BOLLING DRIVE,RCA39168,LEVEL I RESIDENTIAL CARE FACILITY,ACTIVE,224 BOLLING DR,BANGOR,ME,04401-2848,PENOBSCOT,+1 (207) 848-5804,ASSISTED HOUSING,2
OHI-231 RANDOLPH,RCA39162,LEVEL I RESIDENTIAL CARE FACILITY,ACTIVE,231 RANDOLPH DR,BANGOR,ME,04401-2845,PENOBSCOT,+1 (207) 848-5804,ASSISTED HOUSING,2
OHI-2522 ESSEX,RCA39011,LEVEL I RESIDENTIAL CARE FACILITY,ACTIVE,2522 ESSEX ST,ORONO,ME,04473-3052,PENOBSCOT,+1 (207) 848-5804,ASSISTED HOUSING,2
OHI-279 ESSEX,RCA39161,LEVEL I RESIDENTIAL CARE FACILITY,ACTIVE,279 ESSEX ST,BANGOR,ME,04401-4002,PENOBSCOT,+1 (207) 848-5804,ASSISTED HOUSING,2
OHI-92 STATE STREET,RCA39055,LEVEL I RESIDENTIAL CARE FACILITY,ACTIVE,92 STATE ST APT 1,BREWER,ME,04412-1984,PENOBSCOT,+1 (207) 848-5804,ASSISTED HOUSING,2
OLB MAIN,RCA38981,LEVEL I RESIDENTIAL CARE FACILITY,ACTIVE,5 OAKWOOD LN # 1,BIDDEFORD,ME,04005-4205,YORK,+1 (207) 878-9663,ASSISTED HOUSING,2
OLB UP,RCA38982,LEVEL I RESIDENTIAL CARE FACILITY,ACTIVE,5 OAKWOOD LN # 2,BIDDEFORD,ME,04005-4205,YORK,+1 (207) 878-9663,ASSISTED HOUSING,2
OLD COUNTY ROAD,RCA39196,LEVEL I RESIDENTIAL CARE FACILITY,ACTIVE,164 OLD COUNTY RD,HAMPDEN,ME,04444-1806,PENOBSCOT,+1 (207) 862-2643,ASSISTED HOUSING,2
OLD DANVILLE ROAD,RCC772,LEVEL III RESIDENTIAL CARE FACILITY,ACTIVE,501 OLD DANVILLE RD,AUBURN,ME,04210-8107,ANDROSCOGGIN,+1 (207) 782-6264,ASSISTED HOUSING,4
OLD PORTLAND ROAD A,RCC38786,LEVEL III RESIDENTIAL CARE FACILITY,ACTIVE,220 OLD PORTLAND RD,BRUNSWICK,ME,04011-7274,CUMBERLAND,+1 (207) 504-5680,ASSISTED HOUSING,3
OLD PORTLAND ROAD B,RCA38917,LEVEL I RESIDENTIAL CARE FACILITY,ACTIVE,220 OLD PORTLAND RD # B,BRUNSWICK,ME,04011-7274,CUMBERLAND,+1 (207) 504-5680,ASSISTED HOUSING,1
OLD TOWN MANOR,RCC39084,LEVEL III RESIDENTIAL CARE FACILITY,ACTIVE,641 MAIN ST,OLD TOWN,ME,04468-1920,PENOBSCOT,+1 (207) 951-6800,ASSISTED HOUSING,5
OLD WINDSOR ROAD,RCA775,LEVEL I RESIDENTIAL CARE FACILITY,ACTIVE,47 WINDSOR RD,CHELSEA,ME,04330-1283,KENNEBEC,+1 (207) 582-6181,ASSISTED HOUSING,2
OLHC-HOLM AVENUE,RCB39013,LEVEL II RESIDENTIAL CARE FACILITY,ACTIVE,182 HOLM AVE,PORTLAND,ME,4102,,+1 (207) 329-8441,ASSISTED HOUSING,3
OLHC-POND ROAD,RCB38910,LEVEL II RESIDENTIAL CARE FACILITY,DENIED,1 POND RD,LEWISTON,ME,04240-1612,ANDROSCOGGIN,+1 (207) 329-8441,ASSISTED HOUSING,2
OLIVER HOUSE,RCC776,LEVEL III RESIDENTIAL CARE FACILITY,ACTIVE,482 FARMINGTON FALLS RD,FARMINGTON,ME,04938-6438,FRANKLIN,+1 (207) 778-0584,ASSISTED HOUSING,4
ONE HUNDRED TWELVE OHIO STREET,PNC781,PNMI LEVEL III RESIDENTIAL CARE FACILITY,ACTIVE,112 OHIO ST,BANGOR,ME,04401-4737,PENOBSCOT,+1 (207) 942-5353,ASSISTED HOUSING,5
ONE SEVENTY MAIN STREET,RCC782,LEVEL III RESIDENTIAL CARE FACILITY,ACTIVE,170 MAIN ST,PRESQUE ISLE,ME,04769-2817,AROOSTOOK,+1 (207) 764-0019,ASSISTED HOUSING,4
ONE SIXTY EIGHT OLD LISBON ROAD,RCC784,LEVEL III RESIDENTIAL CARE FACILITY,ACTIVE,168 OLD LISBON RD,LEWISTON,ME,04240-1509,ANDROSCOGGIN,+1 (207) 241-2826,ASSISTED HOUSING,4
ONE TWENTY FIVE FRANKLIN STREET,PNC785,PNMI LEVEL III RESIDENTIAL CARE FACILITY,ACTIVE,125 FRANKLIN ST,RUMFORD,ME,04276-2201,OXFORD,+1 (207) 364-5851,ASSISTED HOUSING,5
ONE WILLOW MANOR,RCB786,LEVEL II RESIDENTIAL CARE FACILITY,ACTIVE,97 SCHOOL ST,SOUTH PORTLAND,ME,04106-1545,CUMBERLAND,+1 (207) 799-2615,ASSISTED HOUSING,6
ONELOVE HOMECARE,RCB38711,LEVEL II RESIDENTIAL CARE FACILITY,ACTIVE,176 HOLM AVE,PORTLAND,ME,04102-1228,CUMBERLAND,+1 (207) 329-8441,ASSISTED HOUSING,3
ONELOVE HOMECARE - APARTMENT B,RCA38882,LEVEL I RESIDENTIAL CARE FACILITY,ACTIVE,176 HOLM AVE APT B,PORTLAND,ME,04102-1228,CUMBERLAND,+1 (207) 329-8441,ASSISTED HOUSING,1
ORCHARD HOUSE,RCC38955,LEVEL III RESIDENTIAL CARE FACILITY,ACTIVE,1344 BANGOR RD,DOVER FOXCROFT,ME,04426-3231,PISCATAQUIS,+1 (207) 564-0061,ASSISTED HOUSING,3
ORONO COMMONS,RCD22610,LEVEL IV RESIDENTIAL CARE FACILITY,ACTIVE,117 BENNOCH RD,ORONO,ME,04473-3620,PENOBSCOT,+1 (207) 866-4914,ASSISTED HOUSING,10
OSHER INN AT THE CEDARS,ALP1959,ASSISTED LIVING PROGRAM,ACTIVE,650 OCEAN AVE,PORTLAND,ME,04103-2704,CUMBERLAND,+1 (207) 221-7171,ASSISTED HOUSING,30
OUR PLACE,RCB38796,LEVEL II RESIDENTIAL CARE FACILITY,DENIED,,,,,,,ASSISTED HOUSING,3
OWL'S HEAD GROUP HOME,PND38852,PNMI LEVEL IV RESIDENTIAL CARE FACILITY,ACTIVE,38 WESKEG RD,OWLS HEAD,ME,04854-3417,KNOX,+1 (207) 594-9507,ASSISTED HOUSING,7
OXHORN ROAD,RCC38631,LEVEL III RESIDENTIAL CARE FACILITY,ACTIVE,60 OXHORN RD,WISCASSET,ME,04578-4697,LINCOLN,+1 (207) 882-9181,ASSISTED HOUSING,3
PAGOMA LANE,RCC39018,LEVEL III RESIDENTIAL CARE FACILITY,ACTIVE,20 PAGOMA LN,LEWISTON,ME,04240-1702,ANDROSCOGGIN,+1 (207) 241-2991,ASSISTED HOUSING,3
PARENT WAIVER HOME,RCB2218,LEVEL II RESIDENTIAL CARE FACILITY,ACTIVE,118 WRIGHT ST,VAN BUREN,ME,04785-1352,AROOSTOOK,+1 (207) 868-9708,ASSISTED HOUSING,3
PARIS HOME ASSISTED HOUSING PROGRAM,RCC38611,LEVEL III RESIDENTIAL CARE FACILITY,ACTIVE,14 PARIS PROMENADE,SOUTH PARIS,ME,04281-1126,OXFORD,+1 (207) 743-6354,ASSISTED HOUSING,4
"PARISH HOUSE, THE",PNC38706,PNMI LEVEL III RESIDENTIAL CARE FACILITY,ACTIVE,27 KENNEBEC ST,BAR HARBOR,ME,04609-1905,HANCOCK,+1 (207) 373-1140,ASSISTED HOUSING,6
PARK AVENUE,RCA39027,LEVEL I RESIDENTIAL CARE FACILITY,ACTIVE,10 PARK AVE W,BREWER,ME,04412-2336,PENOBSCOT,+1 (207) 307-7963,ASSISTED HOUSING,2
PARK RESIDENCES,ALP803,ASSISTED LIVING PROGRAM,ACTIVE,141 W RIVER RD,WATERVILLE,ME,04901-5098,KENNEBEC,+1 (207) 861-5685,ASSISTED HOUSING,39
PARK RESIDENCES OF FARMINGTON,ALP38791,ASSISTED LIVING PROGRAM,ACTIVE,"175 KNOWLTON CORNER RD, C/O WOODLANDS SENIOR LIVING OF FARMINGTON",FARMINGTON,ME,04938-6200,FRANKLIN,+1 (207) 860-3999,ASSISTED HOUSING,22
PARK STREET,PND38802,PNMI LEVEL IV RESIDENTIAL CARE FACILITY,ACTIVE,130 PARK ST,PORTLAND,ME,04101-3805,CUMBERLAND,+1 (207) 874-1088,ASSISTED HOUSING,9
PARK STREET WEST PARIS,RCB805,LEVEL II RESIDENTIAL CARE FACILITY,ACTIVE,26 PARK ST,WEST PARIS,ME,04289-5149,OXFORD,+1 (207) 674-3372,ASSISTED HOUSING,3
PARKER RIDGE,ALP1964,ASSISTED LIVING PROGRAM,ACTIVE,63 PARKER RIDGE LN,BLUE HILL,ME,04614-6129,HANCOCK,+1 (207) 374-2913,ASSISTED HOUSING,47
PARKMAN I,RCC38697,LEVEL III RESIDENTIAL CARE FACILITY,ACTIVE,88 WHITE SCHOOL HOUSE RD,MADISON,ME,04950-4007,SOMERSET,+1 (207) 696-3300,ASSISTED HOUSING,4
PARKWAY SOUTH,RCA39318,LEVEL I RESIDENTIAL CARE FACILITY,ACTIVE,231 PARKWAY S,BREWER,ME,04412-1615,PENOBSCOT,+1 (207) 989-1092,ASSISTED HOUSING,2
PATTEN POND HOUSE,RCD2147,LEVEL IV RESIDENTIAL CARE FACILITY,ACTIVE,99 PATTEN POND RD,SURRY,ME,04684-3329,HANCOCK,+1 (207) 664-2906,ASSISTED HOUSING,8
PATTERSON ROAD,RCA39189,LEVEL I RESIDENTIAL CARE FACILITY,ACTIVE,193 PATTERSON RD,HAMPDEN,ME,04444-2001,PENOBSCOT,+1 (207) 862-2643,ASSISTED HOUSING,2
PEARCE BROOK HOME,RCC2285,LEVEL III RESIDENTIAL CARE FACILITY,ACTIVE,12 ABRAHAM COURT,HOULTON,ME,4730,AROOSTOOK,+1 (207) 532-9446,ASSISTED HOUSING,5
PETRA HOUSE WAIVER,RCC2163,LEVEL III RESIDENTIAL CARE FACILITY,ACTIVE,34 OAK ST,WATERVILLE,ME,04901-5525,KENNEBEC,+1 (207) 873-4903,ASSISTED HOUSING,3
PHILLIP BLANCHETTE RESIDENTIAL,RCC2071,LEVEL III RESIDENTIAL CARE FACILITY,ACTIVE,3601 AROOSTOOK ROAD,EAGLE LAKE,ME,4739,AROOSTOOK,+1 (207) 444-5152,ASSISTED HOUSING,6
PHILLIPS-STRICKLAND HOUSE,PND840,PNMI LEVEL IV RESIDENTIAL CARE FACILITY,ACTIVE,21 BOYD ST,BANGOR,ME,04401-6560,PENOBSCOT,+1 (207) 941-2820,ASSISTED HOUSING,48
"PIERCE HOUSE, THE",PND300,PNMI LEVEL IV RESIDENTIAL CARE FACILITY,ACTIVE,204 MAIN ST,FARMINGTON,ME,04938-1901,FRANKLIN,+1 (207) 778-4745,ASSISTED HOUSING,16
PINE GROVE COTTAGE,RCA39046,LEVEL I RESIDENTIAL CARE FACILITY,ACTIVE,275 FOUR ROD RD,WARREN,ME,04864-4660,KNOX,+1 (207) 273-3386,ASSISTED HOUSING,2
PINEWOOD MANOR,ALP38621,ASSISTED LIVING PROGRAM,ACTIVE,20 MANOR ST,OCEAN PARK,ME,04063-3000,YORK,+1 (207) 934-2157,ASSISTED HOUSING,14
PINEWOOD TERRACE,PND38681,PNMI LEVEL IV RESIDENTIAL CARE FACILITY,ACTIVE,136 ROSEWOOD DR,FARMINGTON,ME,04938-6734,FRANKLIN,+1 (207) 779-0511,ASSISTED HOUSING,30
PINNACLE DRIVE,RCC38797,LEVEL III RESIDENTIAL CARE FACILITY,ACTIVE,7 PINNACLE DR,AUBURN,ME,04210-4364,ANDROSCOGGIN,+1 (207) 795-6737,ASSISTED HOUSING,4
PINNACLE HEALTH & REHAB RESIDENTIAL CARE,PND38606,PNMI LEVEL IV RESIDENTIAL CARE FACILITY,ACTIVE,26 PLEASANT ST,CANTON,ME,04221-3144,OXFORD,+1 (207) 597-2510,ASSISTED HOUSING,67
"PITTSFIELD COMMUNITY CARE, LLC",PND2235,PNMI LEVEL IV RESIDENTIAL CARE FACILITY,ACTIVE,554 N MAIN ST,PITTSFIELD,ME,04967-3703,SOMERSET,+1 (207) 487-7063,ASSISTED HOUSING,16
PITTSTON CLA,PNC849,PNMI LEVEL III RESIDENTIAL CARE FACILITY,ACTIVE,39 PATTERSON RD,PITTSTON,ME,04345-6639,KENNEBEC,+1 (207) 582-2044,ASSISTED HOUSING,3
PLANT ASSISTED LIVING SERVICES,ALP1708,ASSISTED LIVING PROGRAM,ACTIVE,1 WASHINGTON ST,BATH,ME,04530-1634,SAGADAHOC,+1 (207) 443-2244,ASSISTED HOUSING,37
PLEASANT HILL ROAD,RCC1973,LEVEL III RESIDENTIAL CARE FACILITY,ACTIVE,48 PLEASANT HILL RD,BRUNSWICK,ME,04011-7425,CUMBERLAND,+1 (207) 504-5679,ASSISTED HOUSING,6
PLEASANT MEADOWS ESTATES,PND1342,PNMI LEVEL IV RESIDENTIAL CARE FACILITY,ACTIVE,137 PARK ST,DOVER FOXCROFT,ME,04426-3761,PISCATAQUIS,+1 (207) 564-2444,ASSISTED HOUSING,29
PLEASANT STREET APARTMENTS,RCA38698,LEVEL I RESIDENTIAL CARE FACILITY,ACTIVE,93 PLEASANT ST,NORWAY,ME,04268-5058,OXFORD,+1 (207) 743-0618,ASSISTED HOUSING,2
PLEASANT STREET GROUP HOME,PNC38846,PNMI LEVEL III RESIDENTIAL CARE FACILITY,ACTIVE,407 PLEASANT ST,ROCKLAND,ME,04841-5308,KNOX,+1 (207) 594-8960,ASSISTED HOUSING,3
PLEASANT STREET HOME,RCC38699,LEVEL III RESIDENTIAL CARE FACILITY,ACTIVE,93 PLEASANT ST,NORWAY,ME,04268-5058,OXFORD,+1 (207) 743-0181,ASSISTED HOUSING,4
PLEASANT STREET SERVICES,PNC977,PNMI LEVEL III RESIDENTIAL CARE FACILITY,ACTIVE,73 PLEASANT ST,WATERVILLE,ME,04901-5456,KENNEBEC,+1 (207) 873-1741,ASSISTED HOUSING,6
PLEASANT STREET UNIT 1,RCA39118,LEVEL I RESIDENTIAL CARE FACILITY,ACTIVE,50 PLEASANT ST APT 1,WESTBROOK,ME,04092-4490,CUMBERLAND,+1 (207) 847-2273,ASSISTED HOUSING,2
PLEASANT STREET UNIT 2,RCA39119,LEVEL I RESIDENTIAL CARE FACILITY,ACTIVE,50 PLEASANT ST APT 2,WESTBROOK,ME,04092-4490,CUMBERLAND,+1 (207) 847-2273,ASSISTED HOUSING,2
PLEASANT STREET UNIT 3,RCA39120,LEVEL I RESIDENTIAL CARE FACILITY,ACTIVE,50 PLEASANT ST APT 3,WESTBROOK,ME,04092-4490,CUMBERLAND,+1 (207) 847-2273,ASSISTED HOUSING,2
POLAND ROAD,RCA39032,LEVEL I RESIDENTIAL CARE FACILITY,ACTIVE,649 POLAND RD,AUBURN,ME,04210-3825,ANDROSCOGGIN,+1 (207) 782-2726,ASSISTED HOUSING,2
POLAND SPRING ROAD,RCC860,LEVEL III RESIDENTIAL CARE FACILITY,ACTIVE,28 POLAND SPRING RD,AUBURN,ME,04210-8388,ANDROSCOGGIN,+1 (207) 783-9031,ASSISTED HOUSING,3
POND POINT PARK,RCA39045,LEVEL I RESIDENTIAL CARE FACILITY,ACTIVE,18 HAINES DR,BOWDOIN,ME,04287-7753,SAGADAHOC,+1 (207) 666-5766,ASSISTED HOUSING,2
POND ROAD,RCA39114,LEVEL I RESIDENTIAL CARE FACILITY,ACTIVE,575 POND RD,STANDISH,ME,04084-5456,CUMBERLAND,+1 (207) 893-8741,ASSISTED HOUSING,2
PORT PLACE ADULT DAY PROGRAM,ADS38789,ADULT DAY SERVICES PROGRAM,ACTIVE,280B GANNETT DR,SOUTH PORTLAND,ME,04106-6940,CUMBERLAND,+1 (207) 828-0048,ASSISTED HOUSING,30
PORTLAND CENTER FOR ASSISTED LIVING,PND863,PNMI LEVEL IV RESIDENTIAL CARE FACILITY,ACTIVE,68 DEVONSHIRE ST,PORTLAND,ME,04103-4431,CUMBERLAND,+1 (207) 772-2893,ASSISTED HOUSING,170
POWNAL ROAD,RCC866,LEVEL III RESIDENTIAL CARE FACILITY,ACTIVE,1807 POWNAL RD,AUBURN,ME,04210-9687,ANDROSCOGGIN,+1 (207) 783-0017,ASSISTED HOUSING,3
PRATT FOSTER HOME,RCA867,LEVEL I RESIDENTIAL CARE FACILITY,ACTIVE,4 BREEZY MEADOWS,GRAY,ME,4039,CUMBERLAND,+1 (207) 657-4744,ASSISTED HOUSING,1
PRESUMPSCOT STREET,RCC39000,LEVEL III RESIDENTIAL CARE FACILITY,EXPIRED,440 PRESUMPSCOT ST,PORTLAND,ME,04103-5219,CUMBERLAND,+1 (207) 632-6240,ASSISTED HOUSING,3
PRIDE HOUSE,RCD868,LEVEL IV RESIDENTIAL CARE FACILITY,ACTIVE,549 WESTBROOK ST,SOUTH PORTLAND,ME,04106-1909,CUMBERLAND,+1 (207) 773-3048,ASSISTED HOUSING,8
PRIDE ROAD,RCA39033,LEVEL I RESIDENTIAL CARE FACILITY,ACTIVE,34 PRIDE RD,AUBURN,ME,04210-3929,ANDROSCOGGIN,+1 (207) 782-2726,ASSISTED HOUSING,1
PRIORS CIRCLE,RCA1773,LEVEL I RESIDENTIAL CARE FACILITY,ACTIVE,1 PRIOR CIR,SACO,ME,04072-9623,YORK,+1 (207) 284-9902,ASSISTED HOUSING,2
PSL SERVICES - WALL STREET PROGRAM,ALP38787,ASSISTED LIVING PROGRAM,ACTIVE,25 WALL ST,PORTLAND,ME,04103-2300,CUMBERLAND,+1 (207) 899-4798,ASSISTED HOUSING,8
QUARRY HILL-ANDERSON INN,ALP1590,ASSISTED LIVING PROGRAM,ACTIVE,30 COMMUNITY DR,CAMDEN,ME,04843-2061,KNOX,+1 (207) 921-6100,ASSISTED HOUSING,37
QUARRY ROAD RESIDENTIAL CENTER,PND874,PNMI LEVEL IV RESIDENTIAL CARE FACILITY,ACTIVE,10 QUARRY RD,WATERVILLE,ME,04901-4944,KENNEBEC,+1 (207) 873-4594,ASSISTED HOUSING,12
RAE WAY,RCA39201,LEVEL I RESIDENTIAL CARE FACILITY,ACTIVE,16 RAE WAY,HAMPDEN,ME,04444-3242,PENOBSCOT,+1 (207) 862-2643,ASSISTED HOUSING,2
RAICHE STREET,RCA38948,LEVEL I RESIDENTIAL CARE FACILITY,ACTIVE,30 RAICHE ST,LEWISTON,ME,04240-2522,ANDROSCOGGIN,+1 (207) 786-3453,ASSISTED HOUSING,2
RAINBOW HOUSE,RCA38778,LEVEL I RESIDENTIAL CARE FACILITY,ACTIVE,279 OLD COUNTY RD,HAMPDEN,ME,04444-1805,PENOBSCOT,+1 (207) 944-5036,ASSISTED HOUSING,2
RALPH STREET RESIDENCE,PNC881,PNMI LEVEL III RESIDENTIAL CARE FACILITY,ACTIVE,18 RALPH ST,BANGOR,ME,04401-4438,PENOBSCOT,+1 (207) 945-4188,ASSISTED HOUSING,6
RANDOLPH HOUSE,RCA885,LEVEL I RESIDENTIAL CARE FACILITY,ACTIVE,15 WINDSOR ST,RANDOLPH,ME,04346-5201,KENNEBEC,+1 (207) 588-0602,ASSISTED HOUSING,2
READ STREET,PNC38806,PNMI LEVEL III RESIDENTIAL CARE FACILITY,ACTIVE,1103 FOREST AVE,PORTLAND,ME,04103-3323,CUMBERLAND,+1 (207) 761-5924,ASSISTED HOUSING,6
REDINGTON MEMORIAL HOME,RCD888,LEVEL IV RESIDENTIAL CARE FACILITY,ACTIVE,11 NORTH AVE,SKOWHEGAN,ME,04976-1819,SOMERSET,+1 (207) 474-2444,ASSISTED HOUSING,31
REEF LANE,RCC889,LEVEL III RESIDENTIAL CARE FACILITY,ACTIVE,1 REEF LN,SCARBOROUGH,ME,04074-9092,CUMBERLAND,+1 (207) 885-1349,ASSISTED HOUSING,3
REMELIAH HOUSE,RCD890,LEVEL IV RESIDENTIAL CARE FACILITY,ACTIVE,10 MAHAR LN,CALAIS,ME,04619-1202,WASHINGTON,+1 (207) 454-3972,ASSISTED HOUSING,8
"RESIDENCE AT GRAY BIRCH, THE",PND22503,PNMI LEVEL IV RESIDENTIAL CARE FACILITY,ACTIVE,37 GRAY BIRCH DR,AUGUSTA,ME,04330-6105,KENNEBEC,+1 (207) 621-7100,ASSISTED HOUSING,37
"RESIDENCE AT TALL PINES, THE",ALP2160,ASSISTED LIVING PROGRAM,ACTIVE,24 MARTIN LN,BELFAST,ME,04915-6099,WALDO,+1 (207) 930-7031,ASSISTED HOUSING,30
RICHMOND ELDERCARE,PND1088,PNMI LEVEL IV RESIDENTIAL CARE FACILITY,ACTIVE,18 HATHORN ST,RICHMOND,ME,04357-1161,SAGADAHOC,+1 (207) 737-8911,ASSISTED HOUSING,16
RIDGEWOOD ESTATES,PND1670,PNMI LEVEL IV RESIDENTIAL CARE FACILITY,ACTIVE,480 RIDGEVIEW AVE,MADAWASKA,ME,04756-1649,AROOSTOOK,+1 (207) 728-6324,ASSISTED HOUSING,52
RIDLEY ROAD,RCC2250,LEVEL III RESIDENTIAL CARE FACILITY,ACTIVE,139 RIDLEY RD,SANFORD,ME,04073-6216,YORK,+1 (207) 850-1212,ASSISTED HOUSING,3
RISING HILL,PND2256,PNMI LEVEL IV RESIDENTIAL CARE FACILITY,ACTIVE,95 ACCESS HWY,LIMESTONE,ME,04750-6300,AROOSTOOK,+1 (207) 325-4771,ASSISTED HOUSING,36
RIVERSIDE AT CHASE POINT,PND903,PNMI LEVEL IV RESIDENTIAL CARE FACILITY,ACTIVE,51 SCHOONER ST,DAMARISCOTTA,ME,04543-4055,LINCOLN,+1 (207) 563-4200,ASSISTED HOUSING,18
RIVERSIDE DRIVE HOUSE,PNC38635,PNMI LEVEL III RESIDENTIAL CARE FACILITY,ACTIVE,780 RIVERSIDE DR APT B,AUGUSTA,ME,04330-8307,KENNEBEC,+1 (207) 626-7557,ASSISTED HOUSING,5
RIVERSTONE RANCH,RCA39044,LEVEL I RESIDENTIAL CARE FACILITY,ACTIVE,1 CONARY LN,WARREN,ME,04864-4218,KNOX,+1 (207) 273-2126,ASSISTED HOUSING,2
RIVERVIEW,RCA39145,LEVEL I RESIDENTIAL CARE FACILITY,ACTIVE,10 RIVERVIEW RD,BATH,ME,04530-1632,SAGADAHOC,+1 (207) 386-5162,ASSISTED HOUSING,2
RIVERVIEW HOUSE,RCC2188,LEVEL III RESIDENTIAL CARE FACILITY,ACTIVE,3 RIVERVIEW LANE,ADDISON,ME,4606,WASHINGTON,+1 (207) 483-4772,ASSISTED HOUSING,3
RIVERWOOD RANCH,RCC906,LEVEL III RESIDENTIAL CARE FACILITY,ACTIVE,1270 OYSTER RIVER RD,WARREN,ME,04864-4245,KNOX,+1 (207) 273-3369,ASSISTED HOUSING,4
ROBBINSTON BRIDGE HOME,RCD1911,LEVEL IV RESIDENTIAL CARE FACILITY,ACTIVE,736 ROUTE 1,ROBBINSTON,ME,4671,WASHINGTON,+1 (207) 952-0240,ASSISTED HOUSING,8
ROBERT AND MARY'S PLACE,ADS1537,ADULT DAY SERVICES PROGRAM,ACTIVE,50 MEADOW VIEW LN STE 35,ELLSWORTH,ME,04605-1547,HANCOCK,+1 (207) 667-5449,ASSISTED HOUSING,30
ROBERTS BOARDING HOME,RCA909,LEVEL I RESIDENTIAL CARE FACILITY,FAILED TO RENEW,,,,,,+1 (207) 782-4766,ASSISTED HOUSING,2
ROBINS NEST BOARDING HOME,PNC910,PNMI LEVEL III RESIDENTIAL CARE FACILITY,ACTIVE,203 MAIN ST,WARREN,ME,04864-4233,KNOX,+1 (207) 273-3345,ASSISTED HOUSING,4
ROCHELLE STREET,RCA38940,LEVEL I RESIDENTIAL CARE FACILITY,ACTIVE,28A ROCHELLE ST,AUBURN,ME,04210-4268,ANDROSCOGGIN,+1 (207) 784-6333,ASSISTED HOUSING,2
ROCKLAND HOUSE,PNC38886,PNMI LEVEL III RESIDENTIAL CARE FACILITY,ACTIVE,252 RANKIN ST,ROCKLAND,ME,04841-2347,KNOX,+1 (207) 596-0029,ASSISTED HOUSING,4
ROCKY COAST GROUP HOME,RCC38700,LEVEL III RESIDENTIAL CARE FACILITY,ACTIVE,269 TOWNSEND AVE,BOOTHBAY HARBOR,ME,04538-1802,LINCOLN,+1 (207) 633-3504,ASSISTED HOUSING,4
ROCKY ROAD,RCA39314,LEVEL I RESIDENTIAL CARE FACILITY,ACTIVE,24A ROCKY RD,HEBRON,ME,04238-3584,OXFORD,+1 (207) 966-1014,ASSISTED HOUSING,2
ROOSEVELT TRAIL,RCA39065,LEVEL I RESIDENTIAL CARE FACILITY,ACTIVE,273 ROOSEVELT TRL,WINDHAM,ME,04062-4461,CUMBERLAND,+1 (207) 937-8260,ASSISTED HOUSING,2
ROSE,RCC38992,LEVEL III RESIDENTIAL CARE FACILITY,ACTIVE,445 MAIN ST APT D,BIDDEFORD,ME,04005-2142,YORK,+1 (207) 284-8569,ASSISTED HOUSING,3
ROSE OF SHARON/HAVEN OF REST 1,RCC1637,LEVEL III RESIDENTIAL CARE FACILITY,ACTIVE,984 N MAIN ST,WINTERPORT,ME,04496-3404,WALDO,+1 (207) 223-5528,ASSISTED HOUSING,6
ROSEWOOD COTTAGE,RCC39043,LEVEL III RESIDENTIAL CARE FACILITY,ACTIVE,9 ALISON LN,DAMARISCOTTA,ME,04543-4246,LINCOLN,+1 (207) 563-3530,ASSISTED HOUSING,3
ROSS MANOR ASSOCIATION DAY HEALTH SERVICES,ADS916,ADULT DAY SERVICES PROGRAM,FAILED TO RENEW,,,,,,+1 (207) 941-8400 x234,ASSISTED HOUSING,6
ROSSWOOD,RCA38892,LEVEL I RESIDENTIAL CARE FACILITY,ACTIVE,2 WALKER ST APT 3.103,WESTBROOK,ME,04092-2998,CUMBERLAND,+1 (207) 591-5036,ASSISTED HOUSING,2
ROUND HILL,PNC38687,PNMI LEVEL III RESIDENTIAL CARE FACILITY,ACTIVE,1 ROUND HILL ST,BIDDEFORD,ME,04005-3715,YORK,+1 (207) 284-8270,ASSISTED HOUSING,4
ROUND POND GREEN,RCC2036,LEVEL III RESIDENTIAL CARE FACILITY,ACTIVE,1410 STATE ROUTE 32,ROUND POND,ME,04564-3618,LINCOLN,+1 (207) 529-6000,ASSISTED HOUSING,6
RUMFORD COMMUNITY HOME I I,PND22625,PNMI LEVEL IV RESIDENTIAL CARE FACILITY,ACTIVE,11 JOHN F KENNEDY LN,RUMFORD,ME,04276-3636,OXFORD,+1 (207) 364-7863,ASSISTED HOUSING,53
RUNNING TIDE DRIVE,RCC927,LEVEL III RESIDENTIAL CARE FACILITY,ACTIVE,22 RUNNING TIDE DR,SCARBOROUGH,ME,04074-9088,CUMBERLAND,+1 (207) 282-8387,ASSISTED HOUSING,3
RUSSELL PARK RESIDENTIAL CARE,PND22627,PNMI LEVEL IV RESIDENTIAL CARE FACILITY,ACTIVE,158 RUSSELL ST,LEWISTON,ME,04240-6027,ANDROSCOGGIN,+1 (207) 786-0691 x102,ASSISTED HOUSING,53
RUTH AVENUE,RCA39188,LEVEL I RESIDENTIAL CARE FACILITY,ACTIVE,57 RUTH AVE,HAMPDEN,ME,04444-1521,PENOBSCOT,+1 (207) 862-2643,ASSISTED HOUSING,2
S & S FOSTER HOME,RCB932,LEVEL II RESIDENTIAL CARE FACILITY,ACTIVE,344 MAIN ST,VAN BUREN,ME,04785-1327,AROOSTOOK,+1 (207) 868-2674,ASSISTED HOUSING,4
SABATTUS STREET,RCA39330,LEVEL I RESIDENTIAL CARE FACILITY,ACTIVE,211 SABATTUS ST,LEWISTON,ME,04240-6348,ANDROSCOGGIN,+1 (207) 312-5186,ASSISTED HOUSING,1
SAFE HAVEN AT ST. ANDREWS VILLAGE,RCD38860,LEVEL IV RESIDENTIAL CARE FACILITY,ACTIVE,145 EMERY LN,BOOTHBAY HARBOR,ME,04538-1963,LINCOLN,+1 (207) 633-0920,ASSISTED HOUSING,11
SAM L. COHEN CENTER,ADS38604,ADULT DAY SERVICES PROGRAM,ACTIVE,30 BARRA RD,BIDDEFORD,ME,04005-9459,YORK,+1 (207) 396-6500,ASSISTED HOUSING,50
SAM L. COHEN HOUSEHOLDS,ALP39060,ASSISTED LIVING PROGRAM,ACTIVE,650 OCEAN AVE,PORTLAND,ME,04103-2704,CUMBERLAND,+1 (207) 221-7000,ASSISTED HOUSING,20
SAND ROAD WAIVER,RCC38838,LEVEL III RESIDENTIAL CARE FACILITY,ACTIVE,18 SAND RD,NEWPORT,ME,04953-3463,PENOBSCOT,+1 (207) 368-4972,ASSISTED HOUSING,3
SANDY BROOK HOME,RCC939,LEVEL III RESIDENTIAL CARE FACILITY,ACTIVE,81 HOULTON RD,DANFORTH,ME,4424,WASHINGTON,+1 (207) 448-3180,ASSISTED HOUSING,4
SANDY CREEK,RCC38777,LEVEL III RESIDENTIAL CARE FACILITY,ACTIVE,119 SANDY CREEK RD,BRIDGTON,ME,04009-4135,CUMBERLAND,+1 (207) 808-5030 x1311,ASSISTED HOUSING,5
SANFIELD REHAB & LIVING CENTER,RCD22631,LEVEL IV RESIDENTIAL CARE FACILITY,ACTIVE,95 MAIN ST,HARTLAND,ME,4943,SOMERSET,+1 (207) 938-2616,ASSISTED HOUSING,12
SARAH FRYE HOME,PND945,PNMI LEVEL IV RESIDENTIAL CARE FACILITY,ACTIVE,751 WASHINGTON ST N,AUBURN,ME,04210-3882,ANDROSCOGGIN,+1 (207) 784-7242,ASSISTED HOUSING,36
SAWYER ROAD,RCA39208,LEVEL I RESIDENTIAL CARE FACILITY,ACTIVE,291 SAWYER RD,HAMPDEN,ME,04444-3230,PENOBSCOT,+1 (207) 862-2643,ASSISTED HOUSING,2
SAWYER STREET HOUSE,PND1567,PNMI LEVEL IV RESIDENTIAL CARE FACILITY,ACTIVE,388 SAWYER ST,SOUTH PORTLAND,ME,04106-3960,CUMBERLAND,+1 (207) 799-0637,ASSISTED HOUSING,8
SCARBOROUGH TERRACE,RCD954,LEVEL IV RESIDENTIAL CARE FACILITY,ACTIVE,600 COMMERCE DR,SCARBOROUGH,ME,04074-7305,CUMBERLAND,+1 (207) 885-5568,ASSISTED HOUSING,77
SCHOOL STREET,ALP38807,ASSISTED LIVING PROGRAM,ACTIVE,11 SCHOOL ST,SACO,ME,04072-3360,YORK,+1 (207) 284-8583,ASSISTED HOUSING,7
SCHOOL STREET HOME,RCC955,LEVEL III RESIDENTIAL CARE FACILITY,ACTIVE,40 SCHOOL ST,SANFORD,ME,04073-3019,YORK,+1 (207) 324-1607,ASSISTED HOUSING,5
SCHOONER ASSISTED LIVING PROGRAM,ALP1700,ASSISTED LIVING PROGRAM,ACTIVE,200 STETSON RD,AUBURN,ME,04210-6458,ANDROSCOGGIN,+1 (207) 784-2900,ASSISTED HOUSING,145
SCHOONER ESTATES RESIDENTIAL CARE,PND978,PNMI LEVEL IV RESIDENTIAL CARE FACILITY,ACTIVE,200 STETSON RD,AUBURN,ME,04210-6458,ANDROSCOGGIN,+1 (207) 784-2900,ASSISTED HOUSING,9
SCHOONER MEMORY CARE,PND39025,PNMI LEVEL IV RESIDENTIAL CARE FACILITY,ACTIVE,180 STETSON ROAD,AUBURN,ME,,,+1 (207) 784-2900,ASSISTED HOUSING,66
SEA HAVEN AT HARBOR PLACE,PNC39132,PNMI LEVEL III RESIDENTIAL CARE FACILITY,ACTIVE,80 HIGH ST UNIT B,BELFAST,ME,04915-6250,WALDO,+1 (207) 522-2388,ASSISTED HOUSING,6
SENIOR CARE CENTER,ADS2271,ADULT DAY SERVICES PROGRAM,FAILED TO RENEW,37 SPRUCE ST APT 1,LEWISTON,ME,04240-7322,ANDROSCOGGIN,+1 (207) 740-5598,ASSISTED HOUSING,20
SENTRY HILL AT YORK HARBOR,PND1212,PNMI LEVEL IV RESIDENTIAL CARE FACILITY,ACTIVE,2 VICTORIA CT,YORK,ME,03909-1455,YORK,+1 (207) 363-5116,ASSISTED HOUSING,54
SENTRY HILL CONGREGATE HOUSING,ALP969,ASSISTED LIVING PROGRAM,ACTIVE,2 VICTORIA CT,YORK,ME,03909-1455,YORK,+1 (207) 363-5116,ASSISTED HOUSING,31
SETH JORDAN HOUSE,PNC761,PNMI LEVEL III RESIDENTIAL CARE FACILITY,ACTIVE,39 OBRION ST,PORTLAND,ME,04101-4411,CUMBERLAND,+1 (207) 874-1084,ASSISTED HOUSING,6
SEVENTY FIVE STATE STREET,PND975,PNMI LEVEL IV RESIDENTIAL CARE FACILITY,ACTIVE,75 STATE ST,PORTLAND,ME,04101-3746,CUMBERLAND,+1 (207) 772-2675,ASSISTED HOUSING,69
SEVENTY SIX BRADLEY STREET,PNC976,PNMI LEVEL III RESIDENTIAL CARE FACILITY,ACTIVE,76 BRADLEY ST,LEWISTON,ME,04240-6302,ANDROSCOGGIN,+1 (207) 786-0900,ASSISTED HOUSING,6
SEWALL STREET HOME,RCC783,LEVEL III RESIDENTIAL CARE FACILITY,ACTIVE,13 SEWALL STREET,ISLAND FALLS,ME,4747,AROOSTOOK,+1 (207) 463-2823,ASSISTED HOUSING,4
SHALOM-WOODFORD STREET,PNC38810,PNMI LEVEL III RESIDENTIAL CARE FACILITY,ACTIVE,503 WOODFORD ST,PORTLAND,ME,04103-2439,CUMBERLAND,+1 (207) 878-5022,ASSISTED HOUSING,6
SHALOM-WOODFORD STREET ASSISTED LIVING,ALP38812,ASSISTED LIVING PROGRAM,ACTIVE,503 WOODFORD ST,PORTLAND,ME,04103-2439,CUMBERLAND,+1 (207) 878-5022,ASSISTED HOUSING,2
SHARED LIVING GROUP HOME,PNC979,PNMI LEVEL III RESIDENTIAL CARE FACILITY,ACTIVE,468 CORINNA RD,SAINT ALBANS,ME,04971-7008,SOMERSET,+1 (207) 938-4005,ASSISTED HOUSING,6
"SHAW HOUSE, THE",PND1701,PNMI LEVEL IV RESIDENTIAL CARE FACILITY,ACTIVE,257 SOUTH ST,BIDDEFORD,ME,04005-2154,YORK,+1 (207) 283-1011,ASSISTED HOUSING,20
SHERI'S HAVEN,RCC38668,LEVEL III RESIDENTIAL CARE FACILITY,ACTIVE,33 JAMES ST,BANGOR,ME,04401-4634,PENOBSCOT,+1 (207) 951-7134,ASSISTED HOUSING,6
SHIN POND ROAD HOME,RCC1882,LEVEL III RESIDENTIAL CARE FACILITY,ACTIVE,219 SHIN POND RD,PATTEN,ME,04765-3124,PENOBSCOT,+1 (207) 528-2917,ASSISTED HOUSING,3
SHIRLEY DRINKWATER HOME - 1,RCC986,LEVEL III RESIDENTIAL CARE FACILITY,ACTIVE,289 MEADOW STREET,ROCKPORT,ME,4856,KNOX,+1 (207) 236-0626,ASSISTED HOUSING,3
SHIRLEY DRINKWATER HOME - 2,RCA987,LEVEL I RESIDENTIAL CARE FACILITY,ACTIVE,289 MEADOW ST,ROCKPORT,ME,4856,KNOX,+1 (207) 236-0626,ASSISTED HOUSING,2
SKY - HY ADULT DAY CARE,ADS994,ADULT DAY SERVICES PROGRAM,ACTIVE,32 SKY HY DR,TOPSHAM,ME,04086-5772,SAGADAHOC,+1 (207) 725-7577,ASSISTED HOUSING,48
SKYHAVEN,PND995,PNMI LEVEL IV RESIDENTIAL CARE FACILITY,ACTIVE,2 AIRPORT DR,PRESQUE ISLE,ME,04769-2041,AROOSTOOK,+1 (207) 764-0759,ASSISTED HOUSING,10
SLG DOWN,RCA38985,LEVEL I RESIDENTIAL CARE FACILITY,ACTIVE,8 SOPHIE LN,GORHAM,ME,04038-1871,CUMBERLAND,+1 (207) 878-9663,ASSISTED HOUSING,1
SLG MAIN,RCA38973,LEVEL I RESIDENTIAL CARE FACILITY,ACTIVE,8 SOPHIE LN,GORHAM,ME,04038-1871,CUMBERLAND,+1 (207) 878-9663,ASSISTED HOUSING,2
SLG UP,RCA38984,LEVEL I RESIDENTIAL CARE FACILITY,ACTIVE,8 SOPHIE LN,GORHAM,ME,04038-1871,CUMBERLAND,+1 (207) 878-9663,ASSISTED HOUSING,1
SMITH AVENUE,RCA39064,LEVEL I RESIDENTIAL CARE FACILITY,ACTIVE,1 SMITH AVE,STANDISH,ME,,,+1 (207) 937-8260,ASSISTED HOUSING,2
SMITH'S FOSTER HOME,RCB999,LEVEL II RESIDENTIAL CARE FACILITY,ACTIVE,913 DEPOT ST,WALDOBORO,ME,04572-5905,LINCOLN,+1 (207) 832-4579,ASSISTED HOUSING,2
SNOWE,RCC38739,LEVEL III RESIDENTIAL CARE FACILITY,ACTIVE,13 SHORT BENNETT RD,NEW GLOUCESTER,ME,04260-3842,CUMBERLAND,+1 (207) 808-5030 x1311,ASSISTED HOUSING,6
SOMERSET HOUSE,PND38650,PNMI LEVEL IV RESIDENTIAL CARE FACILITY,ACTIVE,395 WATERVILLE RD,NORRIDGEWOCK,ME,04957-3004,SOMERSET,+1 (207) 634-2569,ASSISTED HOUSING,8
SOMERSET HOUSE,RCC2149,LEVEL III RESIDENTIAL CARE FACILITY,FAILED TO RENEW,,,,,,+1 (207) 907-2098,ASSISTED HOUSING,6
SOMERSET REHAB & LIVING CENTER,RCD22638,LEVEL IV RESIDENTIAL CARE FACILITY,ACTIVE,43 OWENS ST,BINGHAM,ME,04920-4008,SOMERSET,+1 (207) 672-4041,ASSISTED HOUSING,13
SOUCY'S FOSTER HOME,RCB1006,LEVEL II RESIDENTIAL CARE FACILITY,ACTIVE,101 BERRY AVE,VAN BUREN,ME,04785-1443,AROOSTOOK,+1 (207) 868-7777,ASSISTED HOUSING,5
SOUTH BAY MANOR,RCD2181,LEVEL IV RESIDENTIAL CARE FACILITY,ACTIVE,44 S BAY RD,FRANKLIN,ME,04634-3140,HANCOCK,+1 (207) 565-3805,ASSISTED HOUSING,8
SOUTH BELFAST ROAD HOUSE I,PNA1833,PNMI LEVEL I RESIDENTIAL CARE FACILITY,ACTIVE,31A S BELFAST RD,WINDSOR,ME,04363-3402,KENNEBEC,+1 (207) 445-3951,ASSISTED HOUSING,2
SOUTH BELFAST ROAD HOUSE II,PNA1835,PNMI LEVEL I RESIDENTIAL CARE FACILITY,ACTIVE,31B S BELFAST RD,WINDSOR,ME,04363-3402,KENNEBEC,+1 (207) 445-3964,ASSISTED HOUSING,2
SOUTH BELFAST ROAD HOUSE III,PNA1836,PNMI LEVEL I RESIDENTIAL CARE FACILITY,ACTIVE,31C S BELFAST RD,WINDSOR,ME,04363-3402,KENNEBEC,+1 (207) 445-3958,ASSISTED HOUSING,2
SOUTH CHINA HOUSE,PNC1971,PNMI LEVEL III RESIDENTIAL CARE FACILITY,ACTIVE,44 ROUTE 3,SOUTH CHINA,ME,04358-5059,KENNEBEC,+1 (207) 445-3165,ASSISTED HOUSING,3
SOUTH MAIN,RCA39031,LEVEL I RESIDENTIAL CARE FACILITY,ACTIVE,194 S MAIN ST,AUBURN,ME,04210-6659,ANDROSCOGGIN,+1 (207) 782-2726,ASSISTED HOUSING,2
SOUTH MAIN HUD,RCA39034,LEVEL I RESIDENTIAL CARE FACILITY,ACTIVE,196 S MAIN ST,AUBURN,ME,04210-6659,ANDROSCOGGIN,+1 (207) 782-2726,ASSISTED HOUSING,2
SOUTH MAIN STREET HOUSE,PNC38788,PNMI LEVEL III RESIDENTIAL CARE FACILITY,ACTIVE,81 S MAIN ST,ATHENS,ME,04912-4612,SOMERSET,+1 (207) 622-5946,ASSISTED HOUSING,5
"SOUTHERN ACRES RESIDENTIAL CARE, INC.",PND38718,PNMI LEVEL IV RESIDENTIAL CARE FACILITY,ACTIVE,203 TWEEDIE RD,WESTFIELD,ME,04787-3216,AROOSTOOK,+1 (207) 429-9231,ASSISTED HOUSING,30
SOUTHERN HARBOR HOUSE,RCC38729,LEVEL III RESIDENTIAL CARE FACILITY,ACTIVE,12 PULPIT HARBOR RD,NORTH HAVEN,ME,04853-3104,KNOX,+1 (207) 867-2345,ASSISTED HOUSING,6
SOUTHRIDGE REHAB & LIVING CENTER,RCD22642,LEVEL IV RESIDENTIAL CARE FACILITY,ACTIVE,10 MAY ST,BIDDEFORD,ME,04005-2923,YORK,+1 (207) 282-4138,ASSISTED HOUSING,46
SPECTRUM GENERATIONS ADULT DAY BREAK PROGRAM,ADS1752,ADULT DAY SERVICES PROGRAM,ACTIVE,30 LEAVITT ST,SKOWHEGAN,ME,04976-1843,SOMERSET,+1 (207) 242-0179,ASSISTED HOUSING,30
SPILLER PARK APARTMENTS,RCC1009,LEVEL III RESIDENTIAL CARE FACILITY,ACTIVE,12 DAY RD,GORHAM,ME,04038-1856,CUMBERLAND,+1 (207) 774-6323,ASSISTED HOUSING,6
SPRING STREET,RCC2097,LEVEL III RESIDENTIAL CARE FACILITY,ACTIVE,28 SPRING ST,BRUNSWICK,ME,04011-2313,CUMBERLAND,+1 (207) 504-5678,ASSISTED HOUSING,5
SPRING STREET APARTMENT,RCA39072,LEVEL I RESIDENTIAL CARE FACILITY,ACTIVE,9 SPRING ST UNIT A,NORWAY,ME,04268-5603,OXFORD,+1 (207) 743-8049 x202,ASSISTED HOUSING,1
SPRING VALLEY,RCA1013,LEVEL I RESIDENTIAL CARE FACILITY,FAILED TO RENEW,,,,,,,ASSISTED HOUSING,2
SPRINGWATER,RCA39178,LEVEL I RESIDENTIAL CARE FACILITY,ACTIVE,9 SPRING WATER DR,WINDHAM,ME,04062-4287,CUMBERLAND,+1 (207) 835-0099,ASSISTED HOUSING,2
SPURWINK JEANNE STREET,RCC38709,LEVEL III RESIDENTIAL CARE FACILITY,ACTIVE,50 JEANNE ST,PORTLAND,ME,04102-1825,CUMBERLAND,+1 (207) 797-2512,ASSISTED HOUSING,3
SPURWINK PLEASANT LAKE HOUSE,RCC38867,LEVEL III RESIDENTIAL CARE FACILITY,ACTIVE,990 MEADOW RD,CASCO,ME,4015,,+1 (207) 615-6264,ASSISTED HOUSING,5
SPURWINK VICTORIA DRIVE,RCC38633,LEVEL III RESIDENTIAL CARE FACILITY,ACTIVE,114 VICTORIA DR,WESTBROOK,ME,04092-2047,CUMBERLAND,+1 (207) 797-2512,ASSISTED HOUSING,3
SPURWINK WALNUT STREET,RCC39136,LEVEL III RESIDENTIAL CARE FACILITY,ACTIVE,134 WALNUT ST,SOUTH PORTLAND,ME,04106-4731,CUMBERLAND,,ASSISTED HOUSING,5
SSW BACK,RCA38979,LEVEL I RESIDENTIAL CARE FACILITY,ACTIVE,119 SACO ST,WESTBROOK,ME,04092-2714,CUMBERLAND,+1 (207) 878-9663,ASSISTED HOUSING,2
SSW FRONT,RCA38978,LEVEL I RESIDENTIAL CARE FACILITY,ACTIVE,119 SACO ST,WESTBROOK,ME,04092-2714,CUMBERLAND,+1 (207) 878-9663,ASSISTED HOUSING,2
"ST. JOSEPH MEMORY CARE, INC.",PND2386,PNMI LEVEL IV RESIDENTIAL CARE FACILITY,ACTIVE,426 US ROUTE 1,FRENCHVILLE,ME,04745-6155,AROOSTOOK,+1 (207) 543-6648,ASSISTED HOUSING,40
ST. JUDE'S FOSTER HOME,RCB1020,LEVEL II RESIDENTIAL CARE FACILITY,ACTIVE,123 WRIGHT ST,VAN BUREN,ME,04785-1350,AROOSTOOK,+1 (207) 868-5180,ASSISTED HOUSING,4
STANDISH MIDDLE ROAD HOME,RCC1937,LEVEL III RESIDENTIAL CARE FACILITY,ACTIVE,575 MIDDLE RD,STEEP FALLS,ME,04085-6001,CUMBERLAND,+1 (207) 675-3116,ASSISTED HOUSING,3
STARKS HOUSE,ALP38828,ASSISTED LIVING PROGRAM,ACTIVE,9 PAUL ST,DOVER FOXCROFT,ME,04426-1050,PISCATAQUIS,+1 (207) 564-7294,ASSISTED HOUSING,4
STEARNS ASSISTED LIVING,ALP1027,ASSISTED LIVING PROGRAM,ACTIVE,80 MAINE AVE,MILLINOCKET,ME,04462-1564,PENOBSCOT,+1 (207) 723-4445,ASSISTED HOUSING,20
STINCHFIELD HILL,RCC1638,LEVEL III RESIDENTIAL CARE FACILITY,ACTIVE,47 STINCHFIELD HILL RD,CHESTERVILLE,ME,04938-3019,FRANKLIN,+1 (207) 778-0492,ASSISTED HOUSING,3
STONEYBROOK ROAD,RCA39198,LEVEL I RESIDENTIAL CARE FACILITY,ACTIVE,53 STONEYBROOK RD,HAMPDEN,ME,04444-1621,PENOBSCOT,+1 (207) 862-2643,ASSISTED HOUSING,2
STROUDWATER LODGE,ALP38856,ASSISTED LIVING PROGRAM,ACTIVE,116 LANDING RD,WESTBROOK,ME,04092-4165,CUMBERLAND,+1 (207) 854-8333,ASSISTED HOUSING,115
STROUDWATER STREET RESIDENCE,RCC1032,LEVEL III RESIDENTIAL CARE FACILITY,ACTIVE,537 STROUDWATER ST,WESTBROOK,ME,04092-4070,CUMBERLAND,+1 (207) 854-9591,ASSISTED HOUSING,4
SUE WRIGHT HOUSE,RCC38795,LEVEL III RESIDENTIAL CARE FACILITY,ACTIVE,899A RIVERSIDE ST,PORTLAND,ME,04103-1070,CUMBERLAND,+1 (207) 856-8827,ASSISTED HOUSING,5
SUMMER COMMONS,PND39387,PNMI LEVEL IV RESIDENTIAL CARE FACILITY,ACTIVE,21 JUNE STREET,SANFORD,ME,,,+1 (207) 206-1360,ASSISTED HOUSING,30
SUMMIT 85,RCA38894,LEVEL I RESIDENTIAL CARE FACILITY,ACTIVE,115 SUMMIT TER APT 85,SOUTH PORTLAND,ME,04106-2274,CUMBERLAND,+1 (207) 747-4421,ASSISTED HOUSING,2
SUNNY LANE,RCC293,LEVEL III RESIDENTIAL CARE FACILITY,ACTIVE,14 SUNNY LN,SANFORD,ME,04073-5122,YORK,+1 (207) 324-6443,ASSISTED HOUSING,4
SUNNYBROOK,ALP38855,ASSISTED LIVING PROGRAM,ACTIVE,340 BATH RD,BRUNSWICK,ME,04011-2651,CUMBERLAND,+1 (207) 443-9100,ASSISTED HOUSING,51
SUNRISE ASSISTED LIVING 1 LLC,RCD39158,LEVEL IV RESIDENTIAL CARE FACILITY,ACTIVE,11 OCEAN ST,JONESPORT,ME,04649-3376,WASHINGTON,+1 (207) 497-4133,ASSISTED HOUSING,8
SUNRISE ASSISTED LIVING 2 LLC,RCD39159,LEVEL IV RESIDENTIAL CARE FACILITY,ACTIVE,11 OCEAN ST,JONESPORT,ME,04649-3376,WASHINGTON,+1 (207) 497-4133,ASSISTED HOUSING,8
SUNRISE ASSISTED LIVING 3 LLC,RCD39160,LEVEL IV RESIDENTIAL CARE FACILITY,ACTIVE,11 OCEAN ST,JONESPORT,ME,04649-3376,WASHINGTON,+1 (207) 497-4133,ASSISTED HOUSING,8
SUNRISE PROGRAM,ALP38765,ASSISTED LIVING PROGRAM,ACTIVE,2128 N BELFAST AVE,AUGUSTA,ME,04330-4390,KENNEBEC,+1 (207) 626-3482,ASSISTED HOUSING,5
SUNSET HOME,PND1043,PNMI LEVEL IV RESIDENTIAL CARE FACILITY,ACTIVE,114 COLLEGE AVE,WATERVILLE,ME,04901-5609,KENNEBEC,+1 (207) 872-8414,ASSISTED HOUSING,20
SUPPORT SOLUTIONS - 1008 SABATTUS,RCC2,LEVEL III RESIDENTIAL CARE FACILITY,ACTIVE,1008 SABATTUS ST,LEWISTON,ME,04240-3336,ANDROSCOGGIN,+1 (207) 783-0860,ASSISTED HOUSING,4
SUPPORT SOLUTIONS - 170 NORWAY,RCC1558,LEVEL III RESIDENTIAL CARE FACILITY,ACTIVE,170 EDDIE KAHKONEN RD,NORWAY,ME,04268-5311,OXFORD,+1 (207) 743-5252,ASSISTED HOUSING,4
SUPPORT SOLUTIONS - COLLEGE,RCC38833,LEVEL III RESIDENTIAL CARE FACILITY,ACTIVE,414 COLLEGE ST,LEWISTON,ME,04240-5332,ANDROSCOGGIN,+1 (207) 241-2330,ASSISTED HOUSING,3
SUPPORT SOLUTIONS - GORDON,RCC2155,LEVEL III RESIDENTIAL CARE FACILITY,ACTIVE,36 GORDON RD,DAYTON,ME,04005-7432,YORK,+1 (207) 499-2331,ASSISTED HOUSING,3
SUPPORT SOLUTIONS - MARSTON,RCC1985,LEVEL III RESIDENTIAL CARE FACILITY,ACTIVE,57 MARSTON ST,AUBURN,ME,04210-4325,ANDROSCOGGIN,+1 (207) 784-2150,ASSISTED HOUSING,3
SUPPORT SOLUTIONS - WASHINGTON,RCC38794,LEVEL III RESIDENTIAL CARE FACILITY,ACTIVE,799 WASHINGTON ST N,AUBURN,ME,04210-3883,ANDROSCOGGIN,+1 (207) 344-1356,ASSISTED HOUSING,3
SUPPORT SOLUTIONS-MONTELLO,RCC39012,LEVEL III RESIDENTIAL CARE FACILITY,ACTIVE,260 MONTELLO STREET,LEWISTON,ME,4240,ANDROSCOGGIN,+1 (207) 241-0987,ASSISTED HOUSING,3
SUPPORTED LIVING MC,RCA38912,LEVEL I RESIDENTIAL CARE FACILITY,ACTIVE,7 MCGEE DR APT 3,GARDINER,ME,04345-6087,KENNEBEC,+1 (207) 582-9039,ASSISTED HOUSING,1
SUPPORTED LIVING PROGRAM,PNC1533,PNMI LEVEL III RESIDENTIAL CARE FACILITY,ACTIVE,15 VILLAGE ST,LISBON,ME,04250-6416,ANDROSCOGGIN,+1 (207) 353-7438,ASSISTED HOUSING,5
SUPPORTED LIVING RL,RCA38911,LEVEL I RESIDENTIAL CARE FACILITY,ACTIVE,27 CHAPEL ST,AUGUSTA,ME,04330-5519,KENNEBEC,+1 (207) 873-2342,ASSISTED HOUSING,1
"SURRY HOUSE, THE",RCD38617,LEVEL IV RESIDENTIAL CARE FACILITY,ACTIVE,99 PATTEN POND RD,SURRY,ME,04684-3329,HANCOCK,+1 (207) 664-2906,ASSISTED HOUSING,8
SWEET SENIORS GUEST HOUSE,PND1045,PNMI LEVEL IV RESIDENTIAL CARE FACILITY,ACTIVE,30 PINE ST,EAST MILLINOCKET,ME,04430-1120,PENOBSCOT,+1 (207) 746-3111,ASSISTED HOUSING,16
SYLVAN AVENUE,RCA38946,LEVEL I RESIDENTIAL CARE FACILITY,ACTIVE,28 SYLVAN AVE,LEWISTON,ME,04240-5533,ANDROSCOGGIN,+1 (207) 784-6663,ASSISTED HOUSING,2
SYLVIA ROSS HOME-ASSISTED LIVING,ALP2047,ASSISTED LIVING PROGRAM,ACTIVE,758 BROADWAY,BANGOR,ME,04401-3224,PENOBSCOT,+1 (207) 992-2674,ASSISTED HOUSING,40
TALL PINES ADULT DAY PROGRAM,ADS2159,ADULT DAY SERVICES PROGRAM,ACTIVE,24 MARTIN LN,BELFAST,ME,04915-6099,WALDO,+1 (207) 930-7031,ASSISTED HOUSING,20
TALL PINES CLA,RCC1048,LEVEL III RESIDENTIAL CARE FACILITY,ACTIVE,30 TALL PINES DR,NEW GLOUCESTER,ME,04260-4025,CUMBERLAND,+1 (207) 777-1107,ASSISTED HOUSING,3
TAMMY'S FOSTER HOME,RCA1052,LEVEL I RESIDENTIAL CARE FACILITY,ACTIVE,119 TYLER ST,VAN BUREN,ME,04785-2211,AROOSTOOK,+1 (207) 868-9889,ASSISTED HOUSING,2
TAUNTON BAY MANOR,RCD38865,LEVEL IV RESIDENTIAL CARE FACILITY,ACTIVE,1592 US HWY 1,HANCOCK,ME,04640-3840,HANCOCK,+1 (207) 422-0029,ASSISTED HOUSING,8
TEMPLE HOUSE,RCC38749,LEVEL III RESIDENTIAL CARE FACILITY,ACTIVE,445 MAIN ST STE B,BIDDEFORD,ME,04005-2142,YORK,+1 (207) 283-4999,ASSISTED HOUSING,4
TEN-O-EIGHT WASHINGTON AVENUE,RCC1056,LEVEL III RESIDENTIAL CARE FACILITY,ACTIVE,1008 WASHINGTON AVE,PORTLAND,ME,04103-2751,CUMBERLAND,+1 (207) 871-7519,ASSISTED HOUSING,4
"TERRACES, THE",RCD27116,LEVEL IV RESIDENTIAL CARE FACILITY,ACTIVE,30 COMMUNITY DR,CAMDEN,ME,04843-2061,KNOX,+1 (207) 921-6100,ASSISTED HOUSING,62
THIRD STREET 1,RCA38959,LEVEL I RESIDENTIAL CARE FACILITY,ACTIVE,135 THIRD ST APT 1,AUBURN,ME,04210-6767,ANDROSCOGGIN,+1 (207) 795-6737,ASSISTED HOUSING,2
THIRD STREET 2,PNA38962,PNMI LEVEL I RESIDENTIAL CARE FACILITY,ACTIVE,135 THIRD ST APT 2,AUBURN,ME,04210-6767,ANDROSCOGGIN,+1 (207) 795-6737,ASSISTED HOUSING,2
TIMBERHILL HOUSE,RCC2190,LEVEL III RESIDENTIAL CARE FACILITY,ACTIVE,17 TIMBERHILL RD,WINDHAM,ME,04062-4718,CUMBERLAND,+1 (207) 894-2285,ASSISTED HOUSING,4
TISSUE'S COUNTRY ESTATE,PND1090,PNMI LEVEL IV RESIDENTIAL CARE FACILITY,ACTIVE,212 FOX HILL RD,ATHENS,ME,04912-4719,SOMERSET,+1 (207) 654-2713,ASSISTED HOUSING,20
TOPSHAM ADULT RESIDENTIAL,RCC38906,LEVEL III RESIDENTIAL CARE FACILITY,ACTIVE,12 MAIN ST,TOPSHAM,ME,04086-1249,SAGADAHOC,+1 (800) 434-3000,ASSISTED HOUSING,6
TOPSHAM HOME,RCA39037,LEVEL I RESIDENTIAL CARE FACILITY,ACTIVE,35 MERRYMEETING DR,TOPSHAM,ME,04086-1810,SAGADAHOC,+1 (207) 729-6407,ASSISTED HOUSING,2
TOPSHAM HOUSE,RCA39117,LEVEL I RESIDENTIAL CARE FACILITY,ACTIVE,218 MIDDLESEX RD,TOPSHAM,ME,04086-1575,SAGADAHOC,+1 (207) 406-2344,ASSISTED HOUSING,2
TOTAL CARE SOLUTIONS,RCB38890,LEVEL II RESIDENTIAL CARE FACILITY,ACTIVE,625 SOUTH RD,HOLDEN,ME,04429-7532,PENOBSCOT,+1 (207) 610-9084,ASSISTED HOUSING,3
TOWN FARM ROAD #3,RCC38779,LEVEL III RESIDENTIAL CARE FACILITY,ACTIVE,746 TOWN FARM RD APT 3,FARMINGTON,ME,04938-5530,FRANKLIN,+1 (207) 860-2733,ASSISTED HOUSING,3
TOWN FARM ROAD 1,RCA38924,LEVEL I RESIDENTIAL CARE FACILITY,ACTIVE,746 TOWN FARM RD UNIT 1,FARMINGTON,ME,04938-5555,FRANKLIN,+1 (207) 860-2809,ASSISTED HOUSING,2
TOWN FARM ROAD 2,RCA38925,LEVEL I RESIDENTIAL CARE FACILITY,ACTIVE,746 TOWN FARM RD UNIT 2,FARMINGTON,ME,04938-5555,FRANKLIN,+1 (207) 860-2812,ASSISTED HOUSING,2
TREASURE HOUSE AT HARBOR PLACE,RCC39144,LEVEL III RESIDENTIAL CARE FACILITY,ACTIVE,80 HIGH ST,BELFAST,ME,04915-6250,WALDO,+1 (207) 522-2388,ASSISTED HOUSING,6
TRUSTED SOULS ADULT DAY CARE,ADS38724,ADULT DAY SERVICES PROGRAM,ACTIVE,1019 LEWISTON RD,NEW GLOUCESTER,ME,04260-3412,CUMBERLAND,+1 (207) 926-8037,ASSISTED HOUSING,20
TURKEY LANE,RCA39081,LEVEL I RESIDENTIAL CARE FACILITY,ACTIVE,143A TURKEY LN,BUXTON,ME,04093-3509,YORK,+1 (207) 396-1202,ASSISTED HOUSING,2
TURNER,RCA39017,LEVEL I RESIDENTIAL CARE FACILITY,ACTIVE,51 WESTON RD,TURNER,ME,04282-3611,ANDROSCOGGIN,+1 (207) 225-5022,ASSISTED HOUSING,2
TWENTY THREE PLEASANT STREET,PNC1101,PNMI LEVEL III RESIDENTIAL CARE FACILITY,ACTIVE,23 PLEASANT ST,LEWISTON,ME,04240-6154,ANDROSCOGGIN,+1 (207) 786-3292,ASSISTED HOUSING,5
UNION STREET,RCA39210,LEVEL I RESIDENTIAL CARE FACILITY,ACTIVE,1380 UNION ST,BANGOR,ME,04401-2702,PENOBSCOT,+1 (207) 862-2643,ASSISTED HOUSING,2
UNION VILLAGE HOUSE,RCD1739,LEVEL IV RESIDENTIAL CARE FACILITY,ACTIVE,36 HIGH ST,CALAIS,ME,04619-1709,WASHINGTON,+1 (207) 454-8700,ASSISTED HOUSING,8
VALLEY VIEW,ALP38759,ASSISTED LIVING PROGRAM,ACTIVE,23 WESTERN AVE,AUGUSTA,ME,04330-7328,KENNEBEC,+1 (207) 873-2136,ASSISTED HOUSING,10
VARNEY MILL ROAD I,RCA39102,LEVEL I RESIDENTIAL CARE FACILITY,ACTIVE,75A VARNEY MILL RD,WINDHAM,ME,04062-5079,CUMBERLAND,+1 (207) 893-8323,ASSISTED HOUSING,2
VARNEY MILL ROAD II,RCA39101,LEVEL I RESIDENTIAL CARE FACILITY,ACTIVE,75B VARNEY MILL RD,WINDHAM,ME,04062-5079,CUMBERLAND,+1 (207) 893-8086,ASSISTED HOUSING,2
VENTURE HOUSE,RCC38702,LEVEL III RESIDENTIAL CARE FACILITY,ACTIVE,23 VENTURA ST,LEWISTON,ME,04240-4636,ANDROSCOGGIN,+1 (207) 753-6824,ASSISTED HOUSING,6
VERA BRANDES HOME,PNC1114,PNMI LEVEL III RESIDENTIAL CARE FACILITY,ACTIVE,307 MAIN ST,THOMASTON,ME,04861-3900,KNOX,+1 (207) 236-6008,ASSISTED HOUSING,6
"VICARAGE BY THE SEA, THE",RCC1073,LEVEL III RESIDENTIAL CARE FACILITY,ACTIVE,9 VICARAGE LN,HARPSWELL,ME,04079-3220,CUMBERLAND,+1 (207) 833-5480,ASSISTED HOUSING,6
VILLAGE GREEN,RCC1788,LEVEL III RESIDENTIAL CARE FACILITY,ACTIVE,41 VILLAGE GREEN DR,SACO,ME,04072-1839,YORK,+1 (207) 879-1140,ASSISTED HOUSING,3
VILLAGE MANOR,RCD39083,LEVEL IV RESIDENTIAL CARE FACILITY,ACTIVE,15 VILLAGE DR,CORINTH,ME,04427-3068,PENOBSCOT,+1 (207) 951-6800,ASSISTED HOUSING,8
VILLAGE STREET APARTMENTS,PNA1804,PNMI LEVEL I RESIDENTIAL CARE FACILITY,ACTIVE,"15 VILLAGE ST, UNITS 6 & 7",LISBON,ME,04250-6416,ANDROSCOGGIN,+1 (207) 353-7438,ASSISTED HOUSING,2
VIVIAN STREET,RCA39361,LEVEL I RESIDENTIAL CARE FACILITY,ACTIVE,34 VIVIAN ST,WESTBROOK,ME,04092-2744,CUMBERLAND,+1 (207) 887-9582,ASSISTED HOUSING,2
WAIVER SERVICES PROVIDER,RCA39049,LEVEL I RESIDENTIAL CARE FACILITY,ACTIVE,4 AMES AVE,LEWISTON,ME,04240-4102,ANDROSCOGGIN,+1 (207) 352-8799,ASSISTED HOUSING,2
WALDO COUNTY SPECTRUM GENERATIONS ADP,ADS1131,ADULT DAY SERVICES PROGRAM,ACTIVE,18 MERRIAM RD,BELFAST,ME,04915-6915,WALDO,+1 (207) 338-1190,ASSISTED HOUSING,30
WALDOBORO GREEN-AFCH,RCC1541,LEVEL III RESIDENTIAL CARE FACILITY,ACTIVE,17 MILL ST,WALDOBORO,ME,04572-6013,LINCOLN,+1 (207) 832-7703,ASSISTED HOUSING,6
WALNUT STREET,ALP38760,ASSISTED LIVING PROGRAM,ACTIVE,9 WALNUT ST,WATERVILLE,ME,04901-5784,KENNEBEC,+1 (207) 873-2136,ASSISTED HOUSING,7
WALPOLE WOODS,RCC38719,LEVEL III RESIDENTIAL CARE FACILITY,ACTIVE,10 OLD BARN ROAD,WALPOLE,ME,4573,LINCOLN,+1 (207) 563-1774,ASSISTED HOUSING,4
WARDWELL GARDENS ASSISTED LIVING,ALP1135,ASSISTED LIVING PROGRAM,ACTIVE,43 MIDDLE ST,SACO,ME,04072-3300,YORK,+1 (207) 284-7061,ASSISTED HOUSING,34
WARDWELL HOME FOR THE AGING,RCD1136,LEVEL IV RESIDENTIAL CARE FACILITY,ACTIVE,43 MIDDLE ST,SACO,ME,04072-3300,YORK,+1 (207) 284-7061,ASSISTED HOUSING,18
WARREN STREET,ALP38853,ASSISTED LIVING PROGRAM,ACTIVE,28 WARREN ST,ROCKLAND,ME,04841-3170,KNOX,+1 (207) 596-0607,ASSISTED HOUSING,5
WASHINGTON HOUSE,RCA38937,LEVEL I RESIDENTIAL CARE FACILITY,ACTIVE,8 WASHINGTON ST,ELLSWORTH,ME,04605-2124,HANCOCK,+1 (207) 667-7464,ASSISTED HOUSING,2
WASHINGTON I,RCC1138,LEVEL III RESIDENTIAL CARE FACILITY,ACTIVE,688 WASHINGTON AVE,PORTLAND,ME,04103-4929,CUMBERLAND,+1 (207) 828-0048,ASSISTED HOUSING,3
WASHINGTON II,RCC1139,LEVEL III RESIDENTIAL CARE FACILITY,ACTIVE,690 WASHINGTON AVE,PORTLAND,ME,04103-4929,CUMBERLAND,+1 (207) 879-0668,ASSISTED HOUSING,3
WASHINGTON MANOR,PND1601,PNMI LEVEL IV RESIDENTIAL CARE FACILITY,ACTIVE,276 RAZORVILLE RD,WASHINGTON,ME,04574-3817,KNOX,+1 (207) 845-2231,ASSISTED HOUSING,34
WASHINGTON PLACE,PND1141,PNMI LEVEL IV RESIDENTIAL CARE FACILITY,ACTIVE,40 PALMER ST,CALAIS,ME,04619-1306,WASHINGTON,+1 (207) 454-3663,ASSISTED HOUSING,30
WASHINGTON STREET,RCC38757,LEVEL III RESIDENTIAL CARE FACILITY,ACTIVE,171 WASHINGTON ST,BREWER,ME,04412-1318,PENOBSCOT,+1 (207) 989-0187,ASSISTED HOUSING,3
WASHINGTON STREET ADULT FOSTER HOME,RCA1143,LEVEL I RESIDENTIAL CARE FACILITY,ACTIVE,77 WASHINGTON ST,LIMERICK,ME,04048-3500,YORK,+1 (207) 797-2512,ASSISTED HOUSING,2
WEBSTER COMMONS,RCD22476,LEVEL IV RESIDENTIAL CARE FACILITY,ACTIVE,6 OLD COUNTY RD,FREEPORT,ME,04032-6231,CUMBERLAND,+1 (207) 865-4782,ASSISTED HOUSING,14
WEDGEWOOD STREET,RCC1148,LEVEL III RESIDENTIAL CARE FACILITY,ACTIVE,2 WEDGEWOOD ST,SCARBOROUGH,ME,04074-8585,CUMBERLAND,+1 (207) 879-0260,ASSISTED HOUSING,3
WELCH,RCC38740,LEVEL III RESIDENTIAL CARE FACILITY,ACTIVE,11 SHORT BENNETT RD,NEW GLOUCESTER,ME,04260-3842,CUMBERLAND,+1 (207) 808-5030 x1311,ASSISTED HOUSING,6
WELD ROAD DEVELOPMENT,RCA38928,LEVEL I RESIDENTIAL CARE FACILITY,ACTIVE,168 WELD RD,WILTON,ME,04294-7804,FRANKLIN,+1 (207) 645-3200,ASSISTED HOUSING,2
WELLMAN I,RCC1150,LEVEL III RESIDENTIAL CARE FACILITY,ACTIVE,86 WELLMAN RD,CHELSEA,ME,04330-1231,KENNEBEC,+1 (207) 582-1283,ASSISTED HOUSING,4
WELLMAN II,RCC1151,LEVEL III RESIDENTIAL CARE FACILITY,ACTIVE,84 WELLMAN RD,CHELSEA,ME,04330-1231,KENNEBEC,+1 (207) 761-3565,ASSISTED HOUSING,4
WELLS POST ROAD,RCC39023,LEVEL III RESIDENTIAL CARE FACILITY,ACTIVE,2550 POST ROAD,WELLS,ME,,,,ASSISTED HOUSING,6
WESCOTT,RCC2052,LEVEL III RESIDENTIAL CARE FACILITY,ACTIVE,194 WESCOTT RD,SOUTH PORTLAND,ME,04106-3420,CUMBERLAND,+1 (207) 772-0162,ASSISTED HOUSING,4
WESCOTT CIRCLE,RCA39174,LEVEL I RESIDENTIAL CARE FACILITY,ACTIVE,21 WESCOTT CIR,BUXTON,ME,04093-3738,YORK,+1 (207) 835-0099,ASSISTED HOUSING,2
WEST MAIN STREET,PNC1154,PNMI LEVEL III RESIDENTIAL CARE FACILITY,ACTIVE,75 W MAIN ST,GREENE,ME,04236-4205,ANDROSCOGGIN,+1 (207) 946-2767,ASSISTED HOUSING,6
WEST RIVER HOUSE I,PNC1743,PNMI LEVEL III RESIDENTIAL CARE FACILITY,ACTIVE,3747 W RIVER RD,SIDNEY,ME,04330-2433,KENNEBEC,+1 (207) 547-4274,ASSISTED HOUSING,5
WEST SIDE PLACE,PNC39086,PNMI LEVEL III RESIDENTIAL CARE FACILITY,ACTIVE,74 LARKIN ST,BANGOR,ME,04401-6214,PENOBSCOT,+1 (207) 522-2388,ASSISTED HOUSING,3
WEST VALENTINE,RCA39228,LEVEL I RESIDENTIAL CARE FACILITY,ACTIVE,216 W VALENTINE ST,WESTBROOK,ME,04092-2723,CUMBERLAND,+1 (207) 591-0282,ASSISTED HOUSING,2
WESTBROOK TERRACE,RCA39192,LEVEL I RESIDENTIAL CARE FACILITY,ACTIVE,18 WESTBROOK TER,HAMPDEN,ME,04444-1611,PENOBSCOT,+1 (207) 862-2643,ASSISTED HOUSING,2
WESTERN AVENUE,RCA39191,LEVEL I RESIDENTIAL CARE FACILITY,ACTIVE,1298 WESTERN AVE,HAMPDEN,ME,04444-3324,PENOBSCOT,+1 (207) 862-2643,ASSISTED HOUSING,2
WESTERN AVENUE SERVICES,PNC1904,PNMI LEVEL III RESIDENTIAL CARE FACILITY,ACTIVE,105 WESTERN AVE,WATERVILLE,ME,04901-5278,KENNEBEC,+1 (207) 872-8195,ASSISTED HOUSING,5
WESTGATE CENTER FOR REHAB & ALZHEIMERS CARE,RCD22654,LEVEL IV RESIDENTIAL CARE FACILITY,ACTIVE,750 UNION ST,BANGOR,ME,04401-3125,PENOBSCOT,+1 (207) 942-7336,ASSISTED HOUSING,39
WESTGATE ESTATE PHA,RCC1771,LEVEL III RESIDENTIAL CARE FACILITY,ACTIVE,1259 AUGUSTA RD,BOWDOIN,ME,04287-7721,SAGADAHOC,+1 (207) 666-3331,ASSISTED HOUSING,4
WESTMINSTER PLACE,RCC2246,LEVEL III RESIDENTIAL CARE FACILITY,ACTIVE,56 WESTMINSTER AVE,PORTLAND,ME,04103-2431,CUMBERLAND,+1 (207) 747-5473,ASSISTED HOUSING,5
WESTVIEW DRIVE,RCA39016,LEVEL I RESIDENTIAL CARE FACILITY,ACTIVE,2 WESTVIEW DR,RAYMOND,ME,04071-6339,CUMBERLAND,+1 (207) 302-0003,ASSISTED HOUSING,2
WHEELDEN HEIGHTS,RCA39204,LEVEL I RESIDENTIAL CARE FACILITY,ACTIVE,32 WHEELDEN HTS,HAMPDEN,ME,04444-1819,PENOBSCOT,+1 (207) 862-2643,ASSISTED HOUSING,2
WHITCOMB AVENUE,RCC2243,LEVEL III RESIDENTIAL CARE FACILITY,ACTIVE,2 WHITCOMB AVE,SANFORD,ME,04073-3211,YORK,+1 (207) 850-1037,ASSISTED HOUSING,3
WHITNEY STREET,PNC38934,PNMI LEVEL III RESIDENTIAL CARE FACILITY,ACTIVE,163 WHITNEY ST,AUBURN,ME,04210-6018,ANDROSCOGGIN,,ASSISTED HOUSING,3
"WHITTIER HOUSE, INC.",RCC2308,LEVEL III RESIDENTIAL CARE FACILITY,ACTIVE,184 RICKER RD,NEW GLOUCESTER,ME,04260-3250,CUMBERLAND,+1 (207) 926-5583,ASSISTED HOUSING,3
WILLIAM S. COHEN COMMUNITY CENTER,ADS1172,ADULT DAY SERVICES PROGRAM,ACTIVE,22 TOWN FARM RD,HALLOWELL,ME,04347-3110,KENNEBEC,+1 (207) 620-1193,ASSISTED HOUSING,30
WILLIAMS WAY,RCC39019,LEVEL III RESIDENTIAL CARE FACILITY,ACTIVE,30 WILLIAMS WAY,SOUTH PARIS,ME,04281-6586,OXFORD,+1 (207) 744-2528,ASSISTED HOUSING,3
WILSON PLACE,ALP38761,ASSISTED LIVING PROGRAM,ACTIVE,33 MOUNT PLEASANT AVE,SKOWHEGAN,ME,04976-1678,SOMERSET,+1 (207) 873-2136,ASSISTED HOUSING,7
WILSON STREET,PND1176,PNMI LEVEL IV RESIDENTIAL CARE FACILITY,ACTIVE,15 WILSON ST,SOUTH PORTLAND,ME,04106-6141,CUMBERLAND,+1 (207) 874-2201,ASSISTED HOUSING,7
WINDHAM HOUSE 1,RCA39002,LEVEL I RESIDENTIAL CARE FACILITY,ACTIVE,53 DUSTY RHOADES LN,WINDHAM,ME,04062-5872,CUMBERLAND,+1 (207) 847-2273,ASSISTED HOUSING,2
WINDHAM HOUSE 2,RCA39003,LEVEL I RESIDENTIAL CARE FACILITY,ACTIVE,55 DUSTY RHOADES LN,WINDHAM,ME,04062-5872,CUMBERLAND,+1 (207) 847-2273 x309,ASSISTED HOUSING,2
WINDHAM PINES,PND38688,PNMI LEVEL IV RESIDENTIAL CARE FACILITY,ACTIVE,20 BISHOP DR,WINDHAM,ME,04062-4649,CUMBERLAND,+1 (207) 892-9433,ASSISTED HOUSING,8
WINDHAM RESIDENTIAL FACILITY,PND1181,PNMI LEVEL IV RESIDENTIAL CARE FACILITY,ACTIVE,495 RIVER RD,WINDHAM,ME,04062-4603,CUMBERLAND,+1 (207) 892-7141,ASSISTED HOUSING,10
WINDING WAY,RCC1963,LEVEL III RESIDENTIAL CARE FACILITY,ACTIVE,3 WINDING WAY,SCARBOROUGH,ME,04074-8659,CUMBERLAND,+1 (207) 883-4864,ASSISTED HOUSING,6
WINDWARD GARDENS,RCD22656,LEVEL IV RESIDENTIAL CARE FACILITY,ACTIVE,105 MECHANIC ST,CAMDEN,ME,04843-1811,KNOX,+1 (207) 236-4197,ASSISTED HOUSING,20
WINTERBERRY HEIGHTS,RCD38721,LEVEL IV RESIDENTIAL CARE FACILITY,ACTIVE,932 OHIO ST,BANGOR,ME,04401-1913,PENOBSCOT,+1 (800) 358-2613,ASSISTED HOUSING,29
WINTERBERRY HEIGHTS ASSISTED LIVING,ALP38675,ASSISTED LIVING PROGRAM,ACTIVE,932 OHIO ST,BANGOR,ME,04401-1913,PENOBSCOT,+1 (207) 942-6002,ASSISTED HOUSING,66
WINTERGREEN WAY,RCA39339,LEVEL I RESIDENTIAL CARE FACILITY,ACTIVE,25 WINTERGREEN WAY,BREWER,ME,04412-9602,PENOBSCOT,+1 (207) 573-4816,ASSISTED HOUSING,2
WINTHROP COMMUNITY LIVING,RCC1688,LEVEL III RESIDENTIAL CARE FACILITY,ACTIVE,634 OLD LEWISTON RD,WINTHROP,ME,04364-4119,KENNEBEC,+1 (207) 761-3565,ASSISTED HOUSING,3
WINTHROP HOUSE,RCC39001,LEVEL III RESIDENTIAL CARE FACILITY,ACTIVE,1946 US ROUTE 202,WINTHROP,ME,04364-3356,KENNEBEC,+1 (207) 847-2273,ASSISTED HOUSING,3
WINTHROP TERRACE,RCA1729,LEVEL I RESIDENTIAL CARE FACILITY,ACTIVE,634 OLD LEWISTON RD,WINTHROP,ME,04364-4119,KENNEBEC,+1 (207) 377-9182,ASSISTED HOUSING,2
WISCASSET GREEN,RCD1313,LEVEL IV RESIDENTIAL CARE FACILITY,ACTIVE,21 WASHINGTON ST,WISCASSET,ME,04578-4036,LINCOLN,+1 (207) 882-1164,ASSISTED HOUSING,8
WISCASSET RESIDENCE,RCC2309,LEVEL III RESIDENTIAL CARE FACILITY,ACTIVE,186 BEECHNUT HILL RD,WISCASSET,ME,04578-4679,LINCOLN,+1 (207) 687-2145,ASSISTED HOUSING,3
WITHAM'S RESIDENTIAL CARE,PNC1196,PNMI LEVEL III RESIDENTIAL CARE FACILITY,ACTIVE,198 SHEPHERD RD,SIDNEY,ME,04330-2332,KENNEBEC,+1 (207) 547-3425,ASSISTED HOUSING,4
WITHERELL FOSTER HOME,RCA1197,LEVEL I RESIDENTIAL CARE FACILITY,ACTIVE,22 SANDYS WAY,MINOT,ME,04258-5021,ANDROSCOGGIN,+1 (207) 345-3371,ASSISTED HOUSING,1
WOODBRIDGE GROUP HOME,PND38845,PNMI LEVEL IV RESIDENTIAL CARE FACILITY,ACTIVE,19 WOODBRIDGE RD,YORK,ME,03909-1411,YORK,+1 (207) 363-8580,ASSISTED HOUSING,7
WOODFORD STREET,RCC1203,LEVEL III RESIDENTIAL CARE FACILITY,ACTIVE,271 WOODFORD ST,PORTLAND,ME,04103-5605,CUMBERLAND,+1 (207) 773-4042,ASSISTED HOUSING,4
WOODLANDS ASSISTED LIVING OF BREWER,PND1602,PNMI LEVEL IV RESIDENTIAL CARE FACILITY,ACTIVE,53 COLONIAL CIR,BREWER,ME,04412-1448,PENOBSCOT,+1 (207) 989-7577,ASSISTED HOUSING,72
WOODLANDS ASSISTED LIVING OF FARMINGTON,PND38790,PNMI LEVEL IV RESIDENTIAL CARE FACILITY,ACTIVE,"175 KNOWLTON CORNER RD, C/O WOODLANDS SENIOR LIVING OF FARMINGTON",FARMINGTON,ME,04938-6200,FRANKLIN,+1 (207) 860-3999,ASSISTED HOUSING,58
WOODLANDS ASSISTED LIVING OF HALLOWELL,PND1828,PNMI LEVEL IV RESIDENTIAL CARE FACILITY,ACTIVE,152 WINTHROP ST,HALLOWELL,ME,04347-3026,KENNEBEC,+1 (207) 623-3396,ASSISTED HOUSING,51
WOODLANDS ASSISTED LIVING OF WATERVILLE,PND1075,PNMI LEVEL IV RESIDENTIAL CARE FACILITY,ACTIVE,147 W RIVER RD,WATERVILLE,ME,04901-5070,KENNEBEC,+1 (207) 861-5685,ASSISTED HOUSING,58
WOODLANDS MEMORY CARE OF BREWER,PND1895,PNMI LEVEL IV RESIDENTIAL CARE FACILITY,ACTIVE,53 COLONIAL CIR,BREWER,ME,04412-1448,PENOBSCOT,+1 (207) 989-7577,ASSISTED HOUSING,32
WOODLANDS MEMORY CARE OF FARMINGTON,PND38714,PNMI LEVEL IV RESIDENTIAL CARE FACILITY,ACTIVE,175 KNOWLTON CORNER RD,FARMINGTON,ME,04938-6200,FRANKLIN,+1 (207) 860-3999,ASSISTED HOUSING,37
WOODLANDS MEMORY CARE OF HALLOWELL,PND1829,PNMI LEVEL IV RESIDENTIAL CARE FACILITY,ACTIVE,152 WINTHROP ST,HALLOWELL,ME,04347-3026,KENNEBEC,+1 (207) 623-3396,ASSISTED HOUSING,31
WOODLANDS MEMORY CARE OF LEWISTON,PND2384,PNMI LEVEL IV RESIDENTIAL CARE FACILITY,ACTIVE,45 MOLLISON WAY,LEWISTON,ME,04240-5805,ANDROSCOGGIN,+1 (207) 440-6040,ASSISTED HOUSING,72
WOODLANDS MEMORY CARE OF MADISON,PND39056,PNMI LEVEL IV RESIDENTIAL CARE FACILITY,ACTIVE,110 E MADISON RD,MADISON,ME,04950-3037,SOMERSET,+1 (207) 696-6932,ASSISTED HOUSING,42
WOODLANDS MEMORY CARE OF ROCKLAND,PND2014,PNMI LEVEL IV RESIDENTIAL CARE FACILITY,ACTIVE,201 CAMDEN ST,ROCKLAND,ME,04841-2534,KNOX,+1 (207) 593-0383,ASSISTED HOUSING,38
WOODLANDS MEMORY CARE OF WATERVILLE,PND325,PNMI LEVEL IV RESIDENTIAL CARE FACILITY,ACTIVE,147 W RIVER RD,WATERVILLE,ME,04901-5070,KENNEBEC,+1 (207) 861-5685,ASSISTED HOUSING,33
WOODMONT STREET,RCC38747,LEVEL III RESIDENTIAL CARE FACILITY,ACTIVE,15 WOODMONT ST,WESTBROOK,ME,04092-3047,CUMBERLAND,+1 (207) 854-8442,ASSISTED HOUSING,5
WOODMONT STREET UPSTAIRS,RCA39115,LEVEL I RESIDENTIAL CARE FACILITY,ACTIVE,15 WOODMONT ST,WESTBROOK,ME,04092-3047,CUMBERLAND,+1 (207) 854-9019,ASSISTED HOUSING,2
WOODWARD,RCA39150,LEVEL I RESIDENTIAL CARE FACILITY,ACTIVE,11 WOODWARD LN,FALMOUTH,ME,04105-1202,CUMBERLAND,+1 (207) 835-0099,ASSISTED HOUSING,2
WOOLWICH HOUSE,RCC38762,LEVEL III RESIDENTIAL CARE FACILITY,ACTIVE,890 OLD STAGE RD,WOOLWICH,ME,4579,SAGADAHOC,+1 (207) 443-9793,ASSISTED HOUSING,4
YARMOUTH,RCA39320,LEVEL I RESIDENTIAL CARE FACILITY,ACTIVE,398 W MAIN ST,YARMOUTH,ME,04096-8423,CUMBERLAND,+1 (207) 536-7016,ASSISTED HOUSING,2
YOUNGS CORNER ROAD,RCA38956,LEVEL I RESIDENTIAL CARE FACILITY,ACTIVE,368 YOUNGS CORNER RD,AUBURN,ME,04210-8536,ANDROSCOGGIN,+1 (207) 782-2726,ASSISTED HOUSING,2