Facility ID,Facility Name,Address,City,State,Zip Code,Phone Number,County,Licensee,State Facility Type 2 Literal
15804,DOVE HEALTHCARE BARRON ASSISTED LIVING,1333 MEMORIAL DRIVE,BARRON,WI,54812,(715) 537-1151,BARRON,HALCYON SENIOR SERVICES OF BARRON LLC,CERTIFIED
17942,MEADOWBROOK AT CHETEK,708 TAINTER STREET,CHETEK,WI,54728,(715) 924-4891,BARRON,CHETEK NURSING AND REHAB LLC,CERTIFIED
18418,Vista Prairie at Brentwood,633 Cameron Road,Rice Lake,WI,54868,(715) 736-7400,BARRON,Vista Prairie at Brentwood LLC,CERTIFIED
12946,WOODSTONE SENIOR LIVING RCAC,950 BEAR PAW AVENUE,RICE LAKE,WI,54868-,(715) 736-6060,BARRON,WELCOME HOME HEALTH CARE INC,CERTIFIED
14850,BIRCH HAVEN NORTH RCAC,320 SUPERIOR AVENUE,WASHBURN,WI,54891-,(715) 373-0078,BAYFIELD,,CERTIFIED
14557,CHEQUAMEGON AREA ASSISTED LIVING,320 SUPERIOR AVE,WASHBURN,WI,54891-,(715) 292-4550,BAYFIELD,MARTINSEN INVESTMENTS,REGISTERED
14532,RENAISSANCE DE PERE,250 SOUTH 9TH ST,DE PERE,WI,54115-,(920) 983-5100,BROWN,RENNES ASSISTED LIVING INC,CERTIFIED
14683,AGE WELL CENTRE FOR LIFE ENRICHMENT,246 BERGER ST,GREEN BAY,WI,54302-,(920) 468-9174,BROWN,246 BERGER LLC,CERTIFIED
15109,ALLOUEZ SUNRISE VILLAGE RESIDENTIAL CARE APT,279 E ST JOSEPH ST,GREEN BAY,WI,54301-,(920) 430-8660,BROWN,ALLOUEZ SUNRISE SENIOR CARE LLC,REGISTERED
18348,BELLEVUE RETIREMENT COMMUNITY,1660 HOFFMAN ROAD,GREEN BAY,WI,54311,(920) 337-0771,BROWN,ENCORE WISCONSIN LLC,CERTIFIED
15436,BROOKVIEW MEADOWS,1740 CONDOR LN,GREEN BAY,WI,54313,(972) 308-8397,BROWN,CSL GREEN BAY LLC,REGISTERED
17401,MCCORMICK ASSISTED LIVING,212 IROQUOIS AVENUE,GREEN BAY,WI,54301,(920) 437-0883,BROWN,ST PAUL ELDER SERVICES INC,REGISTERED
13688,MORAINE RIDGE,2929 SAINT ANTHONY DR,GREEN BAY,WI,54311-,(920) 468-3111,BROWN,MORAINE RIDGE LLC DBA MORAINE RIDGE SENIOR LIVING,CERTIFIED
16398,OAK PARK PLACE OF GREEN BAY,421 ERIE RD,GREEN BAY,WI,54311,(920) 461-2533,BROWN,OAK PARK PLACE OF GREEN BAY LLC,REGISTERED
10347,REBEKAH HAVEN,826 GRIGNON ST,GREEN BAY,WI,54301-,(920) 435-4810,BROWN,ODD FELLOW REBEKAH HOME ASSOCIATION,CERTIFIED
10376,WAYSIDE PARKVIEW ESTATES,3838 CHURCH VIEW CT,GREENLEAF,WI,54126,(920) 864-2702,BROWN,WAYSIDE PARKVIEW ESTATES LLC,REGISTERED
15710,EMERALD BAY ASSISTED LIVING,650 CENTENNIAL CENTRE BLVD,HOBART,WI,54155,(920) 378-5839,BROWN,SCAL HOBART LLC,CERTIFIED
16148,NEW PERSPECTIVE-HOWARD,2790 ELM TREE HILL,HOWARD,WI,54313,(920) 489-8600,BROWN,HOWARD OPS LLC,CERTIFIED
10250,HOMEPLACE OF MONDOVI LLC (THE),158 EAST MAIN STREET,MONDOVI,WI,54755-,(715) 926-4777,BUFFALO,HOMEPLACE OF MONDOVI LLC (THE),CERTIFIED
15973,OAK PARK PLACE OF MENASHA,2205 MIDWAY ROAD,MENASHA,WI,54952,(920) 702-0000,CALUMET,OAK PARK PLACE OF MENASHA LLC,REGISTERED
17938,MEADOWBROOK AT BLOOMER,1900 PRIDDY STREET,BLOOMER,WI,54724,(715) 568-2503,CHIPPEWA,BLOOMER NURSING AND REHAB LLC,CERTIFIED
10254,CHIPPEWA MANOR LIVING SERVICES CORPORATION,756 IRVINE STREET,CHIPPEWA FALLS,WI,54729-,(715) 723-4437,CHIPPEWA,CHIPPEWA MANOR HOME HEALTH CARE CORP,REGISTERED
11498,COMFORTS OF HOME CHIPPEWA FALLS RCAC,1224 PUMPHOUSE RD,CHIPPEWA FALLS,WI,54729-,(715) 726-2527,CHIPPEWA,CHIPPEWA FALLS RCAC LLC,CERTIFIED
14672,WISSOTA PLACE,2801 COUNTY HWY 1,CHIPPEWA FALLS,WI,54729-,(715) 720-9710,CHIPPEWA,WISSOTA SPRINGS AID OPCO LLC,REGISTERED
11165,HOMEPLACE OF STANLEY LLC (THE),225 E FOURTH AVE,STANLEY,WI,54768-,(715) 644-2136,CHIPPEWA,,CERTIFIED
17403,COLBY RETIREMENT COMMUNITY,510 W WAUSAU STREET,COLBY,WI,54421,(715) 223-1612,CLARK,BRANDYWOOD INVESTMENTS INC,CERTIFIED
17129,NEILLSVILLE RETIREMENT COMMUNITY,1211 LLOYD ST,NEILLSVILLE,WI,54456,(715) 743-6700,CLARK,ASHFORD MARTIN CORPORATION,CERTIFIED
13002,TRADITIONS ASSISTED LIVING,418 E STANLEY STREET,THORP,WI,54771-,(715) 456-4269,CLARK,B K ANDERSON LLC,REGISTERED
13097,MEADOWS OF FALL RIVER (THE),101 HOMETOWN AVE,FALL RIVER,WI,53932-,(920) 484-6171,COLUMBIA,"THE MEADOWS OF FALL RIVER, LLC",CERTIFIED
15503,HERITAGE HOUSE OF PORTAGE,2685 AIRPORT ROAD,PORTAGE,WI,53901,(608) 745-3312,COLUMBIA,SHA MSL PORTAGE OPCO LLC,CERTIFIED
13662,OUR HOUSE PORTAGE RCAC,215 NORTHRIDGE DR,PORTAGE,WI,53901-,(608) 291-0550,COLUMBIA,KSMS OUR HOUSE LLC,CERTIFIED
12866,RESIDENCE AT BLUFF HAVEN,720 S FREMONT ST,PRAIRIE DU CHIEN,WI,53821-,(608) 326-3200,CRAWFORD,COMMUNITY HEALTH SERVICES CORPORATION,CERTIFIED
18104,DRUMLIN RESERVE,139 EAST REYNOLDS STREET,COTTAGE GROVE,WI,53527,(608) 839-8085,DANE,CAPRI COMMUNITIES LLC,CERTIFIED
17051,MILESTONE SENIOR LIVING MARKET ST,1870 MARKET ST,CROSS PLAINS,WI,53528,(608) 413-0451,DANE,ABILIT HOLDINGS CROSS PLAINS LLC,CERTIFIED
17769,LEGACY OF DEFOREST (THE),6639 PEDERSON CROSSING BLVD,DEFOREST,WI,53532,(608) 807-2888,DANE,PARK VISTA SENIOR HOUSING MANAGEMENT LLC,REGISTERED
18349,PARKSIDE ASSISTED LIVING,6902 PARKSIDE CIRCLE,DEFOREST,WI,53532,(608) 846-2101,DANE,ENCORE WISCONSIN LLC,CERTIFIED
10287,CHAPEL VALLEY II,5781 CHAPEL VALLEY ROAD,FITCHBURG,WI,53711-,(608) 276-3449,DANE,CHAPEL VALLEY HOUSING II LLC,REGISTERED
14814,WATERFORD AT FITCHBURG (THE),5440 CADDIS BEND,FITCHBURG,WI,53711,(608) 270-9200,DANE,CSL FITCHBURG MANAGMENT LLC,REGISTERED
12841,AVALON ASSISTED LIVING COMMUNITY,2879 FISH HATCHERY RD,MADISON,WI,53713,(608) 274-4350,DANE,MADISON ASSISTED LIVING LLC,CERTIFIED
10301,CAPITOL LAKES,333 W MAIN ST,MADISON,WI,53703-,(608) 283-2137,DANE,CAPITOL LAKES INC,REGISTERED
14262,GARDENS (THE),602 N SEGOE RD,MADISON,WI,53705-,(608) 274-7900,DANE,INDEPENDENT LIVING INC,CERTIFIED
17850,GRASSLANDS AT OAKWOOD VILLAGE PRAIRIE RIDGE,5565 TANCHO DR,MADISON,WI,53718,(608) 230-4000,DANE,OAKWOOD VILLAGE PRAIRIE RIDGE HOMES INC,REGISTERED
17777,MEADOWMERE MADISON,5601 BURKE RD,MADISON,WI,53718,(608) 268-9100,DANE,SNH WIS TENANT LLC,CERTIFIED
11402,OAK PARK PLACE THE GROVE I,702 JUPITER DR,MADISON,WI,53718,(608) 251-1010,DANE,OAK PARK PLACE OF MADISON LLC,REGISTERED
13945,OAKWOOD VILLAGE PRAIRIE RIDGE,5555 TANCHO DR,MADISON,WI,53718-,(608) 230-4510,DANE,OAKWOOD VILLAGE EAST APARTMENT HOMES INC,REGISTERED
13944,OAKWOOD VILLAGE UNIVERSITY WOODS,6209 MINERAL POINT RD,MADISON,WI,53705-,(608) 230-4435,DANE,OAKWOOD VILLAGE HOMES INC,REGISTERED
17419,TENNYSON SENIOR LIVING COMMUNITY RCAC,1936 TENNYSON LANE,MADISON,WI,53704,(608) 268-5499,DANE,INDEPENDENT LIVING INC,REGISTERED
12985,ATTIC ANGEL PLACE,8301 OLD SAUK RD,MIDDLETON,WI,53562-,(608) 662-8842,DANE,ATTIC ANGEL PLACE INC,CERTIFIED
14201,HERITAGE ASSISTED LIVING MIDDLETON,6234 MAYWOOD AVE,MIDDLETON,WI,53562-,(608) 831-7004,DANE,HERITAGE 11  LLC,CERTIFIED
12892,HUBS HOME,111 OWEN RD,MONONA,WI,53716-,(608) 470-8058,DANE,HERITAGE 9 LLC,CERTIFIED
14327,INGLEWOOD,407 N 8TH ST,MOUNT HOREB,WI,53572-,(608) 437-8111,DANE,WISCONSIN ILLINOIS SENIOR HOUSING INC,REGISTERED
17665,KETTLE PARK SENIOR LIVING INC,2600 JACKSON ST,STOUGHTON,WI,53589,(608) 579-5601,DANE,KETTLE PARK SENIOR LIVING INC,CERTIFIED
17049,MILESTONE SENIOR LIVING STOUGHTON,2220 LINCOLN AVE,STOUGHTON,WI,53589,(608) 205-6800,DANE,ABILIT HOLDINGS STOUGHTON LLC,CERTIFIED
17274,SKAALEN HEIGHTS RCAC,950 RIDGE ST,STOUGHTON,WI,53589,(608) 205-3800,DANE,SKAALEN RETIREMENT SERVICES RCAC LLC,REGISTERED
17242,HYLAND PARK,881 LIBERTY BLVD,SUN PRAIRIE,WI,53590,(608) 834-2073,DANE,CHIARA COMMUNITIES INC,CERTIFIED
15198,NEW PERSPECTIVE SUN PRAIRIE,222 S BRISTOL STREET,SUN PRAIRIE,WI,53590,(608) 825-1600,DANE,SUN PRAIRIE OPS LLC,CERTIFIED
17009,SUN PRAIRIE HEALTH CARE CENTER,228 W MAIN STREET,SUN PRAIRIE,WI,53590,(608) 837-5959,DANE,SUN PRAIRIE HEALTHCARE OPERATIONS LLC,REGISTERED
16405,TALLGRASS SENIOR LIVING,605 CHASE BLVD,SUN PRAIRIE,WI,53590,(608) 837-2124,DANE,SHA MSL SUN PRAIRIE LLC,CERTIFIED
18197,NOEL MANOR RETIREMENT LIVING VERONA,471 PRAIRIE WAY BOULEVARD,VERONA,WI,53593,(608) 620-6010,DANE,PARK VISTA SENIOR HOUSING MANAGEMENT LLC,CERTIFIED
14804,WILLOW POINTE ASSISTED LIVING,1125 N EDGE TRAIL,VERONA,WI,53593-,(608) 848-5701,DANE,SNH SE TENANT TRS INC,CERTIFIED
17225,AT HOME AGAIN WAUNAKEE LLC,1120 CONNERY COVE,WAUNAKEE,WI,53597,(608) 850-9684,DANE,HOME AGAIN ASSISTED LIVING INC,CERTIFIED
17008,WAUNAKEE MANOR RCAC,800 HOLIDAY DRIVE,WAUNAKEE,WI,53597,(608) 849-5016,DANE,WAUNAKEE OPERATIONS LLC,REGISTERED
17807,BEAVER DAM ASSISTED LIVING LLC,104 FAKES CT,BEAVER DAM,WI,53916,(920) 356-9818,DODGE,BEAVER DAM ASSISTED LIVING LLC,CERTIFIED
11956,STONE TERRACE RETIREMENT LIV CTR,819 S UNVERSITY AVE,BEAVER DAM,WI,53916-,(920) 887-6693,DODGE,BEAVER DAM COMMUNITY HOSPITALS INC,REGISTERED
14152,MATTHEWS OF HORICON,713 HORICON ST,HORICON,WI,53032,(920) 485-4602,DODGE,MATTHEWS SENIOR HOUSING LLC,CERTIFIED
14707,HOPE SENIOR LIVING,475 GROVE STREET,LOMIRA,WI,53048-,(920) 269-7667,DODGE,HOPE SENIOR LIVING INC,CERTIFIED
16546,CONTINENTAL MANOR,500 S HIGH STREET,RANDOLPH,WI,53956,(920) 326-3171,DODGE,NSH RANDOLPH INC,REGISTERED
10292,CHRISTIAN HOME ASSISTED LIVING CENTER,331 BLY STREET,WAUPUN,WI,53963,(920) 324-9051,DODGE,CHRISTIAN HOME AND REHABILITATION CENTER INC,REGISTERED
17550,CHRISTIAN LIVING CENTER,452 FOX LAKE RD,WAUPUN,WI,53963,(920) 324-9051,DODGE,CHRISTIAN HOME AND REHABILITAION CENTER INC,REGISTERED
10669,PRAIRIE RIDGE ASSISTED LIVING,819 WILCOX ST,WAUPUN,WI,53963-,(920) 324-9810,DODGE,ADVANTAGE MANAGEMENT WAUPUN LLC,CERTIFIED
12463,GOOD SAMARITAN SOCIETY-SCANDIA VILLAGE,10554 APPLEWOOD RD,SISTER BAY,WI,54234-,(920) 854-2317,DOOR,EVANGELICAL LUTHERAN GOOD SAMARITAN SOCIETY,REGISTERED
10344,PINE CREST VILLAGE LLC,1241 N 18TH AVE,STURGEON BAY,WI,54235-,(920) 746-1280,DOOR,PAPKE,CERTIFIED
13517,NEW PERSPECTIVE SUPERIOR,1915 N 34TH ST,SUPERIOR,WI,54880-,(218) 721-2800,DOUGLAS,SUPERIOR OPS LLC,CERTIFIED
14703,SANDY RIDGE ASSISTED LIVING APARTMENTS,108 PARK DRIVE,COLFAX,WI,54730-,(715) 962-3186,DUNN,COLFAX HEALTH AND REHABILITATION CENTER INC,CERTIFIED
13043,AUTUMN VILLAGE,915 ELM AVENUE E,MENOMONIE,WI,54751-,(715) 235-3697,DUNN,AMERICAN LUTHERAN COMMUNITY SERVICES INC,CERTIFIED
12102,COMFORTS OF HOME MENOMONIE RCAC,917 22ND AVE NE,MENOMONIE,WI,54751-,(715) 231-4980,DUNN,MENOMONIE RCAC LLC,CERTIFIED
15612,CLASSIC AT HILLCREST GREENS SENIOR LIVING (THE),2455 SAWGRASS PLACE,ALTOONA,WI,54720,(715) 944-6678,EAU CLAIRE,THE CLASSIC AT HILLCREST GREENS LLC,CERTIFIED
14670,OAK GARDENS PLACE,342 TWIN OAK DR,ALTOONA,WI,54720-,(715) 839-8000,EAU CLAIRE,OAK GARDENS AID OPCO LLC,REGISTERED
12799,GRACE WILLOWBROOK,4868 OTTESON LANE,EAU CLAIRE,WI,54701-,(715) 835-0429,EAU CLAIRE,GRACE LUTHERAN FOUNDATION,CERTIFIED
16084,HEATHERWOOD,4510 GATEWAY DR,EAU CLAIRE,WI,54701,(715) 552-5511,EAU CLAIRE,CSL EAU CLAIRE LLC,CERTIFIED
12506,HERITAGE OAKWOOD HILLS,3706 DAMON ST,EAU CLAIRE,WI,54701-,(715) 831-9118,EAU CLAIRE,HERITAGE-I LLC,CERTIFIED
17050,MILESTONE SENIOR LIVING RENEE,5512 RENEE DR,EAU CLAIRE,WI,54703,(715) 874-4250,EAU CLAIRE,ABILIT HOLDINGS EAU CLAIRE LLC,CERTIFIED
16701,GRANPARK TERRACE GRANCARE INC,30 N KAYSER ST,FOND DU LAC,WI,54935,(920) 921-6800,FOND DU LAC,GOLDENHIGH LLC,CERTIFIED
14655,LAKE VIEW PLACE,517 LUCO RD,FOND DU LAC,WI,54935,(920) 926-1100,FOND DU LAC,LAKE VIEW AID OPCO LLC,REGISTERED
16187,MEADOWS OF FOND DU LAC LLC (THE),620 W ROLLING MEADOWS DR,FOND DU LAC,WI,54937,(920) 933-8090,FOND DU LAC,ROLLING MEADOWS DEVELOPMENT LLC,CERTIFIED
17586,SAGE MEADOW FOND DU LAC AL,597 KINGSWOOD AVE,FOND DU LAC,WI,54935,(920) 924-5715,FOND DU LAC,A6 FOND DU LAC AL,CERTIFIED
10373,ST FRANCIS TERRACE,345 E FIRST ST,FOND DU LAC,WI,54935,(920) 923-7980,FOND DU LAC,ST FRANCIS HOME INC,REGISTERED
10355,WOODLANDS SENIOR PARK,77 WISCONSIN AMERICAN DR,FOND DU LAC,WI,54935-,(920) 922-8770,FOND DU LAC,HENDRICKSON,CERTIFIED
11286,VILLA ROSA ASSISTED LIVING,N8120 CTY RD WW,MT CALVARY,WI,53057,(920) 753-3015,FOND DU LAC,SSM HEALTH OF WISCONSIN.INC,CERTIFIED
10341,MAPLECREST MANOR,150 N DOUGLAS ST,RIPON,WI,54971,(920) 748-7300,FOND DU LAC,MAPLECREST MANOR INC,CERTIFIED
14485,PRAIRIE PLACE RCAC,749 E OSHKOSH ST,RIPON,WI,54971,(920) 748-8900,FOND DU LAC,PRAIRIE ASSISTED LIVING INC,CERTIFIED
12238,ASTER ASSISTED LIVING OF MONROE,616 8TH AVE,MONROE,WI,53566-,(608) 328-2339,GREEN,ASHFORD MARTIN CORPORATION,CERTIFIED
10297,ST CLARE FRIEDENSHEIM,2003 4TH ST,MONROE,WI,53566-,(608) 329-3601,GREEN,MONROE JOINT VENTURE INC,CERTIFIED
16075,GLARNER LODGE,900 GLARNER DR,NEW GLARUS,WI,53574,(608) 527-2126,GREEN,NEW GLARUS HOME INC,CERTIFIED
17743,HEARTSONG,123 S PEARL ST,BERLIN,WI,54923,(920) 361-3111,GREEN LAKE,SONGBIRDS I INC,CERTIFIED
16746,PATRIOT PLACE RCAC,609 BROADWAY STREET,BERLIN,WI,54923,(920) 361-3008,GREEN LAKE,NBA HOLDINGS LLC,CERTIFIED
11583,KINDREDHEARTS GREEN LAKE,850 SUNNYSIDE RD,GREEN LAKE,WI,54941-,(920) 294-1000,GREEN LAKE,PARTNERS IN COMMUNITY ELDERCARE LLC,CERTIFIED
12685,NORTH TERRACE ASSISTED LIVING,1130 N MARGARET ST,MARKESAN,WI,53946-8516,(920) 398-2751,GREEN LAKE,MARKESAN RESIDENT HOME INC,CERTIFIED
16842,SAMUELS GROVE,183 E JOHN ST,MARKESAN,WI,53946,(920) 398-2989,GREEN LAKE,BARRETT HOUSE OF MARKESAN LLC,CERTIFIED
13621,STONEFIELD APARTMENT HOMES,407 E MADISON ST,DODGEVILLE,WI,53533-,(920) 674-6600,IOWA,AFFORDABLE LIVING & HOUSING SERVICES LLC,REGISTERED
11906,PINE VIEW TERRACE,404 COUNTY RD R,BLACK RIVER FALLS,WI,54615-,(715) 284-7077,JACKSON,JACKSON PINE VIEW HEALTHCARE LLC,CERTIFIED
16702,REENA SENIOR LIVING,737 REENA AVE,FORT ATKINSON,WI,53538,(920) 542-1521,JEFFERSON,ICONICARE OF FORT ATKINSON LLC,CERTIFIED
15776,HIGHLAND HOUSE,161 GOEHL RD,WATERLOO,WI,53594,(920) 478-4193,JEFFERSON,WATERTOWN MEDICAL CENTER LLC,CERTIFIED
18285,RIVERWALK SENIOR LIVING,477 W MADISON ST,WATERLOO,WI,53594,(608) 449-2128,JEFFERSON,APARA CARE INC,CERTIFIED
13914,RIVER VIEW PLATINUM LLC,1301 E MAIN ST,WATERTOWN,WI,53094,(920) 567-0100,JEFFERSON,RIVER VIEW PLATINUM LLC,CERTIFIED
10959,OAK GROVE ASSISTED CARE LLC,200 W 6TH ST,NECEDAH,WI,54646-,(608) 565-3990,JUNEAU,OAK GROVE ASSISTED CARE LLC,CERTIFIED
14239,CELEBRE PLACE,1870 27TH AVE,KENOSHA,WI,53140-,(262) 782-2770,KENOSHA,FRESH COAST PARTNERS,CERTIFIED
15730,LIBRARY TERRACE APARTMENTS,7905 36TH AVENUE,KENOSHA,WI,53142,(262) 697-8560,KENOSHA,SCAL KENOSHA LLC,CERTIFIED
17779,MEADOWMERE SOUTHPORT,8351 SHERIDAN ROAD,KENOSHA,WI,53143,(262) 948-1100,KENOSHA,SNH WIS TENANT LLC,CERTIFIED
14687,PARADISE ESTATES LLC,625 4TH ST,KEWAUNEE,WI,54216-,(920) 388-0201,KEWAUNEE,PARADISE ESTATES LLC,CERTIFIED
11373,HEIGHTS (THE),112 JUNIPER LANE,HOLMEN,WI,54636-,(608) 526-2635,LACROSSE,BETHANY LUTHERAN HOMES INC,CERTIFIED
11629,PRAIRIE HOME,620 MALIN COURT,HOLMEN,WI,54636-,(608) 526-4850,LACROSSE,BETHANY ST JOSEPH CORP,CERTIFIED
18121,EAGLE CREST SOUTH ASSISTED LIVING,622 BENNORA LEE COURT,LA CROSSE,WI,54601,(608) 791-2700,LACROSSE,BETHANY LUTHERAN HOMES INC,CERTIFIED
10258,BENEDICTINE VILLA ASSISTED LIVING,2904 EAST AVENUE SOUTH,LACROSSE,WI,54601-,(608) 788-7489,LACROSSE,CATHOLIC RESIDENTIAL SERVICES INC,REGISTERED
12328,BROOKDALE LACROSSE,3141 EAST AVE S,LACROSSE,WI,54601-,(608) 788-1964,LACROSSE,BROOKDALE SENIOR LIVING COMMUNITIES INC,CERTIFIED
10447,CASS STREET,1315 CASS STREET,LACROSSE,WI,54601-,(608) 796-1091,LACROSSE,BETHANY LUTHERAN HOMES INC,CERTIFIED
15684,EAGLE CREST SOUTH RCAC,622 BENNORA LEE COURT,LACROSSE,WI,54601,(608) 791-2700,LACROSSE,"BETHANY LUTHERAN HOMES, INC",REGISTERED
13997,HILLVIEW TERRACE,3503 PARK LN,LACROSSE,WI,54601-,(608) 785-5500,LACROSSE,LACROSSE COUNTY,CERTIFIED
12093,SHELBY TERRACE,2525 SHELBY ROAD,LACROSSE,WI,54601-,(608) 788-4477,LACROSSE,BETHANY ST JOSEPH CORPORATION,CERTIFIED
10267,WILLOWS (THE),2555 SOUTH 7TH STREET,LACROSSE,WI,54601-,(608) 406-3978,LACROSSE,BETHANY LUTHERAN HOMES INC,REGISTERED
12206,EAGLE CREST NORTH ASSISTED LIVING,351 MASON STREET,ONALASKA,WI,54650-,(608) 779-1700,LACROSSE,BETHANY LUTHERAN HOMES INC,CERTIFIED
12207,EAGLE CREST NORTH INDEPENDENT LIVING PLUS,351 MASON ST,ONALASKA,WI,54650-,(608) 779-1700,LACROSSE,BETHANY LUTHERAN HOMES INC,REGISTERED
10274,LAUREL MANOR,108 17TH AVENUE SOURTH,ONALASKA,WI,54650-,(608) 783-1815,LACROSSE,BETHANY ST JOSEPH CORPORATION,REGISTERED
17881,ONALASKA SENIOR LIVING,3770 EMERALD DR EAST,ONALASKA,WI,54650,(608) 615-4700,LACROSSE,WALKER ELDERCARE SERVICES INC,REGISTERED
11819,SPRINGBROOK COMMUNITY ASSISTED LIVING INC,861 CRITTER COURT,ONALASKA,WI,54650-,(608) 783-2292,LACROSSE,SPRINGBROOK COMMUNITY ASSISTED LIVING INC,CERTIFIED
13753,MILL STREET MANOR,840 MILL ST,WEST SALEM,WI,54669-,(608) 786-2440,LACROSSE,BETHANY ST JOSEPH CORP,CERTIFIED
12008,SALEM TERRACE,104 LEWIS ST,WEST SALEM,WI,54669-,(608) 786-2440,LACROSSE,BETHANY ST JOSEPH CORP,CERTIFIED
13813,WILLOW VALLEY LLC,520 W ESTEY ST,SHULLSBURG,WI,53586-,(608) 491-1030,LAFAYETTE,WILLOW VALLEY LLC,CERTIFIED
13458,PINE MEADOW,525 FLIGHT RD,ANTIGO,WI,54409-,(715) 627-2613,LANGLADE,LANGLADE HOSPITAL,REGISTERED
17035,MILESTONE SENIOR LIVING LINCOLN,314 E LINCOLN AVEUNE,TOMAHAWK,WI,54487,(715) 224-3747,LINCOLN,ABILIT HOLDINGS TOMAHAWK LLC,CERTIFIED
17993,ANGELUS VILLAGE OF MANITOWOC LLC,200 EAST WALDO BOULEVARD,MANITOWOC,WI,54220,(920) 553-5555,MANITOWOC,ANGELUS VILLAGE OF MANITOWOC LLC,REGISTERED
18490,ANGELUS VILLAGE OF MANITOWOC LLC,1010 BAYSHORE DRIVE,MANITOWOC,WI,54220,(920) 553-5555,MANITOWOC,ANGELUS VILLAGE OF MANITOWOC LLC,CERTIFIED
10367,LAUREL GROVE ASSISTED LIVING CENTER,1308 S 22ND ST,MANITOWOC,WI,54220-,(920) 682-8254,MANITOWOC,SHADY LANE INC,REGISTERED
14669,RIVER WOODS PLACE,950 S RAPIDS RD,MANITOWOC,WI,54220-,(920) 684-3996,MANITOWOC,RIVER WOOD AID OPCO LLC,REGISTERED
10348,SACRED HEART COURT,1903 DIVISION ST,MANITOWOC,WI,54220-,(920) 684-7171,MANITOWOC,ST MARYS HOME FOR THE AGED,CERTIFIED
17954,NORTHLAND LODGE ASSISTED LIVING,2500 GARFIELD ST,TWO RIVERS,WI,54241,(920) 794-6922,MANITOWOC,NSH TWO RIVERS NORTHLAND LLC,REGISTERED
16638,ATHENIAN LIVING RCAC,716 CAROLINE STREET,ATHENS,WI,54411,(715) 257-2053,MARATHON,ATHENIAN LIVING LLC,CERTIFIED
16344,ACORN HILL,430 ORBITING DR,MOSINEE,WI,54455,(715) 693-8844,MARATHON,WISTERIA ASSISTED LIVING LLC,CERTIFIED
16880,APPLEGATE TERRACE,3001 WESTHILL DR,WAUSAU,WI,54401,(715) 849-1514,MARATHON,NSH APPLEGATE LLC,REGISTERED
10381,GARDENS APARTMENTS (THE),801 PARCHER STREET,WAUSAU,WI,54403-,(715) 845-1214,MARATHON,HOMME HEIGHTS INC,CERTIFIED
15634,MOUNTAIN TERRACE SENIOR LIVING RCAC,3312 TERRACE CT,WAUSAU,WI,54401,(715) 848-6257,MARATHON,TERRACE COURT SENIOR LIVING INC,CERTIFIED
15687,PRIMROSE RETIREMENT COMMUNITY OF WAUSAU,2100 TOWNLINE ROAD,WAUSAU,WI,54403,(715) 842-1818,MARATHON,"TSMM MANAGEMENT, LLC",REGISTERED
10394,RIVERVIEW TERRACE,540 EAST THOMAS STREET,WAUSAU,WI,54403-,(715) 261-6687,MARATHON,COMMUNITY DEVELOPMENT AUTHORITY,CERTIFIED
10384,TERRACE COURT ASSISTED LIVING,3402 TERRACE COURT,WAUSAU,WI,54401-,(715) 843-5230,MARATHON,AMERICOR MANAGEMENT SERVICES LLC,REGISTERED
13025,RENAISSANCE WESTON,4602 BARBICAN AVENUE,WESTON,WI,54476-,(715) 355-5858,MARATHON,RENNES ASSISTED LIVING,CERTIFIED
14498,RENAISSANCE MARINETTE,2909 SHORE DR,MARINETTE,WI,54143-,(715) 735-2100,MARINETTE,RENNES ASSISTED LIVING INC,CERTIFIED
13717,WASHINGTON SQUARE,2502 TAYLOR ST,MARINETTE,WI,54143-,(715) 732-2550,MARINETTE,WASHINGTON SQUARE LLC,CERTIFIED
17168,APARTMENTS AT ELIZABETH RESIDENCE (THE),9279 N PORT WASHINGTON RD,BAYSIDE,WI,53217,(414) 351-1213,MILWAUKEE,RJJG LLC ELIZABETH RESIDENCE BAYSIDE,CERTIFIED
13351,DEERWOOD CROSSING SENIOR RESIDENCE,4195 W BRADLEY RD,BROWN DEER,WI,53209-,(414) 354-4700,MILWAUKEE,JFS HOUSING INC,CERTIFIED
16216,NEW PERSPECTIVE NORTH SHORE,8875 N 60TH ST,BROWN DEER,WI,53223,(262) 613-2836,MILWAUKEE,BEAVER CREEK OPS LLC,CERTIFIED
18067,NEW PERSPECTIVE FRANKLIN,7220 SOUTH BALLPARK DRIVE,FRANKLIN,WI,53132,(414) 263-9800,MILWAUKEE,FRANKLIN OPS LLC,CERTIFIED
10326,LAUREL OAKS,1700 W BENDER RD,GLENDALE,WI,53209-,(414) 351-0505,MILWAUKEE,LAUREL OAKS V LLC,CERTIFIED
17797,HARBOUR VILLAGE,5700 MOCKINGBIRD LN,GREENDALE,WI,53129,(414) 421-9600,MILWAUKEE,LCS GREENDALE LLC,REGISTERED
10314,CLEMENT MANOR RETIREMENT COMMUNITY,9339 W HOWARD AVE,GREENFIELD,WI,53228-,(414) 321-1800,MILWAUKEE,VILLA CLEMENT INC,REGISTERED
18347,HICKORY PARK,3933 SOUTH PRAIRIE HILL LANE,GREENFIELD,WI,53228,(414) 327-2800,MILWAUKEE,ENCORE WISCONSIN LLC,CERTIFIED
10327,LAYTON TERRACE V LLC,9200 W LAYTON AVE,GREENFIELD,WI,53228-,(414) 425-5600,MILWAUKEE,LAYTON TERRACE V LLC,CERTIFIED
12864,LEXINGTON HERITAGE HERITAGE ASSISTED LIVING,5020 S 107TH ST,GREENFIELD,WI,53228-,(414) 425-9551,MILWAUKEE,MSP REAL ESTATE INC,CERTIFIED
10542,FOREST RIDGE LLC,11077 W FOREST HOME AVE,HALES CORNERS,WI,53130-,(414) 425-1148,MILWAUKEE,FOREST RIDGE LLC,REGISTERED
10308,BRADFORD TERRACE,2429 E BRADFORD AVE,MILWAUKEE,WI,53211-,(414) 963-8471,MILWAUKEE,MILWAUKEE PROTESTANT HOME FOR THE AGED INC,REGISTERED
10313,CHAI POINT,1400 N PROSPECT AVE,MILWAUKEE,WI,53202-,(414) 289-9600,MILWAUKEE,PROSPECT CONGREGATE HOUSING INC,CERTIFIED
14593,MARIA LINDEN 72 LLC,2735 W GREENFIELD AVE,MILWAUKEE,WI,53215-,(414) 645-0434,MILWAUKEE,SCHOOL SISTERS OF ST FRANCIS INC,CERTIFIED
14038,MILWAUKEE CATHOLIC HOME,2462 N PROSPECT AVE,MILWAUKEE,WI,53211,(414) 220-3237,MILWAUKEE,MILWAUKEE CATHOLIC HOME INC,REGISTERED
17234,POLONAISE (THE),1500 W SONATA DR,MILWAUKEE,WI,53221,(414) 281-3400,MILWAUKEE,CHIARA COMMUNITIES INC,CERTIFIED
10770,SAINT JOHNS ON THE LAKE CENTRAL TOWER,1840 N PROSPECT AVE,MILWAUKEE,WI,53202-,(414) 272-2022,MILWAUKEE,SAINT JOHNS COMMUNITIES INC,REGISTERED
17912,SAINT JOHNS ON THE LAKE NORTH TOWER,1858 N PROSPECT AVENUE,MILWAUKEE,WI,53202,(414) 272-2022,MILWAUKEE,SAINT JOHNS COMMUNITIES INC,REGISTERED
14774,SAINT JOHNS ON THE LAKE SOUTH TOWER,1800 N PROSPECT AVE,MILWAUKEE,WI,53202-,(414) 831-6880,MILWAUKEE,"SAINT JOHNS COMMUNITIES, INC",REGISTERED
10362,TIVOLI TERRACE AT ST ANNES SALVATORIAN CAMPUS,3800 N 92ND ST,MILWAUKEE,WI,53222-2589,(414) 463-7570,MILWAUKEE,ST ANNES HOME FOR THE ELDERLY INC,CERTIFIED
16117,TRINITY VILLAGE ASSISTED LIVING,7300 W DEAN ROAD,MILWAUKEE,WI,53223,(414) 371-7593,MILWAUKEE,TRN MILWAUKEE LLC,CERTIFIED
10377,WATERTOWER ASSISTED LIVING,2425 N LAKE DR,MILWAUKEE,WI,53211-,(414) 332-8610,MILWAUKEE,MILWAUKEE PROTESTANT HOME FOR THE AGED INC,REGISTERED
14694,WESLEY PARK,8621 WEST BELOIT ROAD,MILWAUKEE,WI,53227-,(414) 371-7316,MILWAUKEE,METHODIST MANOR INC,REGISTERED
18003,WILLOW VIEW,3553 SOUTH 41ST STREET,MILWAUKEE,WI,53221,(414) 649-0730,MILWAUKEE,PLATINUM COMMUNITIES SCT LLC,CERTIFIED
17530,CORNERSTONE OF OAK CREEK,155 W SUNNYVIEW DR,OAK CREEK,WI,53154,(414) 570-9755,MILWAUKEE,NOHC - OAK CREEK SENIOR LIVING LLC,CERTIFIED
17819,MANORPOINTE APARTMENTS,700 E STONEGATE DR,OAK CREEK,WI,53154,(414) 766-2100,MILWAUKEE,SNH WIS TENANT LLC,REGISTERED
17778,MEADOWMERE OAK CREEK,701 E PUETZ ROAD,OAK CREEK,WI,53154,(414) 766-2100,MILWAUKEE,SNH WIS TENANT LLC,CERTIFIED
17561,WATERS OF OAK CREEK (THE),8000 S MARKET ST,OAK CREEK,WI,53154,(414) 574-0900,MILWAUKEE,THE WATERS OF OAK CREEK LLC,REGISTERED
15905,HARBORCHASE OF SHOREWOOD,1111 E CAPITOL DR,SHOREWOOD,WI,53211,(414) 436-0311,MILWAUKEE,CHP SHOREWOOD WI TENANT CORP,CERTIFIED
16763,FRANCISCAN COURTS,1010 WILLIAMS AVE,SOUTH MILWAUKEE,WI,53172,(414) 570-5353,MILWAUKEE,CHI LIVING COMMUNITIES,CERTIFIED
10322,HOWARD VILLAGE,2500 E HOWARD AVE,ST FRANCIS,WI,53235-,(414) 489-1400,MILWAUKEE,HOWARD VILLAGE V LLC,CERTIFIED
10859,HART PARK SQUARE,6600 W RIVER PKWY,WAUWATOSA,WI,53213-,(414) 476-8787,MILWAUKEE,HART PARK SQUARE V LLC,CERTIFIED
11422,HARWOOD PLACE,8220 W HARWOOD AV,WAUWATOSA,WI,53213-,(414) 258-6180,MILWAUKEE,LUTHERAN HOME INC (THE),REGISTERED
11107,LUTHER MANOR,4545 N 92ND ST,WAUWATOSA,WI,53225-,(414) 464-3880,MILWAUKEE,UNITED LUTHERAN PROGRAM FOR THE AGING,REGISTERED
18355,EUPHORIA OF WEST ALLIS,2330 S 54th Street,WEST ALLIS,WI,53219,(414) 615-7100,MILWAUKEE,ARIA AT MITCHELL MANOR,CERTIFIED
16238,HERITAGE 6 LLC,7901 W NATIONAL,WEST ALLIS,WI,53214,(414) 302-9700,MILWAUKEE,HERITAGE 6 LLC,CERTIFIED
10329,LIBRARY SQUARE,1820 S 75TH ST,WEST ALLIS,WI,53214-,(414) 774-4411,MILWAUKEE,LIBRARY SQUARE V LLC,CERTIFIED
11308,HOMESTEAD APARTMENTS,331 S WATER ST,SPARTA,WI,54656-,(608) 366-6298,MONROE,MORROW MEMORIAL HOME FOR THE AGED INC,CERTIFIED
11029,MARYCREST ASSISTED LIVING,401 S WATER ST,SPARTA,WI,54656-,(608) 269-3168,MONROE,MORROW MEMORIAL HOME FOR THE AGED INC,REGISTERED
10271,A TOUCH OF HOME,1211 MARK AVENUE,TOMAH,WI,54660-,(608) 372-5454,MONROE,STEPHEN AND ROBERTA DIETZMAN,REGISTERED
10255,CLOSE TO HOME INC,1206 MARK AVENUE,TOMAH,WI,54660-,(608) 372-2696,MONROE,CLOSE TO HOME INC,REGISTERED
12805,LIBERTY VILLAGE RCAC,200 LIBERTY PLACE,TOMAH,WI,54660-,(608) 374-5005,MONROE,LIBERTY VILLAGE LLC,CERTIFIED
15431,SERENITY GARDENS,146 N FRANCIS AVE,GILLETT,WI,54124,(920) 855-5020,OCONTO,SERENITY GARDENS LLC,CERTIFIED
15137,COTTAGES AT MEADOWLANDS THE,751 E HIGHLAND DR,OCONTO FALLS,WI,54154-,(920) 848-3458,OCONTO,COTTAGES AT MEADOWLANDS LLC,CERTIFIED
16771,GRACE LODGE ASSISTED LIVING FACILITY,1000 DAY ST,RHINELANDER,WI,54501,(715) 365-1234,ONEIDA,GRACE LODGE MANAGEMENT INC,CERTIFIED
17048,MILESTONE SENIOR LIVING NSD,4686 N SHORE DR,RHINELANDER,WI,54501,(715) 361-1111,ONEIDA,ABILIT HOLDINGS RHINELANDER,CERTIFIED
17034,MILESTONE SENIOR LIVING ELM,750 ELM ST,WOODRUFF,WI,54568,(715) 439-4024,ONEIDA,ABILIT HOLDINGS WOODRUFF LLC,CERTIFIED
17913,APPLETON RETIREMENT COMMUNITY,200 W PACKARD STREET,APPLETON,WI,54911,(920) 954-9990,OUTAGAMIE,"APPLETON RETIREMENT COMMUNITY,LLC",CERTIFIED
17217,EAGLE POINT SENIOR LIVING INC,955 E JOHN ST,APPLETON,WI,54911,(920) 843-9466,OUTAGAMIE,EAGLE POINT SENIOR LIVING INC,REGISTERED
17082,PRIMROSE OF APPLETON,5715 N MEADE ST,APPLETON,WI,54913,(608) 260-0550,OUTAGAMIE,APPLETON RETIREMENT LLC,CERTIFIED
13364,RENAISSANCE APPLETON,301 E FLORIDA AVE,APPLETON,WI,54911-,(920) 380-1100,OUTAGAMIE,RENNES ASSISTED LIVING CORP,CERTIFIED
10352,ST PAUL VILLA,312 E 14TH ST,KAUKAUNA,WI,54130-,(920) 766-6020,OUTAGAMIE,ST PAUL ELDER SERVICES INC,CERTIFIED
16637,ASPIRE SENIOR LIVING RCAC,825 COBBLESTONE LN,KIMBERLY,WI,54136,(727) 742-3504,OUTAGAMIE,HSL 14 LLC,CERTIFIED
10364,GOOD SHEPHERD MEADOW WOOD RCAC,605 BRONSON RD,SEYMOUR,WI,54165-,(920) 833-1566,OUTAGAMIE,GOOD SHEPHERD SERVICES LTD,REGISTERED
17502,HAMILTON HOUSE SENIOR LIVING INC,W76 N629 WAUWATOSA RD,CEDARBURG,WI,53012,(262) 421-5551,OZAUKEE,HAMILTON HOUSE SENIOR LIVING INC,CERTIFIED
13268,LASATA CROSSINGS ASSISTED LIVING,W79N673 WAUWATOSA RD,CEDARBURG,WI,53012,(262) 512-2808,OZAUKEE,OZAUKEE COUNTY,CERTIFIED
16282,VILLAGE POINTE COMMONS THE PARAMOUNTE,101 WALNUT DR,GRAFTON,WI,53024,(262) 387-3148,OZAUKEE,CAPRI COMMUNITES LLC,CERTIFIED
16283,VILLAGE POINTE COMMONS THE PINNACLE,101 WALNUT CIRCLE,GRAFTON,WI,53024,(262) 387-3147,OZAUKEE,CAPRI COMMUNITIES LLC,CERTIFIED
17780,MEADOWMERE NORTHSHORE,10803 N PORT WASHINGTON ROAD,MEQUON,WI,53092,(262) 478-2200,OZAUKEE,SNH WIS TENANT LLC,CERTIFIED
18619,NEWCASTLE PLACE,12600 N PORT WASHINGTON RD,MEQUON,WI,53092,(262) 387-8850,OZAUKEE,NEWCASTLE PLACE LLC,REGISTERED
18248,TEROVA SENIOR LIVING OF MEQUON,10995 N MARKET STREET,MEQUON,WI,53092,(262) 478-1500,OZAUKEE,BMSL MEQUON OPCO LLC,CERTIFIED
17216,WRIGHT HOUSE SENIOR LIVING INC,6751 W MEQUON RD,MEQUON,WI,53092,(262) 834-2002,OZAUKEE,WRIGHT HOUSE SENIOR LIVING INC,CERTIFIED
16547,HARBOR CLUB,333 W WALTERS ST,PORT WASHINGTON,WI,53024,(262) 268-1800,OZAUKEE,CAPRI COMMUNITIES LLC,CERTIFIED
15963,LINCOLN VILLAGE,1330 W LINCOLN AVE,PORT WASHINGTON,WI,53074,(414) 964-7678,OZAUKEE,HSL 3 LLC,CERTIFIED
17394,WILLOWBROOK PLACE,205 GREEN BAY ROAD,THIENSVILLE,WI,53092,(262) 245-8045,OZAUKEE,CEDAR DUNES WILLOWBROOK LLC,CERTIFIED
11507,HOMEPLACE OF DURAND LLC (THE),315 COUNTRY LANE,DURAND,WI,54736-,(715) 672-4813,PEPIN,HOME PLACE OF DURAND LLC (THE),CERTIFIED
12458,WELCOME HOME ASSISTED LIVING INC,1121 INDUSTRIAL ROAD,ELMWOOD,WI,54740-,(715) 639-3400,PIERCE,WELCOME HOME ASSISTED LIVING INC,CERTIFIED
12053,COMFORTS OF HOME RIVER FALLS RCAC,2348 AURORA CIRCLE,RIVER FALLS,WI,54022-,(715) 426-4924,PIERCE,RIVER FALLS RCAC LLC,CERTIFIED
13449,VALLEY VILLAS ASSISTED LIVING,S820 WESTLAND DR,SPRING VALLEY,WI,54767-,(715) 778-5535,PIERCE,VALLEY VILLAS LLC,CERTIFIED
11001,AMERY ASSTD LIV -RIVER BEND,475 GOLF VIEW LANE,AMERY,WI,54001-,(715) 268-9949,POLK,AMERY ASSISTED LIVING LLC,REGISTERED
12069,LODGE AT WHISPERING PINES (THE),3450 BRIDLEWOOD DR,PLOVER,WI,54467,(715) 342-9100,PORTAGE,CRYSTAL FOUNTAINS ASSISTED LIVING LLC,CERTIFIED
15136,DIMENSIONS LIVING STEVENS POINT,5625 SANDPIPER DR,STEVENS POINT,WI,54481-,(715) 343-7376,PORTAGE,S-H OPCO OAKRIDGE LLC,CERTIFIED
17958,RIVER VIEW LODGE ASSISTED LIVING,1800B SHERMAN AVE,STEVENS POINT,WI,54481,(715) 345-3500,PORTAGE,NSH STEVENS POINT RIVER VIEW LLC,CERTIFIED
15633,WILLOW BROOKE POINT SENIOR LIVING RCAC,1801 LILAC LN,STEVENS POINT,WI,54481,(715) 343-9530,PORTAGE,STEVENS POINT SENIOR LIVING INC,CERTIFIED
12360,ASPIRUS DUROY TERRACE,585 PETERSON DRIVE,PHILLIPS,WI,54555-,(715) 339-3113,PRICE,ASPIRUS EXTENDED SERVICES INC,CERTIFIED
16959,PARKVIEW GARDENS I ASSISTED LIVING,5321 DOUGLAS AVE,CALEDONIA,WI,53402,(262) 898-4000,RACINE,KORU HEALTH LLC,CERTIFIED
16970,PARKVIEW GARDENS III,5321 DOUGLAS AVE,CALEDONIA,WI,53402,(262) 898-4000,RACINE,KORU HEALTH LLC,CERTIFIED
15195,PRIMROSE OF MT PLEASANT,1775 N NEWMAN ROAD,MT PLEASANT,WI,53406,(262) 886-3333,RACINE,RACINE RETIREMENT LLC,REGISTERED
16018,ELIZABETH GARDENS,5111 WRIGHT AVE,RACINE,WI,53406,(262) 638-2600,RACINE,"ERAC, LLC",CERTIFIED
11173,HOME HARBOR,1600 OHIO ST,RACINE,WI,53405-,(262) 619-0000,RACINE,HOME HARBOR OF RACINE LLC,CERTIFIED
17709,PILLARS AT CRYSTAL BAY (THE),3950 N MAIN ST,RACINE,WI,53402,(262) 639-1100,RACINE,PLATINUM COMMUNITIES RACINE LLC,CERTIFIED
18044,PLEASANT POINT SENIOR LIVING,8500 CORPORATE DRIVE,RACINE,WI,53406,(262) 833-0810,RACINE,RACINE SENIOR LIVING INC,CERTIFIED
17237,KILLARNEY KOURT,8800 SHANNON LN,STURTEVANT,WI,53177,(262) 321-0802,RACINE,CHIARA COMMUNITIES INC,CERTIFIED
12091,WATERFORD SENIOR LIVING,301 S SIXTH ST,WATERFORD,WI,53185-,(262) 534-4800,RACINE,WATERFORD SENIOR LIVING LLC,CERTIFIED
13386,OUR HOUSE RICHLAND CENTER RCAC,250 N ORANGE ST,RICHLAND CENTER,WI,53581-,(608) 647-4500,RICHLAND,KSMS OUR HOUSE LLC,CERTIFIED
10284,SCHMITT WOODLAND HILLS APARTMENT COMPLEX,1400 WEST SEMINARY STREET,RICHLAND CENTER,WI,53581-,(608) 647-8931,RICHLAND,SCHMITT WOODLAND HILLS INC,REGISTERED
16888,BELOIT SENIOR LIVING,2250 W HART RD,BELOIT,WI,53511,(608) 312-2370,ROCK,BELOIT SENIOR LIVING LLC,CERTIFIED
10295,RIVERSIDE TERRACE,3055 S RIVERSIDE DRIVE,BELOIT,WI,53511-,(608) 365-7222,ROCK,BELOIT MEMORIAL HOSPITAL,REGISTERED
18181,WILLOWICK SENIOR LIVING BELOIT,3024 SOUTH BARTELLS DRIVE,BELOIT,WI,53511,(608) 774-2104,ROCK,WILLOWICK ASSISTED LIVING BELOIT III LLC,CERTIFIED
13881,SWIFTHAVEN COMMUNITY,124 HENRY ST,EDGERTON,WI,53534-,(608) 884-2828,ROCK,ESH ENTERPRISES LLC,CERTIFIED
17660,HEIGHTS OF EVANSVILLE,201 N 4TH ST,EVANSVILLE,WI,53536,(608) 882-9995,ROCK,EVANSVILLE MANOR NURSING AND REHAB LLC,CERTIFIED
10246,KELLY HOUSE ASSISTED LIVING APARTMENTS,121 SOUTH FIFTH ST,EVANSVILLE,WI,53536,(608) 882-4191,ROCK,SAEE Inc.,CERTIFIED
10302,CEDAR CREST WATERFORD PLACE APARTMENTS,1700 SOUTH RIVER RD,JANESVILLE,WI,53546-,(608) 756-0344,ROCK,CEDAR CREST INC,REGISTERED
14099,HUNTINGTON (THE),3801 N WRIGHT RD,JANESVILLE,WI,53546-,(608) 868-5035,ROCK,FVE MW LLC,REGISTERED
17018,OAK PARK PLACE OF JANESVILLE RCAC,700 MYRTLE WAY,JANESVILLE,WI,53545,(608) 530-5700,ROCK,OAK PARK PLACE OF JANESVILLE LLC,CERTIFIED
16711,WILLOWICK,2860 LIBERTY LANE,JANESVILLE,WI,53545,(608) 305-4040,ROCK,WILLOWICK ASSISTED LIVING JANESVILLE LLC,CERTIFIED
13981,MILTON SENIOR LIVING LLC,600 W SUNSET DR,MILTON,WI,53563-,(608) 868-3000,ROCK,MILTON SENIOR LIVING LLC,CERTIFIED
14245,LEGACY SENIOR LIVING CENTER INC,1001 E 11TH STREET N,LADYSMITH,WI,54848-,(715) 532-5546,RUSK,LEGACY SENIOR LIVING CENTER INC,CERTIFIED
13806,GREENBRIAR APARTMENTS LLC,1350 JEFFERSON ST,BARABOO,WI,53913-,(608) 356-9213,SAUK,GREENBRIAR APARTMENTS LLC,CERTIFIED
12768,OAK PARK PLACE THE GROVE,800 WALDO ST,BARABOO,WI,53913-,(608) 355-4111,SAUK,OAK PARK PLACE OF BARABOO LLC,CERTIFIED
11110,RIDGEVIEW PLACE,2350 NORTH DEWEY AVE,REEDSBURG,WI,53959-,(608) 524-6577,SAUK,REEDSBURG AREA SENIOR CENTER INC,REGISTERED
10279,MAPLEWOOD VILLAGE,1425 HEMLOCK STREET,SAUK CITY,WI,53583-,(608) 643-8494,SAUK,MAPLEWOOD OF SAUK PRAIRIE INC,CERTIFIED
10288,GREENWAY TERRACE,547 EAST MCKINLEY STREET,SPRING GREEN,WI,53588-,(608) 588-2586,SAUK,RIVER VALLEY NH INC,REGISTERED
13559,WATERS EDGE,11040 N STATE RD,HAYWARD,WI,54843-,(715) 934-4308,SAWYER,MEDICAL SERVICES INC,REGISTERED
12844,COTTAGES ON GOLDEN POND THE,103 MADISON WAY,SHAWANO,WI,54166,(866) 447-3838,SHAWANO,THE COTTAGES INVESTMENT GROUP LLC,CERTIFIED
12455,CEDAR BAY AT ELKHART LAKE,101 CEDAR LN,ELKHART LAKE,WI,53020-,(920) 876-4050,SHEBOYGAN,BENEVOLENT CORPORATION-CEDAR COMMUNITY,CERTIFIED
17956,SOUTHERN HORIZON ASSISTED LIVING,930 E CLIFFORD ST,PLYMOUTH,WI,53073,(920) 893-4777,SHEBOYGAN,NSH PLYMOUTH SOUTHERN LLC,CERTIFIED
14667,TERRACE PLACE,1231 EISNER AVE,SHEBOYGAN,WI,53083-,(920) 457-6399,SHEBOYGAN,TERRACE AID OPCO LLC,REGISTERED
14970,PRAIRIE CROSSING - A PINE HAVEN COMMUNITY,1280 PINE HAVEN LN,SHEBOYGAN FALLS,WI,53085-,(920) 550-5602,SHEBOYGAN,PINE HAVEN CHRISTIAN HOME INC,CERTIFIED
10248,BIRCHWOOD APARTMENTS,1600 BIRCHWOOD DRIVE,BALDWIN,WI,54002-,(715) 684-3231,ST CROIX,BALDWIN CARE CENTER IN,CERTIFIED
12494,HAVENWOOD LLC,614 E OAK ST,GLENWOOD CITY,WI,54013-,(715) 265-4140,ST CROIX,HAVENWOOD LLC,CERTIFIED
16879,HERITAGE COURT,425 DAVIS ST,HAMMOND,WI,54015,(715) 796-2218,ST CROIX,NSH HERITAGE LLC,REGISTERED
14783,RED CEDAR CANYON ASSISTED LIVING LLC,3001 HANLEY ROAD,HUDSON,WI,54016-,(715) 381-7333,ST CROIX,RED CEDAR CANYON ASSISTED LIVING LLC,CERTIFIED
12819,WINTERGREEN,1312 WISCONSIN STREET,HUDSON,WI,54016-,(715) 386-5088,ST CROIX,CHRISTIAN COMMUNITY HOME OF HUDSON INC,CERTIFIED
10249,DEERFIELD (THE) RCAC,1127 WEST EIGHTH STREET,NEW RICHMOND,WI,54017-,(715) 243-3900,ST CROIX,PHM/NEW RICHMOND SENIOR HOUSING,CERTIFIED
13394,DEERFIELD TERRACE (THE),1127 W 8TH ST,NEW RICHMOND,WI,54017-,(715) 243-3903,ST CROIX,PHM NEW RICHMOND SENIOR HOUSING,CERTIFIED
13453,WELLHAVEN SENIOR APARTMENTS LLC,119 UNION ST,RIVER FALLS,WI,54022-,(715) 426-4646,ST CROIX,LUTHERAN HOME ASSOCIATION (THE),CERTIFIED
12432,PARK PLACE APARTMENTS,210 LOCKWOOD ST,WOODVILLE,WI,54028-,(715) 698-2451,ST CROIX,PARK VIEW HOME INC,REGISTERED
12429,PARK PLACE APARTMENTS NORTH,220 LOCKWOOD ST,WOODVILLE,WI,54028-,(715) 698-2451,ST CROIX,PARK VIEW HOME INC,CERTIFIED
10385,COUNTRY GARDENS,635 CEDAR STREET,MEDFORD,WI,54451-,(715) 748-8855,TAYLOR,MEMORIAL HEALTH CENTER INC,REGISTERED
12483,CLOVER WAY RCAC,36125 E END RD,INDEPENDENCE,WI,54747-,(715) 538-4518,TREMPEALEAU,TREMPEALEAU COUNTY HEALTH CARE CENTER,CERTIFIED
16457,DOVE HEALTHCARE OSSEO ASSISTED LIVING,51017 RIDGE VIEW RD,OSSEO,WI,54758,(715) 597-2493,TREMPEALEAU,HALCYON SENIOR SERVICES OF OSSEO LLC,CERTIFIED
10272,COUNTRY RIDGE,13197 CHURCH STREET,PIGEON FALLS,WI,54760-,(715) 983-2293,TREMPEALEAU,TREMPEALEAU COUNTY HEALTH CARE CENTER,CERTIFIED
10273,SUNRISE MANOR,36024 PARK STREET,WHITEHALL,WI,54773-,(715) 538-4361,TREMPEALEAU,TRI-COUNTY MEMORIAL HOSPITAL INC,CERTIFIED
17047,MILESTONE SENIOR LIVING HILLSBORO,504 SALSBERY CIRCLE,HILLSBORO,WI,54634,(608) 489-3930,VERNON,ABILIT HOLDINGS HILLSBORO LLC,CERTIFIED
10263,PLEASANT VALLEY SENIORS,W466 CTY RD K,STODDARD,WI,54658-,(608) 787-6384,VERNON,PLEASANT VALLEY SENIORS LLC,CERTIFIED
10251,MAPLEWOOD TERRACE,620 GARFIELD STREET,VIROQUA,WI,54665-,(608) 637-6344,VERNON,BETHEL HOME & SERVICES INC,CERTIFIED
17052,MILESTONE SENIOR LIVING RAILROAD,2332 RAILROAD ST HWY 45N,EAGLE RIVER,WI,54521,(715) 479-8018,VILAS,ABILIT HOLDINGS EAGLE RIVER LLC,CERTIFIED
16374,LAKE SHORE CEDAR LODGE,12440 WARPATH LN,MINOCQUA,WI,54548,(715) 356-2911,VILAS,LAKE SHORE ASSISTED LIVING LLC,CERTIFIED
10357,RIDGESTONE COURT RCAC LLC,1025 S SECOND ST,DELAVAN,WI,53115-,(262) 728-2960,WALWORTH,RIDGESTONE COURT RCAC LLC,CERTIFIED
11318,BROLEN PARK,2191 CHURCH ST,EAST TROY,WI,53120-,(262) 642-9955,WALWORTH,MI VIDA BONITA LLC,CERTIFIED
11665,RIDGESTONE TERRACE LLC,291 W EVERGREEN PKWY,ELKHORN,WI,53121-,(262) 743-2960,WALWORTH,RIDGESTONE TERRACE LLC,CERTIFIED
10290,ARBOR VILLAGE OF GENEVA CROSSING,201 TOWNLINE RD,LAKE GENEVA,WI,53147-,(262) 248-4558,WALWORTH,LAKE GENEVA ASSISTED LIVING OPERATING CO LLC,CERTIFIED
13414,GOLDEN YEARS RETIREMENT VILLAGE,270 RIDGE RD,WALWORTH,WI,53184-,(262) 275-6103,WALWORTH,GOLDEN YEARS NURSING HOME INC,REGISTERED
10323,INSPIRATION MINISTRIES RCAC,N2270 HWY 67,WALWORTH,WI,53184-,(262) 275-6131,WALWORTH,CHRISTIAN LEAGUE FOR THE HANDICAPPED INC,CERTIFIED
17287,MULBERRY GLEN,1255 W MAIN ST,WHITEWATER,WI,53190,(262) 473-4515,WALWORTH,CHIARA COMMUNITIES INC,CERTIFIED
17957,SHERWOOD LODGE ASSISTED LIVING,116 CHERRY ST,WILLIAMS BAY,WI,53191,(262) 245-7320,WALWORTH,NSH WILLIAMS BAY SHERWOOD LLC,CERTIFIED
10257,GLENVIEW,201 GLENVIEW LANE,SHELL LAKE,WI,54871-,(715) 468-4255,WASHBURN,TH INC,REGISTERED
17236,ENGEL HAUS,N109 W17000 AVA CIR,GERMANTOWN,WI,53022,(262) 345-1025,WASHINGTON,CHIARA COMMUNITIES INC,CERTIFIED
18192,FAIRWAY KNOLL,N112 W17500 MEQUON ROAD,GERMANTOWN,WI,53022,(262) 735-7900,WASHINGTON,PHW GERMANTOWN INC,CERTIFIED
13733,GARDENS OF HARTFORD (THE),112 PEACE LUTHERAN PKWY,HARTFORD,WI,53027-,(262) 345-5590,WASHINGTON,WISCONSIN LUTHERAN CHILD & FAMILY SERVICE INC,CERTIFIED
15654,WATERFORD AT HARTFORD (THE),1025 BELL AVE,HARTFORD,WI,53027,(920) 378-5839,WASHINGTON,CSL HARTFORD LLC,CERTIFIED
15326,LAKESHORE AT JACKSON CROSSINGS (THE),N168 W22026 MAIN ST,JACKSON,WI,53037,(262) 677-3615,WASHINGTON,SNH SE TENANT TRS INC,CERTIFIED
12401,KETTLE MORAINE GARDENS RCAC,1038 FOND DU LAC AVE,KEWASKUM,WI,53040-,(262) 626-4070,WASHINGTON,,CERTIFIED
17033,CEDAR BAY EAST,5577 HOME DRIVE,WEST BEND,WI,53095,(262) 306-2145,WASHINGTON,BENEVOLENT CORPORATION DBA CEDAR COMMUNITY,CERTIFIED
10312,CEDAR BAY WEST,5555 CEDAR BAY DR,WEST BEND,WI,53095-,(262) 306-2130,WASHINGTON,BENEVOLENT CORPORATION CEDAR COMMUNITY,CERTIFIED
11418,FIELDS OF WASHINGTON COUNTY THE,675 E WASHINGTON ST,WEST BEND,WI,53095-,(262) 365-6500,WASHINGTON,WASHINGTON COUNTY,CERTIFIED
13626,NEW PERSPECTIVE-WEST BEND,2130 CONTINENTAL DR,WEST BEND,WI,53095,(262) 438-5801,WASHINGTON,WEST BEND OPS LLC,CERTIFIED
10315,CONGREGATIONAL HOME,13900 W BURLEIGH,BROOKFIELD,WI,53005-,(262) 781-0550,WAUKESHA,CONGREGATIONAL HOME INC,REGISTERED
10760,CONGREGATIONAL HOME,3140 LILLY ROAD,BROOKFIELD,WI,53005-,(262) 781-0550,WAUKESHA,CONGREGATIONAL HOME INC,REGISTERED
16784,HERITAGE PLACE,17560 WEST NORTH AVE,BROOKFIELD,WI,53045,(262) 782-1948,WAUKESHA,CAPRI LIFESTYLES LLC,CERTIFIED
10309,PRO HEALTH CARE REGENCY SENIOR COMMUNITIES,777 North BROOKFIELD RD,BROOKFIELD,WI,53045-,(262) 780-0321,WAUKESHA,NATIONAL REGENCY OF NEW BERLIN INC,CERTIFIED
11251,COMPASS POINT,365 SUNSET DR,DOUSMAN,WI,53118-,(262) 965-7212,WAUKESHA,WISCONSIN MASONIC HOME INC,CERTIFIED
15093,HERITAGE ELM GROVE H12,800 WALL ST,ELM GROVE,WI,53122-,(262) 786-5800,WAUKESHA,HERITAGE ASSISTED LIVING LLC,CERTIFIED
16505,HERITAGE LAKE COUNTRY,2975 VILLAGE SQUARE DR,HARTLAND,WI,53029,(262) 367-2975,WAUKESHA,HSL 15 LLC,CERTIFIED
14155,MATTHEWS OF HARTLAND,300 E NORTH SHORE DR,HARTLAND,WI,53029-,(312) 623-0884,WAUKESHA,MATTHEWS SENIOR HOUSING LLC,CERTIFIED
10296,ARBORETUM V LLC (THE),W180 N7890 TOWN HALL RD,MENOMONEE FALLS,WI,53051-,(262) 253-0909,WAUKESHA,ARBORETUM V LLC (THE),CERTIFIED
18295,DICKSON HOLLOW,W156N4881 PILGRIM ROAD,MENOMONEE FALLS,WI,53051,(262) 599-8300,WAUKESHA,PHW MENOMONEE FALLS INC,CERTIFIED
16050,DICKSON HOLLOW,W156 N4881 PILGRIM RD,MENOMONEE FALLS,WI,53051,(262) 599-8301,WAUKESHA,PHW MENOMONEE FALLS INC,REGISTERED
18199,GRACE COMMONS I,W195N9550 ROLLING MEADOWS CIRC,MENOMONEE FALLS,WI,53051,(262) 252-9600,WAUKESHA,CAPRI COMMUNITIES LLC,CERTIFIED
14673,MENOMONEE PLACE,N84 W17147 MENOMONEE AVE,MENOMONEE FALLS,WI,53051-,(262) 255-4441,WAUKESHA,TAMARACK AID OPCO LLC,REGISTERED
10336,LINDENRIDGE,841 E VETERANS WAY,MUKWONAGO,WI,53149-,(262) 363-6830,WAUKESHA,LINDENGROVE INC,CERTIFIED
17260,HERITAGE MUSKEGO,S64 W13780 JANESVILLE RD,MUSKEGO,WI,53150,(414) 425-7155,WAUKESHA,HSL16 LLC,CERTIFIED
10349,PRO HEALTH CARE REGENCY SENIOR COMM MUSKEGO,W181 S8540 LODGE BLVD,MUSKEGO,WI,53150-,(262) 679-0888,WAUKESHA,NATIONAL REGENCY OF NEW BERLIN INC,CERTIFIED
10499,TUDOR OAKS,S77 W12929 MCSHANE DR,MUSKEGO,WI,53150-,(414) 529-0100,WAUKESHA,AMERICAN BAPTIST HOMES OF THE MIDWEST,REGISTERED
14206,TUDOR OAKS WINDSOR HOUSE,S77 W12929 MCSHANE DR,MUSKEGO,WI,53150-,(414) 529-0100,WAUKESHA,AMERICAN BAPTIST HOMES OF THE MIDWEST,CERTIFIED
14205,TUDOR OAKS WINDSOR MANOR,S77 W12929 MCSHANE DR,MUSKEGO,WI,53150-,(414) 529-0100,WAUKESHA,AMERICAN BAPTIST HOMES OF THE MIDWEST,CERTIFIED
13469,HERITAGE AT DEER CREEK,3585 S 147TH ST,NEW BERLIN,WI,53151-,(262) 789-6600,WAUKESHA,HERITAGE-2 LLC,CERTIFIED
10354,PRO HEALTH CARE REGENCY SENIOR COM NEW BERLIN,13750 W NATIONAL AVE,NEW BERLIN,WI,53151-,(262) 789-1699,WAUKESHA,NATIONAL REGENCY OF NEW BERLIN INC,CERTIFIED
18397,EVIN AT OCONOMOWOC SENIOR LIVING,1101 SILVER LAKE STREET,OCONOMOWOC,WI,53066,(262) 320-3846,WAUKESHA,KORU HEALTH LLC,CERTIFIED
16646,LAKE TERRACE APARTMENTS EAST,1340 WEST WISCONSIN AVENUE,OCONOMOWOC,WI,53066,(262) 560-6913,WAUKESHA,LUTHERAN HOMES OF OCONOMOWOC INC,CERTIFIED
10358,SHOREHAVEN TOWER,1305 W WISCONSIN AVE,OCONOMOWOC,WI,53066-,(262) 567-8341,WAUKESHA,LUTHERAN HOMES OF OCONOMOWOC INC,CERTIFIED
10378,WILKINSON WOODS V LLC,999 EAST SUMMIT AVE,OCONOMOWOC,WI,53066-,(262) 567-1166,WAUKESHA,WILKINSON WOODS V LLC,CERTIFIED
17007,CECELIA PLACE ASSISTED LIVING,1061 CECELIA DR,PEWAUKEE,WI,53072,(262) 695-6408,WAUKESHA,CECELIA SENIOR HOMES OF WEST ALLIS INC,REGISTERED
10324,KIRKLAND CROSSINGS RCAC,700 QUINLAN DR,PEWAUKEE,WI,53072-,(262) 695-5802,WAUKESHA,PRESBYTERIAN HOMES PARTNERS,CERTIFIED
14153,MATTHEWS OF PEWAUKEE RCAC,1109 CECELIA DR,PEWAUKEE,WI,53072-,(262) 695-6413,WAUKESHA,MATTHEWS SENIOR HOUSING LLC,CERTIFIED
16878,LAKE COUNTRY LANDING,2255 N STONEHEDGE TRL,SUMMIT,WI,53066,(262) 567-4912,WAUKESHA,NSH OCONOMOWOC LLC,CERTIFIED
11712,AVALON SQUARE,222 PARK PL,WAUKESHA,WI,53186-,(262) 446-9300,WAUKESHA,PRESBYTERIAN HOMES & SERVICES,CERTIFIED
13325,LINDENHEIGHTS RCAC,427 N UNIVERSITY DR,WAUKESHA,WI,53188-,(262) 524-6400,WAUKESHA,LINDENGROVE INC,CERTIFIED
18219,NEW PERSPECTIVE WAUKESHA,1701 EAST BROADWAY,WAUKESHA,WI,53186,(262) 955-1998,WAUKESHA,WAUKESHA OPS LLC,CERTIFIED
10356,OAK HILL TERRACE RCAC,1805 KENSINGTON DR,WAUKESHA,WI,53188-,(262) 548-1457,WAUKESHA,OAK HILL TERRACE V LLC,CERTIFIED
17241,SUMMIT WOODS,2501 SUMMIT AVE,WAUKESHA,WI,53188,(262) 521-1388,WAUKESHA,CHIARA COMMUNITIES INC,CERTIFIED
15337,ASTER ASSISTED LIVING OF CLINTONVILLE,38 N MAIN ST,CLINTONVILLE,WI,54929,(715) 823-4344,WAUPACA,ASHFORD MARTIN CORPORATION,CERTIFIED
11839,LIVING OAKS,505 WEST IOLA STREET,IOLA,WI,54945,(715) 445-4440,WAUPACA,IOLA LIVING ASSISTANCE INC,CERTIFIED
11417,WASHINGTON CENTER THE,500 W WASHINGTON ST,NEW LONDON,WI,54961,(920) 982-5354,WAUPACA,ST JOSEPH RESIDENCE THE WASHINGTON CENTER INC,CERTIFIED
10360,BETHANY PINES,50 SHADOW WOODS LANE,WAUPACA,WI,54981,(715) 258-5521,WAUPACA,BETHANY HOME INC,REGISTERED
15200,PARK VISTA RETIREMENT LIVING WAUPACA,950 COUNTY RD QQ,WAUPACA,WI,54981,(715) 256-0100,WAUPACA,PARK VISTA SENIOR HOUSING MANAGEMENT LLC,CERTIFIED
14633,PRESTON PLACE RCAC,401 PRESTON LN,REDGRANITE,WI,54970,(920) 566-0790,WAUSHARA,PRESTON PLACE INC,CERTIFIED
14478,HEARTLAND HOUSE RCAC,668 W CUMMINGS RD,WAUTOMA,WI,54982,(920) 787-2467,WAUSHARA,HEARTLAND HOUSE INC,CERTIFIED
12407,SILVER LAKE MANOR RCAC,N2641 17TH LANE,WAUTOMA,WI,54982,(920) 787-7141,WAUSHARA,SILVER LAKE MANOR LLC,CERTIFIED
10366,HERITAGE ASSISTED LIVING,2600 S HERITAGE WOODS DR,APPLETON,WI,54915-,(920) 738-3000,WINNEBAGO,THEDACARE INC,REGISTERED
10375,TOUCHMARK ON WEST PROSPECT,2601 TOUCHMARK DR,APPLETON,WI,54914-,(920) 832-9100,WINNEBAGO,TOUCHMARK ON WEST PROSPECT LLC,REGISTERED
10359,ALEXANDRITE MANOR VNA APARTMENTS,1537 LYON DRIVE,NEENAH,WI,54956-,(920) 727-5544,WINNEBAGO,VNA APARTMENTS INC,REGISTERED
18450,EMERALD RIDGE OF NEENAH,130 BYRD AVE,NEENAH,WI,54956,(920) 722-5100,WINNEBAGO,IVY LANE LLC,CERTIFIED
14664,ISLAND SHORES,131 E NORTH WATER ST,NEENAH,WI,54956-,(920) 980-4055,WINNEBAGO,SL NEENAH LLC,CERTIFIED
14668,BELLA VISTA,631 HAZEL ST,OSHKOSH,WI,54901-,(920) 233-6667,WINNEBAGO,SL HAZEL OSHKOSH LLC,CERTIFIED
10361,EVERGREEN GARDEN PLACE,1130 NORTH WESTFIELD STREET,OSHKOSH,WI,54901-,(920) 426-7366,WINNEBAGO,EVERGREEN RETIREMENT COMMUNITY INC,REGISTERED
10363,GABRIELS VILLA,215 N WESTFIELD ST,OSHKOSH,WI,54902-,(920) 236-0700,WINNEBAGO,LUTHERAN HOMES OF OSHKOSH INC,REGISTERED
12240,ASTER ASSISTED LIVING OF MARSHFIELD,305 S CHESTNUT AVENUE,MARSHFIELD,WI,54449-,(715) 384-6611,WOOD,ASHFORD MARTIN CORP,CERTIFIED
16877,NEKOOSA COURT,145 N CEDAR ST,NEKOOSA,WI,54457,(715) 886-5353,WOOD,NSH NEKOOSA LLC,CERTIFIED
12659,ARBORWOOD LODGE,1175 BLUE IRIS CT,WISCONSIN RAPIDS,WI,54494-,(715) 712-1299,WOOD,CRYSTAL FOUNTAINS ASSISTED LIVING LLC,CERTIFIED
16627,HILLTOP GRAND VILLAGE INC,1400 24TH ST S,WISCONSIN RAPIDS,WI,54494,(715) 423-7400,WOOD,HILLTOP GRAND VILLAGE INC,CERTIFIED
13051,RENAISSANCE (THE),1500 PEPPER AVE,WISCONSIN RAPIDS,WI,54494-,(715) 424-6500,WOOD,RENNES ASSISTED LIVING CORP,CERTIFIED
17953,RIVER RUN ASSISTED LIVING,1400 RIVER RUN DR,WISCONSIN RAPIDS,WI,54494,(715) 421-1400,WOOD,NSH WISCONSIN RAPIDS RIVER RUN LLC,REGISTERED