Facility ID,State Facility Type 1 Literal,Facility Name,Address,City,State,Zip,County,Capacity,License Number,Phone Number,Email Address,Licensee,Ownership Type
UT000146,AL2,ABBINGTON MANOR AL II,215 NORTH CENTER STREET,LEHI,UT,84043,UTAH,33,2020-ALII-104071,(801) 768-3900,rwalker@theabbington.com,"LEHI ALOP, LLC",FOR PROFIT - C
UT207237,AL2,ABBINGTON MANOR MEMORY CARE,855 WEST 1500 NORTH,LEHI,UT,84043,UTAH,16,2020-ALII-104060,(801) 768-3900,ed@abbingtonlehi.com,"LEHI ALOP, LLC",FOR PROFIT - C
UT207323,AL2,ALTA RIDGE - SANDY AL,1360 EAST 9400 SOUTH,SANDY,UT,84093,SALT LAKE,46,2020-ALII-UT207323,(801) 571-1010,kaylyn@altaridgeassistedliving.com,"MRSC UT SANDY AL MASTER TENANT, LLC",FOR PROFIT - C
UT207322,AL2,ALTA RIDGE-SANDY MC,1375 EAST 9400 SOUTH,SANDY,UT,84093,SALT LAKE,31,2020-ALII-UT207322,(801) 523-0384,trevor@altaridgeassistedliving.com,"MRSC UT SANDY MC MASTER TENANT, LLC",FOR PROFIT-PAR
UT207227,AL2,APPLE VILLAGE ASSISTED LIVING,2600 EAST HOBBS VIEW CIRCLE,LAYTON,UT,84040,DAVIS,90,2020-ALII-954,(801) 771-2525,John@senis.com,APPLE VILLAGE ASSISTED LIVING,FOR PROFIT - C
UT000759,AL2,ASHFORD ASSISTED LIVING & MEMORY CARE OF SPRINGVIL,333 SOUTH 950 WEST,SPRINGVILLE,UT,84663,UTAH,95,2020-ALII-UT000759,(801) 489-1940,riley@ashfordutah.com,"COWHORN, LLC",FOR PROFIT - C
UT000876,AL2,"ASHFORD MEMORY CARE, INC",14178 SOUTH BANGERTER PARKWAY,DRAPER,UT,84020,SALT LAKE,90,2020-ALII-UT000876,(801) 523-1600,jace@ashfordutah.com,"ASHFORD MEMORY CARE, INC.",
UT000600,AL2,"ASPEN PARK ASSISTED LIVING, LLC",2325 MADISON AVENUE,OGDEN,UT,84401,WEBER,40,2021-ALII-UT000600,(801) 399-5846,admin.aspenpar@appianmanagement.com,"ASPEN PARK INVESTMENT, LLC",FOR PROFIT - C
UT000711,AL2,AUTUMN CARE 2 LIVING CENTER,280 EAST 4000 NORTH,HYDE PARK,UT,84318,CACHE,16,2020-ALII-UT000711,(435) 563-3333,autumncare1@gmail.com,AUTUMN CARE LIVING CENTER,NON PROFIT-COR
UT000673,AL2,AUTUMN CARE LIVING CENTER,290 EAST 4000 NORTH,HYDE PARK,UT,84318,CACHE,16,2020-ALII-UT000673,(435) 563-3333,autumncare1@gmail.com,"AUTUMN CARE LIVING CENTER, LLC",FOR PROFIT - C
UT000820,AL2,AUTUMN PARK ASSISTED LIVING LLC,548 NORTH 1100 EAST,WASHINGTON,UT,84780,WASHINGTON,16,2021-ALII-UT000820,(435) 275-4458,chrisjholub@gmail.com,AUTUMN PARK ASSISTED LIVING LLC,FOR PROFIT - C
UT207344,AL2,AVAMERE AT MOUNTAIN RIDGE,1885 EAST SKYLINE DRIVE,SOUTH OGDEN,UT,84403,WEBER,119,2020-ALII-UT207344,(801) 475-5111,jdelvecchio@avamere.com,"ARI CBC, LLC",FOR PROFIT - C
UT000751,AL2,BARRINGTON PLACE ALZHEIMER'S SPECIAL CARE CENTER,1404 NORTH 2000 WEST,CLINTON,UT,84015,DAVIS,66,2020-ALII-UT000751,(801) 525-9177,dale.parker@jeaseniorliving.com,"SHI BARRINGTON PLACE, LLC",FOR PROFIT - C
UT000836,AL2,"BEACON CREST MANAGEMENT OF DRAPER, LLC",591 EAST PIONEER ROAD,DRAPER,UT,84020,SALT LAKE,25,2019-ALII-UT000836,(801) 951-1300,davidm@beaconcrest.com,"BEACON CREST MANAGEMENT, LLC",FOR PROFIT - C
UT000339,AL2,BEEHIVE HOMES OF AMERICAN FORK SOUTH BUILDING TWO,164 WEST 200 SOUTH,AMERICAN FORK,UT,84003,UTAH,16,2021-ALII-104705,(801) 216-4110,carrie.brown@welbrook.com,"TIMPANOGOS TERRACE ASSISTED LIVING, LLC",FOR PROFIT - C
UT000798,AL2,BEEHIVE HOMES OF CEDAR CITY #3,432 WEST 1325 NORTH,CEDAR CITY,UT,84721,IRON,30,2020-ALII-UT000798,(435) 867-8641,acarlile@beehivehomes.com,"VAN DORN LAND HOLDINGS, LLC",FOR PROFIT - C
UT000407,AL2,BEEHIVE HOMES OF DRAPER,711 EAST PIONEER ROAD,DRAPER,UT,84020,SALT LAKE,19,2021-ALII-95437,(801) 381-2041,s_ketcher@comcast.net,BEEHIVE HOMES OF DRAPER,FOR PROFIT-PAR
UT000646,AL2,BEEHIVE HOMES OF DRAPER #2,707 EAST PIONEER RD,DRAPER,UT,84020,SALT LAKE,16,2019-ALII-UT000646,(801) 381-2041,s_ketcher@comcast.net,BEEHIVE HOMES OF DRAPER,FOR PROFIT - C
UT000512,AL2,BEEHIVE HOMES OF EAST MILLCREEK,3681 SOUTH 2300 EAST,SALT LAKE CITY,UT,84109,SALT LAKE,16,2021-ALII-UT000512,(801) 272-2290,syoung@ashsco.com,ALL SEASONS HEALTH SERVICES COMPANY,FOR PROFIT - C
UT000651,AL2,BEEHIVE HOMES OF HERRIMAN #1,6352 WEST 13100 SOUTH,HERRIMAN,UT,84096,SALT LAKE,24,2020-ALII-UT000651,(801) 703-4779,beehivehomesherriman@gmail.com,CMAK HOLDINGS LLC,FOR PROFIT - C
UT000881,AL2,BEEHIVE HOMES OF KANAB AL2,1364 SOUTH POWELL DRIVE,KANAB,UT,84741,KANE,7,2020-ALII-UT000881,(435) 644-8100,chad@beehivehomes.com,"CARE AGE PROPERTIES, LLC",
UT000479,AL2,BEEHIVE HOMES OF LEHI,322 NORTH 2375 WEST,LEHI,UT,84043,UTAH,20,2021-ALII-UT000479,(801) 766-6689,ashlee@ashsco.com,ALL SEASONS HEALTH SERVICES COMPANY,FOR PROFIT - C
UT000492,AL2,BEEHIVE HOMES OF NAPLES,1923 EAST 2000 SOUTH,VERNAL,UT,84078,UINTAH,16,2021-ALII-UT000492,(435) 789-6789,beehiveofvernal@gmail.com,"4 HALLS ENTERPRISES, INC.",
UT000672,AL2,BEEHIVE HOMES OF PARK CITY,241 WEST HIGHLAND DRIVE,PARK CITY,UT,84098,SUMMIT,20,2021-ALII-UT000672,(435) 649-0977,awatson@ashsco.com,"MERCHANT MANAGEMENT, LLC",
UT000538,AL2,BEEHIVE HOMES OF PAYSON,661 EAST 700 SOUTH,PAYSON,UT,84651,UTAH,21,2021-ALII-UT000538,(801) 658-5025,dennismcgraw@beehivehomes.com,DMLM LLC,FOR PROFIT - C
UT000518,AL2,BEEHIVE HOMES OF PERRY,126 WEST 1550 SOUTH,PERRY,UT,84302,BOX ELDER,20,2020-ALII-UT000518,(435) 723-1724,jbischoff@ashsco.com,"ORCHARD HOLLOW LAND HOLDINGS, LLC",FOR PROFIT-IND
UT000742,AL2,BEEHIVE HOMES OF PROVO #2,3144 WEST CENTER STREET,PROVO,UT,84601,UTAH,24,2019-ALII-UT000742,(801) 607-2531,beehivehomesofprovo@gmail.com,BEEHIVE HOMES OF UTAH VALLEY,FOR PROFIT - C
UT000825,AL2,BEEHIVE HOMES OF RIVERTON,12524 SOUTH DOREEN DRIVE,RIVERTON,UT,84065,SALT LAKE,18,2020--UT000825,(801) 253-2237,jhernandez@beehivehomes.com,"HERNANDEZ & ROBLES PROPERTY & BUILDING, LLC",FOR PROFIT - C
UT000537,AL2,BEEHIVE HOMES OF SALEM II,1015 SOUTH 550 WEST,SALEM,UT,84653,UTAH,4,2020-ALII-UT000537,(801) 423-2305,dennismcgraw@beehivehomes.com,DMLM LLC,FOR PROFIT - C
UT000769,AL2,BEEHIVE HOMES OF SALT LAKE,2891 SOUTH 2000 EAST,SALT LAKE CITY,UT,84109,SALT LAKE,24,2021-ALII-UT000769,(801) 272-2290,syoung@ashsco.com,ALL SEASONS HEALTH SERVICES COMPANY,FOR PROFIT - C
UT207340,AL2,BEEHIVE HOMES OF SANTAQUIN,409 SOUTH 300 WEST,SANTAQUIN,UT,84655,UTAH,20,2021-ALII-UT207340,(801) 754-3997,dennismcgraw@beehivehomes.com,BEEHIVE HOMES OF SANTAQUIN,
UT000847,AL2,BEEHIVE HOMES OF SOUTH JORDAN,3430 WEST 11400 SOUTH,SOUTH JORDAN,UT,84095,SALT LAKE,30,2019-ALII-UT000847,(801) 996-3777,tina@beehivehomes.com,"DTAJRM, LLC",FOR PROFIT - C
UT000760,AL2,BEEHIVE HOMES OF SPANISH FORK,858 EAST 100 SOUTH,SPANISH FORK,UT,84660,UTAH,16,2019-ALII-UT000760,(801) 798-8188,dennismcgraw@beehivehomes.com,DMLM LLC,FOR PROFIT - C
UT207327,AL2,BEEHIVE HOMES OF ST GEORGE #2,1555 WEST 1170 NORTH,ST GEORGE,UT,84770,WASHINGTON,15,2019-ALII-UT207327,(435) 634-8321,chad@beehivehomes.com,"CAREAGE PROPERTIES, LLC",FOR PROFIT - C
UT000778,AL2,BEEHIVE HOMES OF SYRACUSE,1407 SOUTH 2000 WEST,SYRACUSE,UT,84075,DAVIS,22,2020-ALII-UT000778,(801) 776-7000,jcraythorne@hotmail.com,SEVIER CANYON PROPERTIES LLC,FOR PROFIT - C
UT000270,AL2,BEEHIVE HOMES OF VERNAL,540 SOUTH 2050 WEST,VERNAL,UT,84078,UINTAH,16,2020-ALII-UT000270,(435) 789-3456,beehiveofvernal@gmail.com,"4 HALLS ENTERPRISES, INC.",FOR PROFIT-PAR
UT000246,AL2,BEEHIVE HOMES OF WASHINGTON COUNTY #6,"2041 SOUTH MESA PALMS DRIVE, BUILDING B",ST GEORGE,UT,84770,WASHINGTON,14,2019-ALII-UT000246,(435) 619-1909,shorne@beehivehomes.com,JOEL C. HORNE & CO. INC.,FOR PROFIT - C
UT000317,AL2,BEEHIVE HOMES OF WASHINGTON COUNTY #7,1078 NORTH CORAL CANYON BOULEVARD,WASHINGTON,UT,84780,WASHINGTON,16,2019-ALII-UT000317,(435) 619-1909,shorne@beehivehomes.com,JOEL C. HORNE & CO. INC.,FOR PROFIT - C
UT000464,AL2,BEEHIVE HOMES OF WASHINGTON COUNTY #8,2397 SOUTH RIVER ROAD,ST GEORGE,UT,84790,WASHINGTON,16,2019-ALII-UT000464,(435) 619-1909,shorne@beehivehomes.com,JOEL C. HORNE & CO. INC.,FOR PROFIT - C
UT000954,AL2,BEEHIVE HOMES OF WASHINGTON COUNTY #9,"831 SOUTH 700 WEST, BUILDING B",HURRICANE,UT,84737,WASHINGTON,15,2020-ALII-UT000954,(435) 627-0023,shorne@beehivehomes.com,"JOEL C. HORNE & CO., INC.",
UT000123,AL2,BEEHIVE HOMES OF WASHINGTON COUNTY IV,"2041 SOUTH MESA PALMS DRIVE, BUILDING A",ST GEORGE,UT,84770,WASHINGTON,14,2019-ALII-UT000123,(435) 619-1909,shorne@beehivehomes.com,JOEL C. HORNE & CO. INC.,FOR PROFIT - C
UT000266,AL2,BEEHIVE HOMES OF WEST JORDAN #3,8892 SOUTH 2700 WEST,WEST JORDAN,UT,84088,SALT LAKE,32,2021-ALII-UT000266,(801) 569-2771,rebecca@ashsco.com,"KNIGHTSHAYES LAND HOLDINGS, LLC",FOR PROFIT - C
UT207328,AL2,BEL AIRE SENIOR LIVING,1088 EAST 390 SOUTH,AMERICAN FORK,UT,84003,UTAH,61,2020-ALII-46759,(801) 763-0622,steve@belaire-assistedliving.com,BEL AIRE SENIOR LIVING LLC,FOR PROFIT - C
UT000933,AL2,BELLAVIEW ASSISTED LIVING AND MEMORY CARE,1049 WEST 3200 NORTH,LEHI,UT,84043,UTAH,73,2020-ALII-UT000933,(801) 980-8100,info@bellaviewassistedliving.com,BELLAVIEW AL MANAGEMENT LC,
UT000951,AL2,BIRCH CREEK ASSISTED LIVING,532 SOUTH MAIN STREET,SMITHFIELD,UT,84335,CACHE,56,2020-ALII-UT000951,(435) 554-1776,chris@birchcreekassistedliving.com,"BIRCH CREEK ASSISTED LIVING, LLC",
UT000827,AL2,BLACKSMITH FORK ASSISTED LIVING,680 EAST MAIN STREET,HYRUM,UT,84319,CACHE,40,2020--UT000827,(435) 994-3000,jordan@blacksmithforkassistedliving.com,"HALC, LLC",FOR PROFIT - C
UT207317,AL2,BRIGHTON HOUSE OF RIVERTON,12894 SOUTH 1615 WEST,RIVERTON,UT,84065,SALT LAKE,16,2020-ALII-UT207317,(801) 254-8966,Ervlogan@gmail.com,"BRIGHTON HOUSE ASSISTED LIVING, LLC",FOR PROFIT - C
UT207335,AL2,BROOKDALE CEDAR CITY,995 SOUTH REGENCY ROAD,CEDAR CITY,UT,84720,IRON,75,2020-ALII-97340,(435) 867-0055,bparker4@brookdale.com,"EMERITUS CORPORATION, LLC",FOR PROFIT - C
UT207239,AL2,CACHE VALLEY ASSISTED LIVING,233 NORTH MAIN STREET,PROVIDENCE,UT,84332,CACHE,54,2021-ALII-UT207239,(435) 792-4770,kari@cachevalleyassistedliving.com,"MRSC UT CACHE VALLEY MASTER TENANT, LLC",FOR PROFIT - C
UT207233,AL2,CANYON BREEZE SENIOR LIVING,380 EAST 240 NORTH,OREM,UT,84057,UTAH,21,2021-ALII-772,(801) 226-8338,canyonbreezesl@gmail.com,CANYON BREEZE SENIOR LIVING LLC,FOR PROFIT - C
UT207329,AL2,CAPITOL HILL SENIOR LIVING,76 SOUTH 500 EAST,SALT LAKE CITY,UT,84102,SALT LAKE,127,2021-ALII-UT207329,(801) 359-0050,CapitolHill.ED@stellarliving.com,"S-H OPCO SALT LAKE CITY, LLC",FOR PROFIT - C
UT000350,AL2,CARRINGTON COURT,1928 WEST 9800 SOUTH,SOUTH JORDAN,UT,84095,SALT LAKE,105,2020-ALII-88785,(801) 676-8787,michaelm@carringtoncourtal.com,"CARRINGTON COURT, LLC",
UT207228,AL2,CEDARWOOD AT SANDY ASSISTED LIVING,625 EAST 11000 SOUTH,SANDY,UT,84070,SALT LAKE,95,2019-ALII-UT207228,(801) 572-4456,austin.sorenson@kiscosl.com,"KC SANDY, LLC",FOR PROFIT - C
UT207331,AL2,CHANCELLOR GARDENS OF CLEARFIELD,1425 SOUTH 1500 EAST,CLEARFIELD,UT,84015,DAVIS,152,2021-ALII-UT207331,(801) 779-0798,rodneywashburn@mbk.com,S-H CLEARFIELD OPCO LLC,FOR PROFIT - C
UT207332,AL2,COTTAGE GLEN,1892 NORTH AARON DRIVE,TOOELE,UT,84074,TOOELE,56,2019-ALII-36706,(435) 882-7990,bomcottageglen@seniormc.net,"TOOELE SENIOR COTTAGES, LLC",FOR PROFIT - C
UT000597,AL2,COTTONWOOD CREEK II,1245 EAST MURRAY HOLLADAY ROAD,SALT LAKE CITY,UT,84117,SALT LAKE,16,2021-ALII-UT000597,(801) 263-0999,morganware@mbk.com,"SSSHT OPCO 1245 E MURRAY HOLLADAY ROAD, LLC",FOR PROFIT - C
UT000308,AL2,"COUNTRY HOME ASSISTED LIVING, INC",565 EAST MEDICAL DRIVE,BOUNTIFUL,UT,84010,DAVIS,11,2021-ALII-UT000308,(385) 206-3679,gildamcbride@gmail.com,COUNTRY OAKS ASSISTED LIVING OF BOUNTIFUL,NON PROFIT-OTH
UT000284,AL2,COUNTRY LANE OF CENTRAL SANDY,9532 SOUTH 700 EAST,SANDY,UT,84070,SALT LAKE,16,2021-ALII-UT000284,(801) 572-1298,kadielynn.countrylane@gmail.com,"COUNTRY LANE SANDY HOLDING, LLC",FOR PROFIT - C
UT207200,AL2,COUNTRY PINES RETIREMENT HOME,1748 WEST 1800 NORTH,CLINTON,UT,84015,DAVIS,66,2020-ALII-540,(801) 773-1649,andrea@countrypines.org,COUNTRY PINES LIMITED PARTNERSHIP,FOR PROFIT-PAR
UT000676,AL2,COUNTRY VIEW ASSISTED LIVING,2901 WEST CENTER STREET,PROVO,UT,84601,UTAH,25,2020-ALII-UT000676,(801) 377-7737,director@countryviewliving.com,COUNTRY VIEW ASSISTED LIVING LLC,FOR PROFIT - C
UT207334,AL2,COURTYARD AT JAMESTOWN ASSISTED LIVING,3352 NORTH 100 EAST,PROVO,UT,84604,UTAH,162,2020-ALII-UT207334,(801) 377-3730,mhohrein@stellarliving.com,"JAMESTOWN OPERATIONS, LLC",FOR PROFIT - C
UT000819,AL2,COVINGTON SENIOR LIVING,1925 NORTH STATE STREET,OREM,UT,84057,UTAH,102,2020-ALII-UT000819,(801) 494-2020,tylyn@covingtonliving.com,MIC ROCK SENIOR CARE,FOR PROFIT - C
UT000856,AL2,COVINGTON SENIOR LIVING OF LEHI,301 NORTH 1200 EAST,LEHI,UT,84043,UTAH,119,2020-ALII-UT000856,(385) 484-8899,barry@covingtonliving.com,COVINGTON SENIOR LIVING,FOR PROFIT - C
UT000121,AL2,COVINGTON VILLAGE,92 SOUTH 800 EAST,OREM,UT,84097,UTAH,32,2021-ALII-UT000121,(801) 494-2042,sarahc@covingtonliving.com,"M, LLC",FOR PROFIT-PAR
UT000846,AL2,CREEKSIDE SENIOR LIVING,430 WEST 400 NORTH,BOUNTIFUL,UT,84010,DAVIS,160,2020-ALII-UT000846,(801) 294-0303,chuskinson@stellarliving.com,"CREEKSIDE OPERATIONS, LLC",FOR PROFIT - C
UT000367,AL2,DIAMOND JANE'S ASSISTED LIVING,345 SOUTH HALE STREET,GRANTSVILLE,UT,84029,TOOELE,16,2020-ALII-90309,(435) 249-0394,michelle@diamondjanes.com,"BS DIAMOND PROPERTIES, LLC",
UT207356,AL2,ELK MEADOWS ASSISTED LIVING AND MEMORY CARE,4200 NORTH 400 WEST,OAKLEY,UT,84055,SUMMIT,50,2021-ALII-UT207356,(435) 783-5575,alnurse@elkmeadowsalf.com,"COLINA OAKLEY PROPCO, LLC",FOR PROFIT - C
UT000612,AL2,ELK RIDGE ASSISTED LIVING,218 WEST OLYMPIC LANE,ELK RIDGE,UT,84651,UTAH,33,2021-ALII-UT000612,(801) 504-6091,elkridgeassistedliving@yahoo.com,ELK RIDGE ASSISTED LIVING,FOR PROFIT - C
UT000438,AL2,FAIRFIELD VILLAGE OF LAYTON,1201 NORTH FAIRFIELD ROAD,LAYTON,UT,84041,DAVIS,112,2019-ALII-UT000438,(801) 807-0112,awilliams@fairfieldvillagelayton.com,CHP LAYTON UT TENANT CORP.,FOR PROFIT - C
UT000363,AL2,FAMILY TREE OF MORGAN,862 EAST MAHOGANY RIDGE ROAD,MORGAN,UT,84050,MORGAN,47,2020-ALII-89705,(801) 829-5120,jenny@familytreeliving.com,"FAMILY TREE AT MORGAN, LLC",FOR PROFIT - C
UT000207,AL2,FAMILY TREE OF WEST POINT,421 NORTH 3150 WEST,WEST POINT,UT,84015,DAVIS,39,2019-ALII-75856,(801) 775-8733,Jenny@familytreeliving.com,"FAMILY TREE AT WEST POINT, LLC",FOR PROFIT - C
UT000695,AL2,GABLES OF BRIGHAM CITY,997 SOUTH 800 WEST,BRIGHAM CITY,UT,84302,BOX ELDER,45,2020-ALII-UT000695,(435) 239-8780,jfromm.gables@gmail.com,ENSIGN ASSISTED LIVING LLC,FOR PROFIT - C
UT000560,AL2,GABLES OF NORTH LOGAN ASSISTED LIVING,455 EAST 2500 NORTH,N LOGAN,UT,84341,CACHE,16,2020-ALII-UT000560,(435) 258-8828,rspackman@thegablesfamily.com,"GABLES HOLDINGS, LLC",FOR PROFIT - C
UT000276,AL2,GOLDEN SKYLINE ASSISTED LIVING #2,76 NORTH 100 WEST,EPHRAIM,UT,84627,SANPETE,16,2019-ALII-UT000276,(435) 283-4922,admin@GSALteam.com,"RICHARD AND BONNIE NIELSON, LLC",FOR PROFIT - C
UT000168,AL2,GOOD LIFE SENIOR LIVING MOUNT PLEASANT,160 EAST 200 NORTH,MOUNT PLEASANT,UT,84647,SANPETE,16,2021-ALII-UT000168,(435) 462-9494,carolyn.countrylane@gmail.com,"PROCARE, LLC",
UT000275,AL2,GOOD LIFE SENIOR LIVING PRICE,1025 WEST 470 NORTH,PRICE,UT,84501,CARBON,16,2020-ALII-UT000275,(435) 636-4483,adminprice@goodlifeofutah.com,"CEDAR MOUNTAIN ESTATES, LLC",FOR PROFIT - C
UT000965,AL2,HARMONY HILLS ASSISTED LIVING - DRAPER,1393 EAST PIONEER ROAD,DRAPER,UT,84020,SALT LAKE,96,2020-ALII-UT000965,(385) 386-3003,lindsey@harmonyhillsassistedliving.com,,
UT000849,AL2,HARMONY HILLS MIDVALE,6968 SOUTH 700 WEST,MIDVALE,UT,84047,SALT LAKE,45,2021-ALII-UT000849,(385) 722-9700,k.lackey@harmonyhillsassistedliving.com,HHALMID,FOR PROFIT - C
UT000794,AL2,HARMONY HILLS OF LEHI,564 WEST MAIN STREET,LEHI,UT,84043,UTAH,62,2021-ALII-UT000794,(801) 753-7355,lindsey@harmonyhillsassistedliving.com,"HHLA UTAH, INC.",FOR PROFIT - C
UT000892,AL2,HAVEN AT SKY MOUNTAIN,2192 WEST 100 NORTH,HURRICANE,UT,84737,WASHINGTON,90,2020-ALII-UT000892,(435) 674-7883,apalmer@havenassistedliving.com,HAVEN AT SKY MOUNTAIN,FOR PROFIT - C
UT207337,AL2,HEARTHSTONE MANOR ASSISTED LIVING,1424 SOUTH 1700 EAST,SPANISH FORK,UT,84660,UTAH,32,2021-ALII-UT207337,(801) 798-1500,hsm.utah@gmail.com,"C&C ASSISTED LIVIING MANOR, LLC",FOR PROFIT - C
UT207325,AL2,HEBER VALLEY ASSISTED LIVING,905 SOUTHFIELD ROAD,HEBER CITY,UT,84032,WASATCH,16,2021-ALII-67540,(435) 657-2536,hvalstacy@gmail.com,SANTE ASSISTED LIVING HEBER LLC,FOR PROFIT - C
UT207336,AL2,HEIRLOOM INN,145 NORTH CARBON AVENUE,PRICE,UT,84501,CARBON,75,2021-ALII-16260,(435) 636-8441,heirloom2000@gmail.com,HEIRLOOM INN INC.,FOR PROFIT - C
UT000839,AL2,"HERITAGE GARDENS OF SPRINGVILLE, UTAH, LLC",321 EAST 800 SOUTH,SPRINGVILLE,UT,84663,UTAH,30,2021-ALII-UT000839,(801) 489-3344,rebeccavomdorp@gmail.com,"HERITAGE GARDENS OF SPRINGVILLE, UTAH, LLC",FOR PROFIT - C
UT000823,AL2,"HIDDEN VALLEY ASSISTED LIVING, LLC",1367 SHADOW VALLEY DRIVE,OGDEN,UT,84403,WEBER,62,2021-ALII-UT000823,(801) 689-0500,buffy@hiddenvalleyassistedliving.com,SHADOW VALLEY LAND HOLDING LLC,FOR PROFIT - C
UT000455,AL2,HIGHLAND GLEN,10322 NORTH 4800 WEST,HIGHLAND,UT,84003,UTAH,72,2021-ALII-UT000455,(801) 610-3500,johnorten@mbk.com,S-H ASHFORD OPCO LLC,FOR PROFIT - C
UT207236,AL2,LAKE RIDGE SENIOR LIVING - NORTH,960 SOUTH GENEVA ROAD,OREM,UT,84058,UTAH,35,2021-ALII-UT207236,(801) 225-6559,cacorry@ensignservices.net,"MOUNTAIN VIEW RETIREMENT, INC.",FOR PROFIT - C
UT000633,AL2,LAUREL GROVES ASSISTED LIVING CENTER,549 NORTH 400 EAST,NEPHI,UT,84648,JUAB,34,2019-ALII-UT000633,(435) 623-5000,mercy1956@msn.com,"OLD HOSPITAL SQUARE, LLC",FOR PROFIT - C
UT000738,AL2,"LAYTON PARK MEMORY CARE, LLC","101 NORTH FORT LANE, SUITE 200",LAYTON,UT,84041,DAVIS,16,2021-ALII-UT000738,(801) 448-0955,admin.laytonpark@appianmanagement.com,"LAYTON PARK ASSISTED LIVING, LLC",FOR PROFIT-PAR
UT207341,AL2,LEGACY HOUSE ASSISTED LIVING OF SOUTH JORDAN,1517 WEST TEMPLE LANE,SOUTH JORDAN,UT,84095,SALT LAKE,87,2021-ALII-17895,(801) 254-0373,roseb@wslm.biz,"JORDAN HOUSE ASSISTED LIVING, LC",NON PROFIT-OTH
UT207231,AL2,LEGACY HOUSE OF BOUNTIFUL,79 EAST CENTER STREET,BOUNTIFUL,UT,84010,DAVIS,118,2019-ALII-971,(801) 294-2925,davidc@wslm.biz,LEGACY HOUSE OF BOUNTIFUL LLC,FOR PROFIT - C
UT207343,AL2,LEGACY HOUSE OF LOGAN ASSISTED LIVING,330 EAST 1400 NORTH,LOGAN,UT,84341,CACHE,110,2020-ALII-40714,(435) 755-2877,meagans@wslm.biz,"LOGAN HOUSE ASSISTED LIVING, LLC",FOR PROFIT - C
UT207352,AL2,LEGACY HOUSE OF OGDEN,5526 SOUTH ADAMS AVENUE,OGDEN,UT,84405,WEBER,91,2020-ALII-15869,(801) 476-7111,bradleyd@wslm.biz,WASHINGTON HOUSE LLC/WESTERN STATES LODGING,FOR PROFIT - C
UT000866,AL2,LEGACY HOUSE OF PARK LANE,547 NORTH STATION PARKWAY,FARMINGTON,UT,84025,DAVIS,150,2019-ALII-UT000866,(801) 939-4600,kylem@wslm.biz,WESTERN STATES LODGING AND MANAGEMENT,FOR PROFIT - C
UT000588,AL2,LEGACY HOUSE OF SPANISH FORK,1449 EAST 150 SOUTH,SPANISH FORK,UT,84660,UTAH,108,2020-ALII-UT000588,(801) 892-2000,scottc@wslm.biz,"SPANISH FORK ASSISTED LIVING, LLC",FOR PROFIT - C
UT000143,AL2,LEGACY HOUSE OF TAYLORSVILLE,6302 SOUTH GOLD MEDAL DRIVE,TAYLORSVILLE,UT,84129,SALT LAKE,105,2019-ALII-64351,(801) 327-8400,linn@wslm.biz,"LEGACY WEST ASSISTED LIVING, LLC",FOR PROFIT - C
UT000385,AL2,LEGACY VILLAGE MEMORY CARE,5472 SOUTH 3200 WEST,TAYLORSVILLE,UT,84129,SALT LAKE,42,2021-ALII-92169,(801) 613-4600,info@legacyrehabtaylorsville.com davidm1@wslm.biz,"LEGACY VILLAGE HEALTHCARE, LLC",FOR PROFIT - C
UT000714,AL2,LEGACY VILLAGE OF PROVO,4146 NORTH UNIVERSITY AVE,PROVO,UT,84604,UTAH,150,2020-ALII-UT000714,(801) 374-3384,jaredn@wslm.biz,"ORCHARD ESTATES ASSISTED LIVING I, LLC",FOR PROFIT - C
UT000805,AL2,LEGACY VILLAGE OF SUGAR HOUSE,1212 EAST WILMINGTON AVENUE,SALT LAKE CITY,UT,84106,SALT LAKE,160,2020-ALII-UT000805,(801) 486-6000,davee@wslm.biz,"LEGACY VILLAGE OF SUGAR HOUSE, LLC",FOR PROFIT - C
UT000536,AL2,LOTUS PARK CARE CENTERS,2639 WEST 3520 SOUTH,WEST HAVEN,UT,84401,WEBER,54,2021-ALII-UT000536,(801) 732-5290,ryan.jensen@avalonseniorliving.com,"GAHC4 WEST HAVEN UT TRS SUB, LLC",FOR PROFIT - C
UT000476,AL2,MAPLE SPRINGS,1040 SOUTH MEDICAL DRIVE,BRIGHAM CITY,UT,84302,BOX ELDER,36,2020-ALII-102056,(435) 723-9100,dustin@maplespringsliving.com,"MAPLE SPRINGS, LLC",FOR PROFIT - C
UT000775,AL2,MAPLE SPRINGS OF NORTH LOGAN,350 EAST 2200 NORTH,NORTH LOGAN,UT,84341,CACHE,80,2020-ALII-UT000775,(435) 753-9400,jessica@maplespringsliving.com,"MAPLE SPRINGS MANAGEMENTS, LLC",FOR PROFIT - C
UT000934,AL2,MILLCREEK MEADOWS,1624 EAST 4500 SOUTH,SALT LAKE CITY,UT,84117,SALT LAKE,36,2020-ALII-UT000934,(801) 456-8700,michelle@millcreekseniorliving.com,"ZENITH AL I, LLC",FOR PROFIT-PAR
UT000341,AL2,MISSION AT COMMUNITY ASSISTED LIVING,10 WEST 400 SOUTH,CENTERFIELD,UT,84622,SANPETE,16,2019-ALII-UT000341,(435) 528-2800,kathy.lloyd@missionhealthservices.org,GUNNISON VALLEY HOSPITAL SPECIAL SERVICE DISTRICT,GOVERNMENT-HOS
UT000869,AL2,MISSION AT CRESCENT SENIOR LIVING,11052 GRAPEVINE COVE,SANDY,UT,84070,SALT LAKE,116,2019-ALII-UT000869,(801) 790-2400,warren@crescentseniorliving.com,"CRESCENT SENIOR LIVING, LLC",FOR PROFIT - C
UT000888,AL2,MISSION AT MAPLE SPRINGS AL,1010 SOUTH MEDICAL DRIVE,BRIGHAM CITY,UT,84302,BOX ELDER,20,2020-ALII-UT000888,(435) 310-5800,james.hadfield@missionhealthservices.org,"MISSION AT MAPLE SPRINGS, LLC",
UT000352,AL2,MONROE CANYON ASSISTED LIVING,535 SOUTH MAIN STREET,MONROE,UT,84754,SEVIER,27,2021-ALII-UT000352,(435) 527-8870,bryan@monroecanyon.com/ parkerdavidson1@gmail.com,PK OPERATION MONROE CANYON ALF LLC,FOR PROFIT-IND
UT207326,AL2,OAK RIDGE ASSISTED LIVING OF BOUNTIFUL,905 WEST 4000 SOUTH,BOUNTIFUL,UT,84010,DAVIS,16,2021-ALII-UT207326,(801) 295-3171,oakridgealfofbountiful@gmail.com,"DALY WEST HOLDING COMPANY, LLC",FOR PROFIT - C
UT000975,AL2,ORCHARD VIEW ASSISTED LIVING & MEMORY CARE,1173 SOUTH TURF FARM ROAD,PAYSON,UT,84651,UTAH,93,2021-ALII-UT000975,(801) 851-5300,elkridgeassistedliving@yahoo.com,"OVAL, LLC",
UT000756,AL2,OUR HOUSE OF OGDEN,446 NORTH JEFFERSON AVENUE,OGDEN,UT,84404,WEBER,55,2019-ALII-UT000756,(801) 782-4444,pat@ourhouseassistedliving.com,OHO HOLDINGS LLC,FOR PROFIT - C
UT000945,AL2,OUR HOUSE OF TOOELE,251 EAST 1000 NORTH,TOOELE,UT,84074,TOOELE,84,2021-ALII-UT000945,(435) 843-5100,trevor@ourhouseassistedliving.com,"OH TOOELE HOLDINGS, LLC",
UT000830,AL2,OUR HOUSE OF TREMONTON,429 NORTH 400 WEST,TREMONTON,UT,84337,BOX ELDER,33,2020--UT000830,(435) 257-5658,myranda@ourhouseassistedliving.com,,
UT000249,AL2,PACIFICA SENIOR LIVING MILLCREEK AL II,777 EAST 3900 SOUTH,SALT LAKE CITY,UT,84107,SALT LAKE,6,2020-ALII-UT000249,(801) 288-0700,ed.millcreek@pacificaseniorliving.com,EXTENDED CARE PORTFOLIO MULTISTATE POOL TENANT LLC,FOR PROFIT - C
UT207348,AL2,PEACHTREE PLACE,4607 MIDLAND DRIVE,WEST HAVEN,UT,84401,WEBER,64,2019-ALII-9990,(801) 732-0060,jon@welcometopeachtree.com,"PEACH TREE PLACE VII, LLC",NON PROFIT-OTH
UT000907,AL2,PETERSEN FARMS ASSISTED LIVING AND MEMORY CARE,6980 SOUTH 475 EAST,SOUTH WEBER,UT,84405,WEBER,30,2021-ALII-UT000907,(801) 479-6000,jami@eldercaremanagementgroup.com,PETERSEN FARMS ASSISTED LIVING AND MEMORY CARE,
UT000748,AL2,PHEASANT RUN ALZHEIMER'S SPECIAL CARE CENTER,2664 WEST 11400 SOUTH,SOUTH JORDAN,UT,84095,SALT LAKE,66,2020-ALII-UT000748,(801) 260-0007,pheasantrun-adm@jeaseniorliving.com,"SOUTH JORDAN CARE GROUP, LLC",FOR PROFIT - C
UT000450,AL2,"PHEASANT VIEW ASSISTED LIVING, LLC",1242 EAST PHEASANT VIEW DRIVE,LAYTON,UT,84041,DAVIS,48,2021-ALII-UT000450,(801) 546-4100,teryn.pheasant@gmail.com,"PHEASANT VIEW ASSISTED LIVING, LLC",FOR PROFIT - C
UT000548,AL2,PINEVIEW ASSISTED LIVING OF EDEN,2547 NORTH VALLEY JUNCTION DRIVE,EDEN,UT,84310,WEBER,36,2021-ALII-UT000548,(801) 745-6667,pineviewassisted@gmail.com,"PINE VALLEY MANAGEMENT, LLC",FOR PROFIT - C
UT000540,AL2,PROVO ASSISTED LIVING LLC,462 SOUTH 900 EAST,PROVO,UT,84606,UTAH,58,2019-ALII-106519,(801) 375-2216,sherry.provoassistedliving@gmail.com,BENEDICA LLC,FOR PROFIT - C
UT000615,AL2,"QUAIL MEADOW ASSISTED LIVING, LLC",786 EAST 2100 NORTH,NORTH OGDEN,UT,84414,WEBER,53,2020-ALII-UT000615,(801) 782-7440,brent@eldercaremanagementgroup.com,"QUAIL MEADOW ASSISTED LIVING, LLC",FOR PROFIT - C
UT000704,AL2,RAINTREE SENIOR LIVING,2063 WEST 1900 SOUTH,SYRACUSE,UT,84075,DAVIS,28,2021-ALII-UT000704,(801) 621-8733,bryce@raintreeseniorliving.com,SYRACUSE ASSISTED LIVING PHASE 1,FOR PROFIT - C
UT207229,AL2,RIDGEVIEW GARDENS OF ST GEORGE,220 SOUTH 1200 EAST,ST GEORGE,UT,84790,WASHINGTON,50,2021-ALII-UT207229,(435) 656-2700,debbie@ridgeviewgardens.com,"MRSC UT RIDGEVIEW MASTER TENANT, LLC",FOR PROFIT - C
UT000253,AL2,RIVER MEADOWS SENIOR LIVING,137 EAST RED PINE DRIVE,ALPINE,UT,84004,UTAH,25,2020-ALII-79181,(801) 692-2100,executivedirector@rivermeadows.org,"RIVER MEADOWS SENIOR LIVING CENTER, LLC",FOR PROFIT - C
UT000779,AL2,RIVERWAY ASSISTED LIVING AND MEMORY CARE,1352 WEST 11400 SOUTH,SOUTH JORDAN,UT,84095,SALT LAKE,74,2021-ALII-UT000779,(801) 282-3711,jim@riverwayassistedliving.com,"OUR HOUSE LAND HOLDING, LLC",FOR PROFIT - C
UT000937,AL2,ROCKY MOUNTAIN CARE - GROVE CREEK ASSISTED LIVING,175 NORTH STATE STREET,LINDON,UT,84042,UTAH,70,2021-ALII-UT000937,(385) 273-7100,todd.christensen@rmcare.com,"ROCKY MOUNTAIN CARE - LINDON MANAGER, LLC",
UT000936,AL2,ROCKY MOUNTAIN CARE- LANDMARK ASSISTED LIVING,301 EAST 100 SOUTH,VERNAL,UT,84078,UINTAH,42,2021-ALII-UT000936,(801) 397-4697,contracting@rmcare.com,"ROCKY MOUNTAIN CARE - VERNAL MANAGER, LLC",
UT000724,AL2,ROSEWOOD ASSISTED CARE,464 EAST 3700 SOUTH,SOUTH SALT LAKE,UT,84115,SALT LAKE,29,2021-ALII-UT000724,(801) 290-6061,allan@rosewoodassistedcare.com,"FENTON COURT CARE CENTER ASSISTED LIVING, LLC",FOR PROFIT - C
UT000685,AL2,SAGEWOOD AT DAYBREAK,11289 SOUTH OAKMOND ROAD,SOUTH JORDAN,UT,84009,SALT LAKE,125,2021-ALII-UT000685,(801) 938-9389,wade.vest@kiscosl.com,"WELLTOWER KISCO RIDEA TENANT, LLC",FOR PROFIT - C
UT000720,AL2,SEASONS ASSISTED LIVING OF FARR WEST,1979 HERITAGE DRIVE,FARR WEST,UT,84404,WEBER,28,2020-ALII-UT000720,(801) 394-0044,hollyseasonsassistedliving@gmail.com,"SEASONS ASSISTED LIVING OF FARR WEST, LLC",FOR PROFIT - C
UT000543,AL2,SEASONS OF SANTAQUIN,785 EAST 150 SOUTH,SANTAQUIN,UT,84655,UTAH,38,2019-ALII-107091,(801) 754-1108,mikalaporter.sos@gmail.com,SEASONS OF SANTAQUIN LLC,FOR PROFIT - C
UT207342,AL2,SOUTHGATE SENIOR LIVING,134 WEST 2025 SOUTH CIRCLE,ST GEORGE,UT,84770,WASHINGTON,96,2020-ALII-UT207342,(435) 628-1117,southgate.ed@stellarliving.com,"S-H OPCO CLIFF VIEW, LLC",FOR PROFIT - C
UT000669,AL2,SPRING GARDENS HEBER,551 EAST 1200 SOUTH,HEBER CITY,UT,84032,WASATCH,100,2021-ALII-UT000669,(435) 657-8888,kjensen@springgardens.com,"HEBER OPCO, LLC",FOR PROFIT-PAR
UT000786,AL2,SPRING GARDENS HOLLADAY,2728 EAST 3900 SOUTH,HOLLADAY,UT,84124,SALT LAKE,83,2021-ALII-UT000786,(801) 432-7003,kgladstone@springgardens.com,"HOLLADAY OPCO, LLC",
UT000716,AL2,SPRING GARDENS MAPLETON,1483 WEST 800 SOUTH,MAPLETON,UT,84664,UTAH,72,2021-ALII-UT000716,(801) 515-6699,cthomas@springgardens.com,"MAPLETON OPCO, LLC",FOR PROFIT - C
UT000746,AL2,SPRING GARDENS OF LINDON,815 WEST 700 NORTH,LINDON,UT,84042,UTAH,116,2021-ALII-UT000746,(801) 785-0800,srobinson@avistaseniorliving.com,"SRE ASL LINDON, LLC",FOR PROFIT - C
UT000525,AL2,SPRING GARDENS OF ST GEORGE,2654 E RED CLIFFS DRIVE,ST GEORGE,UT,84790,WASHINGTON,126,2019-ALII-UT000525,(435) 688-1622,lendsley@avistaseniorliving.com,"SRE ASL SG, LLC",FOR PROFIT - C
UT207232,AL2,ST JOSEPH VILLA ASSISTED LIVING,451 EAST BISHOP FEDERAL LANE,SALT LAKE CITY,UT,84115,SALT LAKE,48,2020-ALII-99456,(801) 487-7557,renewals@ensignservices.net,"SUCCESSOR HEALTHCARE, INC.",FOR PROFIT - C
UT207349,AL2,STERLING COURT,324 NORTH 1680 EAST,ST GEORGE,UT,84790,WASHINGTON,113,2019-ALII-21547,(435) 628-1400,cdraper@platinumseniorliving.com,STERLING COURT,FOR PROFIT - C
UT207350,AL2,STONEY BROOKE OF RIVERDALE,4390 SOUTH 700 WEST,RIVERDALE,UT,84405,WEBER,16,2020-ALII-UT207350,(801) 393-2824,vangemvhs@gmail.com,"MEADOW VALLEY MANAGEMENT, LLC",FOR PROFIT - C
UT207240,AL2,SUMMERFIELD RETIREMENT LIVING INC,911 NORTH 800 WEST,OREM,UT,84057,UTAH,50,2019-ALII-983,(801) 434-7581,administrator@summerfieldinfo.com,"TRIVIEW, LLC",FOR PROFIT - C
UT000744,AL2,SUMMIT SENIOR LIVING,5524 WEST 6200 SOUTH,KEARNS,UT,84118,SALT LAKE,117,2020-ALII-UT000744,(801) 840-4600,bnnawahine@watermarkcommunities.com,"KEARNS SENIOR LIVING, LLC",NON PROFIT-COR
UT000762,AL2,SUNRIDGE ASSISTED LIVING AND MEMORY CARE,7037 SOUTH 4800 WEST,WEST JORDAN,UT,84084,SALT LAKE,75,2021-ALII-UT000762,(801) 280-2244,liz@sunridgeassistedliving.com,"GLENWOOD ACRES, LLC",FOR PROFIT - C
UT000873,AL2,SUNRIDGE ASSISTED LIVING OF LAYTON,835 SOUTH ANGEL STREET,LAYTON,UT,84041,DAVIS,75,2021-ALII-UT000873,(801) 544-2200,brandon@sunridgeassistedliving.com,"SR LAYTON HOLDINGS, LLC",FOR PROFIT - C
UT000902,AL2,SUNRIDGE ASSISTED LIVING OF ROY,3673 WEST 5600 SOUTH,ROY,UT,84067,WEBER,73,2020-ALII-UT000902,(801) 731-4444,deb@sunridgeassistedliving.com,"SR ROY HOLDINGS, LLC",
UT000306,AL2,SUNRISE AT HOLLADAY,4650 SOUTH HIGHLAND DRIVE,SALT LAKE CITY,UT,84117,SALT LAKE,101,2019-ALII-106495,(801) 424-2200,holladay.ed@sunriseseniorliving.com,"MS HOLLADAY SH, LLC",FOR PROFIT - C
UT000233,AL2,SUNRISE OF SANDY,2130 EAST 9400 SOUTH,SANDY,UT,84093,SALT LAKE,116,2019-ALII-77789,(801) 453-9600,sandy.ed@sunriseseniorliving.com,"SZR SANDY SENIOR LIVING, LLC",FOR PROFIT - C
UT207241,AL2,TERRACE GROVE ASSISTED LIVING,345 NORTH 200 WEST,LOGAN,UT,84321,CACHE,72,2020-ALII-953,(435) 787-2855,karmon.reese@sunshineterrace.com,"SUNSHINE TERRACE FOUNDATION, INC.",NON PROFIT-OTH
UT207235,AL2,THE AUBERGE AT NORTH OGDEN,1340 NORTH WASHINGTON BOULEVARD,OGDEN,UT,84404,WEBER,126,2020-ALII-UT207235,(801) 737-1230,administrator@aubergenorthogden.com,WELLTOWER TENANT GROUP LLC,
UT000187,AL2,THE CHARLESTON AT CEDAR HILLS,10020 NORTH 4600 WEST,CEDAR HILLS,UT,84062,UTAH,78,2021-ALII-UT000187,(801) 772-0123,waynebarney@mbk.com,"SSSHT OPCO 10020 N 4600 W STREET, LLC",FOR PROFIT - C
UT000924,AL2,THE GRAND AT HOLLADAY,5941 SOUTH HOLLADAY BOULEVARD,HOLLADAY,UT,84121,SALT LAKE,22,2021-ALII-UT000924,(801) 676-9688,emily@thegrandal.com,THE GRAND AT HOLLADAY,FOR PROFIT - C
UT000851,AL2,THE INN BETWEEN,1216 EAST 1300 SOUTH,SALT LAKE CITY,UT,84105,SALT LAKE,25,2019-ALII-UT000851,(801) 410-8314,monte@tibhospice.org,THE INN BETWEEN,NON PROFIT-OTH
UT207339,AL2,THE INN ON BARTON CREEK,499 EAST 500 SOUTH,BOUNTIFUL,UT,84010,DAVIS,80,2021-ALII-UT207339,(801) 298-4200,scott@bayshirellc.com / angie.a@bartoncreeksl.com,"BARTON CARE, LLC",FOR PROFIT - C
UT000300,AL2,THE LODGE AT JORDAN RIVER,1341 WEST SOUTH JORDAN PARKWAY,SOUTH JORDAN,UT,84095,SALT LAKE,26,2021-ALII-UT000300,(801) 316-1040,landonhale@seniorlife-mgmt.com,"COLINA LODGES - JORDAN RIVER, LLC",FOR PROFIT - C
UT000901,AL2,THE LODGE AT NORTH OGDEN,204 EAST 1700 NORTH,OGDEN,UT,84404,WEBER,99,2020-ALII-UT000901,(801) 719-5121,kflint@watermarkcommunities.com,"NORTH OGDEN SENIOR LIVING, LLC",FOR PROFIT-IND
UT000696,AL2,THE LODGE AT RIVERTON,12416 SOUTH 3600 WEST,RIVERTON,UT,84065,SALT LAKE,53,2021-ALII-UT000696,(801) 727-7200,landonhale@seniorlife-mgmt.com,"COLINA LODGES-RIVERTON, LLC",FOR PROFIT - C
UT000702,AL2,THE RETREAT AT SUNBROOK ASSISTED LIVING,359 NORTH DIXIE DRIVE,ST GEORGE,UT,84770,WASHINGTON,74,2020-ALII-UT000702,(435) 272-0202,trsb.adm@meridiansenior.com,"MS - AC SUNBROOK SENIOR LIVING, LLC",FOR PROFIT - C
UT000515,AL2,THE RETREAT AT SUNRIVER ST GEORGE,4480 SOUTH ARROWHEAD CANYON DRIVE,ST GEORGE,UT,84790,WASHINGTON,60,2020-ALII-UT000515,(435) 256-8900,trsr.adm@meridiansenior.com,MS - AC SUNRIVER SENIOR LIVING LLC,FOR PROFIT - C
UT000645,AL2,THE RIDGE COTTONWOOD,5600 SOUTH HIGHLAND DRIVE,HOLLADAY,UT,84121,SALT LAKE,138,2021-ALII-UT000645,(801) 947-7400,bginn@theridgefoothill.com,"ZBES 125281, LLC",FOR PROFIT - C
UT000770,AL2,THE RIDGE FOOTHILL,2363 SOUTH FOOTHILL DRIVE,SALT LAKE CITY,UT,84109,SALT LAKE,162,2020-ALII-UT000770,(801) 466-1122,bginn@theridgefoothill.com,"2363 FOOTHILL, LLC",FOR PROFIT - C
UT000838,AL2,THE SHERIDAN AT SOUTH JORDAN,10569 RIVER HEIGHTS DRIVE,SOUTH JORDAN,UT,84095,SALT LAKE,103,2021-ALII-UT000838,(385) 274-2000,wcline@seniorlifestyle.com,"CA SENIOR SOUTH JORDAN OPERATOR, LLC",FOR PROFIT - C
UT000712,AL2,THE VILLAS AT BAER CREEK,770 SOUTH MAIN STREET,KAYSVILLE,UT,84037,DAVIS,16,2021-ALII-UT000712,(385) 888-9063,cara@thevillasatbaercreek.com,BAER CREEK MANAGEMENT,FOR PROFIT - C
UT207353,AL2,THE WELLINGTON,4522 SOUTH 1300 EAST,SALT LAKE CITY,UT,84117,SALT LAKE,140,2021-ALII-UT207353,(801) 281-3477,kevinclem@mbk.com,"SSSHT OPCO 4522 S 1300 E, LLC",FOR PROFIT - C
UT000752,AL2,THE WENTWORTH AT COVENTRY II SENIOR LIVING,6898 SOUTH 2300 EAST,SALT LAKE CITY,UT,84121,SALT LAKE,32,2020-ALII-UT000752,(801) 943-5858,executivedirector@wentworthcoventry.com,"UTNV COVENTRY AT COTTONWOOD HEIGHTS, LLC",FOR PROFIT - C
UT000134,AL2,THE WENTWORTH AT COVENTRY III SENIOR LIVING,6895 SOUTH WHITMORE WAY,SALT LAKE CITY,UT,84121,SALT LAKE,56,2020-ALII-UT000134,(801) 943-3909,executivedirector@wentworthcoventry.com,"UTNV WENTWORTH AT COTTONWOOD HEIGHTS, LLC",FOR PROFIT - C
UT207354,AL2,THE WENTWORTH AT DRAPER,11631 SOUTH 700 EAST,DRAPER,UT,84020,SALT LAKE,106,2021-ALII-UT207354,(801) 523-9393,executivedirector@wentworthatdraper.com,"UTNV DRAPER OPERATOR, LLC",FOR PROFIT - C
UT207242,AL2,THE WENTWORTH AT EAST MILLCREEK,1871 EAST 3300 SOUTH,SALT LAKE CITY,UT,84106,SALT LAKE,49,2021-ALII-UT207242,(801) 485-0123,executivedirector@wentwortheastmillcreek.com,"UTNV EAST MILLCREEK, LLC",FOR PROFIT - C
UT000562,AL2,THE WENTWORTH AT THE MEADOWS II,950 SOUTH 400 EAST,ST GEORGE,UT,84770,WASHINGTON,16,2021-ALII-UT000562,(435) 628-0090,executivedirector@meadowsstgeorge.com,"UTNV MEADOWS I, LLC",FOR PROFIT - C
UT000753,AL2,THE WENTWORTH AT THE MEADOWS III MEMORY CARE,333 EAST 1160 SOUTH,ST GEORGE,UT,84770,WASHINGTON,48,2020-ALII-UT000753,(435) 628-2262,executivedirector@meadowsstgeorge.com,"UTNV MEADOWS II, LLC",
UT207358,AL2,THE WENTWORTH AT WILLOW CREEK,8325 SOUTH HIGHLAND DRIVE,SANDY,UT,84093,SALT LAKE,61,2021-ALII-UT207358,(801) 733-6363,executivedirector@wentworthwillowcreek.com,"UTNV WILLOW CREEK, LLC",FOR PROFIT - C
UT000549,AL2,TRADITION ASSISTED LIVING,2938 SOUTH REDWOOD ROAD,WEST VALLEY CITY,UT,84119,SALT LAKE,72,2020-ALII-UT000549,(801) 978-2424,sarah@traditionassistedliving.com,OQUIRRH MEADOWS INVESTMENT LLC,FOR PROFIT - C
UT207338,AL2,"TRUEWOOD BY MERRILL, BOUNTIFUL",1150 SOUTH MAIN STREET,BOUNTIFUL,UT,84010,DAVIS,156,2021-ALII-UT207338,(801) 298-3241,gm.heritageplace@merrillgardens.com,"MG BOUNTIFUL SUBTENANT, LLC",FOR PROFIT - C
UT207357,AL2,"TRUEWOOD BY MERRILL, COTTONWOOD HEIGHTS",7235 SOUTH UNION PARK AVENUE,COTTONWOOD,UT,84047,SALT LAKE,126,2021-ALII-UT207357,(801) 568-9909,gm.canyoncreek@merrillgardens.com,MG COTTONWOOD HEIGHTS SUBTENANT LLC,
UT000219,AL2,WELCOME HOME ASSISTED LIVING,633 EAST MEDICAL DRIVE,BOUNTIFUL,UT,84010,DAVIS,34,2020-ALII-76694,(801) 298-4969,whal633@gmail.com,"WELCOME HOME, INC",FOR PROFIT - C
UT000879,AL2,WELCOME HOME ASSISTED LIVING AMERICAN FORK,1889 WEST 930 NORTH,PLEASANT GROVE,UT,84062,UTAH,50,2021-ALII-UT000879,(801) 899-2682,hollie@welcomehomeassistedlivingutah.com,BMJM INC.,
UT000906,AL2,WHISPER COVE ASSISTED LIVING AND MEMORY CARE,725 SOUTH MAIN STREET,KAYSVILLE,UT,84037,DAVIS,83,2020-ALII-UT000906,(801) 874-6464,nikkia@whispercoveassistedliving.com,WHISPER COVE ASSISTED LIVING CENTER OF KAYSVILLE L,FOR PROFIT - C
UT207299,AL1,ABBINGTON MANOR AL I,215 NORTH CENTER STREET,LEHI,UT,84043,UTAH,31,2020-ALI-104079,(801) 768-3900,rwalker@theabbington.com,"LEHI ALOP, LLC",FOR PROFIT - C
UT207204,AL1,ALTA RIDGE - HOLLADAY,1009 EAST MURRAY-HOLLADAY ROAD,MILLCREEK,UT,84117,SALT LAKE,28,2020-ALI-UT207204,(801) 268-6342,megan@altaridgeassistedliving.com,"MRSC UT HOLLADAY MASTER TENANT, LLC",FOR PROFIT - C
UT207276,AL1,APPLE TREE ASSISTED LIVING,565 NORTH 300 WEST,KAYSVILLE,UT,84037,DAVIS,74,2020-ALI-485,(801) 546-5600,john@senis.com,APPLE TREE RETIREMENT LLC,FOR PROFIT - C
UT207283,AL1,BEEHIVE HOME OF LAYTON,59 NORTH KING STREET,LAYTON,UT,84041,DAVIS,13,2021-ALI-74068,(801) 593-0338,beaglesk@hotmail.com nicolekeyes71@gmail.com,KEB SERVICES INC.,FOR PROFIT - C
UT207281,AL1,"BEEHIVE HOMES OF AMERICAN FORK SOUTH, BUILDING ONE",164 WEST 200 SOUTH,AMERICAN FORK,UT,84003,UTAH,16,2021-ALI-104825,(801) 855-0597,carrie.brown@welbrook.com,"TIMPANOGOS TERRACE ASSISTED LIVING, LLC",FOR PROFIT - C
UT207184,AL1,BEEHIVE HOMES OF CEDAR CITY #1,332 SOUTH 400 EAST,CEDAR CITY,UT,84720,IRON,13,2020-ALI-UT207184,(435) 867-8641,acarlile@beehivehomes.com,ALL SEASONS HEALTH SERVICES COMPANY,FOR PROFIT - C
UT207185,AL1,BEEHIVE HOMES OF CEDAR CITY #2,330 SOUTH 400 EAST,CEDAR CITY,UT,84720,IRON,13,2020-ALI-UT207185,(435) 867-8641,acarlile@beehivehomes.com,ALL SEASONS HEALTH SERVICES COMPANY,FOR PROFIT - C
UT207282,AL1,BEEHIVE HOMES OF KANAB,1364 SOUTH POWELL DRIVE,KANAB,UT,84741,KANE,9,2020-ALI-18383,(435) 644-8100,chad@beehivehomes.com,"CARE AGE PROPERTIES, LLC",FOR PROFIT - C
UT207305,AL1,BEEHIVE HOMES OF LOGAN,352 SOUTH 500 WEST,LOGAN,UT,84321,CACHE,12,2019-ALI-UT207305,(435) 787-1484,tami@beehivehomes.com,"SUNSET SERVICES, INC.",FOR PROFIT - C
UT000122,AL1,BEEHIVE HOMES OF MAESER,940 NORTH 2335 WEST,VERNAL,UT,84078,UINTAH,16,2021-ALI-UT000122,(435) 789-6969,beehiveofvernal@gmail.com,"4 HALLS ENTERPRISES, INC.",FOR PROFIT - C
UT207186,AL1,BEEHIVE HOMES OF MAGNA,3346 SOUTH 8000 WEST,MAGNA,UT,84044,SALT LAKE,16,2020-ALI-UT207186,(801) 250-0072,vmills@beehivehomes.com,"ALAMO ONE, INC.",FOR PROFIT - C
UT207191,AL1,BEEHIVE HOMES OF RICHFIELD #1,540 NORTH 600 WEST,RICHFIELD,UT,84701,SEVIER,12,2021-ALI-UT207191,(435) 896-4536,beehiveofrichfield@gmail.com,"GOLDEN HORIZONS, LLC",FOR PROFIT - C
UT207178,AL1,BEEHIVE HOMES OF RICHFIELD #2,535 NORTH 600 WEST,RICHFIELD,UT,84701,SEVIER,10,2021-ALI-UT207178,(435) 896-1990,beehiveofrichfield@gmail.com,"GOLDEN HORIZONS, LLC",FOR PROFIT - C
UT207304,AL1,BEEHIVE HOMES OF ROY,4965 SOUTH 3500 WEST,ROY,UT,84067,WEBER,12,2021-ALI-UT207304,(385) 268-8909,lrivera@beehivehomes.com,"CARE-A-LOT HOMES, LLC",FOR PROFIT-PAR
UT000119,AL1,BEEHIVE HOMES OF SALEM,1015 SOUTH 550 WEST,SALEM,UT,84653,UTAH,10,2020-ALI-UT000119,(801) 423-2305,dennismcgraw@beehivehomes.com,DMLM LLC,FOR PROFIT - C
UT207193,AL1,BEEHIVE HOMES OF ST GEORGE #1,1542 WEST 1170 NORTH,ST GEORGE,UT,84770,WASHINGTON,12,2019-ALI-UT207193,(435) 634-8321,chad@beehivehomes.com,"CAREAGE PROPERTIES, LLC",FOR PROFIT - C
UT207286,AL1,BEEHIVE HOMES OF TOOELE,464 SOUTH MAIN STREET,TOOELE,UT,84074,TOOELE,16,2021-ALI-UT207286,(435) 833-0202,branddy@beehivehomes.com bdub_III@hotmail.com,"WILLIAMS WAY, LLC",FOR PROFIT - C
UT207287,AL1,BEEHIVE HOMES OF WASHINGTON COUNTY #3,831 SOUTH 700 WEST,HURRICANE,UT,84737,WASHINGTON,14,2019-ALI-UT207287,(435) 619-1909,shorne@beehivehomes.com,JOEL C. HORNE & CO. INC.,FOR PROFIT - C
UT000192,AL1,BEEHIVE HOMES OF WASHINGTON COUNTY #5,1122 NORTH CORAL CANYON BOULEVARD,WASHINGTON,UT,84780,WASHINGTON,14,2019-ALI-UT000192,(435) 619-1909,shorne@beehivehomes.com,JOEL C. HORNE & CO. INC.,FOR PROFIT - C
UT207194,AL1,BEEHIVE HOMES OF WEST JORDAN #1,8912 SOUTH 2700 WEST,WEST JORDAN,UT,84088,SALT LAKE,11,2020-ALI-UT207194,(801) 569-2771,rebecca@ashsco.com,"KNIGHTSHAYES LAND HOLDINGS, LLC",FOR PROFIT - C
UT207195,AL1,BEEHIVE HOMES OF WEST JORDAN #2,8912 SOUTH 2700 WEST,WEST JORDAN,UT,84088,SALT LAKE,12,2020-ALI-UT207195,(801) 569-2771,rebecca@ashsco.com,"KNIGHTSHAYES LAND HOLDINGS, LLC",FOR PROFIT - C
UT207196,AL1,BEL AIRE HOMES,436 EAST 700 NORTH,OREM,UT,84097,UTAH,16,2020-ALI-975,(801) 221-5100,steve@belaire-assistedliving.com,"BEL AIRE HOMES, LLC",FOR PROFIT - C
UT000342,AL1,BEST ASSISTED LIVING OF BELL CANYON,2270 HIGH MOUNTAIN DRIVE,SANDY,UT,84092,SALT LAKE,4,2021-ALI-UT000342,(801) 495-1086,bestassistedlivingut@gmail.com / jekyo62@gmail.com,BEST ASSISTED LIVING OF BELL CANYON,
UT000191,AL1,"BEST ASSISTED LIVING, LLC",2499 EAST CHARROS ROAD,SANDY,UT,84092,SALT LAKE,4,2021-ALI-UT000191,(801) 571-4595,rinkun@yahoo.com,"BEST ASSISTED LIVING, LLC",FOR PROFIT-IND
UT207318,AL1,BRIGHTON HOUSE OF SOUTH JORDAN,10386 SOUTH 2200 WEST,SOUTH JORDAN,UT,84095,SALT LAKE,10,2020-ALI-UT207318,(801) 253-2882,ervlogan@gmail.com,"BRIGHTON HOUSE ASSISTED LIVING, LLC",FOR PROFIT - C
UT000399,AL1,BRIGHTWORK VILLA AMERICAN FORK,272 WEST 500 NORTH,AMERICAN FORK,UT,84003,UTAH,11,2020-ALI-UT000399,(801) 756-4949,admin@brightworkliving.com,"BRIGHTWORK LIVING, INC.",FOR PROFIT - C
UT000405,AL1,BRIGHTWORK VILLA PARK PLACE,565 EAST 300 SOUTH,PLEASANT GROVE,UT,84062,UTAH,10,2020-ALI-UT000405,(801) 477-1957,chris@brightworkliving.com,"BRIGHTWORK LIVING, INC.",FOR PROFIT - C
UT000353,AL1,BRIGHTWORK VILLA PLEASANT GROVE,60 EAST 1200 NORTH,PLEASANT GROVE,UT,84062,UTAH,10,2020-ALI-UT000353,(801) 425-9124,support@brightworkliving.com,"BRIGHTWORK LIVING, INC.",FOR PROFIT - C
UT207289,AL1,CANTERBURY ASSISTED LIVING,198 SOUTH 1300 EAST,SPRINGVILLE,UT,84663,UTAH,8,2020-ALI-81696,(801) 491-9866,jason.giatras@gmail.com,"SNAKE MEN, LLC",FOR PROFIT-PAR
UT000941,AL1,CORADALE RESIDENTIAL ASSISTED LIVING,5159 WEST 11000 NORTH,HIGHLAND,UT,84003,UTAH,9,2021--UT000941,(801) 623-8547,coradalehomes@gmail.com,,
UT207292,AL1,COTTONWOOD CREEK,1245 EAST MURRAY HOLLADAY ROAD,SALT LAKE CITY,UT,84117,SALT LAKE,120,2021-ALI-UT207292,(801) 263-0999,morganware@mbk.com,"SSSHT OPCO 1245 E MURRAY HOLLADAY ROAD, LLC",FOR PROFIT - C
UT207293,AL1,COUNTRY CARE,513 SOUTH 950 WEST,FARMINGTON,UT,84025,DAVIS,16,2021-ALI-959,(801) 451-0556,countrycare2@gmail.com,"COLUMBIA MANAGEMENT, LLC",FOR PROFIT - C
UT207198,AL1,COUNTRY CARE II,533 SOUTH 950 WEST,FARMINGTON,UT,84025,DAVIS,16,2020-ALI-39589,(801) 451-7881,countrycare2@gmail.com,"COLUMBIA MANAGEMENT, LLC",FOR PROFIT - C
UT207316,AL1,COUNTRY LANE OF EAST SANDY,8670 SOUTH 1325 EAST,SANDY,UT,84070,SALT LAKE,9,2021-ALI-UT207316,(801) 255-8865,kadielynn.countrylane@gmail.com,"COUNTRY LANE SANDY HOLDING, LLC",FOR PROFIT - C
UT207225,AL1,COUNTRY LANE OF WEST SANDY,115 WEST 9400 SOUTH,SANDY,UT,84070,SALT LAKE,11,2021-ALI-UT207225,(801) 561-7574,contact@jagadvisers.com,COUNTRY LANE SANDY HOLDING LLC,FOR PROFIT - C
UT000795,AL1,COUNTRY OAKS ASSISTED LIVING OF LAYTON,1635 NORTH ANGEL STREET,LAYTON,UT,84041,DAVIS,13,2020-ALI-UT000795,(801) 682-8907,country.oaks@yahoo.com,COUNTRY OAKS ASSISTED LIVING OF LAYTON,FOR PROFIT - C
UT207201,AL1,COVE POINT RETIREMENT,1988 NORTH COVE POINT LANE,PROVO,UT,84604,UTAH,50,2021-ALI-UT207201,(801) 377-9670,covepointretirement@gmail.com,"COVE POINT INVESTORS, LLC",
UT207296,AL1,DIAMOND D INN,234 WEST MAIN,DELTA,UT,84624,MILLARD,9,2020-ALI-14508,(435) 864-2041,diamonddinn@yahoo.com,DIAMOND D INN,FOR PROFIT - C
UT207206,AL1,GARDENS ASSISTED LIVING,1450 9TH STREET,OGDEN,UT,84404,WEBER,74,2021-ALI-249,(801) 394-1400,allison@cozyretire.com,"GARDENS ASSISTED LIVING, LLC",FOR PROFIT-PAR
UT207298,AL1,GOLDEN SKYLINE ASSISTED LIVING,76 NORTH 100 WEST,EPHRAIM,UT,84627,SANPETE,16,2019-ALI-UT207298,(435) 283-4922,admin@GSALteam.com,GSAL LLC,FOR PROFIT - C
UT207319,AL1,GOOD LIFE SENIOR LIVING,15 WEST 100 NORTH,ELMO,UT,84521,EMERY,16,2020-ALI-UT207319,(435) 653-2555,adminelmo@goodlifeofutah.com,"CEDAR MOUNTAIN ESTATES, LLC",FOR PROFIT - C
UT000132,AL1,HERITAGE HOME,45 NORTH 100 WEST,HURRICANE,UT,84737,WASHINGTON,15,2020-ALI-90701,(435) 635-4027,sam@heritagehomeliving.com,"HERITAGE HOMES, LLC",FOR PROFIT - C
UT207213,AL1,HIGHLAND COVE RETIREMENT COMMUNITY,3750 SOUTH HIGHLAND DRIVE,SALT LAKE CITY,UT,84106,SALT LAKE,68,2021-ALI-255,(801) 272-8226,gwebster@centurypa.com,"HIGHLAND COVE RETIREMENT INVESTORS, LLC",FOR PROFIT - C
UT207215,AL1,HOLLADAY HOME FOR THE ELDERLY,5950 SOUTH HIGHLAND DRIVE,HOLLADAY,UT,84121,SALT LAKE,15,2021-ALI-UT207215,(801) 277-8371,holladayhome1@gmail.com,"HOLLADAY HOME ASSISTED LIVING, LLC",FOR PROFIT - C
UT207216,AL1,J AND E HOME CARE,2739 WEST 9800 SOUTH,SOUTH JORDAN,UT,84095,SALT LAKE,3,2020-ALI-671,(801) 755-5526,jakipaz@yahoo.com,"J AND E HOME CARE, INC.",FOR PROFIT - C
UT000909,AL1,JEWELS LEGACY GARDEN,380 NORTH 500 WEST,BEAVER,UT,84713,BEAVER,8,2020-ALI-UT000909,(435) 531-0229,jewelslegacygarden@gmail.com,E JONES LEGACY CARE HOMES,
UT207208,AL1,LAKE RIDGE SENIOR LIVING - SOUTH,960 SOUTH GENEVA ROAD,OREM,UT,84058,UTAH,26,2020-ALI-UT207208,(801) 225-6559,renewals@ensignservices.net cacorry@ensignservices.net,"MOUNTAIN VIEW RETIREMENT, INC.",FOR PROFIT - C
UT207218,AL1,LAKEVIEW ELDERLY CARE,933 EAST GROVE DRIVE,PLEASANT GROVE,UT,84062,UTAH,8,2021-ALI-489,(801) 785-7130,lakeviewcare@gmail.com,LAKEVIEW ELDERLY CARE,FOR PROFIT-IND
UT000652,AL1,LOTUS PARK ASSISTED LIVING,3518 SOUTH 2625 WEST,WEST HAVEN,UT,84401,WEBER,54,2021-ALI-UT000652,(801) 732-5290,ryan.jensen@avalonseniorliving.com,"GAHC4 WEST HAVEN UT TRS SUB, LLC",FOR PROFIT - C
UT207309,AL1,NIITSUMA LIVING CENTER,4347 SOUTH 700 EAST,SALT LAKE CITY,UT,84107,SALT LAKE,6,2021-ALI-7234,(801) 269-1230,rniitsuma5@gmail.com,"NIITSUMA LIVING CENTER, INC.",FOR PROFIT - C
UT000287,AL1,OAK RIDGE ASSISTED LIVING,463 WEST RAWLINS CIRCLE,CENTERVILLE,UT,84014,DAVIS,16,2021-ALI-82394,(801) 295-3225,oakridgealf@gmail.com,"OAK RIDGE ASSISTED LIVING, LLC",FOR PROFIT - C
UT207219,AL1,PACIFICA SENIOR LIVING MILLCREEK AL I,777 EAST 3900 SOUTH,SALT LAKE CITY,UT,84107,SALT LAKE,76,2020-ALI-UT207219,(801) 288-0700,ed.millcreek@pacificseniorliving.com,EXTENDED CARE PORTFOLIO MULTISTATE POOL TENANT LLC,FOR PROFIT-IND
UT207311,AL1,PARKSIDE MANOR,822 WEST LAGOON STREET,ROOSEVELT,UT,84066,DUCHESNE,16,2019-ALI-10942,(435) 722-8662,tkpside2000@gmail.com,"PARKSIDE MANOR, LLC",FOR PROFIT-PAR
UT000185,AL1,RED CLIFF'S ASSISTED LIVING,338 SOUTH 400 EAST,NEPHI,UT,84648,JUAB,16,2021-ALI-93611,(435) 623-4242,eudene98@yahoo.com redcliffsassistedliving@gmail.com,"RED CLIFFS ASSISTED LIVING, LLC",FOR PROFIT-PAR
UT207313,AL1,REID'S PARK PLACE,554 SOUTH 400 EAST,SPRINGVILLE,UT,84663,UTAH,16,2021-ALI-16789,(801) 491-8979,terry_reid@comcast.net,REIDS PARK PLACE LLC,FOR PROFIT - C
UT207314,AL1,ROSECREST MANOR,48 WEST 700 SOUTH,ST GEORGE,UT,84770,WASHINGTON,9,2020-ALI-61134,(435) 673-7398,gordon@rosecrestmanor.com,H.P. INC.,FOR PROFIT - C
UT207222,AL1,SARAH DAFT HOME,737 SOUTH 1300 EAST,SALT LAKE CITY,UT,84102,SALT LAKE,39,2021-ALI-264,(801) 397-4697,paul.ogilvie@rmcare.com,SARAH DAFT HOME,NON PROFIT-OTH
UT207199,AL1,SEGO LILY ASSISTED LIVING,465 EAST SEGO LILY DRIVE,SANDY,UT,84070,SALT LAKE,11,2020-ALI-UT207199,(801) 367-8854,john.segolily@gmail.com,SEGO LILY ASSISTED LIVING,
UT000706,AL1,SPRING LANE,1465 EAST SPRING LANE,HOLLADAY,UT,84117,SALT LAKE,4,2020-ALI-UT000706,(801) 676-9100,bonuck@gmail.com,IRINA MARTYNENKO,FOR PROFIT-IND
UT000332,AL1,SPRING WATER ASSISTED LIVING,41 EAST CENTER STREET,CENTERVILLE,UT,84014,DAVIS,24,2021-ALI-UT000332,(801) 397-5544,ryan.kidman@springwaterassistedliving.com,"SPRING WATER RESIDENTIAL ASSISTED LIVING, LLC",FOR PROFIT - C
UT207321,AL1,THE VICTORIAN HOUSE,275 NORTH 500 EAST,LEVAN,UT,84639,JUAB,16,2019-ALI-UT207321,(435) 623-1415,mercy1956@msn.com,"LAUREL MEADOWS, LLC",FOR PROFIT - C
UT000754,AL1,THE WENTWORTH AT COVENTRY I SENIOR LIVING,6898 SOUTH 2300 EAST,SALT LAKE CITY,UT,84121,SALT LAKE,74,2020-ALI-UT000754,(801) 943-5858,executivedirector@wentworthcoventry.com,"UTNV COVENTRY AT COTTONWOOD HEIGHTS, LLC",FOR PROFIT - C
UT207308,AL1,THE WENTWORTH AT THE MEADOWS I,950 SOUTH 400 EAST,ST GEORGE,UT,84770,WASHINGTON,117,2021-ALI-UT207308,(435) 628-0090,executivedirector@meadowsstgeorge.com,"UTNV MEADOWS I, LLC",FOR PROFIT - C
UT207207,AL1,"TRUEWOOD BY MERRILL, TAYLORSVILLE",2011 WEST 4700 SOUTH,TAYLORSVILLE,UT,84129,SALT LAKE,112,2021-ALI-UT207207,(801) 966-4286,gm.goldenliving@merrillgardens.com,MG TAYLORSVILLE SUBTENANT LLC,FOR PROFIT - C
UT207226,AL1,WILLIAMSBURG RETIREMENT COMMUNITY,132 WEST 300 NORTH,LOGAN,UT,84321,CACHE,15,2019-ALI-UT207226,(435) 753-5502,dan@salmg.com,WRC HOLDING LLC,FOR PROFIT - C