Facility Name,Address,City,State,Zip Code,County,Phone Number,Email Address,License / Expiration,Ownership Type,Licensee,Capacity,Longitude,Latitude
ABUNDANT LIFE ADULT CARE,260 SEMINOLE DR,ORANGEBURG,SC,29115-7622,Orangeburg,803-662-9701,ABUNDANTLIFE260@GMAIL.COM,CRC-1949 / 06/30/2021,Orangeburg / Limited Liability,ABUNDANT LIFE ADULT CARE LLC,5,-80.854558,33.472626
ACLINE PLACE,200 S ACLINE ST,LAKE CITY,SC,29560-2635,Florence,843-394-5677,DJOHNSON@FCDSN.ORG,CRC-1257 / 01/31/2022,Florence / State,FLORENCE COUNTY DISABILITIES AND SPECIAL NEEDS BOARD,8,-79.75396593,33.87595697
ADDISON'S COMMUNITY CARE HOME,4013 PERCIVAL RD,COLUMBIA,SC,29229-8321,Richland,803-736-0455,SARDOCGWADE@UNIVERSALCARESOLUTIONS.COM,CRC-0815 / 05/31/2022,Richland / Corporation,ADDISON'S COMMUNITY CARE HOME INC,9,-80.86475718,34.08643913
ALDERSGATE AT THE OAKS,921 METHODIST OAKS DR,ORANGEBURG,SC,29115-1814,Orangeburg,803-531-2332,921AOAKS@GMAIL.COM,CRC-1488 / 02/28/2022,Orangeburg / Non-Profit Corporation,ALDERSGATE SPECIAL NEEDS MINISTRY,6,-80.85059391,33.42385988
A'LELIA RESIDENTIAL CARE,10 JACOB WHITE RD,YEMASSEE,SC,29945-7820,Beaufort,843-466-0356,GLORIA215M@OUTLOOK.COM,CRC-1115 / 09/30/2021,Beaufort / Corporation,MILES RESIDENTIAL CARE FACILITY INC,20,-80.73506288,32.61899455
ALEXANDER'S GOLDEN STARR COMMUNITY CARE HOME,218 GOLDEN STARR RD,SANTEE,SC,29142-9363,Orangeburg,803-854-2496,DONNAOUTLAW62@YAHOO.COM,CRC-0171 / 08/31/2021,Orangeburg / Sole Proprietorship,"OUTLAW-THOMAS, DONNA S.",8,-80.51165525,33.44531602
ANDERSON OAKS ASSISTED LIVING,997 HWY 90,CONWAY,SC,29526-7520,Horry,843-347-9280,WYATTWISE@ANDERSONOAKSASSISTEDLIVING.COM,CRC-1506 / 07/31/2021,Horry / Corporation,HERMAN L ANDERSON INC,80,-78.99511205,33.82307859
ANGELIC'S PLACE,903 W BARTLETTE ST,SUMTER,SC,29150-8005,Sumter,803-775-1404,BBETTMOU@AOL.COM,CRC-1400 / 09/30/2021,Sumter / Ltd. Liability,ANGELIC'S PLACE LLC,11,-80.3563225,33.9173358
ANOINTED RESIDENTIAL CARE,551 S SUMTER ST,SUMTER,SC,29150-5765,Sumter,803-883-4427,DAISY78BRADLEY@GMAIL.COM,CRC-1435 / 03/31/2022,Sumter / Partnership,COREY T WRIGHT & DAISY BRADLEY,8,-80.34449769,33.90927628
ANOINTED RESIDENTIAL CARE #2,511 S SUMTER ST,SUMTER,SC,29150-5754,Sumter,803-883-4032,DAISY78BRADLEY@OUTLOOK.COM,CRC-1502 / 03/31/2022,Sumter / ,COREY T WRIGHT & DAISY BRADLEY,5,-80.34411929,33.91188496
ARBOR LANDING AT PAWLEYS,7419 OCEAN HWY,PAWLEYS ISLAND,SC,29585,Georgetown,843-314-3720,ANITA.WILLIAMS@RIDGECARE.COM,CRC-1937 / 09/30/2021,Georgetown / Limited Liability,ARBOR LANDING AT PAWLEYS LLC,100,-79.175663,33.420791
ARBORETUM AT THE WOODLANDS AT FURMAN,50 ARBORETUM LN,GREENVILLE,SC,29617-6228,Greenville,864-371-3100,DLILLY@TWAFSC.ORG,CRC-1492 / 05/31/2022,Greenville / Non-Profit Corporation,UPSTATE SENIOR LIVING INC,64,-82.44419575,34.93543101
ASHLAN VILLAGE,415 BRENDA WAY,LYMAN,SC,29365-9264,Spartanburg,864-949-7825,LHILL@ASHLANVILLAGE.COM,CRC-1483 / 10/31/2021,Spartanburg / Limited Liability,ASHLAN PROPERTIES LLC,75,-82.14195628,34.97392741
ASHLEY GARDENS ALZHEIMER'S SPECIAL CARE CENTER,2290 HENRY TECKLENBURG DR,CHARLESTON,SC,29414,Charleston,843-556-4100,ASSETMANAGEMENT@SUNSHINERET.COM,CRC-1595 / 06/30/2021,Charleston / Limited Liability,CHARLESTON CARE GROUP LLC,66,-80.04158239,32.80405608
ASHLEY LANDING ASSISTED LIVING,4550 GREAT OAK DR,NORTH CHARLESTON,SC,29418-5001,Charleston,843-760-0831,DJEFFCOAT@ASHLEYLANDING.COM,CRC-2158 / 07/31/2021,Charleston / Limited Liability,NORTH CHARLESTON ASSISTED LIVING LLC,100,-80.061808,32.874495
ASHLEY PLACE,526 HALTIWANGER RD,GREENWOOD,SC,29649-1799,Greenwood,864-943-1933,DMIELECH@ENLIVANT.COM,CRC-1404 / 11/30/2021,Greenwood / Corporation,ASHLEY AID OPCO LLC,44,-82.16100784,34.23350912
ASHLEY RIVER PLANTATION,2333 ASHLEY RIVER RD,CHARLESTON,SC,29414-4755,Charleston,843-766-9898,ADAIR@5SSL.COM,CRC-1376 / 06/30/2021,Charleston / Limited Liability,SNH SE ASHLEY RIVER TENANT LLC,123,-80.0378161,32.82246596
ATRIA FOREST LAKE,4405 FOREST DR,COLUMBIA,SC,29206-3103,Richland,803-790-9800,NANCY.FAULISI@ATRIASENIORLIVING.COM,CRC-1143 / 05/31/2022,Richland / Limited Liability,WG FOREST LAKE SH LLC,60,-80.9762651,34.02154544
ATRIA MOUNT PLEASANT,601 SOLANA WAY,MOUNT PLEASANT,SC,29464,Charleston,843-800-2323,ALLISON.JOHNSON@ATRIASENIORLIVING.COM,CRC-2109 / 09/30/2021,Charleston / ,FDG-MP OPCO LLC,112,-79.859505,32.818011
B & J RESIDENTIAL CARE FACILITY,528 ATTERBURY DR,COLUMBIA,SC,29203-3002,Richland,803-786-0011,EMARIEEARGLE@YAHOO.COM,CRC-1461 / 12/31/2021,Richland / Corporation,B & J RESIDENTIAL CARE FACILITY LLC,5,-81.0006952,34.076817
BAYBERRY OF GREENWOOD,116 ABBEY DR,GREENWOOD,SC,29649-8536,Greenwood,864-223-6510,GREENWOOD@THEBAYBERRYINN.COM,CRC-0589 / 05/31/2022,Greenwood / Limited Liability Limited Partnership,EVERGREEN VILLAGES LIMITED PARTNERSHIP,23,-82.20177571,34.19894762
BAYBERRY OF GREER,309 NORTHVIEW DR,GREER,SC,29651-1340,Greenville,864-848-1935,HOME@THEBAYBERRYINN.COM,CRC-0595 / 07/31/2021,Greenville / Limited Liability Limited Partnership,EVERGREEN VILLAGES LIMITED PARTNERSHIP,23,-82.22450496,34.95169472
BAYSHORE ON HILTON HEAD ISLAND,421 SQUIRE POPE RD,HILTON HEAD ISLAND,SC,29926,Beaufort,843-342-2222,RMCKEE@BAYSHOREHILTONHEAD.COM,CRC-1963 / 06/30/2021,Beaufort / Limited Liability,BAYSHORE HILTON HEAD LLC,147,-80.74607279,32.23644023
BEARD RESIDENTIAL CARE FACILITY #1,123 N WARREN ST,TIMMONSVILLE,SC,29161-1443,Florence,843-346-5272,BEARDSRCF@YAHOO.COM,CRC-0140 / 04/30/2022,Florence / Sole Proprietorship,CATHERINE H BEARD,10,-79.94261646,34.13534694
BELL'S PROFESSIONAL RESIDENTIAL HOME CARE,1910 DALTON ST,NORTH CHARLESTON,SC,29406-3961,Charleston,843-744-1765,BACHBELL25@GMAIL.COM,CRC-1209 / 05/31/2022,Charleston / Ltd. Liability,BELL'S PROFESSIONAL RESIDENTIAL HOME CARE LLC,20,-80.00372581,32.88300239
BELVEDERE COMMONS OF SENECA,515 BENTON ST,SENECA,SC,29672-6883,Oconee,864-888-4114,JWITZEL@BELVEDERECOMMONSSENECA.COM,CRC-1466 / 11/30/2021,Oconee / Ltd. Liability,FKP SENECA SENIOR LIVING TENANT LLC,62,-82.99264159,34.72184786
BENCHMARK HOMES - SPARTANBURG,450 W HENRY ST,SPARTANBURG,SC,29306-6037,Spartanburg,864-308-8852,SMASON@CHARLESLEA.ORG,CRC-1509 / 09/30/2021,Spartanburg / Corporation,CHARLES LEA CENTER,12,-81.94050995,34.94390902
BENTON HOUSE OF AIKEN,530 BENTON HOUSE WY,AIKEN,SC,29803,Aiken,803-226-0838,LICENSING@PRINCIPALSENIORLIVING.COM,CRC-2049 / 02/28/2022,Aiken / Limited Liability,BENTON SENIOR CARE LLC,100,-81.74995645,33.49424499
BENTON HOUSE OF BLUFFTON,8 HAMPTON LAKE DR,BLUFFTON,SC,29910-9568,Beaufort,843-757-3111,BLUFFTONDIRECTOR@BENTONHOUSE.COM,CRC-1585 / 03/31/2022,Beaufort / Limited Liability,BLUFFTON SLP LLC,104,-80.93397803,32.2660935
BENTON HOUSE OF FLORENCE,1370 CELEBRATION BLVD,FLORENCE,SC,29501,Florence,854-400-6644,SCOOPER@PRINCIPALSENIORLIVING.COM,CRC-2061 / 02/28/2022,Florence / Limited Liability,FLORENCE SLP LLC,93,-79.828539,34.168549
BENTON HOUSE OF WEST ASHLEY,1445 BLUEWATER WAY,CHARLESTON,SC,29414,Charleston,843-576-9667,LICENSING@PRINCIPALSENIORLIVING.COM,CRC-1897 / 12/31/2021,Charleston / ,WEST ASHLEY SLP LLC,98,-80.06025,32.828619
BETHEA BAPTIST ASSISTED LIVING,157 HOME AVE,DARLINGTON,SC,29532-7625,Darlington,843-393-2867,BSPURLING@SCBMA.COM,CRC-1533 / 08/31/2021,Darlington / Non-Profit Corporation,SOUTH CAROLINA BAPTIST MINISTRIES FOR THE AGING INC,14,-79.83820395,34.25718118
BIRD STREET I COMMUNITY RESIDENTIAL CARE FACILITY,1705 BIRD ST,ROCK HILL,SC,29730-3830,York,803-366-7121,MSHAFFER@MAXABILITIES.ORG,CRC-1357 / 06/30/2022,York / State,YORK COUNTY DISIBILITIES AND SPECIAL NEEDS BOARD,8,-81.00086678,34.94403076
BIRD STREET II COMMUNITY RESIDENTIAL CARE FACILITY,1711 BIRD ST,ROCK HILL,SC,29730-3830,York,803-366-6113,MSHAFFER@MAXABILITIES.ORG,CRC-1358 / 06/30/2022,York / ,YORK COUNTY DISIBILITIES AND SPECIAL NEEDS BOARD,8,-81.00060376,34.94432282
BISHOP GADSDEN EPISCOPAL RETIREMENT COMMUNITY,1 BISHOP GADSDEN WAY,CHARLESTON,SC,29412-3577,Charleston,843-762-3300,JONNA.COOK@BISHOPGADSDEN.ORG,CRC-0451 / 11/30/2021,Charleston / Non-Profit Corporation,BISHOP GADSDEN EPISCOPAL RETIREMENT COMMUNITY,112,-79.97625268,32.73215979
BISHOPVILLE MANOR,2779 HWY 15 N,BISHOPVILLE,SC,29010-7101,Lee,803-428-2222,KATHY.MINGUS@YAHOO.COM,CRC-2054 / 12/31/2021,Lee / Limited Liability,BISHOPVILLE MANOR OPERATING GROUP LLC,44,-80.17105256,34.2590074
BLACK'S DRIVE COMMUNITY RESIDENCE,160 BLACKS DR,WILLISTON,SC,29853-3558,Barnwell,803-266-3211,BPARKER@BARNWELLSC.COM,CRC-1524 / 08/31/2021,Barnwell / County,ALLENDALE/BARNWELL COUNTIES DISABILITIES AND SPECIAL NEEDS BOARD,8,-81.43776434,33.41060004
BLAKE AT BAXTER VILLAGE,522 6TH BAXTER CROSSING,FORT MILL,SC,29708,York,803-752-4700,RITA.HILL@BLAKELIVING.COM,CRC-2111 / 11/30/2021,York / Limited Liability,BAXTER SENIOR CARE LLC,114,-80.976216,35.021738
BLAKE AT CARNES CROSSROADS,4015 2ND AVE,SUMMERVILLE,SC,29486,Berkeley,843-376-3996,CRYSTAL.TATE@BLAKELIVING.COM,CRC-1896 / 07/31/2021,Berkeley / Limited Liability,BLAKE AT CARNES CROSSROADS LLC,114,-80.18398,33.000443
BLAKE AT EDGEWATER,1099 EDGEWATER CORPORATE PKWY,INDIAN LAND,SC,29707,Lancaster,803-310-4242,JASON.FISHER@BLAKELIVING.COM,CRC-2112 / 11/30/2021,Lancaster / Limited Liability,EDGEWATER SENIOR CARE LLC,105,-80.860431,34.997515
BLAKE AT HOLLINGSWORTH PARK,360 WOODRUFF RD,GREENVILLE,SC,29607,Greenville,,MACK@CARDINALALVENTURES.NET,CRC-2041 / 11/30/2021,Greenville / Limited Liability,BLAKE AT HOLLINGSWORTH PARK LLC,114,-82.338479,34.834108
BLAKE AT WOODCREEK FARMS,385 SPEARS CREEK CHURCH RD,ELGIN,SC,29045-9312,Richland,803-828-7370,KATHLEEN.VIDAL@BLAKELIVING.COM,CRC-1570 / 02/28/2022,Richland / ,BLAKE AT WOODCREEK FARMS LLC,100,-80.84217197,34.1146167
BLOOM AT BELFAIR,60 OAK FOREST RD,BLUFFTON,SC,29910-5010,Beaufort,843-815-2338,ADMIN@BLOOMATBELFAIR.COM,CRC-1510 / 12/31/2021,Beaufort / Limited Liability,BLOOMFIELD SENIOR LIVING OF BLUFFTON LLC,68,-80.85667003,32.27032058
BLOOM AT BLUFFTON,800 FORDING ISLAND RD,BLUFFTON,SC,29910-4845,Beaufort,843-815-2555,WROGERS@LEEDYANDROGERS.COM,CRC-1381 / 04/30/2022,Beaufort / ,BLOOMFIELD SENIOR LIVING OF BLUFFTON II LLC,70,-80.86319652,32.26867375
BLOOM AT HILTON HEAD,35 BEACH CITY RD,HILTON HEAD ISLAND,SC,29926-4725,Beaufort,843-342-5599,WROGERS@LEEDYANDROGERS.COM,CRC-1382 / 04/30/2022,Beaufort / Limited Liability,BLOOMFIELD SENIOR LIVING OF HILTON HEAD LLC,72,-80.71235921,32.22061584
BOSTICK'S ADULT RESIDENTIAL CARE FACILITY,1912 DUKE ST,BEAUFORT,SC,29902-4404,Beaufort,843-524-3906,BARCF1@GMAIL.COM,CRC-0143 / 05/31/2022,Beaufort / Limited Liability,BOSTICK S ADULT RESIDENTIAL CARE FACILITY LLC,20,-80.68395188,32.43615057
BOWLES COMMUNITY CARE HOME,9270 N HWY 17,MC CLELLANVILLE,SC,29458-9422,Charleston,843-887-4180,BBOWCARE@AOL.COM,CRC-0090 / 09/30/2021,Charleston / Sole Proprietorship,"BENJAMIN, BOWLES",16,-79.519624,33.072464
BOWLES COMMUNITY CARE HOME 2,9274 N HWY 17,MCCLELLANVILLE,SC,29458-9422,Charleston,843-887-4180,BBOWCARE@AOL.COM,CRC-1497 / 11/30/2021,Charleston / Sole Proprietorship,"BOWLES, BENJAMIN",5,-79.51878144,33.07181087
BRIANA'S RESIDENTIAL CARE FACILITY,252 CHARLESTON AVE N,FAIRFAX,SC,29827-4502,Allendale,803-632-9813,VERMELLEWALKER@YAHOO.COM,CRC-1333 / 11/30/2021,Allendale / Sole Proprietorship,"WALKER, JOHN W.",10,-81.23474852,32.95980507
BRIAN'S RESIDENTIAL CARE,1115 WHITMAN ST,ORANGEBURG,SC,29118,Orangeburg,803-533-1588,MCAKLEY18@GMAIL.COM,CRC-2068 / 12/31/2021,Orangeburg / Limited Liability,BRIANS AND STOKES ASSISTED LIVING LLC,7,-80.846321,33.491294
BRIAN'S RESIDENTIAL CARE II,4003 CALHOUN ST,BRANCHVILLE,SC,29432-2243,Orangeburg,803-274-8051,MCAKLEY18@GMAIL.COM,CRC-2067 / 12/31/2021,Orangeburg / Limited Liability,BRIANS AND STOKES ASSISTED LIVING LLC,20,-80.816312,33.257494
BRIDGE ASSISTED LIVING AT LIFE CARE CENTER OF CHARLESTON,2590 ELMS PLANTATION BLVD,NORTH CHARLESTON,SC,29406-8105,Charleston,843-553-6342,KATEDAUGHERTY19@GMAIL.COM,CRC-1064 / 10/31/2021,Charleston / Ltd. Liability,CHARLESTON RETIREMENT INVESTORS LLC,100,-80.06208587,32.98040384
BRIGHTWATER ASSISTED LIVING,201 BRIGHTWATER DR,MYRTLE BEACH,SC,29579-8298,Horry,843-903-8940,LICENSING@BRIGHTWATER-LIVING.COM,CRC-1489 / 04/30/2022,Horry / Limited Liability,BRIGHTWATER RETIREMENT LLC,56,-78.84542286,33.76145877
BROAD CREEK CARE CENTER ASSISTED LIVING,801 LEMON GRASS CT,HILTON HEAD ISLAND,SC,29928-3022,Beaufort,843-341-7300,TKOSZYLKO@VLIVING.COM,CRC-1036 / 07/31/2021,Beaufort / Corporation,CC-HILTON HEAD INC,50,-80.77503265,32.17469718
BROOK PINE COMMUNITY RESIDENTIAL CARE FACILITY,3961 FISH HATCHERY RD,GASTON,SC,29053-9038,Lexington,803-955-3821,MARJORIE.WILSON-GUESS@SCDMH.ORG,CRC-2077 / 07/31/2021,Lexington / State,SOUTH CAROLINA DEPARTMENT OF MENTAL HEALTH,16,-81.15065,33.842779
BROOKDALE ANDERSON,311 SIMPSON RD,ANDERSON,SC,29621-2157,Anderson,864-261-3875,BJENKINS1@BROOKDALE.COM,CRC-1303 / 03/31/2022,Anderson / Corporation,EMERITUS CORPORATION,40,-82.6243156,34.5369082
BROOKDALE BRUSHY CREEK,2010 BRUSHY CREEK RD,GREER,SC,29650-2614,Greenville,864-244-9994,JDEATON@BROOKDALE.COM,CRC-1306 / 12/31/2021,Greenville / Corporation,BROOKDALE SENIOR LIVING COMMUNITIES INC,52,-82.28780171,34.89949366
BROOKDALE CENTRAL,131 VICKERY DR,CENTRAL,SC,29630-8330,Pickens,864-653-4674,PFOARD@BROOKDALE.COM,CRC-1307 / 12/31/2021,Pickens / Limited Liability,BROOKDALE SENIOR LIVING COMMUNITIES INC,52,-82.79112331,34.70644647
BROOKDALE COLUMBIA,251 SPRINGTREE DR,COLUMBIA,SC,29223-7989,Richland,803-741-2600,BSHULL@BROOKDALE.COM,CRC-1310 / 12/31/2021,Richland / Corporation,BROOKDALE SENIOR LIVING COMMUNITIES INC,52,-80.96166671,34.07716662
BROOKDALE CONWAY,872 SINGLETON RIDGE RD,CONWAY,SC,29526-9166,Horry,843-347-3050,DKEAR@BROOKDALE.COM,CRC-2143 / 01/31/2022,Horry / Limited Liability,BKD CONWAY SC LLC,52,-79.017916,33.777742
BROOKDALE EBENEZER ROAD,1920 EBENEZER RD,ROCK HILL,SC,29732-1014,York,803-366-1189,MDELTORO1@BROOKDALE.COM,CRC-1308 / 02/28/2022,York / Corporation,BROOKDALE SENIOR LIVING COMMUNITIES INC,52,-81.05020137,34.96340516
BROOKDALE GREENWOOD,1408 PKWY RD,GREENWOOD,SC,29646-4043,Greenwood,864-223-2281,PFOARD@BROOKDALE.COM,CRC-1309 / 12/31/2021,Greenwood / Limited Liability,BROOKDALE SENIOR LIVING COMMUNITIES INC,52,-82.15838109,34.17183273
BROOKDALE HARBISON,51 WOODCROSS DR,COLUMBIA,SC,29212-2350,Richland,803-732-0300,DKEAR@BROOKDALE.COM,CRC-2053 / 12/31/2021,Richland / Limited Liability,AHC STERLING HOUSE OF HARBISON LLC,52,-81.145986,34.076896
BROOKDALE NORTH AUGUSTA,105 N HILLS DR OFC,NORTH AUGUSTA,SC,29841-0113,Aiken,803-819-0034,ALARKE@BROOKDALE.COM,CRC-1298 / 02/28/2022,Aiken / Corporation,BROOKDALE SENIOR LIVING COMMUNITIES INC,52,-81.97032074,33.50984994
BROOKDALE SUMTER,1180 WILSON HALL RD OFC,SUMTER,SC,29150-1741,Sumter,803-469-4508,SSCOTT24@BROOKDALE.COM,CRC-1312 / 12/31/2021,Sumter / Corporation,BROOKDALE SENIOR LIVING COMMUNITIES INC,52,-80.40103272,33.95361063
BROOKDALE WEST ASHLEY,2030 CHARLIE HALL BLVD,CHARLESTON,SC,29414-5830,Charleston,843-763-4055,CSTRASBURG@BROOKDALE.COM,CRC-2018 / 03/31/2022,Charleston / Limited Liability,BKD CHARLESTON SOUTH CAROLINA LLC,100,-80.041125,32.816019
BROOKSTONE TERRACE OF WOODRUFF LLC,80 MEDICAL CENTER DR,WOODRUFF,SC,29388-8781,Spartanburg,864-476-9100,GRAY.ANGELL@YAHOO.COM,CRC-2151 / 04/30/2022,Spartanburg / Limited Liability,BROOKSTONE TERRACE OF WOODRUFF LLC,60,-82.023185,34.746989
BROOKWOOD COMMUNITY RESIDENCE,181 BROOKWOOD DR,BATESBURG,SC,29006-2324,Lexington,803-532-4440,SRICHARDSON@BABCOCKCENTER.ORG,CRC-0879 / 09/30/2021,Lexington / Non-Profit Corporation,BABCOCK CENTER INC,8,-81.52968862,33.90472113
BTU REST HOME,113 ELLISON ST,BENNETTSVILLE,SC,29512-0352,Marlboro,843-479-9053,MICHAELCAIN94@AOL.COM,CRC-0235 / 09/30/2021,Marlboro / Corporation,BTU REST HOME INC,80,-79.70034062,34.6074514
BUILDERS CARE HOME,731 SIMS AVE,COLUMBIA,SC,29205-1837,Richland,803-376-8991,COLUMBIAHOMECARE73@ATT.NET,CRC-1491 / 04/30/2022,Richland / Non-Profit Corporation,ALDERSGATE SPECIAL NEEDS MINISTRY,6,-80.99916657,33.99930592
BURGESS RESIDENTIAL CARE #3,615 W EVANS ST,FLORENCE,SC,29501-3409,Florence,843-407-4901,SANDYBURGESS98@YAHOO.COM,CRC-1913 / 08/31/2021,Florence / Limited Liability,DELLAVISION LLC,9,-79.77728287,34.19699579
BURGESS RESIDENTIAL CARE FACILITY,2591 S BREHENAN DR,FLORENCE,SC,29505-6203,Florence,843-665-6843,SANDYBURGESS98@YAHOO.COM,CRC-0925 / 04/30/2022,Florence / Sole Proprietorship,"BURGESS, SANDY",9,-79.74310702,34.15979884
BURGESS RESIDENTIAL CARE FACILITY #4,412 PEE DEE CHRUCH RD,DILLON,SC,29536,Dillon,843-774-0623,SANDYBURGESS98@YAHOO.COM,CRC-2046 / 10/31/2021,Dillon / Limited Liability,DELLAVISION LLC,30,-79.326779,34.391711
CABADING HOMES #1,3431 RIVERS AVE,NORTH CHARLESTON,SC,29405-7760,Charleston,843-747-3050,CABOOTY105@AOL.COM,CRC-0394 / 07/31/2021,Charleston / Corporation,CABADING HOMES INC,18,-79.97820938,32.85605012
CABADING HOMES #2,3435 RIVERS AVE,NORTH CHARLESTON,SC,29405-7760,Charleston,843-566-1075,CABOOTY105@AOL.COM,CRC-0571 / 02/28/2022,Charleston / Corporation,CABADING HOMES INC,15,-79.97837946,32.85611224
CABADING HOMES #3,2149 DORCHESTER RD,NORTH CHARLESTON,SC,29405-7763,Charleston,843-745-9182,CABOOTY105@AOL.COM,CRC-0825 / 07/31/2021,Charleston / Corporation,CABADING HOMES INC,25,-79.98012621,32.85391684
CAMDEN I,975 WATEREE BLVD,CAMDEN,SC,29020-4134,Kershaw,803-432-0973,C.WRIGHT@CHESCOSERVICES.ORG,CRC-1525 / 09/30/2021,Kershaw / Sole Proprietorship,CHESCO SERVICES,8,-80.62632662,34.24654415
CAMDEN II,975 WATEREE BLVD,CAMDEN,SC,29020-4134,Kershaw,803-432-1345,C.WRIGHT@CHESCOSERVICES.ORG,CRC-1522 / 05/31/2022,Kershaw / Sole Proprietorship,CHESCO SERVICES,8,-80.62642702,34.24644881
CAMP COMMUNITY RESIDENCE,1251 CAMP RD,JAMES ISLAND,SC,29412-9212,Charleston,843-795-6983,ETURNER@DSNCC.COM,CRC-1371 / 01/31/2022,Charleston / State,DISABILITIES BOARD OF CHARLESTON COUNTY,8,-79.9498129,32.72764523
CANTERFIELD OF BLUFFTON,567 N OKATIE HWY,RIDGELAND,SC,29936,Jasper,843-645-4000,SHAZIA@CANTERFIELDOFBLUFFTON.COM,CRC-1571 / 11/30/2021,Jasper / Limited Liability,CANTERFIELD OF BLUFFTON LLC,93,-80.93503196,32.30814302
CANTRELL'S RESIDENTIAL CARE FACILITY,124 GLADYS CT,SPARTANBURG,SC,29301-3701,Spartanburg,864-587-1993,WYOMINGSWITZER@ICLOUD.COM,CRC-1105 / 06/30/2022,Spartanburg / Corporation,CANTRELL'S RESIDENTIAL CARE FACILITY INC,22,-81.98207561,34.92103246
CARE WITH LOVE,3408 LENAPE ST,NORTH CHARLESTON,SC,29405-7777,Charleston,843-744-0313,SHEILAPNELSON@GMAIL.COM,CRC-2164 / 01/31/2022,Charleston / Sole Proprietorship,SHEILA NELSON,5,-79.977828,32.855043
CARE WITH LOVE II,2109 COMMANDER RD,NORTH CHARLESTON,SC,29405-7704,Charleston,843-718-3034,SHEILAPNELSON@GMAIL.COM,CRC-2163 / 01/31/2022,Charleston / Sole Proprietorship,SHEILA NELSON,5,-79.978503,32.855324
CARLISLE PLACE,21 DR FRANK PRESSLY DR,DUE WEST,SC,29639-9705,Abbeville,864-379-2570,DLITTLE3@MINDSPRING.COM,CRC-1538 / 12/31/2021,Abbeville / ,THE RENAISSANCE LLC,28,-82.39463264,34.33025767
CAROLINA GARDENS AT CONWAY,2310 HWY 378,CONWAY,SC,29527,Horry,843-397-1010,MFRANKS@PRIORITYLC.COM,CRC-2059 / 03/31/2022,Horry / Limited Liability,SGS CONWAY OPCO LLC,100,-79.09014295,33.84352107
CAROLINA GARDENS AT GARDEN CITY,11951 GRANDHAVEN DR,MURRELS INLET,SC,29576-7843,Horry,843-357-0200,MPIEPENBRING@PRIORITYLC.COM,CRC-2115 / 12/31/2021,Horry / Limited Liability,VP GARDEN CITY OPCP LLC,111,-79.024916,33.587267
CAROLINA GARDENS AT KATHWOOD,4520 TRENHOLM RD,COLUMBIA,SC,29206-4425,Richland,803-787-1234,SBARTON@PRIORITYLC.COM,CRC-2056 / 03/31/2022,Richland / Limited Liability,SGS KATHWOOD OPCO LLC,100,-80.968651,34.008255
CAROLINA GARDENS AT LAURENS,420 W FARLEY AVE,LAURENS,SC,29360,Laurens,864-984-9844,LMIMS@PRIORITYLC.COM,CRC-2055 / 03/31/2022,Laurens / Limited Liability,SGS LAURENS OPCO LLC,100,-82.026632,34.489572
CAROLINA GARDENS AT LEXINGTON,5422 AUGUSTA RD,LEXINGTON,SC,29072-3892,Lexington,803-520-5850,APRILBYRD01@GMAIL.COM,CRC-2058 / 03/31/2022,Lexington / Limited Liability,SGS LEXINGTON OPCO LLC,90,-81.218783,33.976916
CAROLINA GARDENS AT ROCK HILL,1785 LEXINGTON COMMONS DR,ROCK HILL,SC,29732,York,803-207-8000,JKIMBALL@PRIORITYLC.COM,CRC-2116 / 12/31/2021,York / Limited Liability,VP ROCK HILL OPCO LLC,90,-80.994784,34.983962
CAROLINA GARDENS AT YORK,1020 N CONGRESS ST,YORK,SC,29745,York,803-684-0183,KMCCUIN@PRIORITYLC.COM,CRC-2060 / 03/31/2022,York / Limited Liability,SGS YORK OPCO LLC,143,-81.22452841,35.00736061
CAROLINA PLACE,240 CHARLES ST,LAKE CITY,SC,29560-2161,Florence,843-394-5707,LUWAGBAI@FCDSN.ORG,CRC-1258 / 01/31/2022,Florence / State,FLORENCE COUNTY DISABILITIES AND SPECIAL NEEDS BOARD,8,-79.74901319,33.87417658
CAROLINIAN,718 S DARGAN ST,FLORENCE,SC,29506-2559,Florence,843-665-9314,DEBORAH.STOUFF@RHF.ORG,CRC-0468 / 04/30/2021,Florence / Corporation,FLORENCE RHF HOUSING INC,38,-79.76337334,34.18600778
CARRIAGE HOUSE SENIOR LIVING OF FLORENCE,739 S PARKER DR,FLORENCE,SC,29501-6062,Florence,843-661-6655,T.BIGLER@ETCARE.BIZ,CRC-1590 / 01/31/2022,Florence / ,CARRIAGE HOUSE SENIOR LIVING OF FLORENCE INC,80,-79.82700204,34.1769165
CARRIAGE HOUSE SENIOR LIVING OF HARTSVILLE,1131 E HOME AVE,HARTSVILLE,SC,29550,Darlington,843-383-6990,CHSLHARTSVILLEADM@ETCARE.BIZ,CRC-0994 / 01/31/2022,Darlington / Corporation,CARRIAGE HOUSE SENIOR LIVING OF HARTSVILLE INC,60,-80.04588632,34.3826454
CARRIAGE HOUSE SENIOR LIVING OF SUMTER,431 N MAIN ST,SUMTER,SC,29150-4232,Sumter,803-773-0965,CHSLSUMTERADM@ETCARE.BIZ,CRC-0997 / 01/31/2022,Sumter / Corporation,CARRIAGE HOUSE OF SUMTER INC,60,-80.34122512,33.92884378
CARRIAGE HOUSE SENIOR LIVING OF TAYLORS,402 W MAIN ST,TAYLORS,SC,29687-2951,Greenville,864-292-2416,ETCAREINC@EARTHLINK.NET,CRC-0978 / 01/13/2022,Greenville / Corporation,CARRIAGE HOUSE SENIOR LIVING OF TAYLORS INC,44,-82.31121919,34.91927781
CARSON'S COMMUNITY CARE,10219 FARROW RD,BLYTHEWOOD,SC,29016-9612,Richland,803-786-7513,ANNIEPCARSON1@GMAIL.COM,CRC-0916 / 02/28/2022,Richland / Sole Proprietorship,"CARSON, JAMES E.",10,-80.95418868,34.15368787
CARTER-MAY HOME,1660 INGRAM RD,CHARLESTON,SC,29407-4242,Charleston,843-556-8314,JANINE@CHARLESTONDIOCESE.ORG,CRC-0064 / 04/30/2022,Charleston / Corporation,CATHOLIC CHARITIES OF THE DIOCESE OF CHARLESTON INC,25,-79.99345575,32.81420687
CASCADES VERDAE ASSISTED LIVING,30 SPRINGCREST CT,GREENVILLE,SC,29607-4034,Greenville,864-528-5529,LICENSING@CASCADES-VERDAECOM,CRC-1490 / 04/30/2022,Greenville / Limited Liability,CASCADES NURSING LLC,92,-82.31828984,34.82490563
CASUAL COMMUNITY CARE HOME,112 GOODRICH ST,COLUMBIA,SC,29223-7725,Richland,803-788-2721,MARYPBRIGGS1@GMAIL.COM,CRC-0701 / 01/31/2022,Richland / Sole Proprietorship,"BRIGGS, MARY",8,-80.93963866,34.11785668
CATHERINE'S MANOR II,261 SUMMERS AVE,ORANGEBURG,SC,29115-5421,Orangeburg,803-539-0899,EVERNECARR12@GMAIL.COM,CRC-1033 / 08/31/2021,Orangeburg / Sole Proprietorship,GUSS CARR AS PERSONAL REPRESENTATIVE OF THE ESTATE OF CATHERINE CARR,5,-80.86199583,33.49411725
CHANDLER PLACE ASSISTED LIVING & MEMORY CARE,1800 INDIA HOOK RD,ROCK HILL,SC,29732-1933,York,803-325-1144,AMY.LAUGHLIN@NAVIONSL.COM,CRC-2098 / 09/30/2021,York / Limited Liability,NAVION BKE SPRING ARBOR LLC,92,-81.033073,34.963062
CHARLES M INGRAM SR COMMUNITY RESIDENCE,1615 STATE RD,CHERAW,SC,29520-5107,Chesterfield,843-537-5122,T.CAMPBELL@CHESCOSERVICES.ORG,CRC-1440 / 05/31/2022,Chesterfield / Sole Proprietorship,CHESCO SERVICES,8,-79.92843518,34.69989762
CHESTERFIELD COMMUNITY RESIDENCE,817 E MAIN ST,CHESTERFIELD,SC,29709-1807,Chesterfield,843-623-6586,T.CAMPBELL@CHESCOSERVICES.ORG,CRC-1441 / 05/31/2022,Chesterfield / Sole Proprietorship,CHESCO SERVICES,8,-80.100508,34.73607091
CLARKE HOUSE,919 SHILOH RD,SALUDA,SC,29138-8101,Saluda,864-445-8816,THECLARKEHOUSE1988@GMAIL.COM,CRC-0485 / 07/31/2021,Saluda / Sole Proprietorship,IDORA H CLARKE,18,-81.78010338,34.09970285
CLEMSON DOWNS ASSISTED LIVING,500 DOWNS LOOP,CLEMSON,SC,29631-2099,Pickens,864-654-1155,JHILL@CLEMSONSDOWNS.COM,CRC-1154 / 07/31/2021,Pickens / Corporation,CARC INC,56,-82.79528066,34.67611739
CLEMSON HERITAGE LLC,140 CAMBRIDGE DR,CLEMSON,SC,29631-1208,Pickens,864-513-4105,AHOWARD@SSMGRP.COM,CRC-1563 / 11/30/2021,Pickens / Limited Liability,CLEMSON HERITAGE LLC,96,-82.792248,34.69632
CLS CARE HOME,1024 TUCKER TOWN RD STE 1024A,GADSDEN,SC,29052-9789,Richland,803-353-2151,HEDOWDY52@AOL.COM,CRC-1200 / 06/30/2021,Richland / Sole Proprietorship,CORA SCOTT,5,-80.69845745,33.81960008
COLONIAL AT OLD CAMDEN,209 BROAD ST,CAMDEN,SC,29020,Kershaw,803-272-4445,YOLANDA.HUNTER@PHOENIXSRLIVING.COM,CRC-2122 / 02/28/2022,Kershaw / Limited Liability,WATEREE RIVER AL LLC,60,-80.606016,34.231896
COLONIAL GARDENS ALZHEIMER'S SPECIAL CARE CENTER,3565 SUNSET BLVD,WEST COLUMBIA,SC,29169-3043,Lexington,803-796-2556,COLONIALGARDENS-ADM@JEASENIORLIVING.COM,CRC-1542 / 03/31/2022,Lexington / ,COLUMBIA CARE GROUP LLC,66,-81.13284858,34.00757119
COOPER HALL AT THE PALMS OF MT PLEASANT,937 BOWMAN RD OFC,MOUNT PLEASANT,SC,29464-3222,Charleston,843-884-6949,LICENSING@5SSL.COM,CRC-1432 / 06/30/2022,Charleston / Limited Liability,SNH SE SG TENANT LLC,44,-79.85945033,32.8162139
COTTONWOOD VILLAS,800 W CHURCH ST,BISHOPVILLE,SC,29010-1054,Lee,803-484-5303,MARIE@LAKEFIELDPROP.COM,CRC-1186 / 06/30/2021,Lee / Limited Liability,LAKEFIELD PROPERTIES LLC,85,-80.259131,34.227819
COUNTRY COMFORT COMMUNITY HOME,204 JOE ARTHUR CIR,BLYTHEWOOD,SC,29016-8807,Richland,803-735-9777,COUNTS_COUNTRYCOMFORT@YAHOO.COM,CRC-1467 / 02/28/2022,Richland / ,COUNTRY COMFORT HOMES LLC,9,-80.978063,34.20057
COVENANT PLACE,2825 CARTER RD OFC,SUMTER,SC,29150-1736,Sumter,803-469-7007,RLINDER@COVENANTPLACE.ORG,CRC-0758 / 03/31/2022,Sumter / Non-Profit Corporation,COVENANT PLACE OF SUMTER INC,70,-80.40652955,33.95482153
CUMMINGS COMMUNITY RESIDENTIAL CARE HOME,2606 STARK LN,NORTH CHARLESTON,SC,29405-5537,Charleston,843-747-7088,OCUMMINGS03@COMCAST.NET,CRC-0891 / 10/31/2021,Charleston / Sole Proprietorship,"CUMMINGS, OLYMPIA W.",8,-79.99037799,32.85222403
CURAMENG RESIDENTIAL HOME CARE,2021 COSGROVE AVE,NORTH CHARLESTON,SC,29405-7710,Charleston,843-566-1266,MYLESR05@YAHOO.COM,CRC-1187 / 11/30/2021,Charleston / Corporation,JFJ INC,8,-79.97612224,32.85682768
CYPRESS PLACE,205 MIDLAND PKWY,SUMMERVILLE,SC,29485-8104,Dorchester,843-875-7163,JHOOLEY@ENLIVANT.COM,CRC-1411 / 11/30/2021,Dorchester / Limited Liability,CYPRESS AID OPCO LLC,44,-80.16174068,32.96584168
DALTONS CMC RESIDENTIAL CARE FACILITY,1231 EUTAW ST,ORANGEBURG,SC,29115-3529,Orangeburg,803-747-7006,CHERYLGDALTON@GMAIL.COM,CRC-1447 / 07/31/2021,Orangeburg / Sole Proprietorship,"GIBSON-DALTON, CHERYL",5,-80.85527775,33.50685519
DAVIDSON STREET COMMUNITY RESIDENCE,313 DAVIDSON ST,CLINTON,SC,29325-2023,Laurens,864-833-7284,KMCGOWAN@LCDSNB.ORG,CRC-1420 / 12/31/2021,Laurens / Non-Profit Corporation,LAURENS COUNTY DISABILITIES AND SPECIAL NEEDS BOARD,8,-81.87336934,34.47938172
DAYSPRING ASSISTED LIVING,5146 TOWLES RD,HOLLYWOOD,SC,29449-6119,Charleston,843-889-9757,DAYSPRINGSC@YAHOO.COM,CRC-1385 / 03/31/2022,Charleston / Ltd. Liability,DAYSPRING ASSISTED LIVING LLC,16,-80.20733598,32.74101737
DAYSPRING OF JOHNS ISLAND,3455 BOHICKET RD,JOHNS ISLAND,SC,29455-7222,Charleston,843-768-5335,DAYSPRINGSC@YAHOO.COM,CRC-1915 / 03/31/2022,Charleston / Corporation,DAYSPRING OF JOHNS ISLAND INC,24,-80.12889705,32.65920026
DILLON COMMUNITY RESIDENCE,506 S 14TH AVE,DILLON,SC,29536-4369,Dillon,843-841-0778,MKEITH@MDDSN.ORG,CRC-1377 / 04/30/2022,Dillon / County,MARION-DILLON COUNTY BOARD OF DISABILITIES AND SPECIAL NEEDS,8,-79.3681371,34.40965224
DIVINE MANOR ASSISTED LIVING CENTER,2210 OAK POND RD,ROCK HILL,SC,29730-7958,York,803-329-4494,DIVINEMANOR@COMPORIUM.NET,CRC-1361 / 07/31/2021,York / Limited Liability,DIVINE NURSE CONSULTANT LLC,32,-80.97044434,34.88098469
DIXON'S COMMUNITY CARE HOME,1456 DIXON RD,ELGIN,SC,29045-9030,Kershaw,803-729-4309,JADIXON35@GMAIL.COM,CRC-0934 / 09/30/2021,Kershaw / Corporation,DIXON'S COMMUNITY CARE HOME INC,5,-80.78691634,34.19085943
DOMINION SENIOR LIVING AT PATRICK SQUARE,100 PERSHING AVE,CLEMSON,SC,29631,Pickens,864-722-2811,MARKT@DOMINIONDG.COM,CRC-1966 / 03/31/2022,Pickens / ,DOMINION CLEMSON LLC,78,-82.81369678,34.68502466
DOMINION SENIOR LIVING OF ANDERSON,3461 N HWY 81,ANDERSON,SC,29621,Anderson,864-332-4511,CHRISP@DOMINIONANDERSON.COM,CRC-1955 / 12/31/2021,Anderson / Limited Liability Company (multiple member),DOMINION ANDERSON LLC,70,-82.62094374,34.58819084
DORCH COMMUNITY RESIDENTIAL CARE,3921 GREELEYVILLE HWY,MANNING,SC,29102,Clarendon,803-473-4681,DORCHANDREW@YAHOO.COM,CRC-1078 / 04/30/2022,Clarendon / Partnership,EVELYN DORCH LEWIS AND ANDREW DORCH,13,-80.162579,33.680951
DOWDY'S COMMUNITY CARE HOME #2,4609 ARLINGTON ST,COLUMBIA,SC,29203-4143,Richland,803-786-2105,TDOWDY@CIO.SC.GOV,CRC-0173 / 08/31/2021,Richland / Sole Proprietorship,ANNIE R DOWDY,9,-81.04150667,34.04639827
DREAMLAND RESIDENTIAL CARE,6941 NORTH RD,NORTH,SC,29112-8832,Orangeburg,803-533-7492,DELORESWRIGHT4@AOL.COM,CRC-0795 / 10/31/2021,Orangeburg / Sole Proprietorship,DELORES M WRIGHT,5,-81.00873397,33.60945225
EASLEY PLACE- A CONTINUUM OF CARE COMMUNITY,706 PELZER HWY,EASLEY,SC,29642-3800,Pickens,864-859-0167,MARLEDGE@EASLEYPLACE.COM,CRC-2137 / 11/30/2021,Pickens / Limited Liability,SCHOOL ROAD SENIOR LIVING LLC,85,-82.595774,34.794567
EASLEY PLACE NORTH- A CONTINUUM OF CARE COMMUNITY,125 ZION SCHOOL RD,EASLEY,SC,29642-2833,Pickens,864-859-0167,MARLEDGE@EASLEYPLACE.COM,CRC-2138 / 01/31/2022,Pickens / Limited Liability,SCHOOL ROAD SENIOR LIVING LLC,66,-82.597129,34.79485
EASLEY RETIREMENT CENTER,102 DOWLING ST,EASLEY,SC,29641,Pickens,864-859-3722,SARAFOSTER@EASLEYRETIREMENT.NET,CRC-0359 / 02/28/2022,Pickens / Corporation,WEST END RETIREMENT CENTER INC,16,-82.57720289,34.83531995
EASY LIVING,506 E JACKSON ST,LAMAR,SC,29069-9162,Darlington,843-326-5884,19EJONES19@GMAIL.COM,CRC-1512 / 03/31/2022,Darlington / Sole Proprietorship,"GEORGE, EDELL",5,-80.05408685,34.16723558
EDEN TERRACE OF SPARTANBURG,2780 E MAIN ST,SPARTANBURG,SC,29307-1248,Spartanburg,864-579-7387,CINDY.HUGHES@ARBORCOMPANY.COM,CRC-1213 / 05/31/2022,Spartanburg / Ltd. Liability,BRISTOL SPARTANBURG LLC,140,-81.86995037,34.98080472
ELLIOTT'S RESIDENTIAL CARE HOME,2432 LANDSDOWNE RD,BOWMAN,SC,29018-9583,Orangeburg,803-829-3348,ELLIOTTSCAREHOME@GMAIL.COM,CRC-0272 / 10/31/2021,Orangeburg / Corporation,ELLIOTT'S RESIDENTIAL CARE HOME INC,7,-80.61298639,33.37819678
ELMCROFT OF FLORENCE,3006 HOFFMEYER RD,FLORENCE,SC,29501-7551,Florence,843-292-0012,JANICE.COSGROVE@ELMCROFT.COM,CRC-2026 / 01/31/2022,Florence / Limited Liability,EC OPCO FLORENCE SC LLC,82,-79.837347,34.205748
EMERALD GARDENS OF GREENWOOD,201 OVERLAND DR,GREENWOOD,SC,29646-4097,Greenwood,864-953-2174,MPATTERSON@EMERALDGARDENSASSISTEDLIVING.,CRC-1378 / 10/31/2021,Greenwood / Ltd. Liability,EMERALD GARDENS OF GREENWOOD LLC,66,-82.15664203,34.16976197
EMERALD RCF I,2244 BROWNTOWN RD,BISHOPVILLE,SC,29010-9664,Lee,803-428-6044,MARJORIE.WILSON-GUESS@SCDMH.ORG,CRC-2066 / 02/28/2022,Lee / State,SOUTH CAROLINA DEPARTMENT OF MENTAL HEALTH,5,-80.34352035,34.19410739
EMERALD RCF II,2262 BROWNTOWN RD,BISHOPVILLE,SC,29010-9664,Lee,803-428-6044,MARJORIE.WILSON-GUESS@SCDMH.ORG,CRC-2074 / 02/28/2022,Lee / State,SOUTH CAROLINA DEPARTMENT OF MENTAL HEALTH,5,-80.34405215,34.19378994
EUGENIA'S RESIDENTIAL CARE FACILITY,2232 HEYWARD BROCKINGTON RD,COLUMBIA,SC,29203-9677,Richland,803-786-1047,DAVISCCHANDERCF.INFO@GMAIL.COM,CRC-0538 / 08/31/2021,Richland / Partnership,ELIJAH DAVIS THOMASENA DAVIS & EUGENIA M EARGLE,23,-81.05536427,34.132021
FAIRVIEW PARK ASSISTED LIVING,544 HARRISON BRIDGE RD,SIMPSONVILLE,SC,29860,Greenville,864-757-8812,ASURLS@ATLASSENIORLIVING.COM,CRC-2050 / 02/28/2022,Greenville / Limited Liability,AFF18 FAIRVIEW PARL ALF LLC,90,-82.26765015,34.70224315
FAMILY RESIDENTIAL CARE HOME I,21 EDWARDS ST,SUMTER,SC,29150-4808,Sumter,803-757-1032,TWRG32@YAHOO.COM,CRC-1233 / 02/28/2022,Sumter / Sole Proprietorship,"WALTERS, MICHAEL A.",5,-80.35312692,33.91900055
FAMILY RESIDENTIAL CARE HOME II,23 EDWARDS ST,SUMTER,SC,29150-4808,Sumter,803-775-9555,TWRG32@YAHOO.COM,CRC-1277 / 06/30/2021,Sumter / Sole Proprietorship,"WALTERS, MICHAEL A.",5,-80.35313083,33.91887233
FAMILY RESIDENTIAL CARE HOME III,25 EDWARDS ST,SUMTER,SC,29150-4808,Sumter,803-775-9555,TWRG32@YAHOO.COM,CRC-1537 / 02/28/2022,Sumter / Sole Proprietorship,"WALTERS, MICHAEL A.",12,-80.35295163,33.91873198
FARMINGTON COMMUNITY RESIDENCE,1269 CAMP RD,JAMES ISLAND,SC,29412-9212,Charleston,843-795-2461,ETURNER@DSNCC.COM,CRC-1370 / 01/31/2022,Charleston / State,DISABILITIES BOARD OF CHARLESTON COUNTY,8,-79.950656,32.72794038
FH&C RESIDENTIAL CARE LLC,101 COE RD,ANDERSON,SC,29624,Anderson,864-437-8327,0911BEAUTYJ@GMAIL.COM,CRC-2169 / 10/31/2021,Anderson / Limited Liability,FH&C RESIDENTIAL CARE LLC,10,-82.644342,34.481708
FIRST CHOICE HOME CARE FACILITY,2003 COSGROVE AVE,NORTH CHARLESTON,SC,29405-5702,Charleston,843-225-0637,EJCRELLORA@GMAIL.COM,CRC-0742 / 10/31/2021,Charleston / Partnership,DQR CAMBA/NM CAMBA/GT MARTINEZ/P MARTINEZ/P PAJOTA,8,-79.97586154,32.85741949
FLANAGAN COMMUNITY CARE HOME,665 SHARPE RD,COLUMBIA,SC,29203-9304,Richland,803-754-2136,MARYPBRIGGS1@GMAIL.COM,CRC-0314 / 09/30/2021,Richland / Sole Proprietorship,"BRIGGS, MARY E.",9,-81.00065852,34.08987981
FLORA'S RESIDENTIAL CARE FACILITY II,703 S HARVIN ST,SUMTER,SC,29150-6415,Sumter,803-775-6007,LUCINDAHERRIOTT@GMAIL.COM,CRC-1519 / 12/31/2021,Sumter / Sole Proprietorship,"YORK-HERRIOTT, LUCINDA",5,-80.33938221,33.90734302
FLORENCE PLACE,1938 MOUNTAIN LAUREL CT,FLORENCE,SC,29505-6084,Florence,312-725-7000,JHILL2@ENLIVANT.COM,CRC-1990 / 10/31/2021,Florence / Limited Liability,FLORENCE BG OPCO LLC,90,-79.755179,34.157879
FLOWERS RESIDENTIAL CARE FACILITY,855 WATTS HILL RD,LUGOFF,SC,29078-9234,Kershaw,803-438-2654,MLA3524@YAHOO.COM,CRC-0297 / 11/30/2021,Kershaw / Sole Proprietorship,"FLOWERS, MARY C.",7,-80.76543959,34.18145043
FOOTHILLS ASSISTED LIVING,999 W UNION RD,WEST UNION,SC,29696-2642,Oconee,864-638-4370,KNICHOLS@CITE-MGMT.COM,CRC-1364 / 08/31/2021,Oconee / Corporation,CITE HEALTH MANAGEMENT SERVICES INC,76,-83.02961237,34.73891615
FOREST CIRCLE COMMUNITY RESIDENCE,505 FOREST CIR,WALTERBORO,SC,29488-2869,Colleton,843-549-5140,TFARMER@COLLETONDSN.ORG,CRC-1527 / 09/30/2021,Colleton / State,COLLETON COUNTY BOARD OF DISABILITIES AND SPECIAL NEEDS,8,-80.67920271,32.91592428
FOREST VIEW MANOR RETIREMENT CENTER,141 CALLISON HWY,MCCORMICK,SC,29835-3524,Edgefield,864-443-5857,KMNIXON62@AOL.COM,CRC-0500 / 11/30/2021,Edgefield / Corporation,HILLSIDE INC,40,-82.12227553,33.93562387
FRANKE HOME,1885 RIFLE RANGE RD,MOUNT PLEASANT,SC,29464-9440,Charleston,843-856-4705,SSTOLL@FRANKEATSEASIDE.ORG,CRC-1082 / 09/30/2021,Charleston / Non-Profit Corporation,LUTHERAN HOMES OF SOUTH CAROLINA INC,86,-79.8197044,32.82152193
GABLES ON PELHAM ASSISTED LIVING AND MEMORY CARE,1306 PELHAM RD,GREENVILLE,SC,29615-3600,Greenville,864-286-6600,SUE@THEGABLESONPELHAM.COM,CRC-2157 / 07/31/2021,Greenville / Limited Liability,FSL GREENVILLE SC TENANT LLC,119,-82.307621,34.855499
GARDEN HOUSE LLC,201 EDGEBROOK DR,ANDERSON,SC,29621-2573,Anderson,864-964-5668,LICENSING@PRINCIPALSENIORLIVING.COM,CRC-1437 / 07/31/2021,Anderson / Ltd. Liability,ARHC GHANDSC01 TRS LLC,75,-82.63319202,34.5534423
GARDENS AT EASTSIDE,275 COMMONWEALTH DR,GREENVILLE,SC,29615-4814,Greenville,864-329-1200,JANE.FORD@ARBORCOMPANY.COM,CRC-1222 / 08/31/2021,Greenville / Ltd. Liability,EASTSIDE ASSISTED LIVING LLC,83,-82.32004193,34.85234452
GARDENS AT SUMTER,2065 MCCRAYS MILL RD,SUMTER,SC,29154-6111,Sumter,803-778-9690,MDEATON@AFFINITYLIVINGGROUP.COM,CRC-0988 / 06/30/2021,Sumter / Limited Liability,SUMTER AL HOLDINGS LLC,140,-80.38657628,33.90480121
GENERATIONS OF BATESBURG,111 GENERATIONS BLVD,BATESBURG,SC,29006-2315,Lexington,803-532-8428,TIM@GENERATIONSOFCHAPIN.COM,CRC-0647 / 09/30/2021,Lexington / Corporation,GENERATIONS OF BATESBURG INC,88,-81.53487748,33.90702979
GENERATIONS OF CHAPIN,431 E BOUNDARY ST,CHAPIN,SC,29036-8388,Lexington,803-345-1911,TODD@GENERATIONSOFCHAPIN.COM,CRC-1128 / 10/31/2021,Lexington / Corporation,GENERATIONS OF CHAPIN INC,56,-81.3396408,34.16188585
GENERATIONS OF IRMO,7142 WOODROW ST,IRMO,SC,29063-2832,Lexington,803-227-8991,DEDWARDS@CAREBYGENERATIONS.COM,CRC-1477 / 05/31/2022,Lexington / Limited Liability,GENERATIONS OF IRMO LLC,78,-81.17879583,34.07940226
GENERATIONS OF MONETTA,77 CATO RD,MONETTA,SC,29105-9319,Aiken,803-685-7820,TODD@GENERATIONSOFCHAPIN.COM,CRC-0876 / 10/31/2021,Aiken / Ltd. Liability,GENERATIONS OF MONETTA LLC,22,-81.59765022,33.85076214
GENE'S RESIDENTIAL CARE FACILITY #3,1312 W EVANS ST,FLORENCE,SC,29501-3324,Florence,843-667-6636,NUGGIE23@GMAIL.COM,CRC-0482 / 02/28/2022,Florence / Sole Proprietorship,"JONES, GENE E.",9,-79.79066725,34.19584651
GOD'S HAVEN OF REST,516 BELVEDERE CLEARWATER RD,NORTH AUGUSTA,SC,29841-2583,Aiken,803-279-1129,LEIGH.3@COMCAST.NET,CRC-1237 / 12/31/2021,Aiken / Sole Proprietorship,"AYERS, HAZEL LEIGH",9,-81.93704366,33.53091428
GOOD DEEDS RESIDENTIAL I,23 KENDRICK ST,SUMTER,SC,29150-5224,Sumter,803-778-2780,GLOVER2180@GMAIL.COM,CRC-2140 / 01/31/2022,Sumter / Limited Liability,GOOD DEEDS RESIDENTIAL CARE FACILITY LLC,21,-80.338308,33.918397
GOOD DEEDS RESIDENTIAL II,28 S MAGNOLIA ST,SUMTER,SC,29150-5243,Sumter,803-778-2780,GLOVER2180@GMAIL.COM,CRC-2139 / 01/31/2022,Sumter / Limited Liability,GOOD DEEDS RESIDENTIAL CARE FACILITY LLC,12,-80.337812,33.918216
GOOD SAMARITAN RESIDENTIAL CARE,1356 BUBZY RD,KINGSTREE,SC,29556-5246,Williamsburg,843-382-3530,GSRFC1356@GMAIL.COM,CRC-1015 / 05/31/2022,Williamsburg / Corporation,GOOD SAMARITAN RESIDENTIAL CARE FACILITY INC,9,-79.750733,33.632072
GOOSE CREEK MANOR #1,104 MARILYN ST,GOOSE CREEK,SC,29445-3104,Berkeley,843-572-7442,ADMIN@GOOSECREEKALF.COM,CRC-2027 / 06/30/2021,Berkeley / Limited Liability,STAR CAPITAL INC,7,-80.041086,32.997868
GOOSE CREEK MANOR #2,104 MARILYN ST,GOOSE CREEK,SC,29445-3104,Berkeley,843-572-7442,ADMIN@GOOSECREEKALF.COM,CRC-2028 / 06/30/2021,Berkeley / Corporation,STAR CAPITAL INC,36,-80.041086,32.997868
GRACE RESIDENTIAL CARE FACILITY,6534 CAROLINA HWY,DENMARK,SC,29042-2366,Bamberg,803-793-3423,BERNESTINEDAVIS@YAHOO.COM,CRC-0584 / 08/31/2021,Bamberg / Corporation,GRACE RESIDENTIAL CARE FACILITY INC,22,-81.146165,33.300003
GRACELYNN RESIDENTIAL CARE FACILITY,203 JEWEL ST N,NEW ELLENTON,SC,29809-2942,Aiken,803-761-2045,ADULTANDSENIORSERVICES@GMAIL.COM,CRC-1609 / 11/30/2021,Aiken / Limited Liability Company (single member),GRACELYNN RESIDENTIAL CARE FACILITY LLC,6,-81.68776331,33.41973844
GREENVILLE COMMUNITY RESIDENCE,158 CAVALIER DR,GREENVILLE,SC,29607-4262,Greenville,864-277-9656,DAVID.BELLEW@THRIVEUPSTATE.ORG,CRC-0073 / 03/31/2022,Greenville / State,GREENVILLE COUNTY DISABILITIES & SPECIAL NEEDS BOARD,12,-82.35241353,34.79343826
GREENVILLE GLEN ASSISTED LIVING,1101 GARLINGTON RD,GREENVILLE,SC,29615-5446,Greenville,864-627-8700,ED@GREENVILLEGLEN.COM,CRC-2069 / 08/31/2021,Greenville / Limited Liability,ML GREENVILLE GLEN LLC,51,-82.26459,34.850229
GREENVILLE PLACE,2006 PELHAM RD,GREENVILLE,SC,29615-4005,Greenville,864-288-3331,TERRI.BAKER@JEASENIORLIVING.COM,CRC-1402 / 11/30/2021,Greenville / Corporation,CSL LEASECO INC,153,-82.28389583,34.86175355
GREER COMMUNITY RESIDENCE,112 S BEVERLY LN,GREER,SC,29651-1738,Greenville,864-449-5982,SHELETHA.MAYS@THRIVEUPSTATE.ORG,CRC-0237 / 09/30/2021,Greenville / State,GREENVILLE COUNTY DISABILITIES & SPECIAL NEEDS BOARD,12,-82.24401411,34.94031453
GUARDIAN ANGELS RESIDENTIAL CARE,2126 SUCCESS ST,NORTH CHARLESTON,SC,29405-7992,Charleston,843-744-0448,GUARDIANANGELSRCF@YAHOO.COM,CRC-1049 / 11/30/2021,Charleston / Corporation,GUARDIAN ANGELS ASSISTED LIVING INC,18,-79.97206793,32.8518404
HAMMOND PLACE,128 WALNUT LN,NORTH AUGUSTA,SC,29860-9206,Aiken,803-441-8441,DRANDALL@ENLIVANT.COM,CRC-1405 / 11/30/2021,Aiken / ,HAMMOND AID OPCO LLC,44,-81.94392484,33.57270425
HAMPTON STREET COMMUNITY RESIDENCE,425 HAMPTON ST,DENMARK,SC,29042-1368,Bamberg,803-793-4093,TDAVIS@BCDSNB.ORG,CRC-1296 / 06/30/2021,Bamberg / ,BAMBERG COUNTY DISABILITIES AND SPECIAL NEEDS BOARD,8,-81.13521893,33.32453911
HANNAH RESIDENTIAL MANOR,3750 SHEMINALLY RD,PAMPLICO,SC,29583-5700,Florence,843-493-0001,PATRICIAHART0910@GMAIL.COM,CRC-0712 / 05/31/2022,Florence / Partnership,PATRICIA W HART & RONALD E HART SR,48,-79.56819309,33.8818065
HARBISON SHORES,990 COLUMBIA AVE,IRMO,SC,29063-2854,Lexington,803-749-7889,NSHANNON@TARANTINO.COM,CRC-2180 / 05/31/2022,Lexington / Limited Liability Company (multiple member),TARANTINO SENIOR LIVING COMMUNITIES LLC,82,-81.173122,34.087204
HARBOR COVE MEMORY CARE,48 MAIN ST,HILTON HEAD ISLAND,SC,29926-1647,Beaufort,843-342-7122,KLEE.LATHAM@NAVIONSL.COM,CRC-2099 / 09/30/2021,Beaufort / Limited Liability,NAVION BKE HILTON HEAD COURT LLC,36,-80.717136,32.219457
HARBORCHASE OF AIKEN,1385 SILVER BLUFF RD,AIKEN,SC,29803-8860,Aiken,803-721-4639,NGILLIAM@HRAONLINE.NET,CRC-1316 / 11/30/2021,Aiken / Corporation,TWENTY TWO PACK MANAGEMENT CORPORATION,110,-81.74049678,33.50515409
HARBORCHASE OF COLUMBIA,120 FAIRFOREST RD,COLUMBIA,SC,29212-2308,Richland,803-615-5735,MCALDWELL@HRAONLINE.NET,CRC-1315 / 11/30/2021,Richland / Corporation,TWENTY TWO PACK MANAGEMENT CORPORATION,66,-81.14665978,34.07764698
HARBORCHASE OF RIVERWALK,749 DUNKINS FERRY RD,ROCK HILL,SC,29730,York,803-393-2983,SJUSTICE@HRAONLINE.NET,CRC-2033 / 01/31/2022,York / Limited Liability,RB ROCKHILL PROPERTY LLC,97,-80.973661,34.97406
HARBORCHASE OF ROCK HILL,1611 CONSTITUTION BLVD,ROCK HILL,SC,29732-3047,York,803-981-6855,LPRESSLEY@HRAONLINE.NET,CRC-1290 / 11/30/2021,York / Corporation,TWENTY TWO PACK MANAGEMENT CORPORATION,110,-81.04961696,34.95299469
HARMONY AT FIVE FORKS,345 FIVE FORKS RD,SIMPSONVILLE,SC,29681,Greenville,864-412-4700,PLAUGAVITZ@HARMONYATFIVEFORKS.COM,CRC-1960 / 08/31/2021,Greenville / Limited Liability,GREENVILLE OPERATIONS LLC,92,-82.23225956,34.80452107
HARMONY AT WESCOTT PLANTATION,5130 WESCOTT BLVD,SUMMERVILLE,SC,29485,Dorchester,843-486-2712,KPATTERSON@HARMONYARATWESCOTTPLANTATION,CRC-1596 / 06/30/2021,Dorchester / Limited Liability,CHARLESTON OPERATIONS LLC,105,-80.14226931,32.94464128
HARMONY AT WEST ASHLEY,1925 ESSEX FARMS DR,CHARLESTON,SC,29414,Charleston,843-804-8850,CCURE@HARMONYATWESTASHLEY.COM,CRC-1899 / 10/31/2021,Charleston / Limited Liability,WEST ASHLEY OPERATIONS LLC,105,-80.05137543,32.80859732
HARMONY COLLECTION AT COLUMBIA (AL/MC),2300 CLEMSON RD,COLUMBIA,SC,29229-8029,Richland,803-223-9560,BCUNNINGHAM@HARMONYATCOLUMBIA.COM,CRC-1544 / 03/31/2022,Richland / Limited Liability,COLUMBIA AL OPERATIONS LLC,110,-80.92132461,34.13849901
HARMONY COLLECTION AT COLUMBIA (IL),2304 CLEMSON RD,COLUMBIA,SC,29229,Richland,803-451-0653,BCUNNINGHAM@HARMONYATCOLUMBIA.COM,CRC-1980 / 07/31/2021,Richland / Limited Liability,COLUMBIA IL INVESTORS LLC,25,-80.920752,34.139155
HARMONY HOUSE RESIDENTIAL CARE,704 ANDERSON ST,CALHOUN FALLS,SC,29628-1034,Abbeville,864-418-9277,HARMONYHOUSERCF@ATT.NET,CRC-1511 / 05/31/2022,Abbeville / Limited Liability,HERRON CARE LLC,16,-82.59141235,34.09902162
HAVEN IN THE VILLAGE AT CHANTICLEER,355 BERKMANS LN,GREENVILLE,SC,29605-5606,Greenville,864-467-0031,LNEWCOMB@5SSL.COM,CRC-2125 / 01/31/2022,Greenville / Limited Liability,SNH SC TENANT LLC,60,-82.412531,34.812892
HEARTLAND HEALTH CARE CENTER-UNION (RESIDENTIAL CARE),709 RICE AVE EXT,UNION,SC,29379-9023,Union,864-427-0306,4031ADMIN@HCR-MANORCARE.COM,CRC-0576 / 12/31/2021,Union / Limited Liability,OAKMONT OF UNION SC LLC,40,-81.64648159,34.71875053
HEATH SPRINGS RESIDENTIAL CARE CENTER,614 HART ST,HEATH SPRINGS,SC,29058-8411,Lancaster,803-273-3227,SFBARNES11@GMAIL.COM,CRC-1903 / 12/31/2021,Lancaster / Corporation,HSRCC PARTNERS LLC,64,-80.67038419,34.59388799
HELENA PLACE,1624 PARIS AVE,PORT ROYAL,SC,29935-2041,Beaufort,843-982-0233,LKESLER@ENLIVANT.COM,CRC-1409 / 11/30/2021,Beaufort / ,HELENA AID OPCO LLC,44,-80.692194,32.382022
HELMS-GORDON RESIDENTIAL CARE HOME,714 FUNDERBURKE RD,FORT LAWN,SC,29714-8593,Chester,803-872-4253,MKGORDON@COMPORIUM.NET,CRC-0527 / 07/31/2021,Chester / Sole Proprietorship,HELMS-GORDON RESIDENTIAL CARE HOME LLC,32,-80.91152851,34.68903933
HERITAGE AT LOWMAN RESIDENTIAL CARE,2101 DUTCH FORK RD,CHAPIN,SC,29036,Richland,803-732-8800,AHYMAN@THEHERITAGEATLOWMAN.ORG,CRC-0840 / 09/30/2021,Richland / Non-Profit Corporation,LUTHERAN HOMES OF SOUTH CAROLINA INC,132,-81.2755918,34.14337327
HERRIOTT'S RESIDENTIAL CARE FACILITY,114 LIME LN,SUMTER,SC,29150-6630,Sumter,803-773-6882,LUCINDAHERRIOTT@GMAIL.COM,CRC-1013 / 06/30/2022,Sumter / Partnership,JOHN & LUCINDA HERRIOTT,14,-80.33770786,33.90247351
HILLS OF CUMBERLAND VILLAGE,3215 WISE CREEK LN,AIKEN,SC,29801-2534,Aiken,803-641-8444,MCHEATHAM@MARRINSON.COM,CRC-1121 / 09/30/2021,Aiken / Corporation,MARRINSON GROUP INC,34,-81.77381704,33.55816745
HILLTOP OF GREENVILLE MEMORY CARE,352 PELHAM RD,GREENVILLE,SC,29615,Greenville,864-558-0383,ED@MEMORYCAREOFGREENVILLECOM,CRC-1947 / 04/30/2022,Greenville / Limited Liability,GREENVILLE MEMORY CARE LLC,54,-82.340055,34.860755
HITCHCOCK PLACE,102 CREPE MYRTLE DR OFC,AIKEN,SC,29803-7552,Aiken,803-649-6439,LEGALHELP@ENLIVANT.COM,CRC-1412 / 11/30/2021,Aiken / ,HITCHCOCK AID OPCO LLC,44,-81.73733846,33.51359869
IDA LANE I CRCF,120 IDA LN,COLUMBIA,SC,29203-9234,Richland,803-786-7522,RWROTEN@BABCOCKCENTER.ORG,CRC-1520 / 03/31/2022,Richland / Corporation,BABCOCK CENTER INC,8,-80.98035325,34.11219588
IDA LANE II CRCF,124 IDA LN,COLUMBIA,SC,29203-9234,Richland,803-786-7522,AGASS@BABCOCKCENTER.ORG,CRC-1518 / 12/31/2021,Richland / Corporation,BABCOCK CENTER INC,8,-80.97957166,34.11218648
INDIGO HALL,509 STANDARD WAY,CHARLESTON,SC,29412,Charleston,843-406-4747,ADMINISTRATION@INDIGOHALL.COM,CRC-1922 / 11/30/2021,Charleston / Limited Liability,INDIGO HALL OPERATING CO LLC,179,-79.980562,32.761207
INLET COASTAL RESORT,5087 HWY 17 N BP,MURRELLS INLET,SC,29576,Georgetown,843-405-2005,ADMINISTRATOR@INLETCOASTAL.COM,CRC-1549 / 08/31/2021,Georgetown / Limited Liability,INLET COASTAL RESORT LLC,62,-79.05792714,33.53534178
INLET OAKS ASSISTED LIVING COMMUNITY,12287 HWY 707,MURRELLS INLET,SC,29576-9739,Horry,843-357-0317,DENISE@SCSENIORCARE.NET,CRC-1560 / 12/31/2021,Horry / Corporation,PARTNERS IN HOPE INC,60,-79.03949091,33.58037547
INVERNESS AT SPARTANBURG,2720 COUNTRY CLUB RD,SPARTANBURG,SC,29302-4473,Spartanburg,864-591-1116,MDEATON@AFFINITYLIVINGGROUP.COM,CRC-1351 / 07/31/2021,Spartanburg / Limited Liability,DSJ AL HOLDINGS LLC,100,-81.8585992,34.93906297
IVORYS LOVING CARE II,4108 S RHETT AVE,N CHARLESTON,SC,29405,Charleston,843-554-0733,SISTERSANDERS@COMCAST.NET,CRC-2092 / 07/31/2021,Charleston / Sole Proprietorship,"SANDERS, JUANITA",10,-79.98495582,32.86924445
IVORY'S LOVING CARE RESIDENTIAL FACILITY,2827 SPRUILL AVE,NORTH CHARLESTON,SC,29405-8050,Charleston,843-745-2339,SISTERSANDERS@COMCAST.NET,CRC-1383 / 04/30/2022,Charleston / Partnership,JUANITA SANDERS & GENEVA NELSON,7,-79.96296938,32.85046586
IVY GROVE RESIDENTIAL CARE CENTER,483 LOCKHART LN,GAFFNEY,SC,29341-2841,Cherokee,864-487-0869,OSKARMANI@AOL.COM,CRC-1458 / 10/31/2021,Cherokee / Ltd. Liability,HARMONY RESIDENTIAL CARE CENTER LLC,62,-81.64778595,35.09846898
J & T RESIDENTIAL CARE FACILITY,604 WAGON WHEEL RD,HAMPTON,SC,29924-5346,Hampton,803-943-7177,JTRESIDENTIALCARE@GMAIL.COM,CRC-1094 / 05/31/2022,Hampton / Sole Proprietorship,"MYERS, THELMA S.",10,-81.05295755,32.89372831
J C LARAES SOUTHWINDS ASSISTED LIVING COMMUNITY,308 HUMPHRIES RD,RIDGEWAY,SC,29130-9648,Kershaw,803-438-4052,JUDYOWENS53@YAHOO.COM,CRC-1181 / 09/30/2021,Kershaw / Sole Proprietorship,ANNA L OWENS,5,-80.79773634,34.28765449
J J RESIDENTIAL CARE,748 GREEN ST,ORANGEBURG,SC,29115-4805,Orangeburg,803-539-2604,EYBLACK52@MAIL.COM,CRC-0831 / 09/30/2021,Orangeburg / Sole Proprietorship,BARBARA W IRICK,10,-80.86824853,33.49701153
JENNI-LYNN ASSISTED LIVING COMMUNITY,915 HOOK AVE,WEST COLUMBIA,SC,29169-5332,Lexington,803-926-8600,GTHOMPSON@PREMIERSL.COM,CRC-1248 / 09/30/2021,Lexington / Ltd. Liability,JENNI-LYNN ASSISTED LIVING LLC,63,-81.10063518,33.99628156
JESSAMINE COMMUNITY RESIDENCE,143 JESSAMINE AVE,GEORGETOWN,SC,29440-5837,Georgetown,843-527-1390,EKRAUSS@GCBDSN.COM,CRC-1445 / 06/30/2022,Georgetown / County,GEORGETOWN COUNTY BOARD OF DISABILITIES AND SPECIAL NEEDS,8,-79.28888158,33.40975181
JOANNE'S COMMUNITY CARE HOME #1,5048 PERCIVAL RD,ELGIN,SC,29045-9156,Richland,803-736-3860,TOWANA_HAYES@ATT.NET,CRC-0932 / 06/30/2021,Richland / Sole Proprietorship,"CALDWELL, JOANNE M.",10,-80.80785852,34.10872984
JOANNE'S COMMUNITY CARE HOME II,756 FARROWOOD DR,COLUMBIA,SC,29223-7801,Richland,803-736-3094,JOANNESCCH@AOL.COM,CRC-0030 / 03/31/2022,Richland / Sole Proprietorship,"CALDWELL, JOANNE M.",9,-80.93897259,34.11109484
JOHNSONVILLE ADULT CARE SERVICES,351 S MIDWAY HWY,JOHNSONVILLE,SC,29555-6242,Florence,843-380-0777,JADC2011@YAHOO.COM,CRC-1530 / 11/30/2021,Florence / Ltd. Liability,JOHNSONVILLE ADULT CARE SERVICES LLC,22,-79.472263,33.80814129
JOSHUAS FOUNDATION,388 ELBOW CIR,RIDGEWAY,SC,29130,Fairfield,803-337-8701,MBERNARDEZ@JOSHUASFOUNDATION.ORG,CRC-0659 / 02/28/2022,Fairfield / Non-Profit Corporation,JOSHUA'S FOUNDATION INC,20,-80.94217531,34.30077594
JOSIE DRIVE COMMUNITY RESIDENCE,210 JOSIE DR,WALTERBORO,SC,29488-2791,Colleton,843-549-6979,TFARMER@COLLETONDSN.ORG,CRC-1528 / 09/30/2021,Colleton / State,COLLETON COUNTY BOARD OF DISABILITIES AND SPECIAL NEEDS,8,-80.67194037,32.9161129
JOY COMMUNITY CARE HOME,6800 DOBY DR,COLUMBIA,SC,29203-5133,Richland,803-754-3157,JDQCSI@AOL.COM,CRC-0961 / 11/30/2021,Richland / Sole Proprietorship,"SCOTT, DEBORAH A.",10,-80.98674285,34.06559776
KEMPTON OF GREENVILLE,1560 THORNBLADE BLVD,GREER,SC,29650-4520,Greenville,864-968-1277,LEFREEMAN@LIBERTYSENIORLIVING.COM,CRC-2021 / 09/30/2021,Greenville / Limited Liability,GREENVILLE SENIOR HOUSING I OPCO LLC,100,-82.256996,34.869968
KENSINGTON I,100 KENSINGTON RD,COLUMBIA,SC,29203-5451,Richland,803-931-3263,C.WRIGHT@CHESCOSERVICES.ORG,CRC-1532 / 06/30/2022,Richland / Sole Proprietorship,CHESCO SERVICES,8,-81.05749915,34.03091253
KENSINGTON II GROUP HOME,120 KENSINGTON RD,COLUMBIA,SC,29203-5451,Richland,803-252-0848,C.WRIGHT@CHESCOSERVICES.ORG,CRC-1536 / 11/30/2021,Richland / Sole Proprietorship,CHESCO SERVICES,8,-81.10957555,33.97542385
KEOWEE PLACE,475 ROCHESTER HWY,SENECA,SC,29672,Oconee,864-886-0070,LEGALHELP@ENLIVANT.COM,CRC-1460 / 12/31/2021,Oconee / Ltd. Liability,INN AT SENECA AID OPCO LLC,50,-82.92747218,34.71052328
KIVA LODGE,200 CLAUDE BUNDRICK RD,BLYTHEWOOD,SC,29016-9420,Richland,803-764-2761,JJAY@MHA-SC.ORG,CRC-1092 / 07/31/2021,Richland / Corporation,MENTAL HEALTH AMERICA OF SOUTH CAROLINA,5,-80.91849826,34.21360099
L & B CARE HOME,924 BARR WOODS RD,SALUDA,SC,29138-8191,Saluda,864-993-3072,JWLONG@EMBARQMAIL.COM,CRC-0530 / 07/31/2014,Saluda / Partnership,LESA L GOLDMAN & FAYE LONG,24,-81.70457386,34.04673837
LADIES COMMUNITY RESIDENCE,408 WEBB ST,CONWAY,SC,29527-5842,Horry,843-349-7271,JBROMELL@HCDSN.ORG,CRC-1449 / 07/31/2021,Horry / County,HORRY COUNTY DISABILITIES AND SPECIAL NEEDS BOARD,8,-79.08003558,33.81729794
LADSON'S RESIDENTIAL HOME CARE,1116 CAMP RD,CHARLESTON,SC,29412-8831,Charleston,843-762-6443,PAULINELADSON@ATT.NET,CRC-1256 / 09/30/2021,Charleston / Sole Proprietorship,"LADSON, PAULINE",5,-79.94708115,32.72664153
LAKE WYLIE ASSISTED LIVING COMMUNITY,4877 CHARLOTTE HWY,CLOVER,SC,29710-8096,York,803-831-9900,MBRAKEFIELD@SENIORLIFESTYLE.COM,CRC-1241 / 01/31/2022,York / Limited Liability,LSREF GOLDEN OPS 14 (SC) LLC,110,-81.0706488,35.11471586
LAKES AT LITCHFIELD ASSISTED LIVING,120 LAKES AT LITCHFIELD DR,PAWLEYS ISLAND,SC,29585-5515,Georgetown,843-235-9393,LEXINGTON-LICENSING@WELL-MORE.COM,CRC-1116 / 08/31/2021,Georgetown / Ltd. Liability,LITCHFIELD RETIREMENT LLC,79,-79.10680036,33.4750375
LAKESIDE PLACE SENIOR LIVING,487 HWY 378,LEXINGTON,SC,29072,Lexington,803-520-0985,ED@LAKESIDEPLACESC.COM,CRC-2011 / 03/31/2022,Lexington / Limited Liability,CR LAKESIDE PLACE SENIOR LIVING LLC,90,-81.28412575,33.99154584
LAKEVIEW ASSISTED LIVING,320 CAMP RD,WALHALLA,SC,29691-4811,Oconee,864-638-5212,DWRIGHT@SENIORSOLUTIONS-SC.ORG,CRC-0086 / 04/30/2022,Oconee / Non-Profit Corporation,LAKEVIEW ASSISTED LIVING INC,19,-83.113416,34.723327
LAKEWOOD SENIOR LIVING,3709 CLARK RD,BOILING SPRINGS,SC,29316,Spartanburg,864-586-1457,DLITTLE3@MINDSPRING.COM,CRC-1924 / 10/31/2021,Spartanburg / Limited Liability,CR LAKEWOOD LLC,90,-82.00244569,35.0600217
LANDRUM COMMUNITY RESIDENCE I,722 BOMAR AVE,LANDRUM,SC,29356,Spartanburg,864-457-1370,SMASON@CHARLESLEA.ORG,CRC-1507 / 08/31/2021,Spartanburg / Corporation,CHARLES LEA CENTER,5,-82.18053859,35.16792004
LANDRUM COMMUNITY RESIDENCE II,722 BOMAR AVE,LANDRUM,SC,29356,Spartanburg,864-457-1374,SMASON@CHARLESLEA.ORG,CRC-1508 / 08/31/2021,Spartanburg / Corporation,CHARLES LEA CENTER,5,-82.18053859,35.16792004
LANGIT'S ASSISTED LIVING FACILITY,1273 REMOUNT RD,NORTH CHARLESTON,SC,29406-3439,Charleston,843-554-1671,JAMES.LANGIT@LANGITSASSISTEDLIVING.NET,CRC-0861 / 03/31/2022,Charleston / Corporation,LANGIT'S RESIDENTIAL HOME CARE INC,70,-79.99183474,32.90158633
LANGSTON PLACE,939 SPRINGDALE DR,CLINTON,SC,29325-7266,Laurens,864-833-0338,LEGALHELP@ENLIVANT.COM,CRC-1408 / 11/30/2021,Laurens / ,LANGSTON AID OPCO LLC,44,-81.86763406,34.45763541
LAUREL CREST,100 JOSEPH WALKER DR,WEST COLUMBIA,SC,29169-6939,Lexington,803-796-0370,CESSANDRA.CARTER@LAURELCREST.ORG,CRC-1999 / 01/31/2022,Lexington / Non-Profit Corporation,LAUREL CREST RETIREMENT COMMUNITY (NPC),26,-81.06421,34.003451
LAURENS MEMORIAL HOME FOR AGED,3744 TORRINGTON RD,LAURENS,SC,29360-0638,Laurens,864-682-2322,MBDUNMOYER@AOL.COM,CRC-0316 / 12/31/2021,Laurens / Non-Profit Corporation,LAURENS MEMORIAL HOME FOR AGED INC,50,-81.94399762,34.50941544
LEGACY AT HAWTHORNE PARK,20 HAWTHORNE PARK CT,GREENVILLE,SC,29615-3194,Greenville,864-288-6775,KEARA.LEE@NAVIONSL.COM,CRC-2094 / 09/30/2021,Greenville / Limited Liability,NAVION BKE HAWTHORNE PARK LLC,68,-82.330947,34.864039
LEGACY AT SOUTHPOINTE DRIVE,23 SOUTHPOINTE DR,GREENVILLE,SC,29607-5956,Greenville,846-675-0220,KEISHA.ELLIS@NAVIONSL.COM,CRC-2108 / 11/30/2021,Greenville / Limited Liability,NAVION SOUTHPOINTE OPERATIONS LLC,110,-82.264209,34.81711
LEMONAIDE HOUSE,1018 CRYSTAL CLEAR LN,HOPKINS,SC,29061-8237,Richland,803-776-1742,LEMONS2LOVE@AOL.COM,CRC-2170 / 10/31/2021,Richland / Limited Liability,LEMONAIDE HOUSE LLC,15,-80.823662,33.96968
LENEVAR COMMUNITY RESIDENCE,1435 W LENEVAR DR,CHARLESTON,SC,29407-5118,Charleston,843-766-3061,GJOHNSTON@DSNCC.COM,CRC-0943 / 07/31/2021,Charleston / State,DISABILITIES BOARD OF CHARLESTON COUNTY,8,-79.99783334,32.80983325
LEXINGTON PLACE,190 MCSWAIN DR,WEST COLUMBIA,SC,29169-4825,Lexington,312-725-7000,SARA@WRCOMPANIES.COM,CRC-1989 / 10/31/2021,Lexington / Limited Liability,WEST COLUMBIA BG OPCO LLC,90,-81.109431,34.010164
LIGHTHOUSE RESIDENTIAL CARE FACILITY,4033 DELREE ST LOT # 31,WEST COLUMBIA,SC,29170,Lexington,803-957-0583,20LIGHTHOUSE17@GMAIL.COM,CRC-2013 / 03/31/2022,Lexington / Sole Proprietorship,ANGELINE A SMITH,10,-81.150133,33.971437
LOIS EARGLE HOME,406 WEBB ST,CONWAY,SC,29527-5842,Horry,843-349-7272,ACORNELL@HCDSN.ORG,CRC-1450 / 07/31/2021,Horry / County,HORRY COUNTY DISABILITIES AND SPECIAL NEEDS BOARD,8,-79.07951861,33.81722675
LONG'S RESIDENTIAL CARE CENTER,1280 DENNY HWY,SALUDA,SC,29138-8972,Saluda,864-445-7901,LONGSRESCARE@YAHOO.COM,CRC-0592 / 05/31/2022,Saluda / Corporation,LONG'S RESIDENTIAL CARE CENTER INC,32,-81.71411519,34.06204882
LONGWOOD PLANTATION,1687 LONGWOOD DR,ORANGEBURG,SC,29118-2307,Orangeburg,803-535-0250,JERRI.JOHNSON-STILL@LONGWOODPLANTATION.,CRC-0797 / 10/31/2021,Orangeburg / Limited Liability,LONGWOOD PLANTATION-FHE LLC,42,-80.86758347,33.52782776
LOWCOUNTRY ASSISTED LIVING,6060 EHRHARDT RD,EHRHARDT,SC,29081,Bamberg,803-267-2222,LOWCOUNTRYAL@YAHOO.COM,CRC-2029 / 06/30/2022,Bamberg / Limited Liability,LOWCOUNTRY ASSISTED LIVING LLC,10,-81.015122,33.099475
LUCILLE MANOR COMMUNITY RESIDENTIAL CARE FACILITY,1004 R L COWARD RD,EASTOVER,SC,29044,Richland,803-400-2554,JACQUELINEMACK58@YAHOO.COM,CRC-1967 / 04/30/2022,Richland / Limited Liability,LUCILLE MANOR COMMUNITY RESIDENTIAL CARE LLC,9,-80.785756,33.940489
M & M RESIDENTIAL CARE HOME,408 GENEVA AVE,MARION,SC,29571-4416,Marion,843-423-0120,SANDYBURGESS98@YAHOO.COM,CRC-1379 / 08/31/2021,Marion / Sole Proprietorship,"BURGESS, SANDY M.",5,-79.391045,34.173466
MAGNOLIAS OF SANTEE,118 BRITAIN ST,SANTEE,SC,29142-8922,Orangeburg,803-854-2020,KIMBERLY@MAGNOLIASOFSANTEE.COM,CRC-1987 / 09/30/2021,Orangeburg / Limited Liability,CEDAR COMMUNITIES AT SANTEE LLC,52,-80.476773,33.484736
MAGNOLIAS OF SUMMERVILLE,335 MIDLAND PKWY,SUMMERVILLE,SC,29485-8138,Dorchester,843-821-4122,SEAN@MAGNOLIASOFSUMMERVILLE.COM,CRC-1414 / 05/31/2022,Dorchester / Ltd. Liability,CAROLINA RETIREMENT SERVICES OF SUMMERVILLE LLC,60,-80.15456855,32.96390815
MAGNOLIAS OF WALTERBORO,210 ACADEMY RD,WALTERBORO,SC,29488-9208,Colleton,843-538-8181,SCOTT@MAGNOLIASOFWALTERBORO.COM,CRC-2153 / 04/30/2022,Colleton / Limited Liability,MAGNOLIAS OF WALTERBORO LLC,44,-80.660512,32.937288
MANNING PLACE,10 COMPANION CT,GREER,SC,29651-1288,Greenville,864-989-0707,LEGALHELP@ENVLIVANT.COM,CRC-1407 / 11/30/2021,Greenville / ,MANNING AID OPCO LLC,44,-82.23758465,34.95243919
MAPLES OF HONEA PATH,224 WILDWOOD DR,HONEA PATH,SC,29654-1335,Anderson,864-369-2000,MARK@MAPLESHP.COM,CRC-0819 / 05/31/2022,Anderson / Corporation,MAPLE MANOR INC,74,-82.40969374,34.44972661
MARCHBANKS ASSISTED LIVING AND MEMORY CARE,2203 MARCHBANKS AVE,ANDERSON,SC,29621-2247,Anderson,864-231-7786,BRENT@MARCHBANKSAL.COM,CRC-1413 / 05/31/2022,Anderson / Ltd. Liability,CAROLINA RETIREMENT SERVICES OF ANDERSON LLC,60,-82.62964232,34.52705103
MARETT BOULEVARD COMMUNITY RESIDENTIAL CARE FACILITY,1721 MARETT BLVD EXT,ROCK HILL,SC,29730,York,803-327-9466,LEETTA.HART@MAXABILITIES.ORG,CRC-0883 / 08/31/2021,York / Non-Profit Corporation,YORK COUNTY BOARD OF DISIBALITIES AND SPECIAL NEEDS,8,-81.01507274,34.96506478
MARIAN PARKINS COMMUNITY RESIDENCE I,103 KERNS AVE,GREENVILLE,SC,29609,Greenville,864-232-0282,AMANDA.STONE@THRIVEUPSTATE.ORG,CRC-2036 / 11/30/2021,Greenville / Non-Profit Corporation,GREENVILLE COUNTY DISABILITIES AND SPECIAL NEEDS BOARD,8,-82.409699,34.879048
MARIAN PARKINS COMMUNITY RESIDENCE II,518 PICKETT ST,GREENVILLE,SC,29609,Greenville,864-232-0595,SWHITSEL@THRIVEUPSTATE.ORG,CRC-2037 / 11/30/2021,Greenville / Non-Profit Corporation,GREENVILLE COUNTY DISABILITIES AND SPECIAL NEEDS BOARD,8,-82.409745,34.879371
MARIA'S PRIORITY CARE RESIDENTIAL HOME I,3117 MEETING STREET RD,NORTH CHARLESTON,SC,29405-7980,Charleston,843-554-0064,RRPARANAL@GMAIL.COM,CRC-0937 / 07/31/2021,Charleston / Sole Proprietorship,"PARANAL, ROGERIA R.",7,-79.9722828,32.85163952
MARIA'S PRIORITY CARE RESIDENTIAL HOME II-B,4583 DURANT AVE,NORTH CHARLESTON,SC,29405-5212,Charleston,843-566-0460,JNRELLORA4SUS@GMAIL.COM,CRC-0772 / 06/30/2021,Charleston / Partnership,JESUS N AND WILHELMINA C RELLORA,7,-79.99029856,32.87702837
MARIA'S PRIORITY CARE RESIDENTIAL HOME II-F,4583 DURANT AVE,NORTH CHARLESTON,SC,29405-5212,Charleston,843-566-0460,JNRELLORA4SUS@GMAIL.COM,CRC-0774 / 06/30/2021,Charleston / Partnership,JESUS N AND WILHELMINA C RELLORA,5,-79.99029856,32.87702837
MARIA'S PRIORITY CARE RESIDENTIAL HOME III,3115 MEETING STREET RD,NORTH CHARLESTON,SC,29405-7980,Charleston,843-554-0064,RRPARANAL@GMAIL.COM,CRC-0938 / 07/31/2021,Charleston / Sole Proprietorship,"PARANAL, ROGERIA R.",7,-79.97228098,32.85163862
MARTHA FRANKS BAPTIST RETIREMENT COMMUNITY,1 MARTHA FRANKS DR,LAURENS,SC,29360-1799,Laurens,864-984-4541,KHOLLIDAY@SCBMA.COM,CRC-0360 / 02/28/2022,Laurens / Corporation,SOUTH CAROLINA BAPTIST MINISTRIES FOR THE AGING INC,82,-82.02572212,34.50039044
MARY'S HOME CARE,224 WARD LOOP,HEMINGWAY,SC,29554-3415,Georgetown,843-558-0953,MARYSHOMECARE1@GMAIL.COM,CRC-1505 / 05/31/2022,Georgetown / Sole Proprietorship,"HOLMES, MARY W.",21,-79.33780296,33.7032156
MARY'S RESIDENTIAL #2,633 SHARPE RD,COLUMBIA,SC,29203-9304,Richland,803-708-0300,M.BACOTE@HOTMAIL.COM,CRC-1534 / 08/31/2021,Richland / Sole Proprietorship,"BACOTE, MARY",5,-81.00509375,34.09081821
MARY'S RESIDENTIAL CARE FACILITY,10425 WILSON BLVD,BLYTHEWOOD,SC,29016-9017,Richland,803-708-1739,NHAJIYAH.SIMMONS@YAHOO.COM,CRC-1501 / 12/31/2021,Richland / Sole Proprietorship,"BACOTE, MARY",5,-80.96913167,34.1830551
MARYVILLE COMMUNITY RESIDENCE,2602 OLD CHARLESTON RD,GEORGETOWN,SC,29440-1471,Georgetown,843-546-7268,EKRAUSS@GCBDSN.COM,CRC-1446 / 06/30/2021,Georgetown / County,GEORGETOWN COUNTY BOARD OF DISABILITIES AND SPECIAL NEEDS,8,-79.30074287,33.33675847
MASTER CARE,5870 MOOREFIELD MEMORIAL HWY,LIBERTY,SC,29657-9268,Pickens,864-878-9926,MASTERCAREASSIST@GMAIL.COM,CRC-0358 / 02/28/2021,Pickens / Corporation,MASTER CARE INC,14,-82.70183194,34.82697322
MCKINNEY HOUSE,307 MILLER RD,MAULDIN,SC,29662-2034,Greenville,864-297-5044,KIM.DUNCAN@SCDMH.ORG,CRC-2071 / 06/30/2021,Greenville / State,SOUTH CAROLINA DEPARTMENT OF MENTAL HEALTH,10,-82.306414,34.789308
MEADOWLARK DRIVE COMMUNITY RESIDENTIAL CARE FACILITY,1183 MEADOWLARK DR,ROCK HILL,SC,29730,York,803-327-9770,LEETTA.HART@MAXABILITIES.ORG,CRC-0881 / 08/31/2021,York / Non-Profit Corporation,YORK COUNTY BOARD OF DISIBALITIES AND SPECIAL NEEDS,8,-81.07987739,34.94988698
MEMORY CARE OF SIMPSONVILLE,645 SCUFFLETOWN RD,SIMPSONVILLE,SC,29681,Greenville,864-962-3038,RMERRITT@MEMORYCARESIMPSONVILLE.COM,CRC-1886 / 08/31/2021,Greenville / Limited Liability,MCA SIMPSONVILLE OPERATING COMPANY,64,-82.21556493,34.78519689
MERRILL GARDENS AT CAROLINA PARK,3501 MERRILL PL,MOUNT PLEASANT,SC,29466,Charleston,843-606-5705,LICENSING@MERRILLGARDENS.COM,CRC-1917 / 11/30/2021,Charleston / Limited Liability,NEW MERRILL GARDENS AT CAROLINA PARK LLC,193,-79.77093607,32.88600582
MERRILL GARDENS AT COLUMBIA,2205 GREGG ST,COLUMBIA,SC,29201,Richland,647-227-7385,WILSONA@MERRILLGARDENS.COM,CRC-1979 / 07/31/2021,Richland / ,MERRILL GARDENS AT COLUMBIA LLC,18,-81.029235,34.020071
MIDLAND PARK RESIDENTIAL HOME CARE,2712 MIDLAND PARK RD,NORTH CHARLESTON,SC,29406-4551,Charleston,843-569-0025,MIDLANDPARKRCF@GMAIL.COM,CRC-0905 / 01/31/2022,Charleston / Corporation,MIDLAND PARK ENTERPRISES INC,52,-80.04716665,32.92133297
MIDWAY RESIDENTIAL CARE FACILITY #1,4026 MOORE DUNCAN HWY,MOORE,SC,29369-9721,Spartanburg,864-433-8999,MIDWAYRESIDENTIALCARE@YAHOO.COM,CRC-0318 / 12/31/2021,Spartanburg / Corporation,MIDWAY RESIDENTIAL CARE FACILITY INC,13,-82.06386074,34.88468566
MIDWAY RESIDENTIAL CARE FACILITY #1A,4026 MOORE DUNCAN HWY,MOORE,SC,29369-9721,Spartanburg,864-433-8999,MIDWAYRESIDENTIALCARE@YAHOO.COM,CRC-0320 / 12/31/2021,Spartanburg / Corporation,MIDWAY RESIDENTIAL CARE FACILITY INC,14,-82.06387959,34.8846855
MIDWAY RESIDENTIAL CARE FACILITY #2,4026 MOORE DUNCAN HWY,MOORE,SC,29369-9721,Spartanburg,864-433-8999,MIDWAYRESIDENTIALCARE@YAHOO.COM,CRC-0321 / 12/31/2021,Spartanburg / Corporation,MIDWAY RESIDENTIAL CARE FACILITY INC,25,-82.06390693,34.88468528
MIDWAY RESIDENTIAL CARE FACILITY #3,4026 MOORE DUNCAN HWY,MOORE,SC,29369-9721,Spartanburg,864-433-8999,MIDWAYRESIDENTIALCARE@YAHOO.COM,CRC-0346 / 12/31/2021,Spartanburg / Corporation,MIDWAY RESIDENTIAL CARE FACILITY INC,17,-82.06385528,34.88468572
MIDWAY RESIDENTIAL CARE FACILITY #4,4026 MOORE DUNCAN HWY,MOORE,SC,29369-9721,Spartanburg,864-433-8999,MIDWAYRESIDENTIALCARE@YAHOO.COM,CRC-0322 / 12/31/2021,Spartanburg / Corporation,MIDWAY RESIDENTIAL CARE FACILITY INC,14,-82.06385977,34.88468569
MIDWAY RESIDENTIAL CARE FACILITY #5,4026 MOORE DUNCAN HWY,MOORE,SC,29369-9721,Spartanburg,864-433-8999,MIDWAYRESIDENTIALCARE@YAHOO.COM,CRC-0616 / 12/31/2021,Spartanburg / Corporation,MIDWAY RESIDENTIAL CARE FACILITY INC,12,-82.06385528,34.88468572
MILL CREEK MANOR,651 POLO RD,COLUMBIA,SC,29223-2905,Richland,803-788-9555,GILLES.OUELLETTE@MAINSTAYFINANCIAL.COM,CRC-2174 / 10/31/2021,Richland / Limited Liability,MAINSTAY HEALTHCARE MILL CREEK LLC,59,-80.891944,34.092572
MILL STREET COMMUNITY RESIDENCE,415 MILL ST,LAURENS,SC,29360-1905,Laurens,864-984-3506,KMCGOWAN@LCDSNB.ORG,CRC-1419 / 12/31/2021,Laurens / Non-Profit Corporation,LAURENS COUNTY DISABILITIES AND SPECIAL NEEDS BOARD,8,-82.00547124,34.50656456
MILLER PLACE RESIDENTIAL CARE,140 COX ST,SPARTANBURG,SC,29306-4807,Spartanburg,864-573-7008,LAMAR@MILLERPLACESC.COM,CRC-2166 / 02/28/2022,Spartanburg / Partnership,FRANK HENDERSON & EDWARD HARRISON,19,-81.930064,34.917964
MIRCI GROUP HOME I,581 BECKMAN RD,COLUMBIA,SC,29203-3207,Richland,803-754-4221,JAVIN@MIRCI.ORG,CRC-1443 / 06/30/2021,Richland / Corporation,MENTAL ILLNESS RECOVERY CENTER INC,6,-80.99371764,34.08179543
MIRCI GROUP HOME II,611 BECKMAN RD,COLUMBIA,SC,29203-3282,Richland,803-754-8894,TCOLLINS@MIRCI.ORG,CRC-1444 / 06/30/2021,Richland / Corporation,MENTAL ILLNESS RECOVERY CENTER INC,6,-80.99487706,34.08112215
MORNINGSIDE OF ANDERSON,1304 MCLEES RD,ANDERSON,SC,29621-3345,Anderson,864-964-9088,LICENSING@5SSL.COM,CRC-2132 / 01/31/2022,Anderson / Limited Liability,SNH SC TENANT LLC,88,-82.630424,34.525972
MORNINGSIDE OF BEAUFORT,109 OLD SALEM RD,BEAUFORT,SC,29902-5113,Beaufort,843-982-0220,TSIEGNER@5SSL.COM,CRC-2130 / 01/31/2022,Beaufort / Limited Liability,SNH SC TENANT LLC,49,-80.713423,32.426299
MORNINGSIDE OF CAMDEN,715 KERSHAW HWY,CAMDEN,SC,29020-1634,Kershaw,803-713-8668,CJHOWELL@5SSL.COM,CRC-2133 / 01/31/2022,Kershaw / Limited Liability,SNH SC TENANT LLC,49,-80.611492,34.29149
MORNINGSIDE OF GREENWOOD,116 ENTERPRISE CT,GREENWOOD,SC,29649-1666,Greenwood,864-388-9433,LICENSING@5SSL.COM,CRC-2131 / 01/31/2022,Greenwood / Limited Liability,SNH SC TENANT LLC,49,-82.16408,34.215145
MORNINGSIDE OF HARTSVILLE,1901 W CAROLINA AVE,HARTSVILLE,SC,29550-4701,Darlington,843-857-0159,JFLICK@5SSL.COM,CRC-2128 / 01/31/2022,Darlington / Limited Liability,SNH SC TENANT LLC,54,-80.123997,34.364772
MORNINGSIDE OF LANCASTER,1004 HARDIN ST,LANCASTER,SC,29720-1609,Lancaster,803-801-1288,LICENSING@5SSL.COM,CRC-1146 / 03/31/2021,Lancaster / Limited Liability Limited Partnership,MORNINGSIDE OF SOUTH CAROLINA LP,65,-80.78661668,34.74418965
MORNINGSIDE OF LEXINGTON,218 OLD CHAPIN RD,LEXINGTON,SC,29072-2030,Lexington,803-957-3600,LICENSING@5SSL.COM,CRC-2126 / 01/31/2022,Lexington / Limited Liability,SNH SC TENANT LLC,49,-81.247121,33.993301
MORNINGSIDE OF ORANGEBURG,2306 RIVERBANK DR,ORANGEBURG,SC,29118-4046,Orangeburg,803-539-2911,RMBRUNSON@5SSL.COM,CRC-2129 / 01/31/2022,Orangeburg / Limited Liability,SNH SC TENANT LLC,49,-80.895706,33.511908
MORNINGSIDE OF ROCK HILL,1830 W MAIN ST,ROCK HILL,SC,29732-8965,York,803-980-4100,WLONG@5SSL.COM,CRC-1114 / 08/31/2021,York / Limited Liability Limited Partnership,MORNINGSIDE OF SOUTH CAROLINA LP,60,-81.06294681,34.94277616
MORNINGSIDE OF SENECA,15855 WELLS HWY,SENECA,SC,29678-1078,Oconee,864-888-8886,LICENSING@5SSL.COM,CRC-2127 / 01/31/2022,Oconee / Limited Liability,SNH SC TENANT LLC,59,-82.990543,34.682958
MORNINGSIDE OF SUMTER,2500 LIN-DO CT,SUMTER,SC,29150-1832,Sumter,803-469-4490,LICENSING@5SSL.COM,CRC-1079 / 04/30/2021,Sumter / Limited Liability Limited Partnership,MORNINGSIDE OF SOUTH CAROLINA LP,55,-80.397983,33.95341
MOUNT PLEASANT GARDENS,1025 HUNGRYNECK BLVD,MOUNT PLEASANT,SC,29464,Charleston,843-216-1001,MOUNTPLEASANTGARDENS-ADM@JEASENIORLIVING,CRC-1984 / 06/30/2021,Charleston / Limited Liability,MOUNT PLEASANT MANAGEMENT LLC,71,-79.83753789,32.81968335
MY FATHER'S HOUSE,22 LARNES ST,CHARLESTON,SC,29403-2636,Charleston,843-723-7889,EMCCREA@BELLSOUTH.NET,CRC-0459 / 02/28/2022,Charleston / Partnership,JOSEPHINE STENT & ELOISE CHESTNUT,10,-79.95038129,32.79532755
MY MOTHER'S KEEPER,1609 HWY 41,MOUNT PLEASANT,SC,29464,Charleston,843-884-8867,MYMOTHERSKEEPER1@AOL.COM,CRC-1840 / 02/28/2022,Charleston / Sole Proprietorship,MY MOTHERS KEEPER LLC,8,-79.810259,32.881611
MYERS RESIDENTIAL CARE FACILITY,365 CALDON RD,SWANSEA,SC,29160-9541,Calhoun,803-568-3582,MYERSRCF@PBTCOMM.NET,CRC-0644 / 08/31/2021,Calhoun / Partnership,LOUISE AND DAVID MYERS JR,5,-81.03829662,33.7052714
MYERS RESIDENTIAL CARE FACILITY II,365 CALDON RD,SWANSEA,SC,29160-9541,Calhoun,803-568-3582,MYERSRCF@PBTCOMM.NET,CRC-0851 / 01/31/2022,Calhoun / Partnership,LOUISE AND DAVID MYERS JR,7,-81.03829565,33.70526237
MYRTLE BEACH ESTATES,3620 HAPPY WOODS CT,MYRTLE BEACH,SC,29588-2925,Horry,843-293-8888,TERRI.BAKER@JEASENIORLIVING.COM,CRC-1403 / 11/30/2021,Horry / Corporation,CSL LEASECO INC,142,-78.97096118,33.67066638
MYRTLE BEACH MANOR RETIREMENT COMMUNITY,9547 HWY 17 N,MYRTLE BEACH,SC,29572-0000,Horry,843-449-5283,LICENSING@5SSL.COM,CRC-2123 / 01/31/2022,Horry / Limited Liability,SNH SC TENANT LLC,111,-78.798224,33.775337
NEW BEGINNINGS OF PINEVILLE,212 MITCHELLBAY LN,PINEVILLE,SC,29468-3200,Berkeley,843-351-2240,NEW.BEGINNINGS@TDS.NET,CRC-1521 / 04/30/2022,Berkeley / Corporation,NEW BEGININGS RESIDENTIAL CARE FACILITY,4,-80.04276054,33.42092291
NEW HAVEN,2585 HWY 179,LITTLE RIVER,SC,29566,Horry,843-491-9290,BGODARD@COMPASSRE.COM,CRC-2039 / 02/28/2022,Horry / ,BFG COMPASS LITTLE RIVER PROPCO IV LLC,90,-78.587687,33.890729
NEW LIGHT COMMUNITY CARE,120 ADDY LN,LEXINGTON,SC,29072-3405,Lexington,803-490-1428,NEWLIGHTCRF@YAHOO.COM,CRC-1958 / 03/31/2022,Lexington / Non-Profit Corporation,NEW LIGHT COMMUNITY RESOURCE FOUNDATION,14,-81.237385,33.978203
NORTH HAVEN RESIDENTIAL CARE HOME,4326 LESLIE ST,NORTH CHARLESTON,SC,29418-5441,Charleston,843-767-2541,NORAALFLLC@YAHOO.COM,CRC-0877 / 08/31/2021,Charleston / Corporation,NORTH HAVEN RESIDENTIAL CARE HOME INC,16,-80.05199993,32.865
NORTH PINES COMMUNITY RESIDENCE,313 N PINES RD,BLYTHEWOOD,SC,29016-8788,Richland,803-754-6213,C.WRIGHT@CHESCOSERVICES.ORG,CRC-1504 / 04/30/2022,Richland / Sole Proprietorship,CHESCO SERVICES,8,-80.97881946,34.14871628
NORTH POINTE ASSISTED LIVING,701 SIMPSON RD,ANDERSON,SC,29621-3077,Anderson,864-226-5505,JPRESTON@CAPITALSENIORLIVING.NET,CRC-1454 / 10/31/2021,Anderson / Limited Liability,CSL NORTH POINTE SC LLC,70,-82.61267366,34.53521388
OAKBRIDGE TERRACE AT PARK POINTE VILLAGE,3025 CHESBROUGH BLVD,ROCK HILL,SC,29732-8078,York,803-327-4723,STEVEN.ROBISON@ACTSLIFE.ORG,CRC-2030 / 09/30/2021,York / Corporation,ACTS RETIREMENT-LIFE COMMUNITIES INC,20,-81.099979,34.955434
OAKLEAF VILLAGE OF LEXINGTON,800 N LAKE DR,LEXINGTON,SC,29072-2903,Lexington,803-808-3477,AELLIOTT@LIBERTYSENIORLIVING.COM,CRC-2014 / 09/30/2021,Lexington / Limited Liability,LEXINGTON SENIOR HOUSING I OPCO LLC,100,-81.231367,33.992086
OAKRIDGE COMMUNITY CARE HOME #1,2470 OLD MILL RD,INMAN,SC,29349-9276,Spartanburg,864-472-6979,OAKRIDGEONE@GMAIL.COM,CRC-0241 / 08/31/2021,Spartanburg / Corporation,OAKRIDGE COMMUNITY CARE HOME INC,38,-82.09751909,35.08569759
OAKRIDGE COMMUNITY CARE HOME #2,35 S HOWARD ST,INMAN,SC,29349-1339,Spartanburg,864-621-4958,OAKRIDGEONE@GMAIL.COM,CRC-0429 / 04/30/2021,Spartanburg / Corporation,OAKRIDGE COMMUNITY CARE HOME INC,10,-82.08604006,35.04638856
OAKS ASSISTED LIVING,1000 METHODIST OAKS DR,ORANGEBURG,SC,29115-1813,Orangeburg,803-534-1212,CLAY.FOWLERHEALTHCAREENTERPRISE@GMAIL.CO,CRC-2190 / 03/31/2022,Orangeburg / Limited Liability,OAKS HEALTHCARE LLC,40,-80.86264,33.492052
OAKS OF LORIS,260 WATSON HERITAGE RD,LORIS,SC,29569,Horry,843-716-4673,JOANN@SCSENIORCARE.NET,CRC-1547 / 06/30/2021,Horry / Corporation,PARNERS IN HOPE INC,60,-78.8805054,34.01858633
OAKVIEW BOARDING HOME,1818 S LIVE OAK DR,MONCKS CORNER,SC,29461-7216,Berkeley,843-761-3273,BIASCANA@YAHOO.COM,CRC-1153 / 04/30/2022,Berkeley / Corporation,OAKVIEW BOARDING HOME INC,10,-80.06215812,33.14452406
OAKVIEW PARK ASSISTED LIVING,110 HOOD RD,GREENVILLE,SC,29611,Anderson,864-412-8990,ASURLS@ATLASSENIORLIVING.COM,CRC-2064 / 02/28/2022,Anderson / Limited Liability,AFF18 OAKVIEW PARK ALF LLC,90,-82.48555862,34.79202844
OASIS RESIDENTIAL HOME,2317 PRINCE ST,GEORGETOWN,SC,29440-2925,Georgetown,843-527-4848,OASISINC2001@YAHOO.COM,CRC-1219 / 08/31/2021,Georgetown / Corporation,OASIS RESIDENTIAL HOME INC,22,-79.30419427,33.37975413
OLIVER'S CARE HOME,1200 LAWHORN RD,BLYTHEWOOD,SC,29016-8975,Richland,803-754-3585,OLIVERCAREHOME1941@GMAIL.COM,CRC-1480 / 08/31/2021,Richland / Limited Liability,OLIVER CARE HOME LLC,5,-80.90022306,34.2295243
PACIFICA SENIOR LIVING SKYLYN,1705 SKYLN DR,SPARTANBURG,SC,29307,Spartanburg,864-582-6838,ED.SKYLYN@PACIFICASENIORLIVING.COM,CRC-1950 / 12/31/2021,Spartanburg / Limited Liability,PACIFICA SKYLYN LLC,169,-81.891758,34.97971
PADD-WREN HOME,2350 REGIONAL RD,FLORENCE,SC,29501-7028,Florence,843-673-1005,KTUMBLESON@PADDSC.ORG,CRC-1451 / 07/31/2021,Florence / Non-Profit Corporation,PRESBYTERIAN AGENCY FOR THE DEVELOPMENTALLY DISABLED INC,6,-79.81264491,34.23637751
PAGELAND CARE FACILITY,206 S GUM ST,PAGELAND,SC,29728-2304,Chesterfield,843-672-5930,PAGECARE@SHTC.NET,CRC-0999 / 04/30/2022,Chesterfield / Corporation,FUNDERBURK ASSOCIATES INC,58,-80.3851908,34.77186153
PALMETTO GARDENS,425 S WHEELER AVE,PROSPERITY,SC,29127,Newberry,803-364-9113,PALMETTOGARDENSRESIDENTIAL@GMAIL.COM,CRC-1916 / 04/30/2022,Newberry / Sole Proprietorship,YVONNE HARRISON,30,-81.519725,34.213567
PALMETTO RESIDENTIAL CARE OF NORTH CHARLESTON,2834 SPRUILL AVE,NORTH CHARLESTON,SC,29405-8051,Charleston,843-566-1509,PATCH29311@HOTMAIL.COM,CRC-1322 / 08/31/2021,Charleston / Corporation,EVERGREEN RESIDENTIAL CARE INC,12,-79.96270728,32.85075893
PALMETTO RIDGE ASSISTED LIVING & MEMORY CARE,840 MANOR RD,CHERAW,SC,29520-4035,Chesterfield,843-537-4197,PALMETTORIDGE@YAHOO.COM,CRC-1393 / 03/31/2022,Chesterfield / Limited Liability,PALMETTO RIDGE ASSISTED LIVING AND MEMORY CARE LLC,106,-79.91543182,34.67660369
PALMETTO VILLAGE OF CHESTER,570 CENTER ST,CHESTER,SC,29706-1342,Chester,803-581-7319,ATKAZER@GMAIL.COM,CRC-1399 / 06/30/2022,Chester / Ltd. Liability,BHM OF CHESTER LLC,100,-81.22661155,34.71957419
PALMETTOS OF BLUFFTON,3035 OAKATIE HWY,OKATIE,SC,29909-5101,Beaufort,843-707-9400,STACY.FLOYD@NHCCARE.COM,CRC-1648 / 03/31/2022,Beaufort / Limited Liability Company (multiple member),PALMETTOS OF BLUFFTON LLC,88,-80.947212,32.275101
PALMETTOS OF CHARLESTON,1900 ASHLEY CROSSING DR,CHARLESTON,SC,29414-5751,Charleston,843-852-0505,MEGAN.MARTIN@NHCCARE.COM,CRC-1263 / 07/31/2021,Charleston / Limited Liability,NHC PLACE-CHARLESTON LLC,60,-80.03699674,32.81596346
PALMETTOS OF GARDEN CITY,9415 HWY 17 BYPASS,MURRELLS INLET,SC,29576,Horry,843-668-2500,TERI.CRONIN@NHCCARE.COM,CRC-1649 / 06/30/2022,Horry / Limited Liability Company (multiple member),PALMETTOS OF GARDEN CITY LLC,90,-79.01918531,33.59863024
PALMETTOS OF MAULDIN,810 E BUTLER RD,GREENVILLE,SC,29607-5842,Greenville,864-627-0803,KATHRYN.DAVIS@NHCCARE.COM,CRC-1503 / 03/31/2022,Greenville / Ltd. Liability,NHC HEALTHCARE/MAULDIN LLC,60,-82.28498821,34.80184752
PALMETTOS OF PARKLANE,7811 PARKLANE RD,COLUMBIA,SC,29223-5620,Richland,803-741-7233,KIMBERLY.DAVILA@NHCCARE.COM,CRC-1513 / 04/30/2022,Richland / Limited Liability,PALMETTOS OF PARKLANE LLC,85,-80.95909494,34.08311083
PALMS ON MAIN ASSISTED LIVING FACILITY,1267 N MAIN ST,SUMTER,SC,29153-2138,Sumter,803-774-5700,HRMHCW@YAHOO.COM,CRC-1442 / 05/31/2022,Sumter / Non-Profit Corporation,EMPOWERED PERSONAL CARE HOME HEALTH ALLIANCE INC,79,-80.34052954,33.95578737
PARK CIRCLE HOME 1,1133 BEXLEY ST,NORTH CHARLESTON,SC,29405-4726,Charleston,843-442-7173,EJC@GMAIL.COM,CRC-1992 / 11/30/2021,Charleston / Limited Liability,WINDSOR HILL RCF LLC,5,-79.981829,32.873666
PARK CIRCLE HOME 2,1131 BEXLEY ST,NORTH CHARLESTON,SC,29405-4726,Charleston,843-442-7173,EJC@GMAIL.COM,CRC-1993 / 11/30/2021,Charleston / Limited Liability,WINDSOR HILL RCF LLC,5,-79.981604,32.873895
PARKER,12 BOYCE AVE,GREENVILLE,SC,29601,Greenville,864-250-1188,DMCHARG@INSPIRITSENIORLIVING.COM,CRC-2136 / 01/31/2022,Greenville / Limited Liability,THE PARKER OPERATOR LLC,115,-82.386611,34.850065
PASSIONATE CARE COMMUNITY CENTER,2206 HERTFORD DR,COLUMBIA,SC,29210-6130,Richland,803-834-4544,MARTINDONALD49@YAHOO.COM,CRC-1500 / 12/31/2021,Richland / Sole Proprietorship,"MARTIN, DONALD E.",5,-81.09044813,34.05370486
PEARL AT FIVE FORKS,15 FIVE FORKS RD,SIMPSONVILLE,SC,29681,Greenville,864-568-3833,YOLANDA.HUNTER@PHOENIXSRLIVING.COM,CRC-2003 / 01/31/2022,Greenville / Limited Liability,PSL SIMPSONVILLEE SUBTENANT LLC,64,-82.254521,34.795992
PEARL AT FORT MILL,1061 GOLD HILL RD,FORT MILL,SC,29708,York,803-548-3825,YOLANDA.HUNTER@PHOENIXSRLIVING.COM,CRC-2147 / 10/31/2021,York / Limited Liability,PEARL AT FORT MILL LLC,54,-81.030873,33.999451
PEARL AT PORT ROYAL,1251 LADYS ISLAND DR,PORT ROYAL,SC,29935-1106,Beaufort,843-521-2298,YOLANDA.HUNTER@PHOENIXSRLIVING.COM,CRC-0733 / 01/31/2022,Beaufort / ,CARE RSL PORT ROYAL OPCO LLC,62,-80.68313491,32.39451085
PEE DEE GARDENS,3117 W PALMETTO ST,FLORENCE,SC,29501,Florence,843-667-6699,TCOOKE-EVANS@DEPAUL.ORG,CRC-1391 / 05/31/2022,Florence / Corporation,DEPAUL ADULT CARE COMMUNITIES INC,80,-79.8418261,34.1707095
PENDLETON MANOR,414 SUMMIT DR,GREENVILLE,SC,29609-4821,Greenville,864-271-7562,REATHA@PENDLETONMANOR.COM,CRC-1455 / 08/31/2021,Greenville / Ltd. Liability,GREENVILLE RETIREMENT PROPERTIES LLC,65,-82.38308098,34.87421577
PETTIS ANGELS RESIDENTIAL CARE,2614 MADDEN DR,NORTH CHARLESTON,SC,29405-5529,Charleston,843-308-9413,SPETTIS@KNOLOGY.NET,CRC-0850 / 01/31/2022,Charleston / Sole Proprietorship,"PETTIS, ETHEL S.",5,-79.99272161,32.85225047
PHOENIX AT GREER,715 S BUNCOMBE RD,GREER,SC,29650-2208,Greenville,864-469-0409,JACKIE.MAGNES@PHOENIXSRLIVING.COM,CRC-2146 / 11/30/2021,Greenville / Limited Liability,PHOENIX AT GREER LLC,110,-82.241891,34.925248
PIEDMONT PATHWAYS COMMUNITY RESIDENTIAL CARE FACILITY,5640 LOWER RICHLAND BLVD,HOPKINS,SC,29061-9525,Richland,803-783-2273,GWENDOLYN.SCOTT@SCDMH.ORG,CRC-2134 / 06/30/2021,Richland / State,SC DEPARTMENT OF MENTAL HEALTH,15,-80.875187,33.918902
PINEDALE RESIDENTIAL CENTER,798 HERMITAGE POND RD,CAMDEN,SC,29020-9534,Kershaw,803-432-9900,PHUDSON83@YAHOO.COM,CRC-0460 / 02/28/2021,Kershaw / Corporation,SHARECARE CORPORATION,50,-80.5468209,34.24243419
PINEWOOD PLACE,101 CENTENNIAL BLVD,GOOSE CREEK,SC,29445-7079,Berkeley,843-569-2520,AKOVACH@ENLIVANT.COM,CRC-1406 / 11/30/2021,Berkeley / Limited Liability,PINEWOOD AID OPCO LLC,44,-80.06600002,33.01699997
PLACE AT SHADOW OAKS,108 GREGG AVE,AIKEN,SC,29801-6816,Aiken,803-643-0300,STEPHANIEFRISON@SHADOW-OAKS.COM,CRC-2175 / 01/31/2022,Aiken / Limited Liability,PLACE AT SHADOW OAKS LLC,56,-81.758844,33.565984
PONDVIEW RESIDENTIAL CARE HOME #1,5342 HARDSCRABBLE RD,BLYTHEWOOD,SC,29016-9171,Richland,803-735-0420,ADMIN@UNIVERSALCARESOLUTIONS.COM,CRC-0378 / 04/30/2022,Richland / Sole Proprietorship,"THOMAS, KATHERINE W.",12,-80.90617574,34.19125262
PONDVIEW RESIDENTIAL CARE HOME #2,5338 HARDSCRABBLE RD,BLYTHEWOOD,SC,29016-9171,Richland,803-735-0420,ADMIN@UNIVERSALCARESOLUTIONS.COM,CRC-1190 / 11/30/2021,Richland / Sole Proprietorship,"THOMAS, KATHERINE W.",5,-80.90618377,34.19122427
PORTSIDE AT GRANDE DUNES,901 PORTSIDE DR,MYRTLE BEACH,SC,29572,Horry,843-999-2494,ADMINISTRATOR@PORTSIDEGRANDEDUNES.COM,CRC-1995 / 02/28/2022,Horry / Limited Liability,PORTSIDE RESIDENCES LLC,120,-78.8030236,33.7596856
PRESBYTERIAN COMMUNITIES OF SOUTH CAROLINA-CLINTON,801 MUSGROVE ST,CLINTON,SC,29325-1796,Laurens,864-833-5190,PAUL.PRIDMORE@PRESCOMM.ORG,CRC-0014 / 04/30/2022,Laurens / Non-Profit Corporation,PRESBYTERIAN COMMUNITIES OF SOUTH CAROLINA,55,-81.87427782,34.48477046
PRESBYTERIAN COMMUNITIES OF SOUTH CAROLINA-COLUMBIA,700 DAVEGA DR,LEXINGTON,SC,29073-9698,Lexington,803-796-8700,JASON.BASILE@PRESCOMM.ORG,CRC-0387 / 06/30/2021,Lexington / Non-Profit Corporation,PRESBYTERIAN COMMUNITIES OF SOUTH CAROLINA,91,-81.12954037,34.02224697
PRESBYTERIAN COMMUNITIES OF SOUTH CAROLINA-FLORENCE,2350 W LUCAS ST,FLORENCE,SC,29501-1201,Florence,843-665-2222,MEREDITH.SCOTT@PRESCOMM.ORG,CRC-0242 / 09/30/2021,Florence / Corporation,PRESBYTERIAN COMMUNITIES OF SOUTH CAROLINA,47,-79.80958455,34.23672235
PRESBYTERIAN COMMUNITIES OF SOUTH CAROLINA-FOOTHILLS,205 BUD NALLEY DR,EASLEY,SC,29642,Pickens,864-859-3367,LESLIE.FRYAR@PRESCOMM.ORG,CRC-1030 / 07/31/2021,Pickens / Non-Profit Corporation,PRESBYTERIAN COMMUNITIES OF SOUTH CAROLINA,52,-82.54055426,34.79826092
PRESBYTERIAN COMMUNITIES OF SOUTH CAROLINA-SUMMERVILLE,201 W 9TH NORTH ST,SUMMERVILLE,SC,29483-6721,Dorchester,843-873-2550,TIM.BARRESI@PRESCOMM.ORG,CRC-0245 / 09/30/2021,Dorchester / Non-Profit Corporation,PRESBYTERIAN COMMUNITIES OF SOUTH CAROLINA,114,-80.16812989,33.03323019
PRESIDENTIAL COMMUNITY CARE HOME FACILITY,2019 HACKEMANN AVE,NORTH CHARLESTON,SC,29405-8323,Charleston,843-459-2149,PRESIDENTIALCRCF@GMAIL.COM,CRC-1869 / 02/28/2022,Charleston / Limited Liability,PRESIDENTIAL COMMUNITY CARE HOME FACILITY LLC,5,-79.960634,32.840862
QUALITY CARE RESIDENTIAL HOME,107 ETLING AVE,GOOSE CREEK,SC,29445-3001,Berkeley,843-863-0209,BRUCE@JONESMGTREALTY.COM,CRC-0715 / 01/31/2022,Berkeley / ,QUALITY CARE RESIDENTIAL HOME SC LLC,29,-80.04260762,32.99981334
QUIET ACRES RETIREMENT HOME,2968 OLD DOUGLAS MILL RD,HODGES,SC,29653-8930,Abbeville,864-446-2264,JOYMULL4@CS.COM,CRC-0588 / 05/31/2022,Abbeville / Limited Liability,PROMISES KEPT CUSTOMER SERVICE LLC,10,-82.32191099,34.26798662
QUILLEN MANOR,709 QUILLEN AVE,FOUNTAIN INN,SC,29644-9444,Greenville,864-601-1440,LOUISG@GARRARDINC.COM,CRC-1321 / 06/30/2022,Greenville / Limited Liability,QUILLEN MANOR LLC,78,-82.20011309,34.70782334
RAPHA RESIDENTIAL CARE INC,3959 FISH HATCHERY RD,GASTON,SC,29053-9038,Lexington,803-755-6541,RAPHAED@ATT.NET,CRC-1283 / 04/30/2022,Lexington / Limited Liability Limited Partnership,MASTERMIND LIMITED PARTNERSHIP LLP,92,-81.14900256,33.84168791
REESE'S COMMUNITY CARE HOME #1,1203 E MULLER AVE,COLUMBIA,SC,29203-5926,Richland,803-786-1843,SHARON12357@GMAIL.COM,CRC-0053 / 03/31/2022,Richland / Corporation,REESE'S COMMUNITY CARE HOME INC,8,-81.03369287,34.04519002
REESE'S COMMUNITY CARE HOME #2,717 CINDY DR,COLUMBIA,SC,29203-5205,Richland,803-609-2629,SHARON12357@GMAIL.COM,CRC-0054 / 03/31/2022,Richland / Sole Proprietorship,REESE'S COMMUNITY CARE HOME INC,5,-80.98559742,34.07162002
REFLECTIONS AT CAROLINA FOREST,219 MIDDLEBURG DR,MYRTLE BEACH,SC,29579-3409,Horry,843-903-0700,CHELSEA@REFLECTIONSASSISTEDLIVING.COM,CRC-1456 / 11/30/2021,Horry / Corporation,REFLECTIONS AT CAROLINA FOREST INC,42,-78.95798294,33.7625952
REID HOUSE,117 DODD ST,WELLFORD,SC,29385-9475,Spartanburg,864-949-5120,KDANIELS@THE-REIDHOUSE.COM,CRC-1463 / 03/31/2022,Spartanburg / Corporation,REID HOUSE,42,-82.10312949,34.94627611
REID'S RESIDENTIAL CARE FACILITY,726 OLD SPARTANBURG HWY,WELLFORD,SC,29385-9668,Spartanburg,864-439-9238,ADMIN@REIDSRCF.COM,CRC-0771 / 05/31/2022,Spartanburg / Sole Proprietorship,JUDY DANIELS,23,-82.10362168,34.94578194
RENAISSANCE,19 FRANK PRESSLEY DR,DUE WEST,SC,29639,Abbeville,864-379-2570,DLITTLE3@MINDSPRING.COM,CRC-1207 / 12/31/2021,Abbeville / Corporation,RENAISSANCE LLC,20,-82.396697,34.330066
RESIDENCES AT PARK PLACE,115 GILLESPIE RD,SENECA,SC,29678-1126,Oconee,864-882-0783,KHICKS@MSAHEALTHCARE.COM,CRC-1493 / 08/31/2021,Oconee / Corporation,AMERICAN SENIOR LIVING COMMUNITIES INC,100,-82.98719769,34.68523578
RESTING PLACE 2,207 E SHOCKLEY FERRY RD,ANDERSON,SC,29624-3731,Anderson,864-905-1768,0911BEAUTYJ@GMAIL.COM,CRC-2176 / 10/31/2021,Anderson / Limited Liability,RESTING PLACE 2 LLC,10,-82.64407,34.481302
RETREAT AT CAROLINA BAY,1340 CAROLINA BAY BLVD,HARTSVILLE,SC,29550,Darlington,843-845-1563,YOLANDA.HUNTER@PHOENIXSRLIVING.COM,CRC-2043 / 02/28/2022,Darlington / Limited Liability,PINE TREE HILL AL LLC,60,-80.10641276,34.36623947
RETREAT AT EASLEY,123 COUCH LN,EASLEY,SC,29642-1916,Pickens,864-859-3303,YOLANDA.HUNTER@PHOENIXSRLIVING.COM,CRC-1274 / 01/31/2022,Pickens / Limited Liability,CARE RSL EASLEY OPCO LP,56,-82.55887099,34.81856972
RETREAT AT GAFFNEY,101 PARK CT,GAFFNEY,SC,29341,Cherokee,864-206-0006,SHELLY.SMITH@PHOENIXSRLIVING.COM,CRC-1281 / 01/31/2022,Cherokee / Limited Liability Limited Partnership,CARE RSL GAFFNEY OPCO LP,90,-81.6574393,35.09200104
RETREAT AT LADYS ISLAND,9 SUNSET BLVD,BEAUFORT,SC,29907,Beaufort,843-379-9502,YOLANDA.HUNTER@PHOENIXSRLIVING.COM,CRC-1898 / 05/31/2022,Beaufort / Limited Liability,FACTORY CREEK AL LLC,83,-80.6568186,32.41824722
RETREAT AT SUMMERVILLE,950 TRAVELERS BLVD,SUMMERVILLE,SC,29485-8213,Dorchester,843-832-8481,JACKIE.MAGNES@PHOENIXSRLIVING.COM,CRC-0859 / 01/31/2022,Dorchester / ,CARE RSL SUMMERVILLE OPCO LP,53,-80.16834349,32.9649049
RICE ESTATE - ASSISTED LIVING,100 FINLEY RD,COLUMBIA,SC,29203-9264,Richland,803-691-5720,DAMODIO@RICEESTATE.ORG,CRC-1075 / 03/31/2022,Richland / Non-Profit Corporation,LUTHERAN HOMES OF SOUTH CAROLINA INC,40,-80.96480344,34.10702486
RIDGEVIEW COMMUNITY CARE HOMES UNIT A,217 CHANDLER RD,GREER,SC,29651-1290,Greenville,864-877-8599,RIDGEVIEW1@MSN.COM,CRC-0559 / 01/31/2022,Greenville / Corporation,RIDGEVIEW COMMUNITY CARE HOMES INC,11,-82.23437161,34.95716095
RIDGEVIEW COMMUNITY CARE HOMES UNIT B,217 CHANDLER RD,GREER,SC,29651-1290,Greenville,864-877-8599,RIDGEVIEW1@MSN.COM,CRC-0560 / 01/31/2022,Greenville / Corporation,RIDGEVIEW COMMUNITY CARE HOMES INC,10,-82.23437051,34.95716095
RIDGEVIEW COMMUNITY CARE HOMES UNIT C,217 CHANDLER RD,GREER,SC,29651-1290,Greenville,864-877-8599,RIDGEVIEW1@MSN.COM,CRC-0561 / 01/31/2022,Greenville / Corporation,RIDGEVIEW COMMUNITY CARE HOMES INC,11,-82.23436951,34.95716095
RIDGEVIEW COMMUNITY CARE HOMES UNIT D,217 CHANDLER RD,GREER,SC,29651-1290,Greenville,864-877-8599,RIDGEVIEW1@MSN.COM,CRC-0562 / 01/31/2022,Greenville / Corporation,RIDGEVIEW COMMUNITY CARE HOMES INC,11,-82.23436967,34.95716998
RILEY'S RESIDENTIAL CARE HOME,2327 BRIAN CHRISTOPHER RD,GREAT FALLS,SC,29055-8844,Chester,803-482-3290,BPRILEY09@YAHOO.COM,CRC-0900 / 10/31/2021,Chester / Sole Proprietorship,"GOODE-RILEY, BEVERLY",10,-80.93398362,34.59984869
RIVER PARK SENIOR LIVING,190 RIVER PARK DR,LITTLE RIVER,SC,29566,Horry,843-741-0082,DLITTLE3@MINDSPRING.COM,CRC-1962 / 02/28/2022,Horry / Limited Liability,CR RIVER PARK LLC,90,-78.64787852,33.86999466
ROCKHAVEN COMMUNITY CARE HOME,524 ROCKHAVEN DR,COLUMBIA,SC,29223-7805,Richland,803-699-5361,RBARNES3469@GMAIL.COM,CRC-0800 / 01/31/2022,Richland / Sole Proprietorship,RICHIE D BARNES,10,-80.9419179,34.11177268
ROLLING GREEN VILLAGE ASSISTED LIVING FACILITY,1 HOKE SMITH BLVD OFC,GREENVILLE,SC,29615-5399,Greenville,864-987-9800,"RYANT@ROLLINGGREENVILLAGE.COM",CRC-0573 / 03/31/2022,Greenville / Non-Profit Corporation,ROLLING GREEN VILLAGE,52,-82.26442352,34.84160464
ROSECREST COMMUNITY RESIDENTIAL CARE,200 FORTRESS DR,INMAN,SC,29349-9160,Spartanburg,864-599-8600,MYETTER@LHOMES.ORG,CRC-1208 / 07/31/2021,Spartanburg / Non-Profit Corporation,LUTHERAN HOMES OF SOUTH CAROLINA INC,45,-82.02765435,35.03863685
ROSEWOOD ASSISTED LIVING,5221 HWY 215,PAULINE,SC,29374-1908,Spartanburg,864-573-4060,WIJG38@GMAIL.COM,CRC-1367 / 11/30/2021,Spartanburg / Ltd. Liability,ROSEWOOD ASSISTED LIVING LLC,75,-81.862549,34.825553
ROUSE COMMUNITY CARE HOME #1,102 BALLENTON RD,COLUMBIA,SC,29203-9073,Richland,803-788-1753,MATRICEROUSE@AOL.COM,CRC-0327 / 12/31/2021,Richland / Corporation,ROUSE COMMUNITY CARE HOME INC,8,-80.96080405,34.109663
ROUSE COMMUNITY CARE HOME #2,8809 WILSON BLVD,COLUMBIA,SC,29203-1817,Richland,803-786-9357,MATRICEROUSE@AOL.COM,CRC-0328 / 12/31/2021,Richland / Corporation,ROUSE COMMUNITY CARE HOME INC,9,-80.98722796,34.11104622
ROUSE COMMUNITY CARE HOME #3,9316 WILSON BLVD,COLUMBIA,SC,29203-9769,Richland,803-754-5720,MATRICEROUSE@AOL.COM,CRC-0238 / 09/30/2021,Richland / Corporation,ROUSE COMMUNITY CARE HOME INC,10,-80.99178088,34.12869932
ROYAL HILL COMMUNITY RESIDENTIAL CARE FACILITY,310 E MAIN ST BLD B,KINGSTREE,SC,29556,Williamsburg,843-355-1300,ASHCOURTCOMPANIONCARE@YAHOO.COM,CRC-1946 / 05/31/2022,Williamsburg / Limited Liability,ROYAL HILL COMMUNITY RESIDENTIAL CARE FACILITY LLC,5,-79.825641,33.664828
RUDNICK CRCF,629 CHESTERFIELD ST,AIKEN,SC,29801-4053,Aiken,803-642-1041,RDUNBAR@AIKENTDC.ORG,CRC-1429 / 02/28/2022,Aiken / Corporation,TRI-DEVELOPMENT CENTER OF AIKEN COUNTY INC,8,-81.71417825,33.57123981
RUMPH'S RESIDENTIAL CARE,574 PROGRESSIVE WAY,DENMARK,SC,29042-1873,Bamberg,803-793-0068,SEBRINA.COLLINS@YAHOO.COM,CRC-0791 / 11/30/2021,Bamberg / Corporation,RUMPH'S RESIDENTIAL CARE INC,8,-81.13860519,33.32298903
S&S BOARDING HOME LLC,3589 BLUFF RD,ALLENDALE,SC,29810-4139,Allendale,803-573-7006,ESABB@ALLENDALECOUNTY.COM,CRC-1923 / 10/31/2021,Allendale / Sole Proprietorship,"SABB, ELAINE",5,-81.31986722,33.00543152
SANDERS CRCF,625 CHESTERFIELD ST,AIKEN,SC,29801-4053,Aiken,803-642-1044,MHALL@AIKENTDC.ORG,CRC-1430 / 02/28/2022,Aiken / Corporation,TRI-DEVELOPMENT CENTER OF AIKEN COUNTY INC,8,-81.7143048,33.57090537
SANDPIPER COURTYARD ASSISTED LIVING,1047 ANNA KNAPP BLVD,MOUNT PLEASANT,SC,29464-3133,Charleston,843-884-7977,DURENASTINSON@SANDPIPERCENTER.COM,CRC-1325 / 09/30/2021,Charleston / Limited Liability,SANDPIPER INDEPENDENT AND ASSISTED LIVING-DELAWARE LLC,64,-79.86390196,32.80954881
SAVANNAH HALL ASSISTED LIVING,1010 LAKE HUNTER CIR,MOUNT PLEASANT,SC,29464-5417,Charleston,843-888-2030,LICENSING@5SSL.COM,CRC-1431 / 06/30/2022,Charleston / Limited Liability,SNH SE SG TENANT LLC,16,-79.86188389,32.81399277
SAVANNAH PLACE,1501 SECESSIONVILLE RD,CHARLESTON,SC,29412-8236,Charleston,843-762-1396,EGRANT@ENLIVANT.COM,CRC-1410 / 11/30/2021,Charleston / Limited Liability,SAVANNAH AID OPCO LLC,44,-79.95764677,32.71078022
SC EPISCOPAL HOME AT STILL HOPES (CRCF),1 STILL HOPES DR,WEST COLUMBIA,SC,29169-7164,Lexington,803-796-6490,NROBERTSON@STILLHOPES.ORG,CRC-0144 / 07/31/2021,Lexington / Corporation,SOUTH CAROLINA EPISCOPAL HOME AT STILL HOPES INC,46,-81.06182115,33.98582944
SECESSIONVILLE COMMUNITY RESIDENCE,1217 SECESSIONVILLE RD,CHARLESTON,SC,29412-9749,Charleston,843-762-2134,ETURNER@DSNCC.COM,CRC-1287 / 12/31/2021,Charleston / State,DISABILITIES BOARD OF CHARLESTON COUNTY,8,-79.95657524,32.72229006
SEDGEWOOD MANOR ASSISTED LIVING,1645 RIDGE RD,HOPKINS,SC,29061-8432,Richland,803-776-3873,JOE.HUNT@SEDGEWOOD.COM,CRC-2178 / 11/30/2021,Richland / Limited Liability,SEDGEWOOD MANOR HEALTH CARE CENTER LLC,16,-80.844179,33.96167
SENECA RESIDENTIAL CARE CENTER,126 TOKEENA RD,SENECA,SC,29678-1744,Oconee,864-882-7390,SENECARESIDENTIAL@GMAIL.COM,CRC-0337 / 12/31/2021,Oconee / Sole Proprietorship,WILBURN E HAMMERS,33,-82.9629158,34.65632314
SERENITY MANOR OF HOLLY HILL,656 GARDNER BLVD,HOLLY HILL,SC,29059-8450,Orangeburg,803-496-3022,LUTHER.RILEY@YAHOO.COM,CRC-1516 / 07/31/2021,Orangeburg / Limited Liability,SERENITY MANOR OF HOLLY HILL LLC,5,-80.413835,33.317554
SEVILLE'S RESIDENTIAL CARE FACILITY,109 BENNETT LN,HAMPTON,SC,29924-1375,Hampton,803-914-0105,KAMILLE.JENKINS@GMAIL.COM,CRC-1178 / 08/31/2021,Hampton / Sole Proprietorship,GENORA W JENKINS,10,-81.09979684,32.86911872
SHEM CREEK HEALTH CENTER,1400 LIBERTY MIDTOWN DR,MOUNT PLEASANT,SC,29464,Charleston,843-936-2801,LFURLOUGH@LIBERTYSENIORLIVING.COM,CRC-1952 / 07/31/2021,Charleston / Limited Liability,SOUTH BAY AT MT PLEASANT LLC,110,-79.85950388,32.8180114
SHEPHERD'S CARE CENTER,2100 N PLEASANTBURG DR,GREENVILLE,SC,29609-3156,Greenville,864-322-6212,ETHOMPSO@SHEPHERDSCARECENTER.COM,CRC-1326 / 10/31/2021,Greenville / Ltd. Liability,SHEPHERD'S CARE CENTER LLC,90,-82.37288901,34.8891674
SHERMAN RESIDENTIAL CARE,20 MAYFIELD ST,GREENVILLE,SC,29601-1815,Greenville,864-242-0401,0911BEAUTYJ@GMAIL.COM,CRC-2009 / 02/28/2022,Greenville / Limited Liability,SHERMAN RESIDENTIAL CARE 2 LLC,16,-82.407969,34.852102
SIX MILE RETIREMENT CENTER,120 S MAIN ST,SIX MILE,SC,29682-9332,Pickens,864-868-9050,SRETIREMENT@ATT.NET,CRC-0542 / 09/30/2021,Pickens / Sole Proprietorship,WILBURN E HAMMERS,41,-82.81816107,34.803418
SOMERBY OF MOUNT PLEASANT,3100 TRADITION CIR,MOUNT PLEASANT,SC,29466-7153,Charleston,843-849-3096,CANDY.CURE@SOMERBYLIVING.COM,CRC-2048 / 02/28/2022,Charleston / Limited Liability,TRADITION SENIOR CARE LLC,118,-79.79363751,32.89535805
SOUTH ISLAND LIVING LLC,2902 S ISLAND RD,GEORGETOWN,SC,29440-4420,Georgetown,843-545-5427,ADMIN@SOUTHISLANDLIVING.COM,CRC-2194 / 04/30/2022,Georgetown / Limited Liability,SOUTH ISLAND LIVING LLC,48,-79.299648,33.327142
SOUTHERN HERITAGE,1713 CHARLESTON HWY,WEST COLUMBIA,SC,29169-5051,Lexington,803-796-3113,JDQCSI@AOL.COM,CRC-0993 / 03/31/2022,Lexington / Corporation,QUALITY CARE SERVICES INC,10,-81.07825505,33.96749131
SOUTHERN OAKS PERSONAL CARE HOME,120 ROPER MOUNTAIN RD EXT,GREENVILLE,SC,29615-4823,Greenville,864-288-3271,MHOLTZCLAW@BLUERIDGERX.COM,CRC-1931 / 06/30/2021,Greenville / Limited Liability,PATRIOT LIVING LLC,64,-82.31881857,34.85147285
SPRENGER HEALTHCARE AT PORT ROYAL ASSISTED LIVING,1810 RICHMOND AVE,PORT ROYAL,SC,29935,Beaufort,843-781-7700,JCOE@SPRENGERHEALTHCARECOM,CRC-2016 / 05/31/2022,Beaufort / Corporation,SPRENGER HEALTHCARE OF PORT ROYAL INC,59,-80.68888,32.383536
SPRENGER HEALTHCARE OF BLUFFTON ASSISTED LIVING,60 OKATIE DR,OKATIE,SC,29909,Beaufort,843-548-2500,EQUANDAHL@SPRENGERHEALTHCARE.COM,CRC-2042 / 03/31/2022,Beaufort / Corporation,SPRENGER HEALTHCARE OF BLUFFTON INC,58,-80.91117884,32.31507208
SPRING PARK ASSISTED LIVING,925 N MAIN ST,TRAVELERS REST,SC,29690-1553,Greenville,864-610-2435,LHAWKINS@SPRINGPARKTRAVELERSREST.COM,CRC-2063 / 02/28/2022,Greenville / Limited Liability,AFF18 SPRING PARK ALF LLC,80,-82.458779,34.976984
SPRINGFIELD PLACE RESIDENTIAL CARE,2006 SPRINGFIELD CIR,NEWBERRY,SC,29108-3084,Newberry,803-405-1585,KMONTGOMERY@NEWBERRYCCRC.COM,CRC-1250 / 02/28/2022,Newberry / Limited Liability,NEWBERRY OPERATOR LLC,50,-81.60139371,34.28594159
SPRINGHILL ASSISTED LIVING,514 S GUM ST,PAGELAND,SC,29728-9143,Chesterfield,843-675-2500,SPRINGHILLASSISTEDLIVING@YAHOO.COM,CRC-1171 / 07/31/2022,Chesterfield / Corporation,HOSPICE OF CHESTERFIELD COUNTY INC,32,-80.38178887,34.76790362
SPRINGS AT SIMPSONVILLE,214 E CURTIS ST,SIMPSONVILLE,SC,29681-2622,Greenville,864-962-8570,PEGGYM@CARAVITA.COM,CRC-1198 / 05/31/2022,Greenville / Ltd. Liability,CURTIS GROUP LLC,89,-82.25237893,34.73758212
ST GABRIEL OF MURRELLS INLET,699 PRINCE CREEK PKWY,MURRELLS INLET,SC,29576,Horry,843-353-1525,JRICHARDSON@VERITASHCG.COM,CRC-2110 / 07/31/2021,Horry / Limited Liability,VERITAS SENIOR LIVING LLC,110,-79.048133,33.58173
STOKES RESIDENTIAL CARE,2525 SAINT MATTHEWS RD,ORANGEBURG,SC,29118-1319,Orangeburg,803-533-0070,MCAKLEY18.COM,CRC-2072 / 12/31/2021,Orangeburg / Limited Liability,BRIANS AND STOKES ASSISTED LIVING LLC,17,-80.846916,33.532285
STRATFORD PLACE GOOSE CREEK - ASSISTED LIVING,97 BRIDGETOWN RD,GOOSE CREEK,SC,29445,Berkeley,843-300-1951,GCCD@STRATFORDPLACE.COM,CRC-2096 / 01/31/2022,Berkeley / Corporation,SPGCAL INC,34,-80.048081,33.010661
STRATFORD PLACE OF GOOSE CREEK MEMORY CARE,95 BRIDGETOWN RD,GOOSE CREEK,SC,29445,Berkeley,843-300-1952,GCCD@STRATFORDPLACE.COM,CRC-1919 / 02/28/2022,Berkeley / Corporation,SPGCMC INC,34,-80.049742,33.008923
SUMMIT HILLS ASSISTED LIVING COMMUNITY,100 SUMMIT HILLS DR,SPARTANBURG,SC,29307-1532,Spartanburg,864-591-2222,LICENSING@SUMMIT-HILLS.COM,CRC-1113 / 09/30/2021,Spartanburg / Ltd. Liability,SUMMIT HILLS LLC,79,-81.89072293,34.98389125
SUMMIT PLACE OF ANDERSON,107 PERPETUAL SQUARE DR,ANDERSON,SC,29621-1713,Anderson,864-222-9880,LCOOLEY@CAPITALSENIORLIVING.NET,CRC-1151 / 10/31/2021,Anderson / Limited Liability,CSL SUMMIT PLACE SC LLC,89,-82.631676,34.552062
SUMMIT PLACE OF BEAUFORT,1119 PICKPOCKET PLANTATION DR,BEAUFORT,SC,29902-3771,Beaufort,843-770-0105,LICENSING@5SSL.COM,CRC-1375 / 06/30/2022,Beaufort / Corporation,SNH SE TENANT TRS INC,87,-80.701887,32.438699
SUMMIT PLACE OF DANIEL ISLAND,320 SEVEN FARMS DR,DANIEL ISLAND,SC,29492-7532,Berkeley,843-884-4104,LICENSING@5SSL.COM,CRC-1282 / 05/31/2022,Berkeley / Limited Liability,SNH SE DANIEL ISLAND TENANT LLC,76,-79.91392874,32.85808422
SUMMIT PLACE OF NORTH MYRTLE BEACH,491 HWY 17,LITTLE RIVER,SC,29566-8082,Horry,843-399-5662,LICENSING@5SSL.COM,CRC-1360 / 06/30/2022,Horry / Corporation,SNH SE N MYRTLE BEACH TENANT LLC,80,-78.64994274,33.86527278
SUNNY PINES BOARDING HOME,108 GAPWAY RD,ANDREWS,SC,29510-6786,Williamsburg,843-221-7436,PAPION22@PEOPLEPC.COM,CRC-0098 / 05/31/2021,Williamsburg / Sole Proprietorship,"DUROUSSEAU, MATTIE H.",18,-79.57217,33.467017
SWEETGRASS COURT SENIOR LIVING COMMUNITY,1010 ANNA KNAPP BLVD,MOUNT PLEASANT,SC,29464-5400,Charleston,843-971-7756,JBRYANTSINGLETARY@5SSL.COM,CRC-2117 / 01/31/2022,Charleston / Limited Liability,SNH SC TENANT LLC,38,-79.864314,32.814881
TERRABELLA,104 DILLON DR,SPARTANBURG,SC,29307-1018,Spartanburg,864-948-9300,JPEARSON@TERRABELLASENIORLIVING.COM,CRC-2193 / 05/31/2022,Spartanburg / Limited Liability,SPARTANBURG AL/MC LLC,55,-81.892815,34.980805
THORNE RETIREMENT HOME,702 W 3RD AVE,LAKE VIEW,SC,29563,Dillon,843-759-9099,MARIE@LAKEFIELDPROP.COM,CRC-1968 / 03/31/2022,Dillon / Limited Liability Company (single member),LAKEFIELD PROPERTIES LLC,76,-79.17339,34.34401
TRICOUNTY CRISIS STABILIZATION CENTER,5 CHARLESTON CENTER DR STE 246,CHARLESTON,SC,29401-1162,Charleston,843-953-2390,LAURA.UMINSKI@SCDMH.ORG,CRC-1956 / 06/30/2021,Charleston / State,CHARLESTON DORCHESTER MENTAL HEALTH CENTER,10,-79.95098,32.783198
TRINITY ON LAURENS,213 LAURENS ST NW,AIKEN,SC,29801-3911,Aiken,803-643-4200,CHENRICH@TRINITYONLAURENS.ORG,CRC-0935 / 06/30/2021,Aiken / Non-Profit Corporation,LUTHERAN HOMES OF SOUTH CAROLINA INC,55,-81.72193079,33.56434501
TURNING POINT CRCF,820 TOMS CREEK RD,HOPKINS,SC,29061-8798,Richland,803-647-1152,DORTHEA.DENNIS@SCDMH.ORG,CRC-2075 / 06/28/2022,Richland / State,SOUTH CAROLINA DEPARTMENT OF MENTAL HEALTH,15,-80.764998,33.980815
TWILITE MANOR ADULT RESIDENTIAL CARE,2306 FORREST ST,CAYCE,SC,29033-2124,Lexington,803-794-7561,LANDAETHER@GMAIL.COM,CRC-1210 / 05/31/2022,Lexington / Limited Liability,SEASHAR LLC,28,-81.07202012,33.95411986
TYLER RESTMORE HOME,1681 BROUGHTON ST,ORANGEBURG,SC,29115-4873,Orangeburg,803-536-0740,MICHELLEANTLEY@ATT.NET,CRC-0841 / 07/31/2021,Orangeburg / Ltd. Liability,TYLER RESTMORE HOME LLC,10,-80.87080021,33.49443622
TYLER RESTMORE HOME #2,195 SELLERS AVE,ORANGEBURG,SC,29115-6724,Orangeburg,803-531-2074,EYBLACK52@MAIL.COM,CRC-0889 / 07/31/2021,Orangeburg / Limited Liability,TYLER RESTMORE HOME LLC,9,-80.86026754,33.48522474
TYLER RESTMORE HOME 3,139 SEMINOLE DR,ORANGEBURG,SC,29115-7619,Orangeburg,803-536-0060,MICHELLEANTLEY@ATT.NET,CRC-2052 / 12/31/2021,Orangeburg / Limited Liability,TYLER RESTMORE HOME LLC,15,-80.852908,33.473476
UPSTATE RESIDENTIAL CARE,1302 S MCDUFFIE ST,ANDERSON,SC,29624-2745,Anderson,864-225-6901,HORACEALEXANDER@MYLASOUNDS.COM,CRC-0233 / 08/31/2021,Anderson / Sole Proprietorship,"HORACE, J ALEXANDER",10,-82.64661589,34.49325914
VANGUARD RESIDENTIAL SERVICES I,100 E HOSPITAL ST,MANNING,SC,29102-3158,Clarendon,803-435-2330,RWAY@CCDSNB.ORG,CRC-1313 / 06/30/2021,Clarendon / Non-Profit Corporation,VANGUARD RESIDENTIAL SERVICES INC,8,-80.20808527,33.687763
VANGUARD RESIDENTIAL SERVICES II,512 S CHURCH ST,MANNING,SC,29102-3122,Clarendon,803-435-2330,RWAY@CCDSNB.ORG,CRC-1314 / 06/30/2021,Clarendon / Corporation,VANGUARD RESIDENTIAL SERVICES INC,8,-80.2090984,33.68669622
VANWYEVER RESIDENTIAL CARE FACILITY,2009 COSGROVE AVE,NORTH CHARLESTON,SC,29405-5702,Charleston,843-744-6065,VANWYEVER1@AOL.COM,CRC-0638 / 09/30/2021,Charleston / Sole Proprietorship,AYESHA T WASHINGTON ESQUIRE AS SPECIAL ADMINISTRATOR OF THE ESTATE RHODELLE W FULTON,10,-79.97574734,32.85725305
VARNVILLE COMMUNITY RESIDENCE,266 HAMPTON RD,VARNVILLE,SC,29944,Hampton,803-943-4818,MELLISSA_D_MYERS23@HCBDSN.ORG,CRC-1211 / 05/31/2022,Hampton / ,HAMPTON COUNTY DISABILITIES AND SPECIAL NEEDS BOARD,8,-81.07569045,32.86103551
VILLAGE COMMUNITY CARE HOME-UNIT A,1250 SALEM CHURCH RD,ANDERSON,SC,29625-1310,Anderson,864-225-4336,VILLAGECARE365@GMAIL.COM,CRC-0563 / 01/31/2022,Anderson / Corporation,VILLAGE COMMUNITY CARE HOME INC,11,-82.69379512,34.55007547
VILLAGE COMMUNITY CARE HOME-UNIT B,1250 SALEM CHURCH RD,ANDERSON,SC,29625-1310,Anderson,864-225-4336,VILLAGECARE365@GMAIL.COM,CRC-0564 / 01/31/2022,Anderson / Corporation,VILLAGE COMMUNITY CARE HOME INC,11,-82.69379512,34.55007547
VILLAGE COMMUNITY CARE HOME-UNIT C,1250 SALEM CHURCH RD,ANDERSON,SC,29625-1310,Anderson,864-225-4336,VILLAGECARE365@GMAIL.COM,CRC-0565 / 01/31/2022,Anderson / Corporation,VILLAGE COMMUNITY CARE HOME INC,11,-82.69379512,34.55007547
VILLAGE COMMUNITY CARE HOME-UNIT D,1250 SALEM CHURCH RD,ANDERSON,SC,29625-1310,Anderson,864-225-4336,VILLAGECARE365@GMAIL.COM,CRC-0566 / 01/31/2022,Anderson / Corporation,VILLAGE COMMUNITY CARE HOME INC,11,-82.69379512,34.55007547
VILLAGE COVE ASSISTED LIVING,80 MAIN STREET OFFICE 100,HILTON HEAD ISLAND,SC,29926,Beaufort,843-689-9143,JENNIFER.NAPOLITANO@NAVIONSL.COM,CRC-2097 / 09/30/2021,Beaufort / ,NAVION BKE HILTON HEAD VILLAGE LLC,52,-80.719276,32.217102
VILLAGE INN COMMUNITY CARE HOME,112 POWELL ST,GRANITEVILLE,SC,29829-2906,Aiken,803-663-9495,VILLAGEINNCCH@BELLSOUTH.NET,CRC-0396 / 04/30/2022,Aiken / Sole Proprietorship,MICHELE A HERRON,10,-81.81440319,33.5653521
VINEYARD BLUFFTON,25 CASSIDY DR,BLUFFTON,SC,29910,Beaufort,843-612-0700,KSUITE@VALEOGROUPE.US,CRC-1988 / 09/30/2021,Beaufort / Limited Liability,VINEYARD BLUFFTON OPERATIONS LLC,108,-80.873571,32.247804
WALTERS BROTHERS RESIDENTIAL CARE FACILITY INC,110 GEDDINGS RD,SUMTER,SC,29150-8812,Sumter,803-506-2743,JOHNNIE15@FTC-I.NET,CRC-1080 / 04/30/2022,Sumter / Sole Proprietorship,JOHNNIE L WALTERS,20,-80.35466665,33.79433297
WALTERS RESIDENTIAL CARE,821 DUKE AVE,COLUMBIA,SC,29203-5651,Richland,803-252-8918,WALTERS1987@BELLSOUTH.NET,CRC-0985 / 03/31/2022,Richland / Non-Profit Corporation,MIPD INC,35,-81.04391231,34.04069737
WARE SHOALS MANOR,10 N GREENWOOD AVE,WARE SHOALS,SC,29692-1239,Greenwood,864-456-7127,OSKARMANI@AOL.COM,CRC-1457 / 10/31/2021,Greenwood / Ltd. Liability,HARMONY RESIDENTIAL CARE CENTER LLC,24,-82.25471501,34.4058518
WATERCREST COLUMBIA ASSISTED LIVING AND MEMORY CARE,1951 CLEMSON RD,COLUMBIA,SC,29229,Richland,803-771-7500,BPATTERSON@WATERCRESTSENIORLIVING.COM,CRC-1985 / 10/31/2021,Richland / Limited Liability,TSL WATERCREST OPCO LLC,118,-80.90953,34.139974
WATERCREST FORT MILL ASSISTED LIVING AND MEMORY CARE,8154 ENGLISH CLOVER LN,INDIAN LAND,SC,29707,Lancaster,803-590-7005,TLM926@OUTLOOK.COM,CRC-2024 / 07/31/2021,Lancaster / Limited Liability,WAYPOINT WATERCREST FORT MILL SL LLC,117,-80.862251,34.975094
WATERSTONE ON AUGUSTA SENIOR LIVING,1004 AUGUSTA ST,GREENVILLE,SC,29605-3906,Greenville,864-605-7236,CYNTHIA.FOWLER@WATERSTONEONAUGUSTA.COM,CRC-1945 / 03/31/2022,Greenville / Corporation,CHP GREENVILLE SC TENANT CORP,126,-82.406136,34.833053
WE CARE RESIDENTIAL,2370 WILLISTON RD,AIKEN,SC,29803-9100,Aiken,803-652-3652,STEMSIS54@GMAIL.COM,CRC-1034 / 08/31/2021,Aiken / Corporation,WE CARE RESIDENTIAL INC,55,-81.696572,33.393463
WELLMORE OF DANIEL ISLAND,580 ROBERT DANIEL DR,CHARLESTON,SC,29492,Berkeley,843-566-1000,DANIELISLAND.LICENSING@WELL-MORE.COM,CRC-1569 / 04/30/2022,Berkeley / Limited Liability,WELLMORE OF DANIEL ISLAND LLC,174,-79.895528,32.880688
WELLMORE OF LEXINGTON,200 WELLMORE DR,LEXINGTON,SC,29072,Lexington,803-520-1200,LEXINGTON.LICENSING@WELL-MORE.COM,CRC-1557 / 06/30/2021,Lexington / Limited Liability,WELLMORE OF LEXINGTON LLC,174,-81.248414,33.994616
WELLMORE OF TEGA CAY,111 WELLMORE DR,TEGA CAY,SC,29708-0039,York,803-835-7000,TEGACAY.LICENSING@WELL-MORE.COM,CRC-1935 / 08/31/2021,York / ,WELLMORE OF TEGA CAY LLC,150,-80.99021643,35.0471643
WESLEY COMMONS ASSISTED LIVING FACILITY & SPECIAL CARE HOUSE,1110 MARSHALL RD,GREENWOOD,SC,29646-4299,Greenwood,864-227-7480,DDAVIS@WESLEYCOMMONS.ORG,CRC-1218 / 08/31/2021,Greenwood / Non-Profit Corporation,WESLEY COMMONS,70,-82.12697734,34.180305
WESLEY COURT ASSISTED LIVING COMMUNITY,916 WESLEY CT,BOILING SPRINGS,SC,29316-5649,Spartanburg,864-599-9929,WESLEYCOURT@TUTERA.COM,CRC-1289 / 12/31/2021,Spartanburg / Limited Liability,WESLEY COURT ASSISTED LIVING FACILITY LLC,70,-81.97387237,35.041469
WESLEYAN SUITES,2100 TWIN CHURCH RD,FLORENCE,SC,29501-8200,Florence,843-664-0700,TREICH@THEMANORSENIORLIVING.COM,CRC-0662 / 12/31/2021,Florence / Non-Profit Corporation,UNITED METHODIST MANOR OF THE PEE DEE,95,-79.8589918,34.15118694
WEST END RETIREMENT CENTER INC,PO BOX 736,EASLEY,SC,29641-0736,Pickens,864-485-9372,AMBER.WESTEND@OUTLOOK.COM,CRC-0204 / 08/31/2021,Pickens / Corporation,WEST END RETIREMENT CENTER INC,34,-82.601505,34.819308
WESTMINSTER MEMORY CARE - AIKEN,2288 S CENTENNIAL AVE,AIKEN,SC,29803,Aiken,803-502-5599,MILLERJAMIE@WMCAIKEN.COM,CRC-1997 / 04/30/2022,Aiken / Limited Liability,AIKEN MEMORY CARE LLC,48,-81.71093661,33.51963623
WESTMINSTER MEMORY CARE-LEXINGTON,886 PARK RD,LEXINGTON,SC,29072,Lexington,803-356-7507,BROWNGARY@WMCLEXINGTON.COM,CRC-2002 / 07/31/2021,Lexington / Limited Liability,LEXINGTON MEMORY CARE LLC,48,-81.282615,34.003704
WESTMINSTER TOWERS RESIDENTIAL,1330 INDIA HOOK RD,ROCK HILL,SC,29732-2462,York,803-328-5000,JTHOMASON@WESTMINSTERTOWERS.ORG,CRC-0580 / 09/30/2021,York / Non-Profit Corporation,WESTMINSTER PRESBYTERIAN CENTER INC,35,-81.02893021,34.95278274
WESTSIDE RESIDENTIAL HOME,4112 HARTFORD ST,COLUMBIA,SC,29204-3025,Richland,803-786-7411,JENTOMATT@AOL.COM,CRC-0907 / 11/30/2021,Richland / Corporation,WESTSIDE RESIDENTIAL HOME INC,38,-80.9936929,34.05198259
WHITE OAK ESTATES ASSISTED LIVING,400 WEBBER RD,SPARTANBURG,SC,29307-2400,Spartanburg,864-579-7004,JEMAZIE@WHITEOAKMANOR.COM,CRC-1334 / 09/30/2021,Spartanburg / Corporation,WHITE OAK ESTATES ASSISTED LIVING INC,45,-81.87026874,34.97255178
WHITNEY PLACE,107 CORNWELL ST,UNION,SC,29379-2404,Union,864-427-4275,WHITNEYPLACE1990@GMAIL.COM,CRC-0572 / 02/28/2022,Union / Corporation,WHITNEY CORPORATION OF COLUMBIA INC,24,-81.6170899,34.71119284
WILDEWOOD DOWNS ASSISTED LIVING COMMUNITY,731 POLO RD,COLUMBIA,SC,29223-4462,Richland,803-419-1243,LICENSING@MAXWELL-GROUP.COM,CRC-2091 / 06/30/2022,Richland / Limited Liability,WILDEWOOD RETIREMENT LLC,57,-80.888461,34.087491
WILLIAMS COMMUNITY CARE HOME,7705 RICHARD ST,COLUMBIA,SC,29209-3733,Richland,803-783-1223,CHAZWILLIAMSSR@GMAIL.COM,CRC-0280 / 11/30/2021,Richland / Sole Proprietorship,CHARLES A WILLIAMS SR,9,-80.95115502,33.94992175
WILLIAMSBURG RESIDENTIAL CARE FACILITY,14 WRCF ST,KINGSTREE,SC,29556-2596,Williamsburg,843-355-6214,JJACKSON@WRCF1985.COM,CRC-0038 / 03/31/2022,Williamsburg / Sole Proprietorship,"JACKSON, JACQUES G.",24,-79.82125155,33.67947437
WILLIES II RCH,46 WILSON ST,SUMTER,SC,29150-3050,Sumter,803-773-4724,ACETW90@AOL.COM,CRC-1485 / 12/31/2021,Sumter / Sole Proprietorship,"COOPER, TRACEY L.",5,-80.33381964,33.93657123
WILLOWS OF EASLEY,105 WILLOW PL,EASLEY,SC,29640-1385,Pickens,864-855-9800,LGS@THEWILLOWSOFEASLEY.COM,CRC-2015 / 03/31/2022,Pickens / Limited Liability,CPF SENIOR LIVING - WILLOWS LLC,50,-82.605882,34.848073
WINDSOR HOUSE GREENVILLE,1931 PELHAM RD,GREENVILLE,SC,29615-4002,Greenville,864-288-9450,CLAY.FOWLERHEALTHCAREENTERPRISE@GMAIL.CO,CRC-1388 / 01/31/2022,Greenville / ,WINDOR HOUSE GREENVILLE-FHE LLC,50,-82.28743721,34.86209572
WOODBRIDGE CLINTON,300 JACOBS HWY,CLINTON,SC,29325,Laurens,864-833-3425,ED@WOODBRIDGECLINTONSENIORLIVING.COM,CRC-2073 / 11/30/2021,Laurens / Limited Liability,ML WOODBRIDGE CLINTON LLC,60,-81.876514,34.452496
WOODBRIDGE SENIOR LIVING,2902 E MAIN ST,SPARTANBURG,SC,29307-1252,Spartanburg,864-579-0086,ED@WOODBRIDGESENIORLIVING.COM,CRC-1991 / 10/31/2021,Spartanburg / Limited Liability,CR WOODBRIDGE LLC,113,-81.862828,34.983752
WOODLAND PLACE,850 JOHN B WHITE BLVD,SPARTANBURG,SC,29306,Spartanburg,864-576-8910,ED@WOODLANDPLACEAL.COM,CRC-2038 / 08/31/2021,Spartanburg / Limited Liability,MI WOODLAND PLACE LLC,108,-81.93051651,34.91762473
WRIGHT'S RESIDENTIAL CARE #2 A & B,12 RIVER ST,LYMAN,SC,29365-1714,Spartanburg,864-249-0412,WRIGHTSCARE91@GMAIL.COM,CRC-1319 / 07/31/2021,Spartanburg / Sole Proprietorship,DIANNE E WRIGHT,10,-82.13235139,34.94364599
WRIGHT'S RESIDENTIAL CARE FACILITY 1,950 OLD SPARTANBURG HWY,WELLFORD,SC,29385,Spartanburg,864-249-0412,WRIGHTSCARE91@GMAIL.COM,CRC-0617 / 01/31/2022,Spartanburg / Sole Proprietorship,DIANNE E WRIGHT,10,-82.107607,34.949046
ZEIGLER STREET COMMUNITY RESIDENCE,71 ZEIGLER ST,BAMBERG,SC,29003-1034,Bamberg,803-245-6169,TDAVIS@BCDSNB.ORG,CRC-1297 / 06/30/2021,Bamberg / ,BAMBERG COUNTY DISABILITIES AND SPECIAL NEEDS BOARD,9,-81.04022462,33.30162359