Name of Facility,Location Street,Location City,Location State,ZIP Code,County,Facility #,Admin Name & Phone,Facility Email,Fac. Cont. Email,License / Expiration,County / Ownership Type,Mailing Address,Mailing City,Mailing State,Mailing ZIP,Licensee,Alzheimer Unit,Alzheimer Care,# of Licensed Beds,Max # of Beds,X,Y,Permit Type,x,y
ABUNDANT LIFE ADULT CARE,260 SEMINOLE DR,ORANGEBURG,SC,29115-7622,Orangeburg,803-662-9701,"PHAIRE, LONELL PH#: 803-662-9701",ABUNDANTLIFE260@GMAIL.COM,ABUNDANTLIFE260@GMAIL.COM,CRC-1949 / 06/30/2021,Orangeburg / Limited Liability,260 SEMINOLE DR,ORANGEBURG,SC,29115-7622,ABUNDANT LIFE ADULT CARE LLC,N,N,5,,-80.854558,33.472626,HLRESIDENTIALCARE,513513.807,3703693.715
ACLINE PLACE,200 S ACLINE ST,LAKE CITY,SC,29560-2635,Florence,843-394-5677,"UWAGBAI, LINDA G. PH#: 843-394-5677",DJOHNSON@FCDSN.ORG,LUWAGBAI@FCDSN.ORG,CRC-1257 / 01/31/2022,Florence / State,1211 E NATIONAL CEMETERY RD,FLORENCE,SC,29506-3240,FLORENCE COUNTY DISABILITIES AND SPECIAL NEEDS BOARD,N,N,8,8,-79.75396593,33.87595697,HLRESIDENTIALCARE,615239.001,3749100.996
ADDISON'S COMMUNITY CARE HOME,4013 PERCIVAL RD,COLUMBIA,SC,29229-8321,Richland,803-736-0455,"DOCTOR-GREENWADE, SARAH PH#: 803-736-0455",SARDOCGWADE@UNIVERSALCARESOLUTIONS.COM,SARDOCGWADE@UNIVERSALCARESOLUTIONS.COM,CRC-0815 / 05/31/2022,Richland / Corporation,PO BOX 23328,COLUMBIA,SC,29224-3328,ADDISON'S COMMUNITY CARE HOME INC,N,N,9,10,-80.86475718,34.08643913,HLRESIDENTIALCARE,512476.7208,3771748.497
ALDERSGATE AT THE OAKS,921 METHODIST OAKS DR,ORANGEBURG,SC,29115-1814,Orangeburg,803-531-2332,"JENKINS, LAVEDA B. PH#: 803-531-2332; RAY-HILL, ROSEMARY PH#: 803-376-8991",921AOAKS@GMAIL.COM,COLUMBIAHOMECARE73@ATT.NET,CRC-1488 / 02/28/2022,Orangeburg / Non-Profit Corporation,921 METHODIST OAKS DR,ORANGEBURG,SC,29115-1814,ALDERSGATE SPECIAL NEEDS MINISTRY,N,N,6,,-80.85059391,33.42385988,HLRESIDENTIALCARE,513889.7842,3698287.667
A'LELIA RESIDENTIAL CARE,10 JACOB WHITE RD,YEMASSEE,SC,29945-7820,Beaufort,843-466-0356,"MILES, CARRIE R. PH#: 843-466-0356",GLORIA215M@OUTLOOK.COM,GLORIA215M@OUTLOOK.COM,CRC-1115 / 09/30/2021,Beaufort / Corporation,10 JACOB WHITE RD,YEMASSEE,SC,29945-7820,MILES RESIDENTIAL CARE FACILITY INC,N,N,20,21,-80.73506288,32.61899455,HLRESIDENTIALCARE,524855.1842,3609080.909
ALEXANDER'S GOLDEN STARR COMMUNITY CARE HOME,218 GOLDEN STARR RD,SANTEE,SC,29142-9363,Orangeburg,803-854-2496,"OUTLAW-THOMAS, DONNA S. PH#: 803-854-2496",DONNAOUTLAW62@YAHOO.COM,DONNAOUTLAW62@YAHOO.COM,CRC-0171 / 08/31/2021,Orangeburg / Sole Proprietorship,PO BOX 405,SANTEE,SC,29142-0405,"OUTLAW-THOMAS, DONNA S.",N,N,8,9,-80.51165525,33.44531602,HLRESIDENTIALCARE,545388.8028,3700763.097
ANDERSON OAKS ASSISTED LIVING,997 HWY 90,CONWAY,SC,29526-7520,Horry,843-347-9280,"WISE, WYATT E. PH#: 843-347-9280",WYATTWISE@ANDERSONOAKSASSISTEDLIVING.COM,WYATTWISE@ANDERSONOAKSASSISTEDLIVING.COM,CRC-1506 / 07/31/2021,Horry / Corporation,997 HWY 90,CONWAY,SC,29526-2750,HERMAN L ANDERSON INC,N,N,80,,-78.99511205,33.82307859,HLRESIDENTIALCARE,685544.5338,3744346.985
ANGELIC'S PLACE,903 W BARTLETTE ST,SUMTER,SC,29150-8005,Sumter,803-775-1404,"GREENE, SHIRLEY H. PH#: 803-775-1404",BBETTMOU@AOL.COM,GREENESRESIDENTIALCARE@GMAIL.COM,CRC-1400 / 09/30/2021,Sumter / Ltd. Liability,903 W BARTLETTE ST,SUMTER,SC,29150-8005,ANGELIC'S PLACE LLC,N,N,11,5,-80.3563225,33.9173358,HLRESIDENTIALCARE,559500.2154,3753176.895
ANOINTED RESIDENTIAL CARE,551 S SUMTER ST,SUMTER,SC,29150-5765,Sumter,803-883-4427,"BRADLEY, DAISY E. PH#: 803-883-4427",DAISY78BRADLEY@GMAIL.COM,DAISY78BRADLEY@OUTLOOK.COM,CRC-1435 / 03/31/2022,Sumter / Partnership,551 S SUMTER ST,SUMTER,SC,29150-5765,COREY T WRIGHT & DAISY BRADLEY,N,N,8,5,-80.34449769,33.90927628,HLRESIDENTIALCARE,560598.999,3752290.178
ANOINTED RESIDENTIAL CARE #2,511 S SUMTER ST,SUMTER,SC,29150-5754,Sumter,803-883-4032,"BRADLEY, DAISY E. PH#: 803-883-4427",DAISY78BRADLEY@OUTLOOK.COM,DAISY78BRADLEY@OUTLOOK.COM,CRC-1502 / 03/31/2022,Sumter / ,511 S SUMTER ST,SUMTER,SC,29150-5754,COREY T WRIGHT & DAISY BRADLEY,N,N,5,,-80.34411929,33.91188496,HLRESIDENTIALCARE,560632.1346,3752579.65
ARBOR LANDING AT PAWLEYS,7419 OCEAN HWY,PAWLEYS ISLAND,SC,29585,Georgetown,843-314-3720,"WILLIAMS, ANITA PH#: 843-314-3720",ANITA.WILLIAMS@RIDGECARE.COM,ANITA.WILLIAMS@RIDGECARE.COM,CRC-1937 / 09/30/2021,Georgetown / Limited Liability,853 OLD WINSTON RD STE 118,KERNERSVILLE,NC,27284,ARBOR LANDING AT PAWLEYS LLC,Y,Y,100,,-79.175663,33.420791,HLRESIDENTIALCARE,669619.8817,3699425.144
ARBORETUM AT THE WOODLANDS AT FURMAN,50 ARBORETUM LN,GREENVILLE,SC,29617-6228,Greenville,864-371-3100,"LILLY, DONALD R. PH#: 864-371-3100",DLILLY@TWAFSC.ORG,DLILLY@TWAFSC.ORG,CRC-1492 / 05/31/2022,Greenville / Non-Profit Corporation,1500 TRAILHEAD CT,GREENVILLE,SC,29617-6226,UPSTATE SENIOR LIVING INC,Y,Y,64,,-82.44419575,34.93543101,HLRESIDENTIALCARE,368106.4623,3866834.66
ASHLAN VILLAGE,415 BRENDA WAY,LYMAN,SC,29365-9264,Spartanburg,864-949-7825, PH#: ,LHILL@ASHLANVILLAGE.COM,,CRC-1483 / 10/31/2021,Spartanburg / Limited Liability,415 BRENDA WAY,LYMAN,SC,29365-9264,ASHLAN PROPERTIES LLC,Y,Y,75,,-82.14195628,34.97392741,HLRESIDENTIALCARE,395759.1707,3870747.214
ASHLEY GARDENS ALZHEIMER'S SPECIAL CARE CENTER,2290 HENRY TECKLENBURG DR,CHARLESTON,SC,29414,Charleston,843-556-4100,"ROODT, HEATHER PH#: ",ASSETMANAGEMENT@SUNSHINERET.COM,,CRC-1595 / 06/30/2021,Charleston / Limited Liability,PO BOX 820528,VANCOUVER,WA,98682-0011,CHARLESTON CARE GROUP LLC,Y,Y,66,,-80.04158239,32.80405608,HLRESIDENTIALCARE,589730.4986,3629971.535
ASHLEY LANDING ASSISTED LIVING,4550 GREAT OAK DR,NORTH CHARLESTON,SC,29418-5001,Charleston,843-760-0831, PH#: ,DJEFFCOAT@ASHLEYLANDING.COM,,CRC-2158 / 07/31/2021,Charleston / Limited Liability,,,,,NORTH CHARLESTON ASSISTED LIVING LLC,N,N,100,,-80.061808,32.874495,HLRESIDENTIALCARE,587767.5994,3637763.6
ASHLEY PLACE,526 HALTIWANGER RD,GREENWOOD,SC,29649-1799,Greenwood,864-943-1933,"MIELECH, DANIEL PH#: ",DMIELECH@ENLIVANT.COM,DMIELECH@ENLIVANT.COM,CRC-1404 / 11/30/2021,Greenwood / Corporation,330 N WABASH AVE STE 3700,CHICAGO,IL,60611-7605,ASHLEY AID OPCO LLC,N,N,44,44,-82.16100784,34.23350912,HLRESIDENTIALCARE,393075.001,3788656.996
ASHLEY RIVER PLANTATION,2333 ASHLEY RIVER RD,CHARLESTON,SC,29414-4755,Charleston,843-766-9898,"ADAIR, MICHELE LORRAINE PH#: 843-766-9898",ADAIR@5SSL.COM,,CRC-1376 / 06/30/2021,Charleston / Limited Liability,"400 CENTRE ST, LICENSING DEPT",NEWTON,MA,02458-2094,SNH SE ASHLEY RIVER TENANT LLC,Y,Y,123,123,-80.0378161,32.82246596,HLRESIDENTIALCARE,590064.5502,3632015.717
ATRIA FOREST LAKE,4405 FOREST DR,COLUMBIA,SC,29206-3103,Richland,803-790-9800,"FAULISI, NANCY PH#: 803-790-9800",NANCY.FAULISI@ATRIASENIORLIVING.COM,NANCY.FAULISI@ATRIASENIORLIVING.COM,CRC-1143 / 05/31/2022,Richland / Limited Liability,4405 FOREST DR,COLUMBIA,SC,29206-3103,WG FOREST LAKE SH LLC,Y,Y,60,60,-80.9762651,34.02154544,HLRESIDENTIALCARE,502191.3132,3764545.151
ATRIA MOUNT PLEASANT,601 SOLANA WAY,MOUNT PLEASANT,SC,29464,Charleston,843-800-2323, PH#: ,ALLISON.JOHNSON@ATRIASENIORLIVING.COM,,CRC-2109 / 09/30/2021,Charleston / ,,,,,FDG-MP OPCO LLC,Y,Y,112,,-79.859505,32.818011,HLRESIDENTIALCARE,606761.5145,3631687.892
B & J RESIDENTIAL CARE FACILITY,528 ATTERBURY DR,COLUMBIA,SC,29203-3002,Richland,803-786-0011,"DAVIS-EARGLE, EUGENIA M. PH#: 803-786-0011",EMARIEEARGLE@YAHOO.COM,EMARIEEARGLE@YAHOO.COM,CRC-1461 / 12/31/2021,Richland / Corporation,213 LINGSTROM LN,COLUMBIA,SC,29212,B & J RESIDENTIAL CARE FACILITY LLC,N,N,5,6,-81.0006952,34.076817,HLRESIDENTIALCARE,499935.8579,3770673.348
BAYBERRY OF GREENWOOD,116 ABBEY DR,GREENWOOD,SC,29649-8536,Greenwood,864-223-6510, PH#: ,GREENWOOD@THEBAYBERRYINN.COM,,CRC-0589 / 05/31/2022,Greenwood / Limited Liability Limited Partnership,116 ABBEY DR,GREENWOOD,SC,29649-8536,EVERGREEN VILLAGES LIMITED PARTNERSHIP,N,N,23,23,-82.20177571,34.19894762,HLRESIDENTIALCARE,389275.0035,3784867.998
BAYBERRY OF GREER,309 NORTHVIEW DR,GREER,SC,29651-1340,Greenville,864-848-1935,"PRITCHETT, NATOSHA J. PH#: 864-848-1935",HOME@THEBAYBERRYINN.COM,GREER@THEBAYBERRYINN.COM,CRC-0595 / 07/31/2021,Greenville / Limited Liability Limited Partnership,309 NORTHVIEW DR,GREER,SC,29651-1340,EVERGREEN VILLAGES LIMITED PARTNERSHIP,N,N,23,23,-82.22450496,34.95169472,HLRESIDENTIALCARE,388193.3205,3868370.728
BAYSHORE ON HILTON HEAD ISLAND,421 SQUIRE POPE RD,HILTON HEAD ISLAND,SC,29926,Beaufort,843-342-2222,"MCKEE, RODNEY PH#: 843-342-2222",RMCKEE@BAYSHOREHILTONHEAD.COM,MCKEERODNEY@LCSNET.COM,CRC-1963 / 06/30/2021,Beaufort / Limited Liability,421 SQUIRE POPE RD,HILTON HEAD ISLAND,SC,29926,BAYSHORE HILTON HEAD LLC,N,N,147,,-80.74607279,32.23644023,HLRESIDENTIALCARE,523923.0623,3566672.076
BEARD RESIDENTIAL CARE FACILITY #1,123 N WARREN ST,TIMMONSVILLE,SC,29161-1443,Florence,843-346-5272,"BEARD, CATHERINE H. PH#: 843-346-5272",BEARDSRCF@YAHOO.COM,BEARDSRCF@YAHOO.COM,CRC-0140 / 04/30/2022,Florence / Sole Proprietorship,123 N WARREN ST,TIMMONSVILLE,SC,29161-1443,CATHERINE H BEARD,N,N,10,11,-79.94261646,34.13534694,HLRESIDENTIALCARE,597494.0018,3777667.997
BELL'S PROFESSIONAL RESIDENTIAL HOME CARE,1910 DALTON ST,NORTH CHARLESTON,SC,29406-3961,Charleston,843-744-1765,"BELL, TROY A. PH#: 843-744-1765",BACHBELL25@GMAIL.COM,BACHBELL25@GMAIL.COM,CRC-1209 / 05/31/2022,Charleston / Ltd. Liability,1910 DALTON ST,NORTH CHARLESTON,SC,29406-3961,BELL'S PROFESSIONAL RESIDENTIAL HOME CARE LLC,N,N,20,20,-80.00372581,32.88300239,HLRESIDENTIALCARE,593192.3667,3638756.619
BELVEDERE COMMONS OF SENECA,515 BENTON ST,SENECA,SC,29672-6883,Oconee,864-888-4114, PH#: ,JWITZEL@BELVEDERECOMMONSSENECA.COM,,CRC-1466 / 11/30/2021,Oconee / Ltd. Liability,515 BENTON ST,SENECA,SC,29672-6883,FKP SENECA SENIOR LIVING TENANT LLC,Y,Y,62,62,-82.99264159,34.72184786,HLRESIDENTIALCARE,317541.9703,3844005.381
BENCHMARK HOMES - SPARTANBURG,450 W HENRY ST,SPARTANBURG,SC,29306-6037,Spartanburg,864-308-8852,"MASON, SUZAN B. PH#: 864-308-8852",SMASON@CHARLESLEA.ORG,SMASON@CHARLESLEA.ORG,CRC-1509 / 09/30/2021,Spartanburg / Corporation,195 BURDETTE ST,SPARTANBURG,SC,29307-1003,CHARLES LEA CENTER,N,N,12,,-81.94050995,34.94390902,HLRESIDENTIALCARE,414117.0491,3867226.577
BENTON HOUSE OF AIKEN,530 BENTON HOUSE WY,AIKEN,SC,29803,Aiken,803-226-0838, PH#: ,LICENSING@PRINCIPALSENIORLIVING.COM,,CRC-2049 / 02/28/2022,Aiken / Limited Liability,1000 LEGION PL STE 1600,ORLANDO,FL,32801,BENTON SENIOR CARE LLC,Y,Y,100,,-81.74995645,33.49424499,HLRESIDENTIALCARE,430334.6206,3706332.784
BENTON HOUSE OF BLUFFTON,8 HAMPTON LAKE DR,BLUFFTON,SC,29910-9568,Beaufort,843-757-3111, PH#: ,BLUFFTONDIRECTOR@BENTONHOUSE.COM,,CRC-1585 / 03/31/2022,Beaufort / Limited Liability,11175 CICERO DR STE 500,ALPHARETTA,GA,30022-0004,BLUFFTON SLP LLC,Y,Y,104,,-80.93397803,32.2660935,HLRESIDENTIALCARE,506218.051,3569932.682
BENTON HOUSE OF FLORENCE,1370 CELEBRATION BLVD,FLORENCE,SC,29501,Florence,854-400-6644, PH#: ,SCOOPER@PRINCIPALSENIORLIVING.COM,,CRC-2061 / 02/28/2022,Florence / Limited Liability,11175 CICERO DR STE 500,ALPHARETTA,GA,30022,FLORENCE SLP LLC,Y,Y,93,,-79.828539,34.168549,HLRESIDENTIALCARE,607970.6421,3781464.615
BENTON HOUSE OF WEST ASHLEY,1445 BLUEWATER WAY,CHARLESTON,SC,29414,Charleston,843-576-9667,"LYON, RICHARD E. PH#: 843-576-9667",LICENSING@PRINCIPALSENIORLIVING.COM,WESTASHLEYDIRECTOR@BENTONHOUSE.COM,CRC-1897 / 12/31/2021,Charleston / ,11175 CICERO DR STE 500,ALPHARETTA,GA,30022-0004,WEST ASHLEY SLP LLC,Y,Y,98,,-80.06025,32.828619,HLRESIDENTIALCARE,584343.3049,3630930.563
BETHEA BAPTIST ASSISTED LIVING,157 HOME AVE,DARLINGTON,SC,29532-7625,Darlington,843-393-2867,"SPURLING, BENJAMIN S. PH#: 843-393-2867",BSPURLING@SCBMA.COM,BSPURLING@SCBMA.COM,CRC-1533 / 08/31/2021,Darlington / Non-Profit Corporation,157 HOME AVE,DARLINGTON,SC,29532-7625,SOUTH CAROLINA BAPTIST MINISTRIES FOR THE AGING INC,N,N,14,,-79.83820395,34.25718118,HLRESIDENTIALCARE,606967.6371,3791282.839
BIRD STREET I COMMUNITY RESIDENTIAL CARE FACILITY,1705 BIRD ST,ROCK HILL,SC,29730-3830,York,803-366-7121, PH#: ,MSHAFFER@MAXABILITIES.ORG,,CRC-1357 / 06/30/2022,York / State,PO BOX 549,YORK,SC,29745-0549,YORK COUNTY DISIBILITIES AND SPECIAL NEEDS BOARD,N,N,8,8,-81.00086678,34.94403076,HLRESIDENTIALCARE,499920.851,3866836.317
BIRD STREET II COMMUNITY RESIDENTIAL CARE FACILITY,1711 BIRD ST,ROCK HILL,SC,29730-3830,York,803-366-6113, PH#: ,MSHAFFER@MAXABILITIES.ORG,,CRC-1358 / 06/30/2022,York / ,PO BOX 549,YORK,SC,29745-0549,YORK COUNTY DISIBILITIES AND SPECIAL NEEDS BOARD,N,N,8,8,-81.00060376,34.94432282,HLRESIDENTIALCARE,499944.8682,3866868.705
BISHOP GADSDEN EPISCOPAL RETIREMENT COMMUNITY,1 BISHOP GADSDEN WAY,CHARLESTON,SC,29412-3577,Charleston,843-762-3300,"COOK, JONNA PH#: 843-762-3300",JONNA.COOK@BISHOPGADSDEN.ORG,JONNA.COOK@BISHOPGADSDEN.ORG,CRC-0451 / 11/30/2021,Charleston / Non-Profit Corporation,1 GADSDEN WAY,CHARLESTON,SC,29412,BISHOP GADSDEN EPISCOPAL RETIREMENT COMMUNITY,Y,Y,112,112,-79.97625268,32.73215979,HLRESIDENTIALCARE,595924.2535,3622058.197
BISHOPVILLE MANOR,2779 HWY 15 N,BISHOPVILLE,SC,29010-7101,Lee,803-428-2222, PH#: ,KATHY.MINGUS@YAHOO.COM,,CRC-2054 / 12/31/2021,Lee / Limited Liability,PO BOX 308,RIDGE SPRING,SC,29129-0308,BISHOPVILLE MANOR OPERATING GROUP LLC,N,N,44,,-80.17105256,34.2590074,HLRESIDENTIALCARE,576319.3596,3791185.614
BLACK'S DRIVE COMMUNITY RESIDENCE,160 BLACKS DR,WILLISTON,SC,29853-3558,Barnwell,803-266-3211,"SISK, DARRIN W. PH#: 803-266-3211",BPARKER@BARNWELLSC.COM,DSISK@COLLETONDSN.ORG,CRC-1524 / 08/31/2021,Barnwell / County,20 PARK ST,BARNWELL,SC,29812-0556,ALLENDALE/BARNWELL COUNTIES DISABILITIES AND SPECIAL NEEDS BOARD,N,N,8,,-81.43776434,33.41060004,HLRESIDENTIALCARE,459296.1894,3696893.229
BLAKE AT BAXTER VILLAGE,522 6TH BAXTER CROSSING,FORT MILL,SC,29708,York,803-752-4700, PH#: ,RITA.HILL@BLAKELIVING.COM,,CRC-2111 / 11/30/2021,York / Limited Liability,,,,,BAXTER SENIOR CARE LLC,Y,Y,114,,-80.976216,35.021738,HLRESIDENTIALCARE,502169.8286,3875454.03
BLAKE AT CARNES CROSSROADS,4015 2ND AVE,SUMMERVILLE,SC,29486,Berkeley,843-376-3996,"TATE, CRYSTAL PH#: 312-725-7000",CRYSTAL.TATE@BLAKELIVING.COM,CTATE@ENLIVANT.COM,CRC-1896 / 07/31/2021,Berkeley / Limited Liability,4015 2ND AVE,SUMMERVILLE,SC,29486,BLAKE AT CARNES CROSSROADS LLC,Y,Y,114,,-80.18398,33.000443,HLRESIDENTIALCARE,583982.2643,3658299.242
BLAKE AT EDGEWATER,1099 EDGEWATER CORPORATE PKWY,INDIAN LAND,SC,29707,Lancaster,803-310-4242,"FISHER, JASON PH#: ",JASON.FISHER@BLAKELIVING.COM,JASON.FISHER@BLAKELIVING.COM,CRC-2112 / 11/30/2021,Lancaster / Limited Liability,,,,,EDGEWATER SENIOR CARE LLC,Y,Y,105,,-80.860431,34.997515,HLRESIDENTIALCARE,512736.3588,3872776.353
BLAKE AT HOLLINGSWORTH PARK,360 WOODRUFF RD,GREENVILLE,SC,29607,Greenville,, PH#: ,MACK@CARDINALALVENTURES.NET,,CRC-2041 / 11/30/2021,Greenville / Limited Liability,4266 I55 N STE 108,JACKSON,MS,39211,BLAKE AT HOLLINGSWORTH PARK LLC,Y,Y,114,,-82.338479,34.834108,HLRESIDENTIALCARE,377611.7329,3855463.216
BLAKE AT WOODCREEK FARMS,385 SPEARS CREEK CHURCH RD,ELGIN,SC,29045-9312,Richland,803-828-7370,"VIDAL, KATHLEEN PH#: ",KATHLEEN.VIDAL@BLAKELIVING.COM,KATHLEEN.VIDAL@BLAKELIVING.COM,CRC-1570 / 02/28/2022,Richland / ,4266 I-55N STE 108,JACKSON,MS,39211,BLAKE AT WOODCREEK FARMS LLC,Y,Y,100,,-80.84217197,34.1146167,HLRESIDENTIALCARE,514555.4786,3774875.812
BLOOM AT BELFAIR,60 OAK FOREST RD,BLUFFTON,SC,29910-5010,Beaufort,843-815-2338, PH#: ,ADMIN@BLOOMATBELFAIR.COM,,CRC-1510 / 12/31/2021,Beaufort / Limited Liability,60 OAK FOREST RD,BLUFFTON,SC,29910,BLOOMFIELD SENIOR LIVING OF BLUFFTON LLC,Y,Y,68,,-80.85667003,32.27032058,HLRESIDENTIALCARE,513498.417,3570408.345
BLOOM AT BLUFFTON,800 FORDING ISLAND RD,BLUFFTON,SC,29910-4845,Beaufort,843-815-2555,"THOMAS, LAUREN PH#: ",WROGERS@LEEDYANDROGERS.COM,ADMIN@BLOOMATBLUFFTON.COM,CRC-1381 / 04/30/2022,Beaufort / ,260 E BROWN ST STE 315,BIRMINGHAM,MI,48009-6236,BLOOMFIELD SENIOR LIVING OF BLUFFTON II LLC,Y,Y,70,70,-80.86319652,32.26867375,HLRESIDENTIALCARE,512884.0023,3570224.995
BLOOM AT HILTON HEAD,35 BEACH CITY RD,HILTON HEAD ISLAND,SC,29926-4725,Beaufort,843-342-5599,"BAZEN, TIFFANY R. PH#: 843-342-5599",WROGERS@LEEDYANDROGERS.COM,ADMIN@BLOOMATHILTONHEAD.COM,CRC-1382 / 04/30/2022,Beaufort / Limited Liability,260 E BROWN ST STE 315,BIRMINGHAM,MI,48009-6236,BLOOMFIELD SENIOR LIVING OF HILTON HEAD LLC,Y,Y,72,72,-80.71235921,32.22061584,HLRESIDENTIALCARE,527104.003,3564925.996
BOSTICK'S ADULT RESIDENTIAL CARE FACILITY,1912 DUKE ST,BEAUFORT,SC,29902-4404,Beaufort,843-524-3906,"BURNS, WANDA BOSTICK PH#: 843-524-3906",BARCF1@GMAIL.COM,WRBOSTICK@YAHOO.COM,CRC-0143 / 05/31/2022,Beaufort / Limited Liability,,,,,BOSTICK S ADULT RESIDENTIAL CARE FACILITY LLC,N,N,20,21,-80.68395188,32.43615057,HLRESIDENTIALCARE,529710.3207,3588825.312
BOWLES COMMUNITY CARE HOME,9270 N HWY 17,MC CLELLANVILLE,SC,29458-9422,Charleston,843-887-4180,"BOWLES, BENJAMIN PH#: 843-887-4180",BBOWCARE@AOL.COM,BBOWCARE@AOL.COM,CRC-0090 / 09/30/2021,Charleston / Sole Proprietorship,9270 HWY 17 N,MC CLELLANVILLE,SC,29458-9422,"BENJAMIN, BOWLES",N,N,16,16,-79.519624,33.072464,HLRESIDENTIALCARE,638183.7157,3660294.663
BOWLES COMMUNITY CARE HOME 2,9274 N HWY 17,MCCLELLANVILLE,SC,29458-9422,Charleston,843-887-4180,"BOWLES, BENJAMIN PH#: 843-887-4180",BBOWCARE@AOL.COM,BBOWCARE@AOL.COM,CRC-1497 / 11/30/2021,Charleston / Sole Proprietorship,9270 N HWY 17,MCCLELLANVILLE,SC,29458-9422,"BOWLES, BENJAMIN",N,N,5,,-79.51878144,33.07181087,HLRESIDENTIALCARE,638263.3452,3660223.34
BRIANA'S RESIDENTIAL CARE FACILITY,252 CHARLESTON AVE N,FAIRFAX,SC,29827-4502,Allendale,803-632-9813,"JENKINS, GENORA W. PH#: 803-632-9813",VERMELLEWALKER@YAHOO.COM,KAMILLE.JENKINS@GMAIL.COM,CRC-1333 / 11/30/2021,Allendale / Sole Proprietorship,649 HAMPTON AVE N,FAIRFAX,SC,29827-4313,"WALKER, JOHN W.",N,N,10,10,-81.23474852,32.95980507,HLRESIDENTIALCARE,478060.8083,3646855.396
BRIAN'S RESIDENTIAL CARE,1115 WHITMAN ST,ORANGEBURG,SC,29118,Orangeburg,803-533-1588,"STOKES, ALBERT O. PH#: 803-533-1588",MCAKLEY18@GMAIL.COM,DSTOKES30@SC.RR.COM,CRC-2068 / 12/31/2021,Orangeburg / Limited Liability,1027 BERKELEY DR,ORANGEBURG,SC,29118-8356,BRIANS AND STOKES ASSISTED LIVING LLC,N,N,7,,-80.846321,33.491294,HLRESIDENTIALCARE,514276.0735,3705764.607
BRIAN'S RESIDENTIAL CARE II,4003 CALHOUN ST,BRANCHVILLE,SC,29432-2243,Orangeburg,803-274-8051,"STOKES, DELAURA PH#: 803-274-8051",MCAKLEY18@GMAIL.COM,DSTOKES30@SC.RR.COM,CRC-2067 / 12/31/2021,Orangeburg / Limited Liability,1027 BERKELEY DR,ORANGEBURG,SC,29118-8356,BRIANS AND STOKES ASSISTED LIVING LLC,N,N,20,,-80.816312,33.257494,HLRESIDENTIALCARE,517109.4836,3679848.406
BRIDGE ASSISTED LIVING AT LIFE CARE CENTER OF CHARLESTON,2590 ELMS PLANTATION BLVD,NORTH CHARLESTON,SC,29406-8105,Charleston,843-553-6342, PH#: ,KATEDAUGHERTY19@GMAIL.COM,,CRC-1064 / 10/31/2021,Charleston / Ltd. Liability,2590 ELMS PLANTATION BLVD,NORTH CHARLESTON,SC,29406,CHARLESTON RETIREMENT INVESTORS LLC,N,N,100,100,-80.06208587,32.98040384,HLRESIDENTIALCARE,587637.0013,3649504.998
BRIGHTWATER ASSISTED LIVING,201 BRIGHTWATER DR,MYRTLE BEACH,SC,29579-8298,Horry,843-903-8940,"FERENCE, LORI PH#: 843-903-8300; FRYAR, LESLIE PH#: 843-903-8940",LICENSING@BRIGHTWATER-LIVING.COM,LFERENCE@BRIGHTWATER-LIVING.COM,CRC-1489 / 04/30/2022,Horry / Limited Liability,3530 TORINGDON WAY STE 204,CHARLOTTE,NC,28277-3436,BRIGHTWATER RETIREMENT LLC,Y,Y,56,,-78.84542286,33.76145877,HLRESIDENTIALCARE,699543.0971,3737793.146
BROAD CREEK CARE CENTER ASSISTED LIVING,801 LEMON GRASS CT,HILTON HEAD ISLAND,SC,29928-3022,Beaufort,843-341-7300,"JACKSON, WILLIAM F. PH#: 843-341-7300",TKOSZYLKO@VLIVING.COM,FJACKSON@VILIVING.COM,CRC-1036 / 07/31/2021,Beaufort / Corporation,71 S WACKER DR STE 900,CHICAGO,IL,60606-4610,CC-HILTON HEAD INC,N,N,50,50,-80.77503265,32.17469718,HLRESIDENTIALCARE,521209.0036,3559821.997
BROOK PINE COMMUNITY RESIDENTIAL CARE FACILITY,3961 FISH HATCHERY RD,GASTON,SC,29053-9038,Lexington,803-955-3821,"MURPHY, LAVERNE PH#: 803-955-3821",MARJORIE.WILSON-GUESS@SCDMH.ORG,LAVERNE.MURPHY@SCDMH.ORG,CRC-2077 / 07/31/2021,Lexington / State,3961 FISH HATCHERY RD,GASTON,SC,29053-9038,SOUTH CAROLINA DEPARTMENT OF MENTAL HEALTH,N,N,16,,-81.15065,33.842779,HLRESIDENTIALCARE,486062.3384,3744734.006
BROOKDALE ANDERSON,311 SIMPSON RD,ANDERSON,SC,29621-2157,Anderson,864-261-3875,"JENKINS, BRIAN PH#: 864-261-3875",BJENKINS1@BROOKDALE.COM,BJENKINS1@BROOKDALE.COM,CRC-1303 / 03/31/2022,Anderson / Corporation,311 SIMPSON RD,ANDERSON,SC,29621-2157,EMERITUS CORPORATION,N,N,40,40,-82.6243156,34.5369082,HLRESIDENTIALCARE,350941.1133,3822887.966
BROOKDALE BRUSHY CREEK,2010 BRUSHY CREEK RD,GREER,SC,29650-2614,Greenville,864-244-9994, PH#: ,JDEATON@BROOKDALE.COM,,CRC-1306 / 12/31/2021,Greenville / Corporation,2010 BRUSHY CREEK RD,GREER,SC,29650-2614,BROOKDALE SENIOR LIVING COMMUNITIES INC,N,Y,52,54,-82.28780171,34.89949366,HLRESIDENTIALCARE,382339.0035,3862653.998
BROOKDALE CENTRAL,131 VICKERY DR,CENTRAL,SC,29630-8330,Pickens,864-653-4674,"STOVALL, SHARON PH#: ",PFOARD@BROOKDALE.COM,SSTOVALL1@BROOKDALE.COM,CRC-1307 / 12/31/2021,Pickens / Limited Liability,131 VICKERY DR,CENTRAL,SC,29630-8330,BROOKDALE SENIOR LIVING COMMUNITIES INC,N,N,52,52,-82.79112331,34.70644647,HLRESIDENTIALCARE,335966.0017,3841949.995
BROOKDALE COLUMBIA,251 SPRINGTREE DR,COLUMBIA,SC,29223-7989,Richland,803-741-2600,"SHULL, BRIAN PH#: 803-741-2600",BSHULL@BROOKDALE.COM,BSHULL@BROOKDALE.COM,CRC-1310 / 12/31/2021,Richland / Corporation,251 SPRINGTREE DR,COLUMBIA,SC,29223-7989,BROOKDALE SENIOR LIVING COMMUNITIES INC,N,Y,52,52,-80.96166671,34.07716662,HLRESIDENTIALCARE,503536.792,3770712.776
BROOKDALE CONWAY,872 SINGLETON RIDGE RD,CONWAY,SC,29526-9166,Horry,843-347-3050, PH#: ,DKEAR@BROOKDALE.COM,,CRC-2143 / 01/31/2022,Horry / Limited Liability,,,,,BKD CONWAY SC LLC,N,N,52,,-79.017916,33.777742,HLRESIDENTIALCARE,683530.6682,3739278.275
BROOKDALE EBENEZER ROAD,1920 EBENEZER RD,ROCK HILL,SC,29732-1014,York,803-366-1189, PH#: ,MDELTORO1@BROOKDALE.COM,,CRC-1308 / 02/28/2022,York / Corporation,1920 EBENEZER RD,ROCK HILL,SC,29732-1014,BROOKDALE SENIOR LIVING COMMUNITIES INC,N,N,52,52,-81.05020137,34.96340516,HLRESIDENTIALCARE,495417.0033,3868985.998
BROOKDALE GREENWOOD,1408 PKWY RD,GREENWOOD,SC,29646-4043,Greenwood,864-223-2281,"ROWE, PAULA PH#: ",PFOARD@BROOKDALE.COM,PFOARD@BROOKDALE.COM,CRC-1309 / 12/31/2021,Greenwood / Limited Liability,1408 PKWY RD,GREENWOOD,SC,29646-4043,BROOKDALE SENIOR LIVING COMMUNITIES INC,N,Y,52,52,-82.15838109,34.17183273,HLRESIDENTIALCARE,393239.19,3781814.939
BROOKDALE HARBISON,51 WOODCROSS DR,COLUMBIA,SC,29212-2350,Richland,803-732-0300,"KEAR, DOUGAL PH#: 803-732-0300",DKEAR@BROOKDALE.COM,DKEAR@BROOKDALE.COM,CRC-2053 / 12/31/2021,Richland / Limited Liability,111 WESTWOOD PL STE 400,BRENTWOOD,TN,37027-5057,AHC STERLING HOUSE OF HARBISON LLC,Y,Y,52,,-81.145986,34.076896,HLRESIDENTIALCARE,486530.776,3770691.683
BROOKDALE NORTH AUGUSTA,105 N HILLS DR OFC,NORTH AUGUSTA,SC,29841-0113,Aiken,803-819-0034, PH#: ,ALARKE@BROOKDALE.COM,,CRC-1298 / 02/28/2022,Aiken / Corporation,105 N HILLS DR OFC,NORTH AUGUSTA,SC,29841-0113,BROOKDALE SENIOR LIVING COMMUNITIES INC,N,N,52,52,-81.97032074,33.50984994,HLRESIDENTIALCARE,409879.9078,3708232.594
BROOKDALE SUMTER,1180 WILSON HALL RD OFC,SUMTER,SC,29150-1741,Sumter,803-469-4508,"SCOTT, SHERRI R. PH#: 803-469-4508",SSCOTT24@BROOKDALE.COM,SSCOTT24@BROOKDALE.COM,CRC-1312 / 12/31/2021,Sumter / Corporation,1180 WILSON HALL RD OFC,SUMTER,SC,29150-1741,BROOKDALE SENIOR LIVING COMMUNITIES INC,Y,Y,52,52,-80.40103272,33.95361063,HLRESIDENTIALCARE,555343.7625,3757174.009
BROOKDALE WEST ASHLEY,2030 CHARLIE HALL BLVD,CHARLESTON,SC,29414-5830,Charleston,843-763-4055,"KING, ELIZABETH NASSIF PH#: 843-763-4055",CSTRASBURG@BROOKDALE.COM,EKING16@BROOKDALE. COM,CRC-2018 / 03/31/2022,Charleston / Limited Liability,6737 W WASHINGTON ST STE 2300,MILWAUKEE,WI,53214-5650,BKD CHARLESTON SOUTH CAROLINA LLC,Y,Y,100,,-80.041125,32.816019,HLRESIDENTIALCARE,589761.3685,3631298.133
BROOKSTONE TERRACE OF WOODRUFF LLC,80 MEDICAL CENTER DR,WOODRUFF,SC,29388-8781,Spartanburg,864-476-9100, PH#: ,GRAY.ANGELL@YAHOO.COM,,CRC-2151 / 04/30/2022,Spartanburg / Limited Liability,,,,,BROOKSTONE TERRACE OF WOODRUFF LLC,N,N,60,,-82.023185,34.746989,HLRESIDENTIALCARE,406344.4849,3845462.292
BROOKWOOD COMMUNITY RESIDENCE,181 BROOKWOOD DR,BATESBURG,SC,29006-2324,Lexington,803-532-4440,"RUFF, MURRY J., JR. PH#: 803-532-4440",SRICHARDSON@BABCOCKCENTER.ORG,JRUFF@BABCOCKCENTER.ORG,CRC-0879 / 09/30/2021,Lexington / Non-Profit Corporation,2725 BANNY JONES AVE,WEST COLUMBIA,SC,29170-2109,BABCOCK CENTER INC,N,N,8,8,-81.52968862,33.90472113,HLRESIDENTIALCARE,451029.5927,3751717.996
BTU REST HOME,113 ELLISON ST,BENNETTSVILLE,SC,29512-0352,Marlboro,843-479-9053,"CAIN, MICHAEL PH#: 843-479-9053",MICHAELCAIN94@AOL.COM,MICHAELCAIN94@AOL.COM,CRC-0235 / 09/30/2021,Marlboro / Corporation,PO BOX 352,BENNETTSVILLE,SC,29512-0352,BTU REST HOME INC,N,N,80,80,-79.70034062,34.6074514,HLRESIDENTIALCARE,619163.3132,3830279.995
BUILDERS CARE HOME,731 SIMS AVE,COLUMBIA,SC,29205-1837,Richland,803-376-8991,"RAY-HILL, ROSEMARY PH#: 803-376-8991",COLUMBIAHOMECARE73@ATT.NET,COLUMBIAHOMECARE73@ATT.NET,CRC-1491 / 04/30/2022,Richland / Non-Profit Corporation,731 SIMS AVE,COLUMBIA,SC,29205-1837,ALDERSGATE SPECIAL NEEDS MINISTRY,N,N,6,,-80.99916657,33.99930592,HLRESIDENTIALCARE,500076.9662,3762079.02
BURGESS RESIDENTIAL CARE #3,615 W EVANS ST,FLORENCE,SC,29501-3409,Florence,843-407-4901,"BURGESS, SANDY PH#: 843-407-4901",SANDYBURGESS98@YAHOO.COM,SANDYBURGESS98@YAHOO.COM,CRC-1913 / 08/31/2021,Florence / Limited Liability,PO BOX 6023,FLORENCE,SC,29502-6023,DELLAVISION LLC,N,N,9,,-79.77728287,34.19699579,HLRESIDENTIALCARE,612657.1281,3784674.507
BURGESS RESIDENTIAL CARE FACILITY,2591 S BREHENAN DR,FLORENCE,SC,29505-6203,Florence,843-665-6843, PH#: ,SANDYBURGESS98@YAHOO.COM,,CRC-0925 / 04/30/2022,Florence / Sole Proprietorship,2527 TRIPLE CROWN DR,FLORENCE,SC,29505,"BURGESS, SANDY",N,N,9,9,-79.74310702,34.15979884,HLRESIDENTIALCARE,615857.0033,3780587.998
BURGESS RESIDENTIAL CARE FACILITY #4,412 PEE DEE CHRUCH RD,DILLON,SC,29536,Dillon,843-774-0623,"MAYNOR, BEVERLY D. PH#: 843-774-0623",SANDYBURGESS98@YAHOO.COM,SANDYBURGESS98@YAHOO.COM,CRC-2046 / 10/31/2021,Dillon / Limited Liability,412 PEE DEE CHURCH RD,DILLON,SC,29536-7429,DELLAVISION LLC,N,N,30,,-79.326779,34.391711,HLRESIDENTIALCARE,653813.5078,3806858.282
CABADING HOMES #1,3431 RIVERS AVE,NORTH CHARLESTON,SC,29405-7760,Charleston,843-747-3050,"CABADING, LOLITA B. PH#: 843-745-3050",CABOOTY105@AOL.COM,CABOOTY105@AOL.COM,CRC-0394 / 07/31/2021,Charleston / Corporation,2149 DORCHESTER RD,NORTH CHARLESTON,SC,29405-7763,CABADING HOMES INC,N,N,18,18,-79.97820938,32.85605012,HLRESIDENTIALCARE,595608.2234,3635791.379
CABADING HOMES #2,3435 RIVERS AVE,NORTH CHARLESTON,SC,29405-7760,Charleston,843-566-1075,"CABADING, LOLITA B. PH#: 843-566-1075",CABOOTY105@AOL.COM,CABOOTY105@AOL.COM,CRC-0571 / 02/28/2022,Charleston / Corporation,2149 DORCHESTER RD,NORTH CHARLESTON,SC,29405-7763,CABADING HOMES INC,N,N,15,15,-79.97837946,32.85611224,HLRESIDENTIALCARE,595592.241,3635798.111
CABADING HOMES #3,2149 DORCHESTER RD,NORTH CHARLESTON,SC,29405-7763,Charleston,843-745-9182,"CABADING, ALLAN M. PH#: 843-745-9182",CABOOTY105@AOL.COM,CABOOTY105@AOL.COM,CRC-0825 / 07/31/2021,Charleston / Corporation,2149 DORCHESTER RD,NORTH CHARLESTON,SC,29405-7763,CABADING HOMES INC,N,N,25,25,-79.98012621,32.85391684,HLRESIDENTIALCARE,595431.143,3635553.139
CAMDEN I,975 WATEREE BLVD,CAMDEN,SC,29020-4134,Kershaw,803-432-0973,"WRIGHT, CRYSTAL J. PH#: 803-432-0973",C.WRIGHT@CHESCOSERVICES.ORG,C.WRIGHT@CHESCOSERVICES.ORG,CRC-1525 / 09/30/2021,Kershaw / Sole Proprietorship,"110 PONTIAC BUSINESS CENTER DR STE C, CHESCO SERVICES",ELGIN,SC,29045,CHESCO SERVICES,N,N,8,,-80.62632662,34.24654415,HLRESIDENTIALCARE,534408.0029,3789555.996
CAMDEN II,975 WATEREE BLVD,CAMDEN,SC,29020-4134,Kershaw,803-432-1345,"WRIGHT, CRYSTAL J. PH#: 803-432-0973",C.WRIGHT@CHESCOSERVICES.ORG,C.WRIGHT@CHESCOSERVICES.ORG,CRC-1522 / 05/31/2022,Kershaw / Sole Proprietorship,110 PONTIAC BUSINESS CENTER DR STE C,ELGIN,SC,29045,CHESCO SERVICES,N,N,8,,-80.62642702,34.24644881,HLRESIDENTIALCARE,534398.796,3789545.39
CAMP COMMUNITY RESIDENCE,1251 CAMP RD,JAMES ISLAND,SC,29412-9212,Charleston,843-795-6983, PH#: ,ETURNER@DSNCC.COM,,CRC-1371 / 01/31/2022,Charleston / State,"PO BOX 22708, DISABILITIES BOARD OF CHARLESTON COUNTY",CHARLESTON,SC,29413-2708,DISABILITIES BOARD OF CHARLESTON COUNTY,N,N,8,8,-79.9498129,32.72764523,HLRESIDENTIALCARE,598406.7133,3621581.946
CANTERFIELD OF BLUFFTON,567 N OKATIE HWY,RIDGELAND,SC,29936,Jasper,843-645-4000,"ARROYO, SHAZIA PH#: 000-000-0000",SHAZIA@CANTERFIELDOFBLUFFTON.COM,SHAZIA@CANTERFIELDOFBLUFFTON.COM,CRC-1571 / 11/30/2021,Jasper / Limited Liability,567 N OKATIE HWY,RIDGELAND,SC,29936,CANTERFIELD OF BLUFFTON LLC,Y,Y,93,,-80.93503196,32.30814302,HLRESIDENTIALCARE,506115.9674,3574593.708
CANTRELL'S RESIDENTIAL CARE FACILITY,124 GLADYS CT,SPARTANBURG,SC,29301-3701,Spartanburg,864-587-1993,"WALKER, LINDA C. PH#: 864-587-1993",WYOMINGSWITZER@ICLOUD.COM,LCWALKER428@YAHOO.COM,CRC-1105 / 06/30/2022,Spartanburg / Corporation,124 GLADYS CT,SPARTANBURG,SC,29301-3701,CANTRELL'S RESIDENTIAL CARE FACILITY INC,N,N,22,22,-81.98207561,34.92103246,HLRESIDENTIALCARE,410296.4394,3864726.032
CARE WITH LOVE,3408 LENAPE ST,NORTH CHARLESTON,SC,29405-7777,Charleston,843-744-0313, PH#: ,SHEILAPNELSON@GMAIL.COM,,CRC-2164 / 01/31/2022,Charleston / Sole Proprietorship,,,,,SHEILA NELSON,N,N,5,,-79.977828,32.855043,HLRESIDENTIALCARE,595645.102,3635680.051
CARE WITH LOVE II,2109 COMMANDER RD,NORTH CHARLESTON,SC,29405-7704,Charleston,843-718-3034,"FEILDS, HATTIE PH#: 843-425-4422",SHEILAPNELSON@GMAIL.COM,,CRC-2163 / 01/31/2022,Charleston / Sole Proprietorship,,,,,SHEILA NELSON,N,N,5,,-79.978503,32.855324,HLRESIDENTIALCARE,595581.64,3635710.614
CARLISLE PLACE,21 DR FRANK PRESSLY DR,DUE WEST,SC,29639-9705,Abbeville,864-379-2570,"WRIGHT, MALEIKA PH#: ",DLITTLE3@MINDSPRING.COM,ED@THERENAISSANCESENIORLIVING.COM,CRC-1538 / 12/31/2021,Abbeville / ,PO BOX 6384,SPARTANBURG,SC,29304-6384,THE RENAISSANCE LLC,N,N,28,,-82.39463264,34.33025767,HLRESIDENTIALCARE,371704.6125,3799655.961
CAROLINA GARDENS AT CONWAY,2310 HWY 378,CONWAY,SC,29527,Horry,843-397-1010,"FRANKS, MIRANDA PH#: 843-397-1010",MFRANKS@PRIORITYLC.COM,MIRFRANKS@PRUITTHEALTH.COM,CRC-2059 / 03/31/2022,Horry / Limited Liability,2310 HWY 378,CONWAY,SC,29527,SGS CONWAY OPCO LLC,Y,Y,100,,-79.09014295,33.84352107,HLRESIDENTIALCARE,676706.4255,3746446.696
CAROLINA GARDENS AT GARDEN CITY,11951 GRANDHAVEN DR,MURRELS INLET,SC,29576-7843,Horry,843-357-0200, PH#: ,MPIEPENBRING@PRIORITYLC.COM,,CRC-2115 / 12/31/2021,Horry / Limited Liability,,,,,VP GARDEN CITY OPCP LLC,N,N,111,,-79.024916,33.587267,HLRESIDENTIALCARE,683286.4016,3718142.508
CAROLINA GARDENS AT KATHWOOD,4520 TRENHOLM RD,COLUMBIA,SC,29206-4425,Richland,803-787-1234, PH#: ,SBARTON@PRIORITYLC.COM,,CRC-2056 / 03/31/2022,Richland / Limited Liability,4520 TRENHOLM RD,COLUMBIA,SC,29206-4425,SGS KATHWOOD OPCO LLC,N,N,100,,-80.968651,34.008255,HLRESIDENTIALCARE,502894.8445,3763071.72
CAROLINA GARDENS AT LAURENS,420 W FARLEY AVE,LAURENS,SC,29360,Laurens,864-984-9844, PH#: ,LMIMS@PRIORITYLC.COM,,CRC-2055 / 03/31/2022,Laurens / Limited Liability,420 W FARLEY AVE,LAURENS,SC,29360,SGS LAURENS OPCO LLC,N,Y,100,,-82.026632,34.489572,HLRESIDENTIALCARE,405738.4251,3816919.121
CAROLINA GARDENS AT LEXINGTON,5422 AUGUSTA RD,LEXINGTON,SC,29072-3892,Lexington,803-520-5850,"BURNS, JO BABS PH#: ; SHUFELT, BOBBIEANN PH#: ",APRILBYRD01@GMAIL.COM,BBURNS@COMFORTCARE-HOSPICE.COM,CRC-2058 / 03/31/2022,Lexington / Limited Liability,5422 AUGUSTA RD,LEXINGTON,SC,29072-3892,SGS LEXINGTON OPCO LLC,Y,Y,90,,-81.218783,33.976916,HLRESIDENTIALCARE,479790.4983,3759618.055
CAROLINA GARDENS AT ROCK HILL,1785 LEXINGTON COMMONS DR,ROCK HILL,SC,29732,York,803-207-8000,"KIMBALL, JOHNATHAN PH#: ",JKIMBALL@PRIORITYLC.COM,,CRC-2116 / 12/31/2021,York / Limited Liability,,,,,VP ROCK HILL OPCO LLC,Y,Y,90,,-80.994784,34.983962,HLRESIDENTIALCARE,500476.1867,3871264.559
CAROLINA GARDENS AT YORK,1020 N CONGRESS ST,YORK,SC,29745,York,803-684-0183, PH#: ,KMCCUIN@PRIORITYLC.COM,,CRC-2060 / 03/31/2022,York / Limited Liability,1020 N CONGRESS ST,YORK,SC,29745,SGS YORK OPCO LLC,Y,Y,143,,-81.22452841,35.00736061,HLRESIDENTIALCARE,479513.2276,3873882.357
CAROLINA PLACE,240 CHARLES ST,LAKE CITY,SC,29560-2161,Florence,843-394-5707,"UWAGBAI, LINDA G. PH#: 843-394-5707",LUWAGBAI@FCDSN.ORG,LUWAGBAI@FCDSN.ORG,CRC-1258 / 01/31/2022,Florence / State,"1211 E NATIONAL CEMETERY RD, FLORENCE COUNTY DSNB",FLORENCE,SC,29506-3240,FLORENCE COUNTY DISABILITIES AND SPECIAL NEEDS BOARD,N,N,8,8,-79.74901319,33.87417658,HLRESIDENTIALCARE,615699.484,3748909.141
CAROLINIAN,718 S DARGAN ST,FLORENCE,SC,29506-2559,Florence,843-665-9314, PH#: ,DEBORAH.STOUFF@RHF.ORG,,CRC-0468 / 04/30/2021,Florence / Corporation,911 N STUDEBAKER RD,LONG BEACH,CA,90815-4900,FLORENCE RHF HOUSING INC,N,N,38,38,-79.76337334,34.18600778,HLRESIDENTIALCARE,613953.561,3783471.497
CARRIAGE HOUSE SENIOR LIVING OF FLORENCE,739 S PARKER DR,FLORENCE,SC,29501-6062,Florence,843-661-6655,"FLOYD, NICA PH#: ",T.BIGLER@ETCARE.BIZ,CHSLFLORENCEADM@ETCARE.BIZ,CRC-1590 / 01/31/2022,Florence / ,201 S MCPHERSON CHURCH RD STE 228,FAYETTEVILLE,NC,28301,CARRIAGE HOUSE SENIOR LIVING OF FLORENCE INC,N,N,80,,-79.82700204,34.1769165,HLRESIDENTIALCARE,608101.5414,3782394.075
CARRIAGE HOUSE SENIOR LIVING OF HARTSVILLE,1131 E HOME AVE,HARTSVILLE,SC,29550,Darlington,843-383-6990,"RUFER, KYLE PH#: ",CHSLHARTSVILLEADM@ETCARE.BIZ,,CRC-0994 / 01/31/2022,Darlington / Corporation,201 S MCPHERSON CHURCH RD STE 226,FAYETTEVILLE,NC,28303,CARRIAGE HOUSE SENIOR LIVING OF HARTSVILLE INC,N,N,60,60,-80.04588632,34.3826454,HLRESIDENTIALCARE,587714.7694,3804996.718
CARRIAGE HOUSE SENIOR LIVING OF SUMTER,431 N MAIN ST,SUMTER,SC,29150-4232,Sumter,803-773-0965,"SINGLETARY, MARY JANE PH#: 803-773-0965",CHSLSUMTERADM@ETCARE.BIZ,CHSLSUMTERADM@ETCARE.BIZ,CRC-0997 / 01/31/2022,Sumter / Corporation,PO BOX 3300,SUMTER,SC,29151-3300,CARRIAGE HOUSE OF SUMTER INC,N,N,60,60,-80.34122512,33.92884378,HLRESIDENTIALCARE,560887.6216,3754461.745
CARRIAGE HOUSE SENIOR LIVING OF TAYLORS,402 W MAIN ST,TAYLORS,SC,29687-2951,Greenville,864-292-2416,"BOUDREAU, GAIL R. PH#: ",ETCAREINC@EARTHLINK.NET,,CRC-0978 / 01/13/2022,Greenville / Corporation,201 S MCPHERSON CHURCH RD STE 226,FAYETTEVILLE,NC,28303,CARRIAGE HOUSE SENIOR LIVING OF TAYLORS INC,N,N,44,44,-82.31121919,34.91927781,HLRESIDENTIALCARE,380228.0598,3864875.923
CARSON'S COMMUNITY CARE,10219 FARROW RD,BLYTHEWOOD,SC,29016-9612,Richland,803-786-7513,"CARSON, ANNIE P. PH#: 803-786-7513",ANNIEPCARSON1@GMAIL.COM,ANNIEPEARLCARSON1@GMAIL.COM,CRC-0916 / 02/28/2022,Richland / Sole Proprietorship,217 BRIARCLIFFE W,ELGIN,SC,29045,"CARSON, JAMES E.",N,N,10,11,-80.95418868,34.15368787,HLRESIDENTIALCARE,504222.9421,3779197.745
CARTER-MAY HOME,1660 INGRAM RD,CHARLESTON,SC,29407-4242,Charleston,843-556-8314,"BAUDER, JANINE NEWELL PH#: 843-556-8314",JANINE@CHARLESTONDIOCESE.ORG,JANINE@CHARLESTONDIOCESE.ORG,CRC-0064 / 04/30/2022,Charleston / Corporation,1660 INGRAM RD,CHARLESTON,SC,29407-4242,CATHOLIC CHARITIES OF THE DIOCESE OF CHARLESTON INC,N,N,25,25,-79.99345575,32.81420687,HLRESIDENTIALCARE,594225.7624,3631138.755
CASCADES VERDAE ASSISTED LIVING,30 SPRINGCREST CT,GREENVILLE,SC,29607-4034,Greenville,864-528-5529,"JONES, GWENDOLYN PH#: ",LICENSING@CASCADES-VERDAECOM,,CRC-1490 / 04/30/2022,Greenville / Limited Liability,3530 TORINGDON WAY STE 204,CHARLOTTE,NC,28277-3436,CASCADES NURSING LLC,Y,Y,92,,-82.31828984,34.82490563,HLRESIDENTIALCARE,379444.4511,3854418.146
CASUAL COMMUNITY CARE HOME,112 GOODRICH ST,COLUMBIA,SC,29223-7725,Richland,803-788-2721,"BRIGGS, MARY E. PH#: 803-788-2721",MARYPBRIGGS1@GMAIL.COM,MARYPBRIGGS1@GMAIL.COM,CRC-0701 / 01/31/2022,Richland / Sole Proprietorship,PO BOX 121,STATE PARK,SC,29147-0121,"BRIGGS, MARY",N,N,8,9,-80.93963866,34.11785668,HLRESIDENTIALCARE,505566.5291,3775225.462
CATHERINE'S MANOR II,261 SUMMERS AVE,ORANGEBURG,SC,29115-5421,Orangeburg,803-539-0899,"CARR, GUSS, JR. PH#: 803-539-0899",EVERNECARR12@GMAIL.COM,EVERNECARR12@GMAIL.COM,CRC-1033 / 08/31/2021,Orangeburg / Sole Proprietorship,261 SUMMERS AVE,ORANGEBURG,SC,29115-5421,GUSS CARR AS PERSONAL REPRESENTATIVE OF THE ESTATE OF CATHERINE CARR,N,N,5,6,-80.86199583,33.49411725,HLRESIDENTIALCARE,512819.4411,3706075.526
CHANDLER PLACE ASSISTED LIVING & MEMORY CARE,1800 INDIA HOOK RD,ROCK HILL,SC,29732-1933,York,803-325-1144,"LAUGHLIN, AMY PH#: ",AMY.LAUGHLIN@NAVIONSL.COM,,CRC-2098 / 09/30/2021,York / Limited Liability,,,,,NAVION BKE SPRING ARBOR LLC,Y,Y,92,,-81.033073,34.963062,HLRESIDENTIALCARE,496980.7815,3868947.309
CHARLES M INGRAM SR COMMUNITY RESIDENCE,1615 STATE RD,CHERAW,SC,29520-5107,Chesterfield,843-537-5122,"TURNER, SUSAN PH#: 803-608-8703",T.CAMPBELL@CHESCOSERVICES.ORG,,CRC-1440 / 05/31/2022,Chesterfield / Sole Proprietorship,"1224 EAST BLVD, PO BOX 151",CHESTERFIELD,SC,29709-0151,CHESCO SERVICES,N,N,8,8,-79.92843518,34.69989762,HLRESIDENTIALCARE,598139.7515,3840286.149
CHESTERFIELD COMMUNITY RESIDENCE,817 E MAIN ST,CHESTERFIELD,SC,29709-1807,Chesterfield,843-623-6586,"TURNER, SUSAN PH#: 803-608-8703",T.CAMPBELL@CHESCOSERVICES.ORG,,CRC-1441 / 05/31/2022,Chesterfield / Sole Proprietorship,"1224 EAST BLVD, PO BOX 151",CHESTERFIELD,SC,29709-0151,CHESCO SERVICES,N,N,8,8,-80.100508,34.73607091,HLRESIDENTIALCARE,582344.0098,3844143.283
CLARKE HOUSE,919 SHILOH RD,SALUDA,SC,29138-8101,Saluda,864-445-8816,"CLARKE, IDORA H. PH#: 864-445-8816",THECLARKEHOUSE1988@GMAIL.COM,THECLARKEHOUSE1988@GMAIL.COM,CRC-0485 / 07/31/2021,Saluda / Sole Proprietorship,919 SHILOH RD,SALUDA,SC,29138-8101,IDORA H CLARKE,N,N,18,18,-81.78010338,34.09970285,HLRESIDENTIALCARE,428042.588,3773485.566
CLEMSON DOWNS ASSISTED LIVING,500 DOWNS LOOP,CLEMSON,SC,29631-2099,Pickens,864-654-1155,"HILL, JAMES A. PH#: ",JHILL@CLEMSONSDOWNS.COM,,CRC-1154 / 07/31/2021,Pickens / Corporation,500 DOWNS LOOP,CLEMSON,SC,29631-2099,CARC INC,Y,N,56,24,-82.79528066,34.67611739,HLRESIDENTIALCARE,335525.2118,3838592.989
CLEMSON HERITAGE LLC,140 CAMBRIDGE DR,CLEMSON,SC,29631-1208,Pickens,864-513-4105,"HOWARD, AMY PH#: 864-430-6919",AHOWARD@SSMGRP.COM,AHOWARD@SSMGRP.COM,CRC-1563 / 11/30/2021,Pickens / Limited Liability,203 OAKWOOD CT,GREENVILLE,SC,29607-5831,CLEMSON HERITAGE LLC,Y,Y,96,,-82.792248,34.69632,HLRESIDENTIALCARE,335843.084,3840828.648
CLS CARE HOME,1024 TUCKER TOWN RD STE 1024A,GADSDEN,SC,29052-9789,Richland,803-353-2151,"DOWDY-SPEARMAN, HELEN PH#: 803-353-2151",HEDOWDY52@AOL.COM,HEDOWDY52@AOL.COM,CRC-1200 / 06/30/2021,Richland / Sole Proprietorship,1024 TUCKER TOWN RD STE 1024A,GADSDEN,SC,29052-9789,CORA SCOTT,N,N,5,5,-80.69845745,33.81960008,HLRESIDENTIALCARE,527905.5787,3742194.757
COLONIAL AT OLD CAMDEN,209 BROAD ST,CAMDEN,SC,29020,Kershaw,803-272-4445,"OWENS, ALICIA J. PH#: 803-272-4445",YOLANDA.HUNTER@PHOENIXSRLIVING.COM,,CRC-2122 / 02/28/2022,Kershaw / Limited Liability,,,,,WATEREE RIVER AL LLC,Y,Y,60,,-80.606016,34.231896,HLRESIDENTIALCARE,536284.606,3787938.823
COLONIAL GARDENS ALZHEIMER'S SPECIAL CARE CENTER,3565 SUNSET BLVD,WEST COLUMBIA,SC,29169-3043,Lexington,803-796-2556,"SURRETT, DALE K. PH#: 803-796-2556",COLONIALGARDENS-ADM@JEASENIORLIVING.COM,DALE.SURRETT@JEASENIORLIVING.COM,CRC-1542 / 03/31/2022,Lexington / ,3565 SUNSET BLVD,WEST COLUMBIA,SC,29169-3043,COLUMBIA CARE GROUP LLC,Y,Y,66,,-81.13284858,34.00757119,HLRESIDENTIALCARE,487732.8063,3763003.411
COOPER HALL AT THE PALMS OF MT PLEASANT,937 BOWMAN RD OFC,MOUNT PLEASANT,SC,29464-3222,Charleston,843-884-6949,"CARR, JOSEPH J. PH#: 843-884-6949",LICENSING@5SSL.COM,,CRC-1432 / 06/30/2022,Charleston / Limited Liability,"400 CENTRE ST, LICENSING DEPT",NEWTON,MA,02458-2094,SNH SE SG TENANT LLC,N,N,44,30,-79.85945033,32.8162139,HLRESIDENTIALCARE,606768.6781,3631488.665
COTTONWOOD VILLAS,800 W CHURCH ST,BISHOPVILLE,SC,29010-1054,Lee,803-484-5303,"GAINEY, FELICIA PH#: 803-484-5303",MARIE@LAKEFIELDPROP.COM,FELICIA@LAKEFIELDPROP.COM,CRC-1186 / 06/30/2021,Lee / Limited Liability,800 W CHURCH ST,BISHOPVILLE,SC,29010-1054,LAKEFIELD PROPERTIES LLC,Y,Y,85,71,-80.259131,34.227819,HLRESIDENTIALCARE,568235.2891,3787664.699
COUNTRY COMFORT COMMUNITY HOME,204 JOE ARTHUR CIR,BLYTHEWOOD,SC,29016-8807,Richland,803-735-9777,"COUNTS, CLIFFORD A. PH#: 803-735-9777",COUNTS_COUNTRYCOMFORT@YAHOO.COM,COUNTS_COUNTRYCOMFORT@YAHOO.COM,CRC-1467 / 02/28/2022,Richland / ,2452 ROLLING PINES RD,COLUMBIA,SC,29210,COUNTRY COMFORT HOMES LLC,N,N,9,7,-80.978063,34.20057,HLRESIDENTIALCARE,502021.1371,3784395.322
COVENANT PLACE,2825 CARTER RD OFC,SUMTER,SC,29150-1736,Sumter,803-469-7007,"LINDER, RISLEY E., SR. PH#: 803-469-7007",RLINDER@COVENANTPLACE.ORG,RLINDER@COVENANTPLACE.ORG,CRC-0758 / 03/31/2022,Sumter / Non-Profit Corporation,2825 CARTER RD OFC,SUMTER,SC,29150-1736,COVENANT PLACE OF SUMTER INC,Y,Y,70,70,-80.40652955,33.95482153,HLRESIDENTIALCARE,554835.0789,3757305.321
CUMMINGS COMMUNITY RESIDENTIAL CARE HOME,2606 STARK LN,NORTH CHARLESTON,SC,29405-5537,Charleston,843-747-7088,"CUMMINGS, OLYMPIA W. PH#: 843-860-2340",OCUMMINGS03@COMCAST.NET,OCUMMINGS03@COMCAST.NET,CRC-0891 / 10/31/2021,Charleston / Sole Proprietorship,2606 STARK LN,NORTH CHARLESTON,SC,29405,"CUMMINGS, OLYMPIA W.",N,N,8,8,-79.99037799,32.85222403,HLRESIDENTIALCARE,594473.621,3635356.248
CURAMENG RESIDENTIAL HOME CARE,2021 COSGROVE AVE,NORTH CHARLESTON,SC,29405-7710,Charleston,843-566-1266,"REYES, MILAGROS L. PH#: 843-566-1266",MYLESR05@YAHOO.COM,MYLESR05@YAHOO.COM,CRC-1187 / 11/30/2021,Charleston / Corporation,109 WELCHMAN AVE,GOOSE CREEK,SC,29445-7154,JFJ INC,N,N,8,10,-79.97612224,32.85682768,HLRESIDENTIALCARE,595802.6882,3635879.474
CYPRESS PLACE,205 MIDLAND PKWY,SUMMERVILLE,SC,29485-8104,Dorchester,843-875-7163,"HOOLEY, JOHANNA PH#: 843-875-7163",JHOOLEY@ENLIVANT.COM,,CRC-1411 / 11/30/2021,Dorchester / Limited Liability,330 N WABASH AVE STE 3700,CHICAGO,IL,60611-7605,CYPRESS AID OPCO LLC,N,N,44,44,-80.16174068,32.96584168,HLRESIDENTIALCARE,578338.0025,3647811.997
DALTONS CMC RESIDENTIAL CARE FACILITY,1231 EUTAW ST,ORANGEBURG,SC,29115-3529,Orangeburg,803-747-7006,"JENKINS, LAVEDA PH#: 803-347-9443",CHERYLGDALTON@GMAIL.COM,CHERYLGDALTON@GMAIL.COM,CRC-1447 / 07/31/2021,Orangeburg / Sole Proprietorship,1231 EUTAW ST,ORANGEBURG,SC,29115-3529,"GIBSON-DALTON, CHERYL",N,N,5,5,-80.85527775,33.50685519,HLRESIDENTIALCARE,513441.5268,3707488.621
DAVIDSON STREET COMMUNITY RESIDENCE,313 DAVIDSON ST,CLINTON,SC,29325-2023,Laurens,864-833-7284,"TAVENNER, JASON PH#: 864-833-7284",KMCGOWAN@LCDSNB.ORG,JTAVENNER@LCDSNB.ORG,CRC-1420 / 12/31/2021,Laurens / Non-Profit Corporation,1860 HWY 14,LAURENS,SC,29360-1068,LAURENS COUNTY DISABILITIES AND SPECIAL NEEDS BOARD,N,N,8,8,-81.87336934,34.47938172,HLRESIDENTIALCARE,419801.0015,3815656.998
DAYSPRING ASSISTED LIVING,5146 TOWLES RD,HOLLYWOOD,SC,29449-6119,Charleston,843-889-9757,"MARSHALL, GRAEME PH#: 843-889-9757",DAYSPRINGSC@YAHOO.COM,DAYSPRINGSC@YAHOO.COM,CRC-1385 / 03/31/2022,Charleston / Ltd. Liability,5146 TOWLES RD,HOLLYWOOD,SC,29449-6119,DAYSPRING ASSISTED LIVING LLC,N,Y,16,18,-80.20733598,32.74101737,HLRESIDENTIALCARE,574263.9355,3622854.546
DAYSPRING OF JOHNS ISLAND,3455 BOHICKET RD,JOHNS ISLAND,SC,29455-7222,Charleston,843-768-5335,"MARSHALL, YASSAMIN B. PH#: 843-768-5335",DAYSPRINGSC@YAHOO.COM,DAYSPRINGSC@YAHOO.COM,CRC-1915 / 03/31/2022,Charleston / Corporation,3455 BOHICKET RD,JOHNS ISLAND,SC,29455-7222,DAYSPRING OF JOHNS ISLAND INC,N,Y,24,,-80.12889705,32.65920026,HLRESIDENTIALCARE,581687.5357,3613842.002
DILLON COMMUNITY RESIDENCE,506 S 14TH AVE,DILLON,SC,29536-4369,Dillon,843-841-0778,"TIMMONS, ELLA M. PH#: 843-841-0778",MKEITH@MDDSN.ORG,ETIMMONS@MDDSN.ORG,CRC-1377 / 04/30/2022,Dillon / County,"400 MARTIN LUTHER KING BLVD, MARION-DILLON CO BRD OF DISAB & SPECIAL",MARION,SC,29571,MARION-DILLON COUNTY BOARD OF DISABILITIES AND SPECIAL NEEDS,N,N,8,8,-79.3681371,34.40965224,HLRESIDENTIALCARE,649979.1284,3808786.075
DIVINE MANOR ASSISTED LIVING CENTER,2210 OAK POND RD,ROCK HILL,SC,29730-7958,York,803-329-4494,"AFAM, DORIS O. PH#: 803-329-4494",DIVINEMANOR@COMPORIUM.NET,DIVINEMANOR@COMPORIUM.NET,CRC-1361 / 07/31/2021,York / Limited Liability,2210 OAK POND RD,ROCK HILL,SC,29730-7958,DIVINE NURSE CONSULTANT LLC,N,Y,32,32,-80.97044434,34.88098469,HLRESIDENTIALCARE,502700.9025,3859845.247
DIXON'S COMMUNITY CARE HOME,1456 DIXON RD,ELGIN,SC,29045-9030,Kershaw,803-729-4309,"DIXON, JAMES M. PH#: 803-729-4309",JADIXON35@GMAIL.COM,JAMES.DIXON@RICHLANDONE.ORG,CRC-0934 / 09/30/2021,Kershaw / Corporation,1498 DIXON RD,ELGIN,SC,29045-9030,DIXON'S COMMUNITY CARE HOME INC,N,N,5,6,-80.78691634,34.19085943,HLRESIDENTIALCARE,519633.712,3783338.938
DOMINION SENIOR LIVING AT PATRICK SQUARE,100 PERSHING AVE,CLEMSON,SC,29631,Pickens,864-722-2811,"DAUGHERTY, LINDSEY R. PH#: 864-722-2811",MARKT@DOMINIONDG.COM,LINDSEYD@DOMINIONSENIORLIVING.COM,CRC-1966 / 03/31/2022,Pickens / ,145 THOMAS GREEN BLVD STE 210,CLEMSON,SC,29631,DOMINION CLEMSON LLC,Y,Y,78,,-82.81369678,34.68502466,HLRESIDENTIALCARE,336391.654,3839385.715
DOMINION SENIOR LIVING OF ANDERSON,3461 N HWY 81,ANDERSON,SC,29621,Anderson,864-332-4511, PH#: ,CHRISP@DOMINIONANDERSON.COM,,CRC-1955 / 12/31/2021,Anderson / Limited Liability Company (multiple member),145 THOMAS GREEN BLVD STE 210,CLEMSON,SC,29631,DOMINION ANDERSON LLC,Y,Y,70,,-82.62094374,34.58819084,HLRESIDENTIALCARE,351341.8744,3828570.454
DORCH COMMUNITY RESIDENTIAL CARE,3921 GREELEYVILLE HWY,MANNING,SC,29102,Clarendon,803-473-4681,"FORTUNE, ELLA R. PH#: 803-473-4681",DORCHANDREW@YAHOO.COM,ERFORTUNE62@YAHOO.COM,CRC-1078 / 04/30/2022,Clarendon / Partnership,PO BOX 122,MANNING,SC,29102-0122,EVELYN DORCH LEWIS AND ANDREW DORCH,N,N,13,13,-80.162579,33.680951,HLRESIDENTIALCARE,577623.0938,3727096.014
DOWDY'S COMMUNITY CARE HOME #2,4609 ARLINGTON ST,COLUMBIA,SC,29203-4143,Richland,803-786-2105,"DOWDY, FRANK PH#: 803-786-2105",TDOWDY@CIO.SC.GOV,TOMMYDOWDY@ROCKETMAIL.COM,CRC-0173 / 08/31/2021,Richland / Sole Proprietorship,6125 LUKE ST,COLUMBIA,SC,29203-5067,ANNIE R DOWDY,N,N,9,10,-81.04150667,34.04639827,HLRESIDENTIALCARE,496169.0346,3767301.322
DREAMLAND RESIDENTIAL CARE,6941 NORTH RD,NORTH,SC,29112-8832,Orangeburg,803-533-7492,"WRIGHT, DELORES M. PH#: 803-533-7492",DELORESWRIGHT4@AOL.COM,DELORESWRIGHT4@AOL.COM,CRC-0795 / 10/31/2021,Orangeburg / Sole Proprietorship,6941 NORTH RD,NORTH,SC,29112-8832,DELORES M WRIGHT,N,N,5,5,-81.00873397,33.60945225,HLRESIDENTIALCARE,499189.7642,3718854.226
EASLEY PLACE- A CONTINUUM OF CARE COMMUNITY,706 PELZER HWY,EASLEY,SC,29642-3800,Pickens,864-859-0167,"WINN, LAURA O. PH#: 864-859-0167",MARLEDGE@EASLEYPLACE.COM,LWINN@EASLEYPLACE.COM,CRC-2137 / 11/30/2021,Pickens / Limited Liability,,,,,SCHOOL ROAD SENIOR LIVING LLC,N,N,85,,-82.595774,34.794567,HLRESIDENTIALCARE,354013.4019,3851421.932
EASLEY PLACE NORTH- A CONTINUUM OF CARE COMMUNITY,125 ZION SCHOOL RD,EASLEY,SC,29642-2833,Pickens,864-859-0167, PH#: ,MARLEDGE@EASLEYPLACE.COM,,CRC-2138 / 01/31/2022,Pickens / Limited Liability,,,,,SCHOOL ROAD SENIOR LIVING LLC,N,N,66,,-82.597129,34.79485,HLRESIDENTIALCARE,353889.9761,3851455.317
EASLEY RETIREMENT CENTER,102 DOWLING ST,EASLEY,SC,29641,Pickens,864-859-3722,"OWENS, BERT J. PH#: 864-859-3722",SARAFOSTER@EASLEYRETIREMENT.NET,SARAFOSTER@EASLEYRETIREMENT.NET,CRC-0359 / 02/28/2022,Pickens / Corporation,"102 DOWLING ST, PO BOX 736",EASLEY,SC,29640-2424,WEST END RETIREMENT CENTER INC,N,N,16,28,-82.57720289,34.83531995,HLRESIDENTIALCARE,355783.4956,3855914.934
EASY LIVING,506 E JACKSON ST,LAMAR,SC,29069-9162,Darlington,843-326-5884,"JONES, ERIC PH#: 843-326-5884",19EJONES19@GMAIL.COM,19EJONES19@GMAIL.COM,CRC-1512 / 03/31/2022,Darlington / Sole Proprietorship,PO BOX 85,LAMAR,SC,29069-0085,"GEORGE, EDELL",N,N,5,,-80.05408685,34.16723558,HLRESIDENTIALCARE,587182.9464,3781103.172
EDEN TERRACE OF SPARTANBURG,2780 E MAIN ST,SPARTANBURG,SC,29307-1248,Spartanburg,864-579-7387,"HUGHES, CINDY B. PH#: 864-579-7387",CINDY.HUGHES@ARBORCOMPANY.COM,CHUGHES@ARBORCOMPANY.COM,CRC-1213 / 05/31/2022,Spartanburg / Ltd. Liability,2780 E MAIN ST,SPARTANBURG,SC,29307,BRISTOL SPARTANBURG LLC,Y,Y,140,115,-81.86995037,34.98080472,HLRESIDENTIALCARE,420596.0011,3871259.995
ELLIOTT'S RESIDENTIAL CARE HOME,2432 LANDSDOWNE RD,BOWMAN,SC,29018-9583,Orangeburg,803-829-3348,"LEVINS, DEBORAH Y. PH#: 803-829-3348",ELLIOTTSCAREHOME@GMAIL.COM,ELLIOTTSCAREHOME@GMAIL.COM,CRC-0272 / 10/31/2021,Orangeburg / Corporation,PO BOX 265,BOWMAN,SC,29018-0265,ELLIOTT'S RESIDENTIAL CARE HOME INC,N,N,7,8,-80.61298639,33.37819678,HLRESIDENTIALCARE,535998.2773,3693282.037
ELMCROFT OF FLORENCE,3006 HOFFMEYER RD,FLORENCE,SC,29501-7551,Florence,843-292-0012,"COSGROVE-FLECKNOE, JANICE A. PH#: 843-347-9280",JANICE.COSGROVE@ELMCROFT.COM,JFLECKNOE.ANDERSONOAKS@YAHOO.COM,CRC-2026 / 01/31/2022,Florence / Limited Liability,"5885 MEADOWS RD STE 500, ECLIPSE SENIOR LIVING",LAKE OSWEGO,OR,97035,EC OPCO FLORENCE SC LLC,Y,Y,82,,-79.837347,34.205748,HLRESIDENTIALCARE,607111.7128,3785580.259
EMERALD GARDENS OF GREENWOOD,201 OVERLAND DR,GREENWOOD,SC,29646-4097,Greenwood,864-953-2174, PH#: ,MPATTERSON@EMERALDGARDENSASSISTEDLIVING.,,CRC-1378 / 10/31/2021,Greenwood / Ltd. Liability,201 OVERLAND DR,GREENWOOD,SC,29646-4097,EMERALD GARDENS OF GREENWOOD LLC,Y,Y,66,66,-82.15664203,34.16976197,HLRESIDENTIALCARE,393396.8734,3781583.495
EMERALD RCF I,2244 BROWNTOWN RD,BISHOPVILLE,SC,29010-9664,Lee,803-428-6044, PH#: ,MARJORIE.WILSON-GUESS@SCDMH.ORG,,CRC-2066 / 02/28/2022,Lee / State,2414 BULL ST,COLUMBIA,SC,29201-1924,SOUTH CAROLINA DEPARTMENT OF MENTAL HEALTH,N,N,5,,-80.34352035,34.19410739,HLRESIDENTIALCARE,560486.7216,3783873.309
EMERALD RCF II,2262 BROWNTOWN RD,BISHOPVILLE,SC,29010-9664,Lee,803-428-6044,"POLLARD, DAISY W. PH#: 803-428-5407",MARJORIE.WILSON-GUESS@SCDMH.ORG,DAISY.POLLARD@SCDMH.ORG,CRC-2074 / 02/28/2022,Lee / State,"2414 BULL ST, SCDMH",COLUMBIA,SC,29201-1924,SOUTH CAROLINA DEPARTMENT OF MENTAL HEALTH,N,N,5,,-80.34405215,34.19378994,HLRESIDENTIALCARE,560437.9476,3783837.793
EUGENIA'S RESIDENTIAL CARE FACILITY,2232 HEYWARD BROCKINGTON RD,COLUMBIA,SC,29203-9677,Richland,803-786-1047, PH#: ,DAVISCCHANDERCF.INFO@GMAIL.COM,,CRC-0538 / 08/31/2021,Richland / Partnership,PO BOX 3273,COLUMBIA,SC,29230-3273,ELIJAH DAVIS THOMASENA DAVIS & EUGENIA M EARGLE,N,N,23,23,-81.05536427,34.132021,HLRESIDENTIALCARE,494895.1523,3776795.746
FAIRVIEW PARK ASSISTED LIVING,544 HARRISON BRIDGE RD,SIMPSONVILLE,SC,29860,Greenville,864-757-8812,"HOWE, VALERIE PH#: ",ASURLS@ATLASSENIORLIVING.COM,VHOWE@ATLASSENIORLIVING.COM,CRC-2050 / 02/28/2022,Greenville / Limited Liability,2700 HWY 280 STE 460E,BIRMINGHAM,AL,35223,AFF18 FAIRVIEW PARL ALF LLC,Y,Y,90,,-82.26765015,34.70224315,HLRESIDENTIALCARE,383904.0019,3840755.006
FAMILY RESIDENTIAL CARE HOME I,21 EDWARDS ST,SUMTER,SC,29150-4808,Sumter,803-757-1032,"WALTERS, MICHAEL A. PH#: 803-775-9555",TWRG32@YAHOO.COM,TWRG32@YAHOO.COM,CRC-1233 / 02/28/2022,Sumter / Sole Proprietorship,PO BOX 562,SUMTER,SC,29151-0562,"WALTERS, MICHAEL A.",N,N,5,5,-80.35312692,33.91900055,HLRESIDENTIALCARE,559794.45,3753363.338
FAMILY RESIDENTIAL CARE HOME II,23 EDWARDS ST,SUMTER,SC,29150-4808,Sumter,803-775-9555,"WALTERS, MICHAEL A. PH#: 803-775-9555",TWRG32@YAHOO.COM,TWRG32@YAHOO.COM,CRC-1277 / 06/30/2021,Sumter / Sole Proprietorship,19 EDWARDS ST,SUMTER,SC,29150,"WALTERS, MICHAEL A.",N,N,5,5,-80.35313083,33.91887233,HLRESIDENTIALCARE,559794.1782,3753349.119
FAMILY RESIDENTIAL CARE HOME III,25 EDWARDS ST,SUMTER,SC,29150-4808,Sumter,803-775-9555,"WALTER, MICHAEL PH#: 803-775-9555",TWRG32@YAHOO.COM,TWRG32@YAHOO.COM,CRC-1537 / 02/28/2022,Sumter / Sole Proprietorship,2625 CASEY LN,SUMTER,SC,29153,"WALTERS, MICHAEL A.",N,N,12,,-80.35295163,33.91873198,HLRESIDENTIALCARE,559810.8419,3753333.661
FARMINGTON COMMUNITY RESIDENCE,1269 CAMP RD,JAMES ISLAND,SC,29412-9212,Charleston,843-795-2461,"CAPERS, MADLYN PH#: 843-795-2461",ETURNER@DSNCC.COM,MCAPERS@DSNCC.COM,CRC-1370 / 01/31/2022,Charleston / State,"PO BOX 22708, DISABILITIES BOARD OF CHARLESTON COUNTY",CHARLESTON,SC,29413-2708,DISABILITIES BOARD OF CHARLESTON COUNTY,N,N,8,8,-79.950656,32.72794038,HLRESIDENTIALCARE,598327.3838,3621613.886
FH&C RESIDENTIAL CARE LLC,101 COE RD,ANDERSON,SC,29624,Anderson,864-437-8327, PH#: ,0911BEAUTYJ@GMAIL.COM,,CRC-2169 / 10/31/2021,Anderson / Limited Liability,,,,,FH&C RESIDENTIAL CARE LLC,N,N,10,,-82.644342,34.481708,HLRESIDENTIALCARE,349003.6664,3816795.747
FIRST CHOICE HOME CARE FACILITY,2003 COSGROVE AVE,NORTH CHARLESTON,SC,29405-5702,Charleston,843-225-0637,"RELLORA, JESUS N. PH#: ",EJCRELLORA@GMAIL.COM,,CRC-0742 / 10/31/2021,Charleston / Partnership,2827 SPRUILL AVE,NORTH CHARLESTON,SC,29405,DQR CAMBA/NM CAMBA/GT MARTINEZ/P MARTINEZ/P PAJOTA,N,N,8,9,-79.97586154,32.85741949,HLRESIDENTIALCARE,595826.4459,3635945.322
FLANAGAN COMMUNITY CARE HOME,665 SHARPE RD,COLUMBIA,SC,29203-9304,Richland,803-754-2136,"BRIGGS, MARY E. PH#: 803-754-2136",MARYPBRIGGS1@GMAIL.COM,MARYPBRIGGS1@GMAIL.COM,CRC-0314 / 09/30/2021,Richland / Sole Proprietorship,665 SHARPE RD,COLUMBIA,SC,29203-9304,"BRIGGS, MARY E.",N,N,9,10,-81.00065852,34.08987981,HLRESIDENTIALCARE,499939.2509,3772121.746
FLORA'S RESIDENTIAL CARE FACILITY II,703 S HARVIN ST,SUMTER,SC,29150-6415,Sumter,803-775-6007,"YORK-HERRIOTT, LUCINDA PH#: 803-775-6007",LUCINDAHERRIOTT@GMAIL.COM,LUCINDAHERRIOTT@GMAIL.COM,CRC-1519 / 12/31/2021,Sumter / Sole Proprietorship,1685 REEDROMAN RD,SUMTER,SC,29153-8497,"YORK-HERRIOTT, LUCINDA",N,N,5,,-80.33938221,33.90734302,HLRESIDENTIALCARE,561073.2946,3752078.85
FLORENCE PLACE,1938 MOUNTAIN LAUREL CT,FLORENCE,SC,29505-6084,Florence,312-725-7000,"MCCLEOD, HILL JENNIFER PH#: ",JHILL2@ENLIVANT.COM,,CRC-1990 / 10/31/2021,Florence / Limited Liability,330 N WABASH AVE STE 3700,CHICAGO,IL,60611-7605,FLORENCE BG OPCO LLC,Y,Y,90,,-79.755179,34.157879,HLRESIDENTIALCARE,614746.8813,3780361.505
FLOWERS RESIDENTIAL CARE FACILITY,855 WATTS HILL RD,LUGOFF,SC,29078-9234,Kershaw,803-438-2654,"FLOWERS, MARY C. PH#: 803-438-2654",MLA3524@YAHOO.COM,MLA3524@YAHOO.COM,CRC-0297 / 11/30/2021,Kershaw / Sole Proprietorship,855 WATTS HILL RD,LUGOFF,SC,29078-9234,"FLOWERS, MARY C.",N,Y,7,8,-80.76543959,34.18145043,HLRESIDENTIALCARE,521615.0023,3782299.997
FOOTHILLS ASSISTED LIVING,999 W UNION RD,WEST UNION,SC,29696-2642,Oconee,864-638-4370,"NICHOLS, KYMBERLY PH#: 864-638-4370",KNICHOLS@CITE-MGMT.COM,KNICHOLS@CITE-MGMT.COM,CRC-1364 / 08/31/2021,Oconee / Corporation,106 MARLEE CT,LEXINGTON,SC,29072-8492,CITE HEALTH MANAGEMENT SERVICES INC,Y,Y,76,76,-83.02961237,34.73891615,HLRESIDENTIALCARE,314194.4329,3845966.246
FOREST CIRCLE COMMUNITY RESIDENCE,505 FOREST CIR,WALTERBORO,SC,29488-2869,Colleton,843-549-5140,"FARMER, THERESA L. PH#: 843-549-5140",TFARMER@COLLETONDSN.ORG,TFARMER@COLLETONDSN.ORG,CRC-1527 / 09/30/2021,Colleton / State,505 FOREST CIR,WALTERBORO,SC,29488-2869,COLLETON COUNTY BOARD OF DISABILITIES AND SPECIAL NEEDS,N,N,8,,-80.67920271,32.91592428,HLRESIDENTIALCARE,529996.001,3642011.996
FOREST VIEW MANOR RETIREMENT CENTER,141 CALLISON HWY,MCCORMICK,SC,29835-3524,Edgefield,864-443-5857,"NIXON, KENNETH M. PH#: 864-443-5857",KMNIXON62@AOL.COM,KMNIXON62@AOL.COM,CRC-0500 / 11/30/2021,Edgefield / Corporation,141 CALLISON HWY,MCCORMICK,SC,29835-3524,HILLSIDE INC,N,Y,40,40,-82.12227553,33.93562387,HLRESIDENTIALCARE,396279.652,3755585.246
FRANKE HOME,1885 RIFLE RANGE RD,MOUNT PLEASANT,SC,29464-9440,Charleston,843-856-4705,"STOLL, SANDRA A. PH#: 843-856-4700",SSTOLL@FRANKEATSEASIDE.ORG,SSTOLL@FRANKEATSEASIDE.ORG,CRC-1082 / 09/30/2021,Charleston / Non-Profit Corporation,1885 RIFLE RANGE RD,MOUNT PLEASANT,SC,29464-9440,LUTHERAN HOMES OF SOUTH CAROLINA INC,Y,Y,86,86,-79.8197044,32.82152193,HLRESIDENTIALCARE,610483.0021,3632117.996
GABLES ON PELHAM ASSISTED LIVING AND MEMORY CARE,1306 PELHAM RD,GREENVILLE,SC,29615-3600,Greenville,864-286-6600,"KENNEDY, SHERRY SUE PH#: ",SUE@THEGABLESONPELHAM.COM,,CRC-2157 / 07/31/2021,Greenville / Limited Liability,,,,,FSL GREENVILLE SC TENANT LLC,N,N,119,,-82.307621,34.855499,HLRESIDENTIALCARE,380464.5168,3857798.247
GARDEN HOUSE LLC,201 EDGEBROOK DR,ANDERSON,SC,29621-2573,Anderson,864-964-5668, PH#: ,LICENSING@PRINCIPALSENIORLIVING.COM,,CRC-1437 / 07/31/2021,Anderson / Ltd. Liability,11175 CICERO DR STE 500,ALPHARETTA,GA,30022-0004,ARHC GHANDSC01 TRS LLC,Y,Y,75,60,-82.63319202,34.5534423,HLRESIDENTIALCARE,350156.1165,3824734.798
GARDENS AT EASTSIDE,275 COMMONWEALTH DR,GREENVILLE,SC,29615-4814,Greenville,864-329-1200,"FORD, JANE A. PH#: 864-329-1200",JANE.FORD@ARBORCOMPANY.COM,JFORD@ARBORCOMPANY.COM,CRC-1222 / 08/31/2021,Greenville / Ltd. Liability,275 COMMONWEALTH DR,GREENVILLE,SC,29615-4814,EASTSIDE ASSISTED LIVING LLC,Y,Y,83,83,-82.32004193,34.85234452,HLRESIDENTIALCARE,379324.2729,3857463.323
GARDENS AT SUMTER,2065 MCCRAYS MILL RD,SUMTER,SC,29154-6111,Sumter,803-778-9690,"CASANOVA, CATHY PH#: 000-000-0000",MDEATON@AFFINITYLIVINGGROUP.COM,MCEL.ADM@AFFINITYLIVINGHGROUP.COM,CRC-0988 / 06/30/2021,Sumter / Limited Liability,PO BOX 2568,HICKORY,NC,28603-2568,SUMTER AL HOLDINGS LLC,Y,Y,140,100,-80.38657628,33.90480121,HLRESIDENTIALCARE,556711.8794,3751769.955
GENERATIONS OF BATESBURG,111 GENERATIONS BLVD,BATESBURG,SC,29006-2315,Lexington,803-532-8428,"NIX, HAMMIE R. PH#: 803-532-8428",TIM@GENERATIONSOFCHAPIN.COM,HAMMIE@GENERATIONSOFBATESBURG.COM,CRC-0647 / 09/30/2021,Lexington / Corporation,431 E BOUNDARY ST,CHAPIN,SC,29036-8388,GENERATIONS OF BATESBURG INC,N,N,88,88,-81.53487748,33.90702979,HLRESIDENTIALCARE,450551.2038,3751976.462
GENERATIONS OF CHAPIN,431 E BOUNDARY ST,CHAPIN,SC,29036-8388,Lexington,803-345-1911,"HOLLINGSWORTH, VIRGINIA PH#: 803-345-1911",TODD@GENERATIONSOFCHAPIN.COM,VIRGINIA@SCGENERATIONS.COM,CRC-1128 / 10/31/2021,Lexington / Corporation,431 E BOUNDARY ST,CHAPIN,SC,29036-8388,GENERATIONS OF CHAPIN INC,N,N,56,64,-81.3396408,34.16188585,HLRESIDENTIALCARE,468694.4652,3780157.9
GENERATIONS OF IRMO,7142 WOODROW ST,IRMO,SC,29063-2832,Lexington,803-227-8991,"EDWARDS, CHARLES DAVID PH#: 803-227-8991",DEDWARDS@CAREBYGENERATIONS.COM,DEDWARDS@CAREBYGENERATIONS.COM,CRC-1477 / 05/31/2022,Lexington / Limited Liability,7142 WOODROW ST,IRMO,SC,29063-2832,GENERATIONS OF IRMO LLC,Y,Y,78,,-81.17879583,34.07940226,HLRESIDENTIALCARE,483503.9619,3770974.422
GENERATIONS OF MONETTA,77 CATO RD,MONETTA,SC,29105-9319,Aiken,803-685-7820,"WILLIAMS, FELICIA D. PH#: 803-685-7820",TODD@GENERATIONSOFCHAPIN.COM,FELICIA.WILLIAMS2@SCDMH.ORG,CRC-0876 / 10/31/2021,Aiken / Ltd. Liability,77 CATO RD,MONETTA,SC,29105-9319,GENERATIONS OF MONETTA LLC,N,N,22,22,-81.59765022,33.85076214,HLRESIDENTIALCARE,444711.5832,3745769.607
GENE'S RESIDENTIAL CARE FACILITY #3,1312 W EVANS ST,FLORENCE,SC,29501-3324,Florence,843-667-6636,"GOLDEN, IDA M. PH#: 843-667-6636",NUGGIE23@GMAIL.COM,,CRC-0482 / 02/28/2022,Florence / Sole Proprietorship,622 E MCIVER RD,FLORENCE,SC,29506-6919,"JONES, GENE E.",N,N,9,9,-79.79066725,34.19584651,HLRESIDENTIALCARE,611425.379,3784532.35
GOD'S HAVEN OF REST,516 BELVEDERE CLEARWATER RD,NORTH AUGUSTA,SC,29841-2583,Aiken,803-279-1129,"AYERS, HAZEL L. PH#: 803-279-1129",LEIGH.3@COMCAST.NET,LEIGH.3@COMCAST.NET,CRC-1237 / 12/31/2021,Aiken / Sole Proprietorship,516 BELVEDERE CLEARWATER RD,BELVEDERE,SC,29841-2583,"AYERS, HAZEL LEIGH",N,N,9,11,-81.93704366,33.53091428,HLRESIDENTIALCARE,412991.7749,3710539.703
GOOD DEEDS RESIDENTIAL I,23 KENDRICK ST,SUMTER,SC,29150-5224,Sumter,803-778-2780,"GLOVER, CORETTA PH#: 803-316-2168",GLOVER2180@GMAIL.COM,GLOVER2180@GMAIL.COM,CRC-2140 / 01/31/2022,Sumter / Limited Liability,,,,,GOOD DEEDS RESIDENTIAL CARE FACILITY LLC,N,N,21,,-80.338308,33.918397,HLRESIDENTIALCARE,561164.7598,3753305.184
GOOD DEEDS RESIDENTIAL II,28 S MAGNOLIA ST,SUMTER,SC,29150-5243,Sumter,803-778-2780,"GLOVER, CORETTA PH#: 803-316-2168",GLOVER2180@GMAIL.COM,GLOVER2180@GMAIL.COM,CRC-2139 / 01/31/2022,Sumter / Limited Liability,,,,,GOOD DEEDS RESIDENTIAL CARE FACILITY LLC,N,N,12,,-80.337812,33.918216,HLRESIDENTIALCARE,561210.755,3753285.332
GOOD SAMARITAN RESIDENTIAL CARE,1356 BUBZY RD,KINGSTREE,SC,29556-5246,Williamsburg,843-382-3530,"SCOTT, MARY INEZ PH#: ",GSRFC1356@GMAIL.COM,,CRC-1015 / 05/31/2022,Williamsburg / Corporation,1356 BUBZY RD,KINGSTREE,SC,29556-5246,GOOD SAMARITAN RESIDENTIAL CARE FACILITY INC,N,N,9,9,-79.750733,33.632072,HLRESIDENTIALCARE,615865.7936,3722061.803
GOOSE CREEK MANOR #1,104 MARILYN ST,GOOSE CREEK,SC,29445-3104,Berkeley,843-572-7442,"ADAIR, MICHELE PH#: ; DOTTERY, VERNELL PH#: 843-572-7442",ADMIN@GOOSECREEKALF.COM,,CRC-2027 / 06/30/2021,Berkeley / Limited Liability,104 MARILYN ST,GOOSE CREEK,SC,29445-3104,STAR CAPITAL INC,N,N,7,,-80.041086,32.997868,HLRESIDENTIALCARE,589581.7322,3651458.861
GOOSE CREEK MANOR #2,104 MARILYN ST,GOOSE CREEK,SC,29445-3104,Berkeley,843-572-7442,"ADAIR, MICHELE PH#: ; DOTTERY, VERNELL PH#: 843-572-7442",ADMIN@GOOSECREEKALF.COM,,CRC-2028 / 06/30/2021,Berkeley / Corporation,,,,,STAR CAPITAL INC,N,N,36,,-80.041086,32.997868,HLRESIDENTIALCARE,589581.7322,3651458.861
GRACE RESIDENTIAL CARE FACILITY,6534 CAROLINA HWY,DENMARK,SC,29042-2366,Bamberg,803-793-3423,"DAVIS, BERNESTINE C. PH#: 803-793-3423",BERNESTINEDAVIS@YAHOO.COM,BERNESTINEDAVIS@YAHOO.COM,CRC-0584 / 08/31/2021,Bamberg / Corporation,PO BOX 326,DENMARK,SC,29042-0326,GRACE RESIDENTIAL CARE FACILITY INC,N,Y,22,22,-81.146165,33.300003,HLRESIDENTIALCARE,486392.3208,3684555.607
GRACELYNN RESIDENTIAL CARE FACILITY,203 JEWEL ST N,NEW ELLENTON,SC,29809-2942,Aiken,803-761-2045,"SIMMONS, MONTAVIA PH#: 803-761-2045",ADULTANDSENIORSERVICES@GMAIL.COM,ADULTANDSENIORSERVICES@GMAIL.COM,CRC-1609 / 11/30/2021,Aiken / Limited Liability Company (single member),203 JEWEL ST N,NEW ELLENTON,SC,29853,GRACELYNN RESIDENTIAL CARE FACILITY LLC,N,N,6,,-81.68776331,33.41973844,HLRESIDENTIALCARE,436057.3459,3698032.134
GREENVILLE COMMUNITY RESIDENCE,158 CAVALIER DR,GREENVILLE,SC,29607-4262,Greenville,864-277-9656,"BELLEW, DAVID PH#: 864-277-9656; WOJACK, DAVID C. PH#: 864-277-9656",DAVID.BELLEW@THRIVEUPSTATE.ORG,,CRC-0073 / 03/31/2022,Greenville / State,1700 RIDGE RD,GREENVILLE,SC,29607-4730,GREENVILLE COUNTY DISABILITIES & SPECIAL NEEDS BOARD,N,N,12,12,-82.35241353,34.79343826,HLRESIDENTIALCARE,376276.6595,3850969.846
GREENVILLE GLEN ASSISTED LIVING,1101 GARLINGTON RD,GREENVILLE,SC,29615-5446,Greenville,864-627-8700, PH#: ,ED@GREENVILLEGLEN.COM,,CRC-2069 / 08/31/2021,Greenville / Limited Liability,PO BOX 6384,SPARTANBURG,SC,29304-6384,ML GREENVILLE GLEN LLC,Y,Y,51,,-82.26459,34.850229,HLRESIDENTIALCARE,384391.0514,3857163.377
GREENVILLE PLACE,2006 PELHAM RD,GREENVILLE,SC,29615-4005,Greenville,864-288-3331,"KIRK, CATHERINE R. PH#: 864-288-3331",TERRI.BAKER@JEASENIORLIVING.COM,,CRC-1402 / 11/30/2021,Greenville / Corporation,2006 PELHAM RD,GREENVILLE,SC,29615-4005,CSL LEASECO INC,Y,Y,153,153,-82.28389583,34.86175355,HLRESIDENTIALCARE,382642.2433,3858463.896
GREER COMMUNITY RESIDENCE,112 S BEVERLY LN,GREER,SC,29651-1738,Greenville,864-449-5982, PH#: ,SHELETHA.MAYS@THRIVEUPSTATE.ORG,,CRC-0237 / 09/30/2021,Greenville / State,1700 RIDGE RD,GREENVILLE,SC,29607-4730,GREENVILLE COUNTY DISABILITIES & SPECIAL NEEDS BOARD,N,N,12,12,-82.24401411,34.94031453,HLRESIDENTIALCARE,386396.1903,3867130.605
GUARDIAN ANGELS RESIDENTIAL CARE,2126 SUCCESS ST,NORTH CHARLESTON,SC,29405-7992,Charleston,843-744-0448,"JANKE, BONIFACIA E. PH#: 843-744-0448",GUARDIANANGELSRCF@YAHOO.COM,BONIFACIA.JANKE@YAHOO.COM,CRC-1049 / 11/30/2021,Charleston / Corporation,3204 MEETING STREET RD,NORTH CHARLESTON,SC,29405-7968,GUARDIAN ANGELS ASSISTED LIVING INC,N,N,18,20,-79.97206793,32.8518404,HLRESIDENTIALCARE,596187.4426,3635330.246
HAMMOND PLACE,128 WALNUT LN,NORTH AUGUSTA,SC,29860-9206,Aiken,803-441-8441,"RANDALL, DORENE ANTINETTE PH#: 803-441-8441",DRANDALL@ENLIVANT.COM,DRANDALL@ENLIVANT.COM,CRC-1405 / 11/30/2021,Aiken / ,330 N WABASH AVE STE 3700,CHICAGO,IL,60611-7605,HAMMOND AID OPCO LLC,N,N,44,44,-81.94392484,33.57270425,HLRESIDENTIALCARE,412395.0015,3715178.995
HAMPTON STREET COMMUNITY RESIDENCE,425 HAMPTON ST,DENMARK,SC,29042-1368,Bamberg,803-793-4093, PH#: ,TDAVIS@BCDSNB.ORG,,CRC-1296 / 06/30/2021,Bamberg / ,"16553 HERITAGE HWY, BAMBERG COUNTY DSNB",DENMARK,SC,29042,BAMBERG COUNTY DISABILITIES AND SPECIAL NEEDS BOARD,N,N,8,8,-81.13521893,33.32453911,HLRESIDENTIALCARE,487414.8539,3687274.478
HANNAH RESIDENTIAL MANOR,3750 SHEMINALLY RD,PAMPLICO,SC,29583-5700,Florence,843-493-0001,"HART, PATRICIA W. PH#: 843-493-2752",PATRICIAHART0910@GMAIL.COM,HRM1993@YAHOO.COM,CRC-0712 / 05/31/2022,Florence / Partnership,3750 SHEMINALLY RD,PAMPLICO,SC,29583-5700,PATRICIA W HART & RONALD E HART SR,N,N,48,48,-79.56819309,33.8818065,HLRESIDENTIALCARE,632412.3726,3749973.497
HARBISON SHORES,990 COLUMBIA AVE,IRMO,SC,29063-2854,Lexington,803-749-7889,"TILL, ELAINE PH#: 803-531-5743",NSHANNON@TARANTINO.COM,,CRC-2180 / 05/31/2022,Lexington / Limited Liability Company (multiple member),,,,,TARANTINO SENIOR LIVING COMMUNITIES LLC,Y,Y,82,,-81.173122,34.087204,HLRESIDENTIALCARE,484028.9851,3771838.61
HARBOR COVE MEMORY CARE,48 MAIN ST,HILTON HEAD ISLAND,SC,29926-1647,Beaufort,843-342-7122,"LATHAM, K'LEE PH#: 843-815-2555",KLEE.LATHAM@NAVIONSL.COM,KLEE.LATHAM@NAVIONSL.COM,CRC-2099 / 09/30/2021,Beaufort / Limited Liability,,,,,NAVION BKE HILTON HEAD COURT LLC,Y,Y,36,,-80.717136,32.219457,HLRESIDENTIALCARE,526654.3522,3564796.319
HARBORCHASE OF AIKEN,1385 SILVER BLUFF RD,AIKEN,SC,29803-8860,Aiken,803-721-4639,"GILLIAM, KATHERINE N. PH#: 803-642-8444",NGILLIAM@HRAONLINE.NET,NGILLIAM@HRAONLINE.NET,CRC-1316 / 11/30/2021,Aiken / Corporation,1385 SILVER BLUFF RD,AIKEN,SC,29803-8860,TWENTY TWO PACK MANAGEMENT CORPORATION,Y,Y,110,110,-81.74049678,33.50515409,HLRESIDENTIALCARE,431222.002,3707535.998
HARBORCHASE OF COLUMBIA,120 FAIRFOREST RD,COLUMBIA,SC,29212-2308,Richland,803-615-5735,"CALDWELL, MATTHEW A. PH#: ",MCALDWELL@HRAONLINE.NET,,CRC-1315 / 11/30/2021,Richland / Corporation,120 FAIRFOREST RD,COLUMBIA,SC,29212-2343,TWENTY TWO PACK MANAGEMENT CORPORATION,Y,Y,66,66,-81.14665978,34.07764698,HLRESIDENTIALCARE,486468.6177,3770775.079
HARBORCHASE OF RIVERWALK,749 DUNKINS FERRY RD,ROCK HILL,SC,29730,York,803-393-2983, PH#: ,SJUSTICE@HRAONLINE.NET,,CRC-2033 / 01/31/2022,York / Limited Liability,,,,,RB ROCKHILL PROPERTY LLC,Y,Y,97,,-80.973661,34.97406,HLRESIDENTIALCARE,502404.3045,3870166.7
HARBORCHASE OF ROCK HILL,1611 CONSTITUTION BLVD,ROCK HILL,SC,29732-3047,York,803-981-6855,"PRESSLEY, DEBRIN LEANNE PH#: ",LPRESSLEY@HRAONLINE.NET,LPRESSLEY@HRAOLINE.NET,CRC-1290 / 11/30/2021,York / Corporation,1611 CONSTITUTION BLVD,ROCK HILL,SC,29732-3047,TWENTY TWO PACK MANAGEMENT CORPORATION,Y,Y,110,110,-81.04961696,34.95299469,HLRESIDENTIALCARE,495469.7825,3867831.498
HARMONY AT FIVE FORKS,345 FIVE FORKS RD,SIMPSONVILLE,SC,29681,Greenville,864-412-4700,"LAUGAVITZ, PATRICIA PH#: ",PLAUGAVITZ@HARMONYATFIVEFORKS.COM,,CRC-1960 / 08/31/2021,Greenville / Limited Liability,345 FIVE FORKS RD,SIMPSONVILLE,SC,29681,GREENVILLE OPERATIONS LLC,Y,Y,92,,-82.23225956,34.80452107,HLRESIDENTIALCARE,387284.4632,3852057.439
HARMONY AT WESCOTT PLANTATION,5130 WESCOTT BLVD,SUMMERVILLE,SC,29485,Dorchester,843-486-2712,"PATTERSON, KALEY PH#: 843-486-2712",KPATTERSON@HARMONYARATWESCOTTPLANTATION,,CRC-1596 / 06/30/2021,Dorchester / Limited Liability,5130 WESCOTT BLVD,SUMMERVILLE,SC,29485,CHARLESTON OPERATIONS LLC,Y,Y,105,,-80.14226931,32.94464128,HLRESIDENTIALCARE,580176.8608,3645476.282
HARMONY AT WEST ASHLEY,1925 ESSEX FARMS DR,CHARLESTON,SC,29414,Charleston,843-804-8850,"GRUBER, JEFFREY SCOTT PH#: 843-804-8850",CCURE@HARMONYATWESTASHLEY.COM,,CRC-1899 / 10/31/2021,Charleston / Limited Liability,1925 ESSEX FARMS DR,CHARLESTON,SC,29414,WEST ASHLEY OPERATIONS LLC,Y,Y,105,,-80.05137543,32.80859732,HLRESIDENTIALCARE,588809.0867,3630466.723
HARMONY COLLECTION AT COLUMBIA (AL/MC),2300 CLEMSON RD,COLUMBIA,SC,29229-8029,Richland,803-223-9560,"CUNNINGHAM, BECKIE PH#: ",BCUNNINGHAM@HARMONYATCOLUMBIA.COM,BCUNNINGHAM@HARMONYSENIORSERVICES.COM,CRC-1544 / 03/31/2022,Richland / Limited Liability,2300 CLEMSON RD,COLUMBIA,SC,29229-8029,COLUMBIA AL OPERATIONS LLC,Y,Y,110,,-80.92132461,34.13849901,HLRESIDENTIALCARE,507253.6896,3777515.441
HARMONY COLLECTION AT COLUMBIA (IL),2304 CLEMSON RD,COLUMBIA,SC,29229,Richland,803-451-0653,"CUNNINGHAM, REBECCA W. PH#: 803-451-0653",BCUNNINGHAM@HARMONYATCOLUMBIA.COM,,CRC-1980 / 07/31/2021,Richland / Limited Liability,2304 CLEMSON RD,COLUMBIA,SC,29229,COLUMBIA IL INVESTORS LLC,Y,Y,25,,-80.920752,34.139155,HLRESIDENTIALCARE,507306.5363,3777588.184
HARMONY HOUSE RESIDENTIAL CARE,704 ANDERSON ST,CALHOUN FALLS,SC,29628-1034,Abbeville,864-418-9277,"HERRON, MICHELLE A. PH#: 864-418-9277",HARMONYHOUSERCF@ATT.NET,HARMONYHOUSERCF@ATT.NET,CRC-1511 / 05/31/2022,Abbeville / Limited Liability,704 ANDERSON ST,CALHOUN FALLS,SC,29628-1034,HERRON CARE LLC,N,N,16,,-82.59141235,34.09902162,HLRESIDENTIALCARE,353200.1989,3774278.515
HAVEN IN THE VILLAGE AT CHANTICLEER,355 BERKMANS LN,GREENVILLE,SC,29605-5606,Greenville,864-467-0031, PH#: ,LNEWCOMB@5SSL.COM,,CRC-2125 / 01/31/2022,Greenville / Limited Liability,,,,,SNH SC TENANT LLC,Y,Y,60,,-82.412531,34.812892,HLRESIDENTIALCARE,370807.0195,3853203.145
HEARTLAND HEALTH CARE CENTER-UNION (RESIDENTIAL CARE),709 RICE AVE EXT,UNION,SC,29379-9023,Union,864-427-0306, PH#: ,4031ADMIN@HCR-MANORCARE.COM,,CRC-0576 / 12/31/2021,Union / Limited Liability,709 RICE AVE EXT,UNION,SC,29379-9023,OAKMONT OF UNION SC LLC,N,N,40,40,-81.64648159,34.71875053,HLRESIDENTIALCARE,440805.9017,3842044.496
HEATH SPRINGS RESIDENTIAL CARE CENTER,614 HART ST,HEATH SPRINGS,SC,29058-8411,Lancaster,803-273-3227,"CASSANOVA, CATHY PH#: ; WILLIAMS, SUSAN S. PH#: 803-273-3227",SFBARNES11@GMAIL.COM,,CRC-1903 / 12/31/2021,Lancaster / Corporation,PO BOX 8118,SADDLE BROOK,NJ,07663-8118,HSRCC PARTNERS LLC,N,N,64,,-80.67038419,34.59388799,HLRESIDENTIALCARE,530225.8967,3828057.656
HELENA PLACE,1624 PARIS AVE,PORT ROYAL,SC,29935-2041,Beaufort,843-982-0233,"KESLER, LORIE A. PH#: 843-982-0233",LKESLER@ENLIVANT.COM,LKESLER@ENLIVANT.COM,CRC-1409 / 11/30/2021,Beaufort / ,330 N WABASH AVE STE 3700,CHICAGO,IL,60611-7605,HELENA AID OPCO LLC,N,N,44,44,-80.692194,32.382022,HLRESIDENTIALCARE,528952.838,3582822.904
HELMS-GORDON RESIDENTIAL CARE HOME,714 FUNDERBURKE RD,FORT LAWN,SC,29714-8593,Chester,803-872-4253,"GORDON, MELISSA K. PH#: 803-872-4253",MKGORDON@COMPORIUM.NET,MKGORDON@COMPORIUM.NET,CRC-0527 / 07/31/2021,Chester / Sole Proprietorship,PO BOX 188,FORT LAWN,SC,29714-0188,HELMS-GORDON RESIDENTIAL CARE HOME LLC,N,N,32,32,-80.91152851,34.68903933,HLRESIDENTIALCARE,508103.5934,3838563.153
HERITAGE AT LOWMAN RESIDENTIAL CARE,2101 DUTCH FORK RD,CHAPIN,SC,29036,Richland,803-732-8800,"HYMAN, ASHLEY PH#: 803-732-8800",AHYMAN@THEHERITAGEATLOWMAN.ORG,AHYMAN@THEHERITAGEATLOWMAN.ORG,CRC-0840 / 09/30/2021,Richland / Non-Profit Corporation,PO BOX 444,WHITE ROCK,SC,29177-0444,LUTHERAN HOMES OF SOUTH CAROLINA INC,Y,Y,132,132,-81.2755918,34.14337327,HLRESIDENTIALCARE,474592.4959,3778087.403
HERRIOTT'S RESIDENTIAL CARE FACILITY,114 LIME LN,SUMTER,SC,29150-6630,Sumter,803-773-6882,"YORK-HERRIOTT, LUCINDA PH#: 803-773-6882",LUCINDAHERRIOTT@GMAIL.COM,LUCINDAHERRIOTT@GMAIL.COM,CRC-1013 / 06/30/2022,Sumter / Partnership,1685 REEDROMAN RD,SUMTER,SC,29153-8497,JOHN & LUCINDA HERRIOTT,N,N,14,14,-80.33770786,33.90247351,HLRESIDENTIALCARE,561231.5709,3751539.92
HILLS OF CUMBERLAND VILLAGE,3215 WISE CREEK LN,AIKEN,SC,29801-2534,Aiken,803-641-8444,"CHEATHAM, MELISSA PH#: 803-641-8444",MCHEATHAM@MARRINSON.COM,MCHEATHAM@MARRINSON.COM,CRC-1121 / 09/30/2021,Aiken / Corporation,3215 WISE CREEK LN,AIKEN,SC,29801-2534,MARRINSON GROUP INC,N,N,34,34,-81.77381704,33.55816745,HLRESIDENTIALCARE,428170.9672,3713436.356
HILLTOP OF GREENVILLE MEMORY CARE,352 PELHAM RD,GREENVILLE,SC,29615,Greenville,864-558-0383,"HOWARD, KAYLA PH#: 864-558-0383; JASMON, JOSEPH PH#: ",ED@MEMORYCAREOFGREENVILLECOM,,CRC-1947 / 04/30/2022,Greenville / Limited Liability,545 E JOHN CARPENTER FREEWAY STE 500,IRVING,TX,75062,GREENVILLE MEMORY CARE LLC,Y,Y,54,,-82.340055,34.860755,HLRESIDENTIALCARE,377507.1376,3858420.394
HITCHCOCK PLACE,102 CREPE MYRTLE DR OFC,AIKEN,SC,29803-7552,Aiken,803-649-6439,"FAIRCHILD, JAMES KEVIN PH#: 803-649-6439",LEGALHELP@ENLIVANT.COM,JFAIRFIELD@ENLIVANT.COM,CRC-1412 / 11/30/2021,Aiken / ,330 N WABASH AVE STE 3700,CHICAGO,IL,60611-7605,HITCHCOCK AID OPCO LLC,N,N,44,44,-81.73733846,33.51359869,HLRESIDENTIALCARE,431522.0082,3708470.185
IDA LANE I CRCF,120 IDA LN,COLUMBIA,SC,29203-9234,Richland,803-786-7522,"PRIVETTE-HOLMES, CYNTHIA D. PH#: ",RWROTEN@BABCOCKCENTER.ORG,,CRC-1520 / 03/31/2022,Richland / Corporation,2725 BANNY JONES AVE,WEST COLUMBIA,SC,29170-2109,BABCOCK CENTER INC,N,N,8,,-80.98035325,34.11219588,HLRESIDENTIALCARE,501811.9461,3774596.322
IDA LANE II CRCF,124 IDA LN,COLUMBIA,SC,29203-9234,Richland,803-786-7522,"PRIVETTE-HOLMES, CYNTHIA D. PH#: ",AGASS@BABCOCKCENTER.ORG,,CRC-1518 / 12/31/2021,Richland / Corporation,2725 BANNY JONES AVE,WEST COLUMBIA,SC,29170-2109,BABCOCK CENTER INC,N,N,8,,-80.97957166,34.11218648,HLRESIDENTIALCARE,501884.0292,3774595.294
INDIGO HALL,509 STANDARD WAY,CHARLESTON,SC,29412,Charleston,843-406-4747,"DRINKARD, KRISTY L. PH#: ",ADMINISTRATION@INDIGOHALL.COM,ADMINISTRATION@INDIGOHALL.COM,CRC-1922 / 11/30/2021,Charleston / Limited Liability,,,,,INDIGO HALL OPERATING CO LLC,Y,Y,179,,-79.980562,32.761207,HLRESIDENTIALCARE,595489.5812,3625274.547
INLET COASTAL RESORT,5087 HWY 17 N BP,MURRELLS INLET,SC,29576,Georgetown,843-405-2005, PH#: ,ADMINISTRATOR@INLETCOASTAL.COM,,CRC-1549 / 08/31/2021,Georgetown / Limited Liability,5087 OCEAN HWY 17 N BYPASS,MURRELL'S INLET,SC,29576,INLET COASTAL RESORT LLC,Y,Y,62,,-79.05792714,33.53534178,HLRESIDENTIALCARE,680330.3884,3712326.332
INLET OAKS ASSISTED LIVING COMMUNITY,12287 HWY 707,MURRELLS INLET,SC,29576-9739,Horry,843-357-0317,"GRAHAM, DENISE PH#: ",DENISE@SCSENIORCARE.NET,DENISE@SCSENIORCARE.NET,CRC-1560 / 12/31/2021,Horry / Corporation,12287 HWY 707,MURRELLS INLET,SC,29576-9739,PARTNERS IN HOPE INC,N,N,60,,-79.03949091,33.58037547,HLRESIDENTIALCARE,681948.0404,3717352.591
INVERNESS AT SPARTANBURG,2720 COUNTRY CLUB RD,SPARTANBURG,SC,29302-4473,Spartanburg,864-591-1116, PH#: ,MDEATON@AFFINITYLIVINGGROUP.COM,,CRC-1351 / 07/31/2021,Spartanburg / Limited Liability,PO BOX 2568,HICKORY,NC,28603-2568,DSJ AL HOLDINGS LLC,Y,Y,100,100,-81.8585992,34.93906297,HLRESIDENTIALCARE,421592.3445,3866621.884
IVORYS LOVING CARE II,4108 S RHETT AVE,N CHARLESTON,SC,29405,Charleston,843-554-0733,"SANDERS, JUANITA PH#: 843-654-0733",SISTERSANDERS@COMCAST.NET,SISTERSANDERS@COMCAST.NET,CRC-2092 / 07/31/2021,Charleston / Sole Proprietorship,2827 SPRUILL AVE,NORTH CHARLESTON,SC,29405-8050,"SANDERS, JUANITA",N,Y,10,,-79.98495582,32.86924445,HLRESIDENTIALCARE,594962.8724,3637248.078
IVORY'S LOVING CARE RESIDENTIAL FACILITY,2827 SPRUILL AVE,NORTH CHARLESTON,SC,29405-8050,Charleston,843-745-2339,"SANDERS, JUANITA PH#: 843-745-2339",SISTERSANDERS@COMCAST.NET,SISTERSANDERS@COMCAST.NET,CRC-1383 / 04/30/2022,Charleston / Partnership,2827 SPRUILL AVE,NORTH CHARLESTON,SC,29405-8050,JUANITA SANDERS & GENEVA NELSON,N,N,7,7,-79.96296938,32.85046586,HLRESIDENTIALCARE,597040.3629,3635186.181
IVY GROVE RESIDENTIAL CARE CENTER,483 LOCKHART LN,GAFFNEY,SC,29341-2841,Cherokee,864-487-0869,"MELEKWE, OBIAJULU E. PH#: 864-487-0869",OSKARMANI@AOL.COM,OSKARMANI@AOL.COM,CRC-1458 / 10/31/2021,Cherokee / Ltd. Liability,483 LOCKHART LN,GAFFNEY,SC,29341-2841,HARMONY RESIDENTIAL CARE CENTER LLC,N,Y,62,62,-81.64778595,35.09846898,HLRESIDENTIALCARE,440958.9315,3884154.899
J & T RESIDENTIAL CARE FACILITY,604 WAGON WHEEL RD,HAMPTON,SC,29924-5346,Hampton,803-943-7177,"HAMILTON, DA'ASIA S. PH#: 803-943-7177",JTRESIDENTIALCARE@GMAIL.COM,JTRESIDENTIALCARE@GMAIL.COM,CRC-1094 / 05/31/2022,Hampton / Sole Proprietorship,604 WAGON WHEEL RD,HAMPTON,SC,29924-5346,"MYERS, THELMA S.",N,Y,10,13,-81.05295755,32.89372831,HLRESIDENTIALCARE,495047.0034,3639506.998
J C LARAES SOUTHWINDS ASSISTED LIVING COMMUNITY,308 HUMPHRIES RD,RIDGEWAY,SC,29130-9648,Kershaw,803-438-4052,"OWENS, JUDY W. PH#: 803-438-4052",JUDYOWENS53@YAHOO.COM,"JUDYOWENS53@YAHOO.COM",CRC-1181 / 09/30/2021,Kershaw / Sole Proprietorship,PO BOX 1382,LUGOFF,SC,29078-1382,ANNA L OWENS,N,N,5,7,-80.79773634,34.28765449,HLRESIDENTIALCARE,518615.4282,3794069.796
J J RESIDENTIAL CARE,748 GREEN ST,ORANGEBURG,SC,29115-4805,Orangeburg,803-539-2604,"BLACK, EMILY PH#: 803-539-2604",EYBLACK52@MAIL.COM,,CRC-0831 / 09/30/2021,Orangeburg / Sole Proprietorship,PO BOX 204,ORANGEBURG,SC,29116-0204,BARBARA W IRICK,N,N,10,11,-80.86824853,33.49701153,HLRESIDENTIALCARE,512238.2097,3706395.658
JENNI-LYNN ASSISTED LIVING COMMUNITY,915 HOOK AVE,WEST COLUMBIA,SC,29169-5332,Lexington,803-926-8600,"CARLSON, PAULA PH#: ",GTHOMPSON@PREMIERSL.COM,,CRC-1248 / 09/30/2021,Lexington / Ltd. Liability,915 HOOK AVE,WEST COLUMBIA,SC,29169-5332,JENNI-LYNN ASSISTED LIVING LLC,N,N,63,63,-81.10063518,33.99628156,HLRESIDENTIALCARE,490706.1526,3761748.248
JESSAMINE COMMUNITY RESIDENCE,143 JESSAMINE AVE,GEORGETOWN,SC,29440-5837,Georgetown,843-527-1390,"RANDOLPH, STACEY PH#: 843-527-1390",EKRAUSS@GCBDSN.COM,SANTLEY@GCBDSN.COM,CRC-1445 / 06/30/2022,Georgetown / County,"95 ACADEMY AVE, GEORGETOWN COUNTY DSNB",GEORGETOWN,SC,29440,GEORGETOWN COUNTY BOARD OF DISABILITIES AND SPECIAL NEEDS,N,N,8,8,-79.28888158,33.40975181,HLRESIDENTIALCARE,659111.9924,3698022.032
JOANNE'S COMMUNITY CARE HOME #1,5048 PERCIVAL RD,ELGIN,SC,29045-9156,Richland,803-736-3860,"CALDWELL, JOANNE M. PH#: 803-736-3860",TOWANA_HAYES@ATT.NET,JOANNESCCH@AOL.COM,CRC-0932 / 06/30/2021,Richland / Sole Proprietorship,PO BOX 23494,COLUMBIA,SC,29224-3494,"CALDWELL, JOANNE M.",N,N,10,10,-80.80785852,34.10872984,HLRESIDENTIALCARE,517721.2217,3774228.496
JOANNE'S COMMUNITY CARE HOME II,756 FARROWOOD DR,COLUMBIA,SC,29223-7801,Richland,803-736-3094,"CALDWELL, JOANNE M. PH#: 803-736-3094",JOANNESCCH@AOL.COM,JOANNESCCH@AOL.COM,CRC-0030 / 03/31/2022,Richland / Sole Proprietorship,PO BOX 23494,COLUMBIA,SC,29224-3494,"CALDWELL, JOANNE M.",N,N,9,9,-80.93897259,34.11109484,HLRESIDENTIALCARE,505628.4023,3774475.746
JOHNSONVILLE ADULT CARE SERVICES,351 S MIDWAY HWY,JOHNSONVILLE,SC,29555-6242,Florence,843-380-0777,"ROBINSON, RHONDA H. PH#: 843-380-0777",JADC2011@YAHOO.COM,JADC2011@YAHOO.COM,CRC-1530 / 11/30/2021,Florence / Ltd. Liability,PO BOX 1118,JOHNSONVILLE,SC,29555-1118,JOHNSONVILLE ADULT CARE SERVICES LLC,N,N,22,,-79.472263,33.80814129,HLRESIDENTIALCARE,641406.0275,3741932.512
JOSHUAS FOUNDATION,388 ELBOW CIR,RIDGEWAY,SC,29130,Fairfield,803-337-8701,"HAYES, TOWANA PH#: 803-337-8701",MBERNARDEZ@JOSHUASFOUNDATION.ORG,TOWANA_HAYSE@ATT.NET,CRC-0659 / 02/28/2022,Fairfield / Non-Profit Corporation,"388 ELBOW CIR, PO BOX 35",RIDGEWAY,SC,29130,JOSHUA'S FOUNDATION INC,N,N,20,20,-80.94217531,34.30077594,HLRESIDENTIALCARE,505321.091,3795507.748
JOSIE DRIVE COMMUNITY RESIDENCE,210 JOSIE DR,WALTERBORO,SC,29488-2791,Colleton,843-549-6979,"FARMER, THERESA L. PH#: 843-549-6979",TFARMER@COLLETONDSN.ORG,TFARMER@COLLETONDSN.ORG,CRC-1528 / 09/30/2021,Colleton / State,210 JOSIE DR,WALTERBORO,SC,29488-2791,COLLETON COUNTY BOARD OF DISABILITIES AND SPECIAL NEEDS,N,N,8,,-80.67194037,32.9161129,HLRESIDENTIALCARE,530675.0011,3642034.997
JOY COMMUNITY CARE HOME,6800 DOBY DR,COLUMBIA,SC,29203-5133,Richland,803-754-3157,"DOUGLAS, JONATHAN PH#: 803-754-3157",JDQCSI@AOL.COM,JDQCSI@AOL.COM,CRC-0961 / 11/30/2021,Richland / Sole Proprietorship,PO BOX 25215,COLUMBIA,SC,29224-5215,"SCOTT, DEBORAH A.",N,N,10,11,-80.98674285,34.06559776,HLRESIDENTIALCARE,501223.3269,3769429.445
KEMPTON OF GREENVILLE,1560 THORNBLADE BLVD,GREER,SC,29650-4520,Greenville,864-968-1277,"FREEMAN, LEIGHA M. PH#: 864-601-1440",LEFREEMAN@LIBERTYSENIORLIVING.COM,LEIGHA.FREEMAN@QUILLENMANORLIVING.COM,CRC-2021 / 09/30/2021,Greenville / Limited Liability,ONE TOWN CENTER RD STE 300,BOCA RATON,FL,33486,GREENVILLE SENIOR HOUSING I OPCO LLC,Y,Y,100,,-82.256996,34.869968,HLRESIDENTIALCARE,385112.7649,3859343.767
KENSINGTON I,100 KENSINGTON RD,COLUMBIA,SC,29203-5451,Richland,803-931-3263, PH#: ,C.WRIGHT@CHESCOSERVICES.ORG,,CRC-1532 / 06/30/2022,Richland / Sole Proprietorship,"110 PONTIAC BUSINESS CENTER DR STE C, CHESCO SERVICES",ELGIN,SC,29045,CHESCO SERVICES,N,N,8,,-81.05749915,34.03091253,HLRESIDENTIALCARE,494692.0021,3765584.997
KENSINGTON II GROUP HOME,120 KENSINGTON RD,COLUMBIA,SC,29203-5451,Richland,803-252-0848,"TURNER, SUSAN PH#: 803-252-0848",C.WRIGHT@CHESCOSERVICES.ORG,S.TURNER@CHESCOSERVICES.ORG,CRC-1536 / 11/30/2021,Richland / Sole Proprietorship,,,,,CHESCO SERVICES,N,N,8,,-81.10957555,33.97542385,HLRESIDENTIALCARE,489878.0195,3759436.437
KEOWEE PLACE,475 ROCHESTER HWY,SENECA,SC,29672,Oconee,864-886-0070, PH#: ,LEGALHELP@ENLIVANT.COM,,CRC-1460 / 12/31/2021,Oconee / Ltd. Liability,330 N WABASH AVE STE 3700,CHICAGO,IL,60611-7605,INN AT SENECA AID OPCO LLC,N,N,50,50,-82.92747218,34.71052328,HLRESIDENTIALCARE,323486.0027,3842632.998
KIVA LODGE,200 CLAUDE BUNDRICK RD,BLYTHEWOOD,SC,29016-9420,Richland,803-764-2761, PH#: ,JJAY@MHA-SC.ORG,,CRC-1092 / 07/31/2021,Richland / Corporation,1823 GADSDEN ST,COLUMBIA,SC,29201-2344,MENTAL HEALTH AMERICA OF SOUTH CAROLINA,N,N,5,5,-80.91849826,34.21360099,HLRESIDENTIALCARE,507507.619,3785843.046
L & B CARE HOME,924 BARR WOODS RD,SALUDA,SC,29138-8191,Saluda,864-993-3072,"GOLDMAN, LESA L. PH#: 864-993-3072",JWLONG@EMBARQMAIL.COM,JWLONG@EMBARQMAIL.COM,CRC-0530 / 07/31/2014,Saluda / Partnership,PO BOX 384,SALUDA,SC,29138-0384,LESA L GOLDMAN & FAYE LONG,N,N,24,27,-81.70457386,34.04673837,HLRESIDENTIALCARE,434969.1717,3767562.123
LADIES COMMUNITY RESIDENCE,408 WEBB ST,CONWAY,SC,29527-5842,Horry,843-349-7271,"CORNELL, TERRY PH#: 843-349-7271",JBROMELL@HCDSN.ORG,ACORNELL@HCDSN.ORG,CRC-1449 / 07/31/2021,Horry / County,408 WEBB ST,CONWAY,SC,29527-5842,HORRY COUNTY DISABILITIES AND SPECIAL NEEDS BOARD,N,N,8,8,-79.08003558,33.81729794,HLRESIDENTIALCARE,677696.0012,3743555.998
LADSON'S RESIDENTIAL HOME CARE,1116 CAMP RD,CHARLESTON,SC,29412-8831,Charleston,843-762-6443,"LADSON, PAULINE M. PH#: 843-762-6443",PAULINELADSON@ATT.NET,PAULINELADSON@ATT.NET,CRC-1256 / 09/30/2021,Charleston / Sole Proprietorship,1116 CAMP RD,CHARLESTON,SC,29412-8831,"LADSON, PAULINE",N,N,5,5,-79.94708115,32.72664153,HLRESIDENTIALCARE,598663.8074,3621473.215
LAKE WYLIE ASSISTED LIVING COMMUNITY,4877 CHARLOTTE HWY,CLOVER,SC,29710-8096,York,803-831-9900, PH#: ,MBRAKEFIELD@SENIORLIFESTYLE.COM,,CRC-1241 / 01/31/2022,York / Limited Liability,4877 CHARLOTTE HWY,CLOVER,SC,29710-8096,LSREF GOLDEN OPS 14 (SC) LLC,N,N,110,118,-81.0706488,35.11471586,HLRESIDENTIALCARE,493562.1896,3885767.02
LAKES AT LITCHFIELD ASSISTED LIVING,120 LAKES AT LITCHFIELD DR,PAWLEYS ISLAND,SC,29585-5515,Georgetown,843-235-9393,"PORTER, RICHARD WAYNE PH#: ",LEXINGTON-LICENSING@WELL-MORE.COM,WPORTER@LAKES-LITCHFIELD.COM,CRC-1116 / 08/31/2021,Georgetown / Ltd. Liability,3530 TORINGDON WAY STE 204,CHARLOTTE,NC,28277-3436,LITCHFIELD RETIREMENT LLC,Y,Y,79,57,-79.10680036,33.4750375,HLRESIDENTIALCARE,675913.6491,3705555.06
LAKESIDE PLACE SENIOR LIVING,487 HWY 378,LEXINGTON,SC,29072,Lexington,803-520-0985, PH#: ,ED@LAKESIDEPLACESC.COM,,CRC-2011 / 03/31/2022,Lexington / Limited Liability,487 HWY 378,LEXINGTON,SC,29072,CR LAKESIDE PLACE SENIOR LIVING LLC,Y,Y,90,,-81.28412575,33.99154584,HLRESIDENTIALCARE,473758.9634,3761254.973
LAKEVIEW ASSISTED LIVING,320 CAMP RD,WALHALLA,SC,29691-4811,Oconee,864-638-5212,"WRIGHT, DOUGLAS A. PH#: 864-225-3370",DWRIGHT@SENIORSOLUTIONS-SC.ORG,DWRIGHT@SENIORSOLUTIONS-SC.ORG,CRC-0086 / 04/30/2022,Oconee / Non-Profit Corporation,3420 CLEMSON BLVD STE 17,ANDERSON,SC,29621-1324,LAKEVIEW ASSISTED LIVING INC,N,Y,19,19,-83.113416,34.723327,HLRESIDENTIALCARE,306484.9312,3844395.29
LAKEWOOD SENIOR LIVING,3709 CLARK RD,BOILING SPRINGS,SC,29316,Spartanburg,864-586-1457,"BOWMAN, KAREN S. PH#: 864-586-1457",DLITTLE3@MINDSPRING.COM,KKHERITAGE14@GMAIL.COM,CRC-1924 / 10/31/2021,Spartanburg / Limited Liability,PO BOX 6384,SPARTANBURG,SC,29304-6384,CR LAKEWOOD LLC,Y,Y,90,,-82.00244569,35.0600217,HLRESIDENTIALCARE,408590.419,3880158.649
LANDRUM COMMUNITY RESIDENCE I,722 BOMAR AVE,LANDRUM,SC,29356,Spartanburg,864-457-1370,"MASON, SUZAN B. PH#: 864-457-1370",SMASON@CHARLESLEA.ORG,SMASON@CHARLESLEA.ORG,CRC-1507 / 08/31/2021,Spartanburg / Corporation,195 BURDETTE ST,SPARTANBURG,SC,29307-1003,CHARLES LEA CENTER,N,N,5,,-82.18053859,35.16792004,HLRESIDENTIALCARE,392491.8554,3892302.998
LANDRUM COMMUNITY RESIDENCE II,722 BOMAR AVE,LANDRUM,SC,29356,Spartanburg,864-457-1374,"MASON, SUZAN B. PH#: 864-457-1370",SMASON@CHARLESLEA.ORG,SMASON@CHARLESLEA.ORG,CRC-1508 / 08/31/2021,Spartanburg / Corporation,195 BURDETTE ST,SPARTANBURG,SC,29307-1003,CHARLES LEA CENTER,N,N,5,,-82.18053859,35.16792004,HLRESIDENTIALCARE,392491.8554,3892302.998
LANGIT'S ASSISTED LIVING FACILITY,1273 REMOUNT RD,NORTH CHARLESTON,SC,29406-3439,Charleston,843-554-1671, PH#: ,JAMES.LANGIT@LANGITSASSISTEDLIVING.NET,,CRC-0861 / 03/31/2022,Charleston / Corporation,1273 REMOUNT RD,NORTH CHARLESTON,SC,29406-3439,LANGIT'S RESIDENTIAL HOME CARE INC,N,N,70,76,-79.99183474,32.90158633,HLRESIDENTIALCARE,594285.0249,3640827.498
LANGSTON PLACE,939 SPRINGDALE DR,CLINTON,SC,29325-7266,Laurens,864-833-0338,"MORGAN, MARY A. PH#: 864-833-0338",LEGALHELP@ENLIVANT.COM,MAMORGAN@ENLIVANT.COM,CRC-1408 / 11/30/2021,Laurens / ,330 N WABASH AVE STE 3700,CHICAGO,IL,60611-7605,LANGSTON AID OPCO LLC,N,N,44,44,-81.86763406,34.45763541,HLRESIDENTIALCARE,420307.0019,3813240.995
LAUREL CREST,100 JOSEPH WALKER DR,WEST COLUMBIA,SC,29169-6939,Lexington,803-796-0370,"ROWLETTE-CARTER, CASSANDRA N. PH#: 803-796-0370",CESSANDRA.CARTER@LAURELCREST.ORG,CASSANDRA.CARTER@LAURELCREST.ORG,CRC-1999 / 01/31/2022,Lexington / Non-Profit Corporation,100 JOSEPH WALKER DR,WEST COLUMBIA,SC,29169-6939,LAUREL CREST RETIREMENT COMMUNITY (NPC),Y,Y,26,,-81.06421,34.003451,HLRESIDENTIALCARE,494070.7086,3762540.531
LAURENS MEMORIAL HOME FOR AGED,3744 TORRINGTON RD,LAURENS,SC,29360-0638,Laurens,864-682-2322, PH#: ,MBDUNMOYER@AOL.COM,,CRC-0316 / 12/31/2021,Laurens / Non-Profit Corporation,PO BOX 638,LAURENS,SC,29360-0638,LAURENS MEMORIAL HOME FOR AGED INC,N,N,50,50,-81.94399762,34.50941544,HLRESIDENTIALCARE,413346.2834,3819045.746
LEGACY AT HAWTHORNE PARK,20 HAWTHORNE PARK CT,GREENVILLE,SC,29615-3194,Greenville,864-288-6775,"BAILEY, HOLLIE PH#: ",KEARA.LEE@NAVIONSL.COM,,CRC-2094 / 09/30/2021,Greenville / Limited Liability,,,,,NAVION BKE HAWTHORNE PARK LLC,Y,Y,68,,-82.330947,34.864039,HLRESIDENTIALCARE,378344.6403,3858773.491
LEGACY AT SOUTHPOINTE DRIVE,23 SOUTHPOINTE DR,GREENVILLE,SC,29607-5956,Greenville,846-675-0220, PH#: ,KEISHA.ELLIS@NAVIONSL.COM,,CRC-2108 / 11/30/2021,Greenville / Limited Liability,,,,,NAVION SOUTHPOINTE OPERATIONS LLC,N,Y,110,,-82.264209,34.81711,HLRESIDENTIALCARE,384379.5604,3853489.892
LEMONAIDE HOUSE,1018 CRYSTAL CLEAR LN,HOPKINS,SC,29061-8237,Richland,803-776-1742, PH#: ,LEMONS2LOVE@AOL.COM,,CRC-2170 / 10/31/2021,Richland / Limited Liability,,,,,LEMONAIDE HOUSE LLC,N,N,15,,-80.823662,33.96968,HLRESIDENTIALCARE,516290.3294,3758808.136
LENEVAR COMMUNITY RESIDENCE,1435 W LENEVAR DR,CHARLESTON,SC,29407-5118,Charleston,843-766-3061,"JOHNSTON, GLORIA J. PH#: 843-766-3061",GJOHNSTON@DSNCC.COM,DGOLDMINTZ@DSNCC.COM,CRC-0943 / 07/31/2021,Charleston / State,"PO BOX 22708, DISABILITIES BOARD OF CHARLESTON COUNTY",CHARLESTON,SC,29413-2708,DISABILITIES BOARD OF CHARLESTON COUNTY,N,N,8,8,-79.99783334,32.80983325,HLRESIDENTIALCARE,593820.5417,3630649.985
LEXINGTON PLACE,190 MCSWAIN DR,WEST COLUMBIA,SC,29169-4825,Lexington,312-725-7000, PH#: ,SARA@WRCOMPANIES.COM,,CRC-1989 / 10/31/2021,Lexington / Limited Liability,330 N WABASH AVE STE 3700,CHICAGO,IL,60611-7605,WEST COLUMBIA BG OPCO LLC,N,N,90,,-81.109431,34.010164,HLRESIDENTIALCARE,489895.5424,3763288.304
LIGHTHOUSE RESIDENTIAL CARE FACILITY,4033 DELREE ST LOT # 31,WEST COLUMBIA,SC,29170,Lexington,803-957-0583,"JONES, ERIC S. PH#: 803-957-0583",20LIGHTHOUSE17@GMAIL.COM,19EJONES19@GMAIL.COM,CRC-2013 / 03/31/2022,Lexington / Sole Proprietorship,48 CALEB CT,COLUMBIA,SC,29203,ANGELINE A SMITH,N,N,10,,-81.150133,33.971437,HLRESIDENTIALCARE,486130.9449,3758999.118
LOIS EARGLE HOME,406 WEBB ST,CONWAY,SC,29527-5842,Horry,843-349-7272,"CORNELL, TERRY A. PH#: 843-349-7272",ACORNELL@HCDSN.ORG,ACORNELL@HCDSN.ORG,CRC-1450 / 07/31/2021,Horry / County,408 WEBB ST,CONWAY,SC,29527-5842,HORRY COUNTY DISABILITIES AND SPECIAL NEEDS BOARD,N,N,8,8,-79.07951861,33.81722675,HLRESIDENTIALCARE,677744.0018,3743548.996
LONG'S RESIDENTIAL CARE CENTER,1280 DENNY HWY,SALUDA,SC,29138-8972,Saluda,864-445-7901,"LONG, MARY J. PH#: 864-445-7901",LONGSRESCARE@YAHOO.COM,LONGSRESCARE@YAHOO.COM,CRC-0592 / 05/31/2022,Saluda / Corporation,1280 DENNY HWY,SALUDA,SC,29138-8972,LONG'S RESIDENTIAL CARE CENTER INC,N,Y,32,33,-81.71411519,34.06204882,HLRESIDENTIALCARE,434100.3578,3769265.885
LONGWOOD PLANTATION,1687 LONGWOOD DR,ORANGEBURG,SC,29118-2307,Orangeburg,803-535-0250,"JOHNSON-STILL, JERRI PH#: 803-535-0250",JERRI.JOHNSON-STILL@LONGWOODPLANTATION.,JERRI.JOHNSON-STILL@LONGWOODPLANTATION,CRC-0797 / 10/31/2021,Orangeburg / Limited Liability,1687 LONGWOOD DR,ORANGEBURG,SC,29118-2307,LONGWOOD PLANTATION-FHE LLC,Y,Y,42,42,-80.86758347,33.52782776,HLRESIDENTIALCARE,512295.6262,3709812.312
LOWCOUNTRY ASSISTED LIVING,6060 EHRHARDT RD,EHRHARDT,SC,29081,Bamberg,803-267-2222,"CASSIDY, SHERRI, RN. PH#: 803-267-2222",LOWCOUNTRYAL@YAHOO.COM,LOWCOUNTRYAL@YAHOO.COM,CRC-2029 / 06/30/2022,Bamberg / Limited Liability,PO BOX 116,EHRHARDT,SC,29081-0116,LOWCOUNTRY ASSISTED LIVING LLC,N,N,10,,-81.015122,33.099475,HLRESIDENTIALCARE,498589.0385,3662314.945
LUCILLE MANOR COMMUNITY RESIDENTIAL CARE FACILITY,1004 R L COWARD RD,EASTOVER,SC,29044,Richland,803-400-2554, PH#: ,JACQUELINEMACK58@YAHOO.COM,,CRC-1967 / 04/30/2022,Richland / Limited Liability,27 CARRIAGE OAKS CT,COLUMBIA,SC,29229,LUCILLE MANOR COMMUNITY RESIDENTIAL CARE LLC,N,N,9,,-80.785756,33.940489,HLRESIDENTIALCARE,519798.8409,3755578.232
M & M RESIDENTIAL CARE HOME,408 GENEVA AVE,MARION,SC,29571-4416,Marion,843-423-0120,"GORDON, TEQULIA PH#: 843-423-0120",SANDYBURGESS98@YAHOO.COM,TSGORDON@BOP.GOV,CRC-1379 / 08/31/2021,Marion / Sole Proprietorship,2527 TRIPLE CROWN DR,FLORENCE,SC,29505,"BURGESS, SANDY M.",N,N,5,5,-79.391045,34.173466,HLRESIDENTIALCARE,648288.1528,3782559.487
MAGNOLIAS OF SANTEE,118 BRITAIN ST,SANTEE,SC,29142-8922,Orangeburg,803-854-2020,"HARRELL, KIMBERLY FAYE PH#: ",KIMBERLY@MAGNOLIASOFSANTEE.COM,KIMBERLY@MAGNOLIASOFSANTEE.COM,CRC-1987 / 09/30/2021,Orangeburg / Limited Liability,118 BRITAIN ST,SANTEE,SC,29142-8922,CEDAR COMMUNITIES AT SANTEE LLC,Y,Y,52,,-80.476773,33.484736,HLRESIDENTIALCARE,548609.0663,3705149.382
MAGNOLIAS OF SUMMERVILLE,335 MIDLAND PKWY,SUMMERVILLE,SC,29485-8138,Dorchester,843-821-4122,"DAVIS, SEAN PH#: ",SEAN@MAGNOLIASOFSUMMERVILLE.COM,SEAN@MAGNOLIASOFSUMMERVILLE.COM,CRC-1414 / 05/31/2022,Dorchester / Ltd. Liability,335 MIDLAND PKWY,SUMMERVILLE,SC,29485-8138,CAROLINA RETIREMENT SERVICES OF SUMMERVILLE LLC,N,N,60,60,-80.15456855,32.96390815,HLRESIDENTIALCARE,579010.0015,3647602.996
MAGNOLIAS OF WALTERBORO,210 ACADEMY RD,WALTERBORO,SC,29488-9208,Colleton,843-538-8181, PH#: ,SCOTT@MAGNOLIASOFWALTERBORO.COM,,CRC-2153 / 04/30/2022,Colleton / Limited Liability,,,,,MAGNOLIAS OF WALTERBORO LLC,N,N,44,,-80.660512,32.937288,HLRESIDENTIALCARE,531736.1642,3644385.877
MANNING PLACE,10 COMPANION CT,GREER,SC,29651-1288,Greenville,864-989-0707,"SCHAAF, HEIDI RENEE PH#: 864-414-1967",LEGALHELP@ENVLIVANT.COM,HSCHAAF@ENLIVANT.COM,CRC-1407 / 11/30/2021,Greenville / ,330 N WABASH AVE STE 3700,CHICAGO,IL,60611-7605,MANNING AID OPCO LLC,N,N,44,44,-82.23758465,34.95243919,HLRESIDENTIALCARE,387000.0024,3868467.997
MAPLES OF HONEA PATH,224 WILDWOOD DR,HONEA PATH,SC,29654-1335,Anderson,864-369-2000,"WILLIS, MARK N. PH#: 864-369-2000",MARK@MAPLESHP.COM,WILLISFORHOUSE@GMAIL.COM,CRC-0819 / 05/31/2022,Anderson / Corporation,224 WILDWOOD DR,HONEA PATH,SC,29654-1335,MAPLE MANOR INC,N,N,74,74,-82.40969374,34.44972661,HLRESIDENTIALCARE,370503.1593,3812923.876
MARCHBANKS ASSISTED LIVING AND MEMORY CARE,2203 MARCHBANKS AVE,ANDERSON,SC,29621-2247,Anderson,864-231-7786,"COLEMAN, KAYLA J. PH#: 864-231-7786; MOORE, BRENT J. PH#: 864-231-7786",BRENT@MARCHBANKSAL.COM,KAYLA@MARCHBANKSAL.COM,CRC-1413 / 05/31/2022,Anderson / Ltd. Liability,2203 MARCHBANKS AVE,ANDERSON,SC,29621-2247,CAROLINA RETIREMENT SERVICES OF ANDERSON LLC,Y,Y,60,60,-82.62964232,34.52705103,HLRESIDENTIALCARE,350434.6168,3821802.64
MARETT BOULEVARD COMMUNITY RESIDENTIAL CARE FACILITY,1721 MARETT BLVD EXT,ROCK HILL,SC,29730,York,803-327-9466,"MCKNIGHT, SHARON Y. PH#: 803-628-5999",LEETTA.HART@MAXABILITIES.ORG,SHARON.MCKNIGHT@MAXABILITIES.ORG,CRC-0883 / 08/31/2021,York / Non-Profit Corporation,PO BOX 549,YORK,SC,29745-0549,YORK COUNTY BOARD OF DISIBALITIES AND SPECIAL NEEDS,N,N,8,8,-81.01507274,34.96506478,HLRESIDENTIALCARE,498624.0031,3869168.996
MARIAN PARKINS COMMUNITY RESIDENCE I,103 KERNS AVE,GREENVILLE,SC,29609,Greenville,864-232-0282,"STONE, AMANDA PH#: 864-449-2641",AMANDA.STONE@THRIVEUPSTATE.ORG,,CRC-2036 / 11/30/2021,Greenville / Non-Profit Corporation,1700 RIDGE RD,GREENVILLE,SC,29606,GREENVILLE COUNTY DISABILITIES AND SPECIAL NEEDS BOARD,N,N,8,,-82.409699,34.879048,HLRESIDENTIALCARE,371169.2315,3860536.462
MARIAN PARKINS COMMUNITY RESIDENCE II,518 PICKETT ST,GREENVILLE,SC,29609,Greenville,864-232-0595,"STONE, AMANDA PH#: 864-288-1907",SWHITSEL@THRIVEUPSTATE.ORG,TYLER.REX@THRIVEUPSTATE.ORG,CRC-2037 / 11/30/2021,Greenville / Non-Profit Corporation,1700 RIDGE RD,GREENVILLE,SC,29607-4730,GREENVILLE COUNTY DISABILITIES AND SPECIAL NEEDS BOARD,N,N,8,,-82.409745,34.879371,HLRESIDENTIALCARE,371165.48,3860572.406
MARIA'S PRIORITY CARE RESIDENTIAL HOME I,3117 MEETING STREET RD,NORTH CHARLESTON,SC,29405-7980,Charleston,843-554-0064,"PARANAL, ROGERIA R. PH#: 843-554-0064",RRPARANAL@GMAIL.COM,RRPARANAL@GMAIL.COM,CRC-0937 / 07/31/2021,Charleston / Sole Proprietorship,3117 MEETING STREET RD,NORTH CHARLESTON,SC,29405-7980,"PARANAL, ROGERIA R.",N,N,7,7,-79.9722828,32.85163952,HLRESIDENTIALCARE,596167.5525,3635307.779
MARIA'S PRIORITY CARE RESIDENTIAL HOME II-B,4583 DURANT AVE,NORTH CHARLESTON,SC,29405-5212,Charleston,843-566-0460,"RELLORA, JESUS N. PH#: 843-566-0460",JNRELLORA4SUS@GMAIL.COM,JNRELLORA4SUS@GMAIL.COM,CRC-0772 / 06/30/2021,Charleston / Partnership,PO BOX 61870,NORTH CHARLESTON,SC,29419-1870,JESUS N AND WILHELMINA C RELLORA,N,N,7,7,-79.99029856,32.87702837,HLRESIDENTIALCARE,594454.7534,3638106.247
MARIA'S PRIORITY CARE RESIDENTIAL HOME II-F,4583 DURANT AVE,NORTH CHARLESTON,SC,29405-5212,Charleston,843-566-0460,"RELLORA, JESUS N. PH#: 843-566-0460",JNRELLORA4SUS@GMAIL.COM,JNRELLORA4SUS@GMAIL.COM,CRC-0774 / 06/30/2021,Charleston / Partnership,PO BOX 61870,NORTH CHARLESTON,SC,29419-1870,JESUS N AND WILHELMINA C RELLORA,N,N,5,6,-79.99029856,32.87702837,HLRESIDENTIALCARE,594454.7534,3638106.247
MARIA'S PRIORITY CARE RESIDENTIAL HOME III,3115 MEETING STREET RD,NORTH CHARLESTON,SC,29405-7980,Charleston,843-554-0064,"PARANAL, ROGERIA R. PH#: 843-554-0064",RRPARANAL@GMAIL.COM,RRPARANAL@GMAIL.COM,CRC-0938 / 07/31/2021,Charleston / Sole Proprietorship,3115 MEETING STREET RD,NORTH CHARLESTON,SC,29405-7980,"PARANAL, ROGERIA R.",N,N,7,8,-79.97228098,32.85163862,HLRESIDENTIALCARE,596167.7231,3635307.681
MARTHA FRANKS BAPTIST RETIREMENT COMMUNITY,1 MARTHA FRANKS DR,LAURENS,SC,29360-1799,Laurens,864-984-4541, PH#: ,KHOLLIDAY@SCBMA.COM,,CRC-0360 / 02/28/2022,Laurens / Corporation,1 MARTHA FRANKS DR,LAURENS,SC,29360-1799,SOUTH CAROLINA BAPTIST MINISTRIES FOR THE AGING INC,Y,Y,82,82,-82.02572212,34.50039044,HLRESIDENTIALCARE,405834.0016,3818117.996
MARY'S HOME CARE,224 WARD LOOP,HEMINGWAY,SC,29554-3415,Georgetown,843-558-0953, PH#: ,MARYSHOMECARE1@GMAIL.COM,,CRC-1505 / 05/31/2022,Georgetown / Sole Proprietorship,224 WARD LOOP,HEMINGWAY,SC,29554-3415,"HOLMES, MARY W.",N,N,21,,-79.33780296,33.7032156,HLRESIDENTIALCARE,654040.4342,3730489.975
MARY'S RESIDENTIAL #2,633 SHARPE RD,COLUMBIA,SC,29203-9304,Richland,803-708-0300,"SIMMONS, NHAJIYAH PH#: 803-708-0300",M.BACOTE@HOTMAIL.COM,NHAJIYAH.SIMMONS@YAHOO.COM,CRC-1534 / 08/31/2021,Richland / Sole Proprietorship,529 HUMBLE DR,COLUMBIA,SC,29223-5435,"BACOTE, MARY",N,N,5,,-81.00509375,34.09081821,HLRESIDENTIALCARE,499530.1041,3772225.807
MARY'S RESIDENTIAL CARE FACILITY,10425 WILSON BLVD,BLYTHEWOOD,SC,29016-9017,Richland,803-708-1739,"SIMMONS, NHAJIYAH RAHESSIA PH#: 803-708-1739",NHAJIYAH.SIMMONS@YAHOO.COM,NHAJIYAH.SIMMONS@YAHOO.COM,CRC-1501 / 12/31/2021,Richland / Sole Proprietorship,529 HUMBLE DR,COLUMBIA,SC,29223-5435,"BACOTE, MARY",N,N,5,,-80.96913167,34.1830551,HLRESIDENTIALCARE,502844.4945,3782453.497
MARYVILLE COMMUNITY RESIDENCE,2602 OLD CHARLESTON RD,GEORGETOWN,SC,29440-1471,Georgetown,843-546-7268,"RANDOLPH, STACEY PH#: 843-546-7268",EKRAUSS@GCBDSN.COM,SANTLEY@GCBDSN.COM,CRC-1446 / 06/30/2021,Georgetown / County,"95 ACADEMY AVE, GEORGETOWN COUNTY DSNB",GEORGETOWN,SC,29440,GEORGETOWN COUNTY BOARD OF DISABILITIES AND SPECIAL NEEDS,N,N,8,8,-79.30074287,33.33675847,HLRESIDENTIALCARE,658141.0035,3689909.998
MASTER CARE,5870 MOOREFIELD MEMORIAL HWY,LIBERTY,SC,29657-9268,Pickens,864-878-9926,"MASTERS, JIMMY D. PH#: 864-878-9926",MASTERCAREASSIST@GMAIL.COM,JIMMY10536@ATT.NET,CRC-0358 / 02/28/2021,Pickens / Corporation,5870 MOOREFIELD MEMORIAL HWY,LIBERTY,SC,29657,MASTER CARE INC,N,N,14,14,-82.70183194,34.82697322,HLRESIDENTIALCARE,344370.8052,3855175.536
MCKINNEY HOUSE,307 MILLER RD,MAULDIN,SC,29662-2034,Greenville,864-297-5044,"DUNCAN, KIM PH#: 864-297-5044",KIM.DUNCAN@SCDMH.ORG,KIM.DUNCAN@SCDMH.ORG,CRC-2071 / 06/30/2021,Greenville / State,307 MILLER RD,MAULDIN,SC,29662-2034,SOUTH CAROLINA DEPARTMENT OF MENTAL HEALTH,N,N,10,,-82.306414,34.789308,HLRESIDENTIALCARE,380479.2173,3850456.106
MEADOWLARK DRIVE COMMUNITY RESIDENTIAL CARE FACILITY,1183 MEADOWLARK DR,ROCK HILL,SC,29730,York,803-327-9770,"MCKNIGHT, SHARON Y. PH#: 803-628-5999",LEETTA.HART@MAXABILITIES.ORG,SHARON.MCKNIGHT@MAXABILITIES.ORG,CRC-0881 / 08/31/2021,York / Non-Profit Corporation,PO BOX 549,YORK,SC,29745-0549,YORK COUNTY BOARD OF DISIBALITIES AND SPECIAL NEEDS,N,N,8,8,-81.07987739,34.94988698,HLRESIDENTIALCARE,492706.6142,3867488.657
MEMORY CARE OF SIMPSONVILLE,645 SCUFFLETOWN RD,SIMPSONVILLE,SC,29681,Greenville,864-962-3038,"MERRITT, RITA G. PH#: 864-579-0086",RMERRITT@MEMORYCARESIMPSONVILLE.COM,RMERRITT@MEMORYCARESIMPSONVILLE.COM,CRC-1886 / 08/31/2021,Greenville / Limited Liability,645 SCUFFLETOWN RD,SIMPSONVILLE,SC,29681,MCA SIMPSONVILLE OPERATING COMPANY,Y,Y,64,,-82.21556493,34.78519689,HLRESIDENTIALCARE,388785.663,3849895.741
MERRILL GARDENS AT CAROLINA PARK,3501 MERRILL PL,MOUNT PLEASANT,SC,29466,Charleston,843-606-5705,"JONES, ROBERT PH#: ",LICENSING@MERRILLGARDENS.COM,ROBERTJ@MERRILLGARDENS.COM,CRC-1917 / 11/30/2021,Charleston / Limited Liability,1938 FAIRVIEW AVE E STE 300,SEATTLE,WA,98102,NEW MERRILL GARDENS AT CAROLINA PARK LLC,Y,Y,193,,-79.77093607,32.88600582,HLRESIDENTIALCARE,614965.0964,3639319.236
MERRILL GARDENS AT COLUMBIA,2205 GREGG ST,COLUMBIA,SC,29201,Richland,647-227-7385,"ANHAR, WILSON PH#: ",WILSONA@MERRILLGARDENS.COM,WILSONA@MERRILLGARDENS.COM,CRC-1979 / 07/31/2021,Richland / ,1938 FAIRVIEW AVE E STE 300,SEATTLE,WA,98102,MERRILL GARDENS AT COLUMBIA LLC,Y,Y,18,,-81.029235,34.020071,HLRESIDENTIALCARE,497300.9728,3764381.744
MIDLAND PARK RESIDENTIAL HOME CARE,2712 MIDLAND PARK RD,NORTH CHARLESTON,SC,29406-4551,Charleston,843-569-0025,"SINGIAN, ROGELIO C. PH#: 843-569-0025",MIDLANDPARKRCF@GMAIL.COM,RVBALAGTASSC@AOL.COM,CRC-0905 / 01/31/2022,Charleston / Corporation,104 BIRKBECK CT,GOOSE CREEK,SC,29445,MIDLAND PARK ENTERPRISES INC,N,N,52,55,-80.04716665,32.92133297,HLRESIDENTIALCARE,589090.3218,3642968.596
MIDWAY RESIDENTIAL CARE FACILITY #1,4026 MOORE DUNCAN HWY,MOORE,SC,29369-9721,Spartanburg,864-433-8999,"WALKER, LINDA C. PH#: 864-433-8999",MIDWAYRESIDENTIALCARE@YAHOO.COM,MIDWAYRESIDENTIALCARE@YAHOO.COM,CRC-0318 / 12/31/2021,Spartanburg / Corporation,4026 MOORE DUNCAN HWY,MOORE,SC,29369-9721,MIDWAY RESIDENTIAL CARE FACILITY INC,N,N,13,13,-82.06386074,34.88468566,HLRESIDENTIALCARE,402783.0031,3860771.495
MIDWAY RESIDENTIAL CARE FACILITY #1A,4026 MOORE DUNCAN HWY,MOORE,SC,29369-9721,Spartanburg,864-433-8999,"WALKER, LINDA C. PH#: 864-433-8999",MIDWAYRESIDENTIALCARE@YAHOO.COM,MIDWAYRESIDENTIALCARE@YAHOO.COM,CRC-0320 / 12/31/2021,Spartanburg / Corporation,4026 MOORE DUNCAN HWY,MOORE,SC,29369-9721,MIDWAY RESIDENTIAL CARE FACILITY INC,N,N,14,14,-82.06387959,34.8846855,HLRESIDENTIALCARE,402781.281,3860771.496
MIDWAY RESIDENTIAL CARE FACILITY #2,4026 MOORE DUNCAN HWY,MOORE,SC,29369-9721,Spartanburg,864-433-8999,"WALKER, LINDA C. PH#: 864-433-8999",MIDWAYRESIDENTIALCARE@YAHOO.COM,MIDWAYRESIDENTIALCARE@YAHOO.COM,CRC-0321 / 12/31/2021,Spartanburg / Corporation,4026 MOORE DUNCAN HWY,MOORE,SC,29369-9721,MIDWAY RESIDENTIAL CARE FACILITY INC,N,N,25,25,-82.06390693,34.88468528,HLRESIDENTIALCARE,402778.7819,3860771.498
MIDWAY RESIDENTIAL CARE FACILITY #3,4026 MOORE DUNCAN HWY,MOORE,SC,29369-9721,Spartanburg,864-433-8999,"WALKER, LINDA C. PH#: 864-433-8999",MIDWAYRESIDENTIALCARE@YAHOO.COM,MIDWAYRESIDENTIALCARE@YAHOO.COM,CRC-0346 / 12/31/2021,Spartanburg / Corporation,4026 MOORE DUNCAN HWY,MOORE,SC,29369-9721,MIDWAY RESIDENTIAL CARE FACILITY INC,N,N,17,19,-82.06385528,34.88468572,HLRESIDENTIALCARE,402783.5029,3860771.496
MIDWAY RESIDENTIAL CARE FACILITY #4,4026 MOORE DUNCAN HWY,MOORE,SC,29369-9721,Spartanburg,864-433-8999,"WALKER, LINDA C. PH#: 864-433-8999",MIDWAYRESIDENTIALCARE@YAHOO.COM,MIDWAYRESIDENTIALCARE@YAHOO.COM,CRC-0322 / 12/31/2021,Spartanburg / Corporation,4026 MOORE DUNCAN HWY,MOORE,SC,29369-9721,MIDWAY RESIDENTIAL CARE FACILITY INC,N,N,14,14,-82.06385977,34.88468569,HLRESIDENTIALCARE,402783.0918,3860771.498
MIDWAY RESIDENTIAL CARE FACILITY #5,4026 MOORE DUNCAN HWY,MOORE,SC,29369-9721,Spartanburg,864-433-8999,"WALKER, LINDA C. PH#: 864-433-8999",MIDWAYRESIDENTIALCARE@YAHOO.COM,MIDWAYRESIDENTIALCARE@YAHOO.COM,CRC-0616 / 12/31/2021,Spartanburg / Corporation,4026 MOORE DUNCAN HWY,MOORE,SC,29369-9721,MIDWAY RESIDENTIAL CARE FACILITY INC,N,N,12,12,-82.06385528,34.88468572,HLRESIDENTIALCARE,402783.5029,3860771.496
MILL CREEK MANOR,651 POLO RD,COLUMBIA,SC,29223-2905,Richland,803-788-9555,"JOLLY, STEVE PH#: 843-801-4282",GILLES.OUELLETTE@MAINSTAYFINANCIAL.COM,,CRC-2174 / 10/31/2021,Richland / Limited Liability,,,,,MAINSTAY HEALTHCARE MILL CREEK LLC,N,N,59,,-80.891944,34.092572,HLRESIDENTIALCARE,509967.9617,3772425.47
MILL STREET COMMUNITY RESIDENCE,415 MILL ST,LAURENS,SC,29360-1905,Laurens,864-984-3506,"TAVENNER, JASON PH#: 864-984-3506",KMCGOWAN@LCDSNB.ORG,JTAVENNER@LCDSNB.ORG,CRC-1419 / 12/31/2021,Laurens / Non-Profit Corporation,1860 HWY 14,LAURENS,SC,29360-1068,LAURENS COUNTY DISABILITIES AND SPECIAL NEEDS BOARD,N,N,8,8,-82.00547124,34.50656456,HLRESIDENTIALCARE,407700.0014,3818783.997
MILLER PLACE RESIDENTIAL CARE,140 COX ST,SPARTANBURG,SC,29306-4807,Spartanburg,864-573-7008,"MILLER, JACKIE PH#: 864-494-8693",LAMAR@MILLERPLACESC.COM,,CRC-2166 / 02/28/2022,Spartanburg / Partnership,,,,,FRANK HENDERSON & EDWARD HARRISON,N,N,19,,-81.930064,34.917964,HLRESIDENTIALCARE,415044.3019,3864340.319
MIRCI GROUP HOME I,581 BECKMAN RD,COLUMBIA,SC,29203-3207,Richland,803-754-4221,"COLLINS, TIFFANY R. PH#: 803-754-8894",JAVIN@MIRCI.ORG,TCOLLINS@MIRCI.ORG,CRC-1443 / 06/30/2021,Richland / Corporation,1408 GREGG ST,COLUMBIA,SC,29201,MENTAL ILLNESS RECOVERY CENTER INC,N,N,6,6,-80.99371764,34.08179543,HLRESIDENTIALCARE,500579.6058,3771225.371
MIRCI GROUP HOME II,611 BECKMAN RD,COLUMBIA,SC,29203-3282,Richland,803-754-8894,"COLLINS, TIFFANY R. PH#: 803-754-8894",TCOLLINS@MIRCI.ORG,TCOLLINS@MIRCI.ORG,CRC-1444 / 06/30/2021,Richland / Corporation,1408 GREGG ST,COLUMBIA,SC,29201,MENTAL ILLNESS RECOVERY CENTER INC,N,N,6,6,-80.99487706,34.08112215,HLRESIDENTIALCARE,500472.6419,3771150.712
MORNINGSIDE OF ANDERSON,1304 MCLEES RD,ANDERSON,SC,29621-3345,Anderson,864-964-9088, PH#: ,LICENSING@5SSL.COM,,CRC-2132 / 01/31/2022,Anderson / Limited Liability,,,,,SNH SC TENANT LLC,N,Y,88,,-82.630424,34.525972,HLRESIDENTIALCARE,350361.0259,3821684.162
MORNINGSIDE OF BEAUFORT,109 OLD SALEM RD,BEAUFORT,SC,29902-5113,Beaufort,843-982-0220,"SIEGNER, TAMATHE J. PH#: 843-982-0220",TSIEGNER@5SSL.COM,TSIEGNER@5SSL.COM,CRC-2130 / 01/31/2022,Beaufort / Limited Liability,,,,,SNH SC TENANT LLC,N,N,49,,-80.713423,32.426299,HLRESIDENTIALCARE,526942.9253,3587725.487
MORNINGSIDE OF CAMDEN,715 KERSHAW HWY,CAMDEN,SC,29020-1634,Kershaw,803-713-8668,"SELLERS, CRYSTAL J. PH#: 803-713-8668",CJHOWELL@5SSL.COM,CJHOWELL@5SSL.COM,CRC-2133 / 01/31/2022,Kershaw / Limited Liability,,,,,SNH SC TENANT LLC,N,N,49,,-80.611492,34.29149,HLRESIDENTIALCARE,535755.0696,3794544.857
MORNINGSIDE OF GREENWOOD,116 ENTERPRISE CT,GREENWOOD,SC,29649-1666,Greenwood,864-388-9433,"ERVIN, JESSICA PH#: 864-388-9433",LICENSING@5SSL.COM,JERVIN@5SSL.COM,CRC-2131 / 01/31/2022,Greenwood / Limited Liability,,,,,SNH SC TENANT LLC,N,N,49,,-82.16408,34.215145,HLRESIDENTIALCARE,392768.8721,3786623.844
MORNINGSIDE OF HARTSVILLE,1901 W CAROLINA AVE,HARTSVILLE,SC,29550-4701,Darlington,843-857-0159, PH#: ,JFLICK@5SSL.COM,,CRC-2128 / 01/31/2022,Darlington / Limited Liability,,,,,SNH SC TENANT LLC,Y,Y,54,,-80.123997,34.364772,HLRESIDENTIALCARE,580550.7806,3802949.949
MORNINGSIDE OF LANCASTER,1004 HARDIN ST,LANCASTER,SC,29720-1609,Lancaster,803-801-1288,"HEMPHILL, TREVONDA PH#: 803-283-8152",LICENSING@5SSL.COM,THEMPHILL@5SSL.COM,CRC-1146 / 03/31/2021,Lancaster / Limited Liability Limited Partnership,"400 CENTRE ST, LICENSING DEPT",NEWTON,MA,02458-2094,MORNINGSIDE OF SOUTH CAROLINA LP,Y,Y,65,65,-80.78661668,34.74418965,HLRESIDENTIALCARE,519532.0011,3844695.996
MORNINGSIDE OF LEXINGTON,218 OLD CHAPIN RD,LEXINGTON,SC,29072-2030,Lexington,803-957-3600,"DEVAUGHN, TRACY PH#: 803-787-1234",LICENSING@5SSL.COM,TDEVAUGHN@5SSL.COM,CRC-2126 / 01/31/2022,Lexington / Limited Liability,,,,,SNH SC TENANT LLC,N,N,49,,-81.247121,33.993301,HLRESIDENTIALCARE,477177.172,3761440.765
MORNINGSIDE OF ORANGEBURG,2306 RIVERBANK DR,ORANGEBURG,SC,29118-4046,Orangeburg,803-539-2911,"BRUNSON, ROBIN PH#: 803-539-2911",RMBRUNSON@5SSL.COM,RMBRUNSON@5SSL.COM,CRC-2129 / 01/31/2022,Orangeburg / Limited Liability,,,,,SNH SC TENANT LLC,N,N,49,,-80.895706,33.511908,HLRESIDENTIALCARE,509686.1288,3708044.297
MORNINGSIDE OF ROCK HILL,1830 W MAIN ST,ROCK HILL,SC,29732-8965,York,803-980-4100, PH#: ,WLONG@5SSL.COM,,CRC-1114 / 08/31/2021,York / Limited Liability Limited Partnership,"400 CENTRE ST, LICENSING DEPT",NEWTON,MA,02458-2094,MORNINGSIDE OF SOUTH CAROLINA LP,N,N,60,60,-81.06294681,34.94277616,HLRESIDENTIALCARE,494252.0035,3866698.996
MORNINGSIDE OF SENECA,15855 WELLS HWY,SENECA,SC,29678-1078,Oconee,864-888-8886,"CAPPELLA, SAMANTHA PH#: ",LICENSING@5SSL.COM,SCAPPELLA@5SSL.COM,CRC-2127 / 01/31/2022,Oconee / Limited Liability,,,,,SNH SC TENANT LLC,N,N,59,,-82.990543,34.682958,HLRESIDENTIALCARE,317648.8729,3839688.105
MORNINGSIDE OF SUMTER,2500 LIN-DO CT,SUMTER,SC,29150-1832,Sumter,803-469-4490, PH#: ,LICENSING@5SSL.COM,,CRC-1079 / 04/30/2021,Sumter / Limited Liability Limited Partnership,"400 CENTRE ST, LICENSING DEPT",NEWTON,MA,02458-2094,MORNINGSIDE OF SOUTH CAROLINA LP,N,N,55,55,-80.397983,33.95341,HLRESIDENTIALCARE,555625.8204,3757153.453
MOUNT PLEASANT GARDENS,1025 HUNGRYNECK BLVD,MOUNT PLEASANT,SC,29464,Charleston,843-216-1001, PH#: ,MOUNTPLEASANTGARDENS-ADM@JEASENIORLIVING,,CRC-1984 / 06/30/2021,Charleston / Limited Liability,1025 HUNGRYNECK BLVD,MOUNT PLEASANT,SC,29464,MOUNT PLEASANT MANAGEMENT LLC,Y,Y,71,,-79.83753789,32.81968335,HLRESIDENTIALCARE,608815.8223,3631895.657
MY FATHER'S HOUSE,22 LARNES ST,CHARLESTON,SC,29403-2636,Charleston,843-723-7889,"STENT, JOSEPHINE I. PH#: 843-723-7889",EMCCREA@BELLSOUTH.NET,JSTENT@BELLSOUTH.NET,CRC-0459 / 02/28/2022,Charleston / Partnership,222 GORDON ST,CHARLESTON,SC,29403,JOSEPHINE STENT & ELOISE CHESTNUT,N,N,10,11,-79.95038129,32.79532755,HLRESIDENTIALCARE,598279.0573,3629084.927
MY MOTHER'S KEEPER,1609 HWY 41,MOUNT PLEASANT,SC,29464,Charleston,843-884-8867,"JACKSON, JACQUELYN M. PH#: 843-870-1839",MYMOTHERSKEEPER1@AOL.COM,MYMOTHERSKEEP1@AOL.COM,CRC-1840 / 02/28/2022,Charleston / Sole Proprietorship,,,,,MY MOTHERS KEEPER LLC,N,N,8,,-79.810259,32.881611,HLRESIDENTIALCARE,611292.2419,3638789.812
MYERS RESIDENTIAL CARE FACILITY,365 CALDON RD,SWANSEA,SC,29160-9541,Calhoun,803-568-3582,"MYERS, MARY L. PH#: 803-568-3582",MYERSRCF@PBTCOMM.NET,MYERSRCF@PBTCOMM.NET,CRC-0644 / 08/31/2021,Calhoun / Partnership,365 CALDON RD,SWANSEA,SC,29160-9541,LOUISE AND DAVID MYERS JR,N,N,5,6,-81.03829662,33.7052714,HLRESIDENTIALCARE,496451.223,3729478.497
MYERS RESIDENTIAL CARE FACILITY II,365 CALDON RD,SWANSEA,SC,29160-9541,Calhoun,803-568-3582,"MYERS, MARY LOUISE PH#: 803-568-3582",MYERSRCF@PBTCOMM.NET,MYERSRCF@PBTCOMM.NET,CRC-0851 / 01/31/2022,Calhoun / Partnership,365 CALDON RD,SWANSEA,SC,29160-9541,LOUISE AND DAVID MYERS JR,N,N,7,7,-81.03829565,33.70526237,HLRESIDENTIALCARE,496451.3124,3729477.495
MYRTLE BEACH ESTATES,3620 HAPPY WOODS CT,MYRTLE BEACH,SC,29588-2925,Horry,843-293-8888,"CRAWFORD, BRYAN PH#: 843-293-8888",TERRI.BAKER@JEASENIORLIVING.COM,BCRAWFORD@CAPITALSENIORLIVING.NET,CRC-1403 / 11/30/2021,Horry / Corporation,3620 HAPPY WOODS CT,MYRTLE BEACH,SC,29588-2925,CSL LEASECO INC,Y,Y,142,142,-78.97096118,33.67066638,HLRESIDENTIALCARE,688112.6226,3727488.248
MYRTLE BEACH MANOR RETIREMENT COMMUNITY,9547 HWY 17 N,MYRTLE BEACH,SC,29572-0000,Horry,843-449-5283, PH#: ,LICENSING@5SSL.COM,,CRC-2123 / 01/31/2022,Horry / Limited Liability,,,,,SNH SC TENANT LLC,Y,Y,111,,-78.798224,33.775337,HLRESIDENTIALCARE,703882.3964,3739424.716
NEW BEGINNINGS OF PINEVILLE,212 MITCHELLBAY LN,PINEVILLE,SC,29468-3200,Berkeley,843-351-2240,"RAVENELL, HELEN W. PH#: 843-351-2240",NEW.BEGINNINGS@TDS.NET,NEW.BEGINNINGS@TDS.NET,CRC-1521 / 04/30/2022,Berkeley / Corporation,,,,,NEW BEGININGS RESIDENTIAL CARE FACILITY,N,N,4,,-80.04276054,33.42092291,HLRESIDENTIALCARE,588995.9465,3698361.569
NEW HAVEN,2585 HWY 179,LITTLE RIVER,SC,29566,Horry,843-491-9290,"DOUGLASS, KATHLEEN PH#: ",BGODARD@COMPASSRE.COM,,CRC-2039 / 02/28/2022,Horry / ,,,,,BFG COMPASS LITTLE RIVER PROPCO IV LLC,Y,Y,90,,-78.587687,33.890729,HLRESIDENTIALCARE,723081.911,3752659.939
NEW LIGHT COMMUNITY CARE,120 ADDY LN,LEXINGTON,SC,29072-3405,Lexington,803-490-1428,"ANDERSON, VALENCIA W. PH#: 803-490-1428",NEWLIGHTCRF@YAHOO.COM,NEWLIGHTCRF@YAHOO.COM,CRC-1958 / 03/31/2022,Lexington / Non-Profit Corporation,316 HUNTERS RIDGE DR,LEXINGTON,SC,29072,NEW LIGHT COMMUNITY RESOURCE FOUNDATION,N,N,14,,-81.237385,33.978203,HLRESIDENTIALCARE,478072.5074,3759764.566
NORTH HAVEN RESIDENTIAL CARE HOME,4326 LESLIE ST,NORTH CHARLESTON,SC,29418-5441,Charleston,843-767-2541,"LANGIT, LEONORA D. PH#: 843-767-2541",NORAALFLLC@YAHOO.COM,NORAALFLLC@YAHOO.COM,CRC-0877 / 08/31/2021,Charleston / Corporation,4326 LESLIE ST,NORTH CHARLESTON,SC,29418-5441,NORTH HAVEN RESIDENTIAL CARE HOME INC,N,Y,16,18,-80.05199993,32.865,HLRESIDENTIALCARE,588694.5137,3636719.197
NORTH PINES COMMUNITY RESIDENCE,313 N PINES RD,BLYTHEWOOD,SC,29016-8788,Richland,803-754-6213,"LOCKHART, ELESHA J. PH#: 803-754-6213",C.WRIGHT@CHESCOSERVICES.ORG,E.LOCKHART@CHESCOSERVICES.ORG,CRC-1504 / 04/30/2022,Richland / Sole Proprietorship,110 PONTIAC BUSINESS CENTER DR STE C,ELGIN,SC,29045,CHESCO SERVICES,N,N,8,,-80.97881946,34.14871628,HLRESIDENTIALCARE,501952.5617,3778645.746
NORTH POINTE ASSISTED LIVING,701 SIMPSON RD,ANDERSON,SC,29621-3077,Anderson,864-226-5505,"PRESTON, JANE E. PH#: ",JPRESTON@CAPITALSENIORLIVING.NET,,CRC-1454 / 10/31/2021,Anderson / Limited Liability,701 SIMPSON RD,ANDERSON,SC,29621-3077,CSL NORTH POINTE SC LLC,Y,Y,70,70,-82.61267366,34.53521388,HLRESIDENTIALCARE,352006.5636,3822682.945
OAKBRIDGE TERRACE AT PARK POINTE VILLAGE,3025 CHESBROUGH BLVD,ROCK HILL,SC,29732-8078,York,803-327-4723,"LUNOW, MARIE PH#: 803-980-8634",STEVEN.ROBISON@ACTSLIFE.ORG,MLUNOW@ACTSLIFE.ORG,CRC-2030 / 09/30/2021,York / Corporation,3025 CHESBROUGH BLVD,ROCK HILL,SC,29732-8078,ACTS RETIREMENT-LIFE COMMUNITIES INC,N,Y,20,,-81.099979,34.955434,HLRESIDENTIALCARE,490871.94,3868105.496
OAKLEAF VILLAGE OF LEXINGTON,800 N LAKE DR,LEXINGTON,SC,29072-2903,Lexington,803-808-3477,"ELLIOTT, ASHLEY PH#: 803-808-3477",AELLIOTT@LIBERTYSENIORLIVING.COM,AELLIOTT@OAKLEAFSENIORLIVING.COM,CRC-2014 / 09/30/2021,Lexington / Limited Liability,800 N LAKE DR,LEXINGTON,SC,29072-2903,LEXINGTON SENIOR HOUSING I OPCO LLC,Y,Y,100,,-81.231367,33.992086,HLRESIDENTIALCARE,478631.8332,3761302.663
OAKRIDGE COMMUNITY CARE HOME #1,2470 OLD MILL RD,INMAN,SC,29349-9276,Spartanburg,864-472-6979, PH#: ,OAKRIDGEONE@GMAIL.COM,,CRC-0241 / 08/31/2021,Spartanburg / Corporation,2470 OLD MILL RD,INMAN,SC,29349-9276,OAKRIDGE COMMUNITY CARE HOME INC,N,N,38,39,-82.09751909,35.08569759,HLRESIDENTIALCARE,399952.0019,3883097.498
OAKRIDGE COMMUNITY CARE HOME #2,35 S HOWARD ST,INMAN,SC,29349-1339,Spartanburg,864-621-4958,"COKER, ROBIN S. PH#: 864-708-3299",OAKRIDGEONE@GMAIL.COM,R2958CWF@GMAIL.COM,CRC-0429 / 04/30/2021,Spartanburg / Corporation,107B BROCK ST,INMAN,SC,29349,OAKRIDGE COMMUNITY CARE HOME INC,N,N,10,11,-82.08604006,35.04638856,HLRESIDENTIALCARE,400950.9731,3878726.497
OAKS ASSISTED LIVING,1000 METHODIST OAKS DR,ORANGEBURG,SC,29115-1813,Orangeburg,803-534-1212, PH#: ,CLAY.FOWLERHEALTHCAREENTERPRISE@GMAIL.CO,,CRC-2190 / 03/31/2022,Orangeburg / Limited Liability,,,,,OAKS HEALTHCARE LLC,N,N,40,,-80.86264,33.492052,HLRESIDENTIALCARE,512759.983,3705846.425
OAKS OF LORIS,260 WATSON HERITAGE RD,LORIS,SC,29569,Horry,843-716-4673,"FLICK, JO ANN PH#: 843-716-4673",JOANN@SCSENIORCARE.NET,,CRC-1547 / 06/30/2021,Horry / Corporation,260 WATSON HERITAGE RD,LORIS,SC,29569,PARNERS IN HOPE INC,N,Y,60,,-78.8805054,34.01858633,HLRESIDENTIALCARE,695704.9213,3766242.475
OAKVIEW BOARDING HOME,1818 S LIVE OAK DR,MONCKS CORNER,SC,29461-7216,Berkeley,843-761-3273,"BIASCAN, ERLINDA M. PH#: 843-761-3273",BIASCANA@YAHOO.COM,BIASCANA@YAHOO.COM,CRC-1153 / 04/30/2022,Berkeley / Corporation,1818 S LIVE OAK DR,MONCKS CORNER,SC,29461-7216,OAKVIEW BOARDING HOME INC,N,N,10,11,-80.06215812,33.14452406,HLRESIDENTIALCARE,587467.752,3667700.498
OAKVIEW PARK ASSISTED LIVING,110 HOOD RD,GREENVILLE,SC,29611,Anderson,864-412-8990,"SURLS, ANGELA PH#: 864-653-4676",ASURLS@ATLASSENIORLIVING.COM,ASURLS@ATLASSENIORLIVING.COM,CRC-2064 / 02/28/2022,Anderson / Limited Liability,2700 HWY 280 STE 460E,BIRMINGHAM,AL,35223,AFF18 OAKVIEW PARK ALF LLC,Y,Y,90,,-82.48555862,34.79202844,HLRESIDENTIALCARE,364092.8683,3850985.673
OASIS RESIDENTIAL HOME,2317 PRINCE ST,GEORGETOWN,SC,29440-2925,Georgetown,843-527-4848,"GRAHAM, MAZIE E. PH#: 843-527-4848",OASISINC2001@YAHOO.COM,OASISINC2001@YAHOO.COM,CRC-1219 / 08/31/2021,Georgetown / Corporation,2317 PRINCE ST,GEORGETOWN,SC,29440-2925,OASIS RESIDENTIAL HOME INC,N,N,22,22,-79.30419427,33.37975413,HLRESIDENTIALCARE,657742.1468,3694672.376
OLIVER'S CARE HOME,1200 LAWHORN RD,BLYTHEWOOD,SC,29016-8975,Richland,803-754-3585,"MINGUS, KATHY L. PH#: ",OLIVERCAREHOME1941@GMAIL.COM,,CRC-1480 / 08/31/2021,Richland / Limited Liability,1200 LAWHORN RD,BLYTHEWOOD,SC,29016-8975,OLIVER CARE HOME LLC,N,N,5,,-80.90022306,34.2295243,HLRESIDENTIALCARE,509189.3292,3787610.154
PACIFICA SENIOR LIVING SKYLYN,1705 SKYLN DR,SPARTANBURG,SC,29307,Spartanburg,864-582-6838, PH#: ,ED.SKYLYN@PACIFICASENIORLIVING.COM,,CRC-1950 / 12/31/2021,Spartanburg / Limited Liability,1775 HANCOCK ST STE 200,SAN DIEGO,CA,92110,PACIFICA SKYLYN LLC,Y,Y,169,,-81.891758,34.97971,HLRESIDENTIALCARE,418604.4571,3871156.144
PADD-WREN HOME,2350 REGIONAL RD,FLORENCE,SC,29501-7028,Florence,843-673-1005,"TUMBLESON, KIMBERLY PH#: 843-673-1005",KTUMBLESON@PADDSC.ORG,KIMBERLYTUMBLESON2014@YAHOO.COM,CRC-1451 / 07/31/2021,Florence / Non-Profit Corporation,2350 REGIONAL RD,FLORENCE,SC,29501-7028,PRESBYTERIAN AGENCY FOR THE DEVELOPMENTALLY DISABLED INC,N,N,6,6,-79.81264491,34.23637751,HLRESIDENTIALCARE,609347.9122,3789003.054
PAGELAND CARE FACILITY,206 S GUM ST,PAGELAND,SC,29728-2304,Chesterfield,843-672-5930,"FUNDERBURK, DENNIS R. PH#: 843-672-5930",PAGECARE@SHTC.NET,PAGECARE@SHTC.NET,CRC-0999 / 04/30/2022,Chesterfield / Corporation,206 S GUM ST,PAGELAND,SC,29728-2304,FUNDERBURK ASSOCIATES INC,Y,Y,58,58,-80.3851908,34.77186153,HLRESIDENTIALCARE,556258.0036,3847915.996
PALMETTO GARDENS,425 S WHEELER AVE,PROSPERITY,SC,29127,Newberry,803-364-9113,"PEOPLES, TIFFANY PH#: 803-364-9113",PALMETTOGARDENSRESIDENTIAL@GMAIL.COM,PALMETTOGARDENSRESIDENTIAL@GMAIL.COM,CRC-1916 / 04/30/2022,Newberry / Sole Proprietorship,425 S WHEELER AVE,PROSPERITY,SC,29127,YVONNE HARRISON,N,N,30,,-81.519725,34.213567,HLRESIDENTIALCARE,452124.7765,3785958.326
PALMETTO RESIDENTIAL CARE OF NORTH CHARLESTON,2834 SPRUILL AVE,NORTH CHARLESTON,SC,29405-8051,Charleston,843-566-1509,"LESESNE, CLARA P. PH#: 843-566-1509",PATCH29311@HOTMAIL.COM,PATCH29311@HOTMAIL.COM,CRC-1322 / 08/31/2021,Charleston / Corporation,PO BOX 31774,CHARLESTON,SC,29417-1774,EVERGREEN RESIDENTIAL CARE INC,N,N,12,12,-79.96270728,32.85075893,HLRESIDENTIALCARE,597064.5708,3635218.913
PALMETTO RIDGE ASSISTED LIVING & MEMORY CARE,840 MANOR RD,CHERAW,SC,29520-4035,Chesterfield,843-537-4197,"CAMPBELL, JAMAL CORDE PH#: ",PALMETTORIDGE@YAHOO.COM,PALMETTORIDGE@YAHOO.COM,CRC-1393 / 03/31/2022,Chesterfield / Limited Liability,840 MANOR RD,CHERAW,SC,29520-4035,PALMETTO RIDGE ASSISTED LIVING AND MEMORY CARE LLC,Y,Y,106,106,-79.91543182,34.67660369,HLRESIDENTIALCARE,599358.5527,3837715.668
PALMETTO VILLAGE OF CHESTER,570 CENTER ST,CHESTER,SC,29706-1342,Chester,803-581-7319,"WATTS, GLORIA (SUSIE) F. PH#: 803-581-7319",ATKAZER@GMAIL.COM,SUSIEW570@GMAIL.COM,CRC-1399 / 06/30/2022,Chester / Ltd. Liability,PO BOX 1597,KING,NC,27021,BHM OF CHESTER LLC,N,N,100,100,-81.22661155,34.71957419,HLRESIDENTIALCARE,479251.0019,3841968.997
PALMETTOS OF BLUFFTON,3035 OAKATIE HWY,OKATIE,SC,29909-5101,Beaufort,843-707-9400,"FLOYD, STACY M. PH#: 843-707-9400",STACY.FLOYD@NHCCARE.COM,STACY.FLOYD@NHCCARE.COM,CRC-1648 / 03/31/2022,Beaufort / Limited Liability Company (multiple member),3035 OKATIE HWY,BLUFFTON,SC,29909,PALMETTOS OF BLUFFTON LLC,Y,Y,88,,-80.947212,32.275101,HLRESIDENTIALCARE,504971.2843,3570930.486
PALMETTOS OF CHARLESTON,1900 ASHLEY CROSSING DR,CHARLESTON,SC,29414-5751,Charleston,843-852-0505,"MARTIN, MEGAN W. PH#: 843-852-0505",MEGAN.MARTIN@NHCCARE.COM,MEGAN.MARTIN@NHCCARE.COM,CRC-1263 / 07/31/2021,Charleston / Limited Liability,1900 ASHLEY CROSSING DR,CHARLESTON,SC,29414-5751,NHC PLACE-CHARLESTON LLC,Y,Y,60,60,-80.03699674,32.81596346,HLRESIDENTIALCARE,590147.817,3631295.527
PALMETTOS OF GARDEN CITY,9415 HWY 17 BYPASS,MURRELLS INLET,SC,29576,Horry,843-668-2500,"CRONIN, TERIANN PH#: 843-668-2500",TERI.CRONIN@NHCCARE.COM,TERI.CRONIN@NHCCARE.COM,CRC-1649 / 06/30/2022,Horry / Limited Liability Company (multiple member),9415 HWY 17 BYPASS,MURRELLS INLET,SC,29576,PALMETTOS OF GARDEN CITY LLC,Y,Y,90,,-79.01918531,33.59863024,HLRESIDENTIALCARE,683794.0896,3719412.852
PALMETTOS OF MAULDIN,810 E BUTLER RD,GREENVILLE,SC,29607-5842,Greenville,864-627-0803,"DAVIS, KATHRYN H. PH#: 864-627-0803",KATHRYN.DAVIS@NHCCARE.COM,KATHYRN.DAVIS@NHCCARE.COM,CRC-1503 / 03/31/2022,Greenville / Ltd. Liability,810 E BUTLER RD,GREENVILLE,SC,29607-5842,NHC HEALTHCARE/MAULDIN LLC,Y,Y,60,,-82.28498821,34.80184752,HLRESIDENTIALCARE,382457.2666,3851821.424
PALMETTOS OF PARKLANE,7811 PARKLANE RD,COLUMBIA,SC,29223-5620,Richland,803-741-7233,"DAVILA, KIMBERLY P. PH#: 803-741-7233",KIMBERLY.DAVILA@NHCCARE.COM,KIMBERLY.DAVILA@NHCCARE.COM,CRC-1513 / 04/30/2022,Richland / Limited Liability,7811 PARKLANE RD,COLUMBIA,SC,29223-5620,PALMETTOS OF PARKLANE LLC,Y,Y,85,,-80.95909494,34.08311083,HLRESIDENTIALCARE,503773.8108,3771371.959
PALMS ON MAIN ASSISTED LIVING FACILITY,1267 N MAIN ST,SUMTER,SC,29153-2138,Sumter,803-774-5700,"MCFADDIN, JANICE PH#: ",HRMHCW@YAHOO.COM,ADMINISTRATOR@PALMSONMAINSTREET.COM,CRC-1442 / 05/31/2022,Sumter / Non-Profit Corporation,15 BROAD ST,SUMTER,SC,29150,EMPOWERED PERSONAL CARE HOME HEALTH ALLIANCE INC,N,N,79,79,-80.34052954,33.95578737,HLRESIDENTIALCARE,560932.7115,3757449.657
PARK CIRCLE HOME 1,1133 BEXLEY ST,NORTH CHARLESTON,SC,29405-4726,Charleston,843-442-7173, PH#: ,EJC@GMAIL.COM,,CRC-1992 / 11/30/2021,Charleston / Limited Liability,PO BOX 40729,CHARLESTON,SC,29423,WINDSOR HILL RCF LLC,N,N,5,,-79.981829,32.873666,HLRESIDENTIALCARE,595250.7718,3637741.121
PARK CIRCLE HOME 2,1131 BEXLEY ST,NORTH CHARLESTON,SC,29405-4726,Charleston,843-442-7173, PH#: ,EJC@GMAIL.COM,,CRC-1993 / 11/30/2021,Charleston / Limited Liability,4048 ASHLEY PHOSPHATE RD,NORTH CHARLESTON,SC,29420,WINDSOR HILL RCF LLC,N,N,5,,-79.981604,32.873895,HLRESIDENTIALCARE,595271.6303,3637766.66
PARKER,12 BOYCE AVE,GREENVILLE,SC,29601,Greenville,864-250-1188,"RAST, LARRY PH#: 864-675-0220",DMCHARG@INSPIRITSENIORLIVING.COM,LARRY.RAST@BROOKDALE.COM,CRC-2136 / 01/31/2022,Greenville / Limited Liability,,,,,THE PARKER OPERATOR LLC,N,N,115,,-82.386611,34.850065,HLRESIDENTIALCARE,373234.8081,3857292.701
PASSIONATE CARE COMMUNITY CENTER,2206 HERTFORD DR,COLUMBIA,SC,29210-6130,Richland,803-834-4544,"MARTIN, DONALD E. PH#: 803-404-2278",MARTINDONALD49@YAHOO.COM,MARTINDONALD49@YAHOO.COM,CRC-1500 / 12/31/2021,Richland / Sole Proprietorship,2206 HERTFORD DR,COLUMBIA,SC,29210-6130,"MARTIN, DONALD E.",N,N,5,,-81.09044813,34.05370486,HLRESIDENTIALCARE,491652.57,3768114.381
PEARL AT FIVE FORKS,15 FIVE FORKS RD,SIMPSONVILLE,SC,29681,Greenville,864-568-3833, PH#: ,YOLANDA.HUNTER@PHOENIXSRLIVING.COM,,CRC-2003 / 01/31/2022,Greenville / Limited Liability,10933 CRABAPPLE RD,ROSWELL,GA,30075,PSL SIMPSONVILLEE SUBTENANT LLC,Y,Y,64,,-82.254521,34.795992,HLRESIDENTIALCARE,385236.3821,3851136.735
PEARL AT FORT MILL,1061 GOLD HILL RD,FORT MILL,SC,29708,York,803-548-3825,"BLAIR, SUSAN S. PH#: 803-548-3825",YOLANDA.HUNTER@PHOENIXSRLIVING.COM,SBLAIR@AUTUMNLEAVES.COM,CRC-2147 / 10/31/2021,York / Limited Liability,,,,,PEARL AT FORT MILL LLC,Y,Y,54,,-81.030873,33.999451,HLRESIDENTIALCARE,497149.0021,3762095.488
PEARL AT PORT ROYAL,1251 LADYS ISLAND DR,PORT ROYAL,SC,29935-1106,Beaufort,843-521-2298, PH#: ,YOLANDA.HUNTER@PHOENIXSRLIVING.COM,,CRC-0733 / 01/31/2022,Beaufort / ,1251 LADYS ISLAND DR,PORT ROYAL,SC,29935-1106,CARE RSL PORT ROYAL OPCO LLC,Y,Y,62,62,-80.68313491,32.39451085,HLRESIDENTIALCARE,529800.8048,3584209.757
PEE DEE GARDENS,3117 W PALMETTO ST,FLORENCE,SC,29501,Florence,843-667-6699,"COOKE-EVANS, TONI E. PH#: 843-667-6699",TCOOKE-EVANS@DEPAUL.ORG,TCOOKE-EVANS@DEPAUL.ORG,CRC-1391 / 05/31/2022,Florence / Corporation,3117 W PALMETTO ST,FLORENCE,SC,29501,DEPAUL ADULT CARE COMMUNITIES INC,Y,Y,80,68,-79.8418261,34.1707095,HLRESIDENTIALCARE,606743.128,3781690.168
PENDLETON MANOR,414 SUMMIT DR,GREENVILLE,SC,29609-4821,Greenville,864-271-7562, PH#: ,REATHA@PENDLETONMANOR.COM,,CRC-1455 / 08/31/2021,Greenville / Ltd. Liability,414 SUMMIT DR,GREENVILLE,SC,29609-4821,GREENVILLE RETIREMENT PROPERTIES LLC,Y,Y,65,65,-82.38308098,34.87421577,HLRESIDENTIALCARE,373594.4569,3859966.66
PETTIS ANGELS RESIDENTIAL CARE,2614 MADDEN DR,NORTH CHARLESTON,SC,29405-5529,Charleston,843-308-9413,"PETTIS, ETHEL S. PH#: 843-308-9413",SPETTIS@KNOLOGY.NET,SPETTIS@KNOLOGY.NET,CRC-0850 / 01/31/2022,Charleston / Sole Proprietorship,3879 WALNUT ST,CHARLESTON,SC,29405-7050,"PETTIS, ETHEL S.",N,N,5,5,-79.99272161,32.85225047,HLRESIDENTIALCARE,594254.2835,3635357.085
PHOENIX AT GREER,715 S BUNCOMBE RD,GREER,SC,29650-2208,Greenville,864-469-0409, PH#: ,JACKIE.MAGNES@PHOENIXSRLIVING.COM,,CRC-2146 / 11/30/2021,Greenville / Limited Liability,,,,,PHOENIX AT GREER LLC,Y,Y,110,,-82.241891,34.925248,HLRESIDENTIALCARE,386569.4765,3865457.295
PIEDMONT PATHWAYS COMMUNITY RESIDENTIAL CARE FACILITY,5640 LOWER RICHLAND BLVD,HOPKINS,SC,29061-9525,Richland,803-783-2273,"SCOTT, GWENDOLYN PH#: 803-783-2273",GWENDOLYN.SCOTT@SCDMH.ORG,GWENDOLYN.SCOTT@SCDMH.ORG,CRC-2134 / 06/30/2021,Richland / State,,,,,SC DEPARTMENT OF MENTAL HEALTH,N,N,15,,-80.875187,33.918902,HLRESIDENTIALCARE,511537.2324,3753171.043
PINEDALE RESIDENTIAL CENTER,798 HERMITAGE POND RD,CAMDEN,SC,29020-9534,Kershaw,803-432-9900,"HUDSON, PHILLIP E. PH#: 803-432-9900",PHUDSON83@YAHOO.COM,PHUDSON@PINEDALERESIDENTIAL.COM,CRC-0460 / 02/28/2021,Kershaw / Corporation,PO BOX 331,CAMDEN,SC,29021-0331,SHARECARE CORPORATION,N,N,50,35,-80.5468209,34.24243419,HLRESIDENTIALCARE,541731.0029,3789129.996
PINEWOOD PLACE,101 CENTENNIAL BLVD,GOOSE CREEK,SC,29445-7079,Berkeley,843-569-2520,"KOVACH, AMY PH#: ",AKOVACH@ENLIVANT.COM,,CRC-1406 / 11/30/2021,Berkeley / Limited Liability,330 N WABASH AVE STE 3700,CHICAGO,IL,60611-7605,PINEWOOD AID OPCO LLC,N,N,44,44,-80.06600002,33.01699997,HLRESIDENTIALCARE,587235.2324,3653559.015
PLACE AT SHADOW OAKS,108 GREGG AVE,AIKEN,SC,29801-6816,Aiken,803-643-0300,"AYE-FRISON, STEPHANIE L. PH#: 803-643-0300",STEPHANIEFRISON@SHADOW-OAKS.COM,STEPHANIELFRISON0223@GMAIL.COM,CRC-2175 / 01/31/2022,Aiken / Limited Liability,,,,,PLACE AT SHADOW OAKS LLC,Y,Y,56,,-81.758844,33.565984,HLRESIDENTIALCARE,429567.3143,3714292.716
PONDVIEW RESIDENTIAL CARE HOME #1,5342 HARDSCRABBLE RD,BLYTHEWOOD,SC,29016-9171,Richland,803-735-0420,"THOMAS, KATHERINE PH#: 803-735-0420",ADMIN@UNIVERSALCARESOLUTIONS.COM,ADMIN@UNIVERSALCARESOLUTIONS.COM,CRC-0378 / 04/30/2022,Richland / Sole Proprietorship,PO BOX 544,BLYTHEWOOD,SC,29016-0544,"THOMAS, KATHERINE W.",N,N,12,14,-80.90617574,34.19125262,HLRESIDENTIALCARE,508645.0018,3783365.997
PONDVIEW RESIDENTIAL CARE HOME #2,5338 HARDSCRABBLE RD,BLYTHEWOOD,SC,29016-9171,Richland,803-735-0420,"THOMAS, KATHERINE W. PH#: 803-735-0420",ADMIN@UNIVERSALCARESOLUTIONS.COM,ADMIN@UNIVERSALCARESOLUTIONS.COM,CRC-1190 / 11/30/2021,Richland / Sole Proprietorship,PO BOX 544,BLYTHEWOOD,SC,29016-0544,"THOMAS, KATHERINE W.",N,N,5,7,-80.90618377,34.19122427,HLRESIDENTIALCARE,508644.2653,3783362.852
PORTSIDE AT GRANDE DUNES,901 PORTSIDE DR,MYRTLE BEACH,SC,29572,Horry,843-999-2494, PH#: ,ADMINISTRATOR@PORTSIDEGRANDEDUNES.COM,,CRC-1995 / 02/28/2022,Horry / Limited Liability,7420 BRIDGEPORT RD STE 105,PORTLAND,OR,97224,PORTSIDE RESIDENCES LLC,Y,Y,120,,-78.8030236,33.7596856,HLRESIDENTIALCARE,702543.4365,3737552.417
PRESBYTERIAN COMMUNITIES OF SOUTH CAROLINA-CLINTON,801 MUSGROVE ST,CLINTON,SC,29325-1796,Laurens,864-833-5190,"PRIDMORE, ROBERT P. PH#: 864-833-5190",PAUL.PRIDMORE@PRESCOMM.ORG,PAUL.PRIDMORE@PRESCOMM.ORG,CRC-0014 / 04/30/2022,Laurens / Non-Profit Corporation,801 MUSGROVE ST,CLINTON,SC,29325-1796,PRESBYTERIAN COMMUNITIES OF SOUTH CAROLINA,Y,Y,55,81,-81.87427782,34.48477046,HLRESIDENTIALCARE,419722.7382,3816255.284
PRESBYTERIAN COMMUNITIES OF SOUTH CAROLINA-COLUMBIA,700 DAVEGA DR,LEXINGTON,SC,29073-9698,Lexington,803-796-8700,"BASILE, JASON PH#: 803-796-8700",JASON.BASILE@PRESCOMM.ORG,JASON.BASILE@PRESCOMM.ORG,CRC-0387 / 06/30/2021,Lexington / Non-Profit Corporation,700 DAVEGA DR,LEXINGTON,SC,29073-9698,PRESBYTERIAN COMMUNITIES OF SOUTH CAROLINA,Y,Y,91,58,-81.12954037,34.02224697,HLRESIDENTIALCARE,488040.3435,3764630.246
PRESBYTERIAN COMMUNITIES OF SOUTH CAROLINA-FLORENCE,2350 W LUCAS ST,FLORENCE,SC,29501-1201,Florence,843-665-2222,"PRINCE, BENJAMIN A. PH#: 864-685-2222; SCOTT, MEREDITH PH#: 843-665-2222",MEREDITH.SCOTT@PRESCOMM.ORG,BEN.PRINCE@PRESCOMM.ORG,CRC-0242 / 09/30/2021,Florence / Corporation,2350 W LUCAS ST,FLORENCE,SC,29501-1201,PRESBYTERIAN COMMUNITIES OF SOUTH CAROLINA,Y,Y,47,34,-79.80958455,34.23672235,HLRESIDENTIALCARE,609629.3199,3789044.585
PRESBYTERIAN COMMUNITIES OF SOUTH CAROLINA-FOOTHILLS,205 BUD NALLEY DR,EASLEY,SC,29642,Pickens,864-859-3367, PH#: ,LESLIE.FRYAR@PRESCOMM.ORG,,CRC-1030 / 07/31/2021,Pickens / Non-Profit Corporation,,,,,PRESBYTERIAN COMMUNITIES OF SOUTH CAROLINA,Y,Y,52,32,-82.54055426,34.79826092,HLRESIDENTIALCARE,359071.752,3851752.732
PRESBYTERIAN COMMUNITIES OF SOUTH CAROLINA-SUMMERVILLE,201 W 9TH NORTH ST,SUMMERVILLE,SC,29483-6721,Dorchester,843-873-2550,"BARRESI, TIMOTHY J. PH#: 843-873-2550",TIM.BARRESI@PRESCOMM.ORG,TIM.BARRESI@PRESCOMM.ORG,CRC-0245 / 09/30/2021,Dorchester / Non-Profit Corporation,201 W 9TH NORTH ST OFC 140,SUMMERVILLE,SC,29483-6701,PRESBYTERIAN COMMUNITIES OF SOUTH CAROLINA,N,N,114,114,-80.16812989,33.03323019,HLRESIDENTIALCARE,577681.8121,3655278.279
PRESIDENTIAL COMMUNITY CARE HOME FACILITY,2019 HACKEMANN AVE,NORTH CHARLESTON,SC,29405-8323,Charleston,843-459-2149,"PRESIDENT, TESSIE J. PH#: 843-459-2149",PRESIDENTIALCRCF@GMAIL.COM,PRESIDENTIALCRCF@GMAIL.COM,CRC-1869 / 02/28/2022,Charleston / Limited Liability,2015 RIVERVIEW AVE,NORTH CHARLESTON,SC,29405,PRESIDENTIAL COMMUNITY CARE HOME FACILITY LLC,N,N,5,,-79.960634,32.840862,HLRESIDENTIALCARE,597269.4976,3634123.629
QUALITY CARE RESIDENTIAL HOME,107 ETLING AVE,GOOSE CREEK,SC,29445-3001,Berkeley,843-863-0209, PH#: ,BRUCE@JONESMGTREALTY.COM,,CRC-0715 / 01/31/2022,Berkeley / ,PO BOX 129,CHINA GROVE,NC,28023,QUALITY CARE RESIDENTIAL HOME SC LLC,N,N,29,29,-80.04260762,32.99981334,HLRESIDENTIALCARE,589437.5023,3651673.245
QUIET ACRES RETIREMENT HOME,2968 OLD DOUGLAS MILL RD,HODGES,SC,29653-8930,Abbeville,864-446-2264,"MULLINS, STEPHANIE PH#: 864-446-2264",JOYMULL4@CS.COM,JOYMULL4@CS.COM,CRC-0588 / 05/31/2022,Abbeville / Limited Liability,173 MAGGIE LN,ABBEVILLE,SC,29620,PROMISES KEPT CUSTOMER SERVICE LLC,N,N,10,12,-82.32191099,34.26798662,HLRESIDENTIALCARE,378305.0914,3792660.996
QUILLEN MANOR,709 QUILLEN AVE,FOUNTAIN INN,SC,29644-9444,Greenville,864-601-1440, PH#: ,LOUISG@GARRARDINC.COM,,CRC-1321 / 06/30/2022,Greenville / Limited Liability,709 QUILLEN AVE,FOUNTAIN INN,SC,29644-9462,QUILLEN MANOR LLC,Y,Y,78,78,-82.20011309,34.70782334,HLRESIDENTIALCARE,390097.0021,3841297.997
RAPHA RESIDENTIAL CARE INC,3959 FISH HATCHERY RD,GASTON,SC,29053-9038,Lexington,803-755-6541,"UNTHANK, RUSSELL A. PH#: 803-939-3000",RAPHAED@ATT.NET,RUNTHANK@PRUITTHEALTH.COM,CRC-1283 / 04/30/2022,Lexington / Limited Liability Limited Partnership,3959 FISH HATCHERY RD,GASTON,SC,29053-9038,MASTERMIND LIMITED PARTNERSHIP LLP,N,N,92,92,-81.14900256,33.84168791,HLRESIDENTIALCARE,486214.4564,3744612.856
REESE'S COMMUNITY CARE HOME #1,1203 E MULLER AVE,COLUMBIA,SC,29203-5926,Richland,803-786-1843,"REESE, JAMES PH#: 803-786-1843",SHARON12357@GMAIL.COM,SHARON12357@GMAIL.COM,CRC-0053 / 03/31/2022,Richland / Corporation,1203 E MULLER AVE,COLUMBIA,SC,29203-5926,REESE'S COMMUNITY CARE HOME INC,N,N,8,9,-81.03369287,34.04519002,HLRESIDENTIALCARE,496890.1855,3767167.088
REESE'S COMMUNITY CARE HOME #2,717 CINDY DR,COLUMBIA,SC,29203-5205,Richland,803-609-2629, PH#: ,SHARON12357@GMAIL.COM,,CRC-0054 / 03/31/2022,Richland / Sole Proprietorship,717 CINDY DR,COLUMBIA,SC,29203-5205,REESE'S COMMUNITY CARE HOME INC,N,N,5,7,-80.98559742,34.07162002,HLRESIDENTIALCARE,501328.9297,3770097.203
REFLECTIONS AT CAROLINA FOREST,219 MIDDLEBURG DR,MYRTLE BEACH,SC,29579-3409,Horry,843-903-0700, PH#: ,CHELSEA@REFLECTIONSASSISTEDLIVING.COM,,CRC-1456 / 11/30/2021,Horry / Corporation,219 MIDDLEBURG DR,MYRTLE BEACH,SC,29579-3409,REFLECTIONS AT CAROLINA FOREST INC,Y,Y,42,42,-78.95798294,33.7625952,HLRESIDENTIALCARE,689114.261,3737706.882
REID HOUSE,117 DODD ST,WELLFORD,SC,29385-9475,Spartanburg,864-949-5120,"DANIELS, KEISHA G. PH#: 864-949-5120",KDANIELS@THE-REIDHOUSE.COM,KDANIELS@THE-REIDHOUSE.COM,CRC-1463 / 03/31/2022,Spartanburg / Corporation,117 DODD ST,WELLFORD,SC,29385-9475,REID HOUSE,N,N,42,42,-82.10312949,34.94627611,HLRESIDENTIALCARE,399269.7022,3867640.804
REID'S RESIDENTIAL CARE FACILITY,726 OLD SPARTANBURG HWY,WELLFORD,SC,29385-9668,Spartanburg,864-439-9238,"DANIELS, JUDY C. PH#: 864-439-9238",ADMIN@REIDSRCF.COM,ADMIN@REIDSRCF.COM,CRC-0771 / 05/31/2022,Spartanburg / Sole Proprietorship,726 OLD SPARTANBURG HWY,WELLFORD,SC,29385-9668,JUDY DANIELS,N,N,23,23,-82.10362168,34.94578194,HLRESIDENTIALCARE,399224.1521,3867586.495
RENAISSANCE,19 FRANK PRESSLEY DR,DUE WEST,SC,29639,Abbeville,864-379-2570,"MATTHEW, JOHNSON PH#: 000-000-0000",DLITTLE3@MINDSPRING.COM,,CRC-1207 / 12/31/2021,Abbeville / Corporation,PO BOX 6384,SPARTANBURG,SC,29304-6384,RENAISSANCE LLC,N,N,20,20,-82.396697,34.330066,HLRESIDENTIALCARE,371514.4618,3799637.3
RESIDENCES AT PARK PLACE,115 GILLESPIE RD,SENECA,SC,29678-1126,Oconee,864-882-0783,"HICKS, KYLE L. PH#: 864-882-0783",KHICKS@MSAHEALTHCARE.COM,KHICKS@MSA-CORP.COM,CRC-1493 / 08/31/2021,Oconee / Corporation,PO BOX 609,LEXINGTON,SC,29071-0609,AMERICAN SENIOR LIVING COMMUNITIES INC,Y,Y,100,,-82.98719769,34.68523578,HLRESIDENTIALCARE,317960.2989,3839934.706
RESTING PLACE 2,207 E SHOCKLEY FERRY RD,ANDERSON,SC,29624-3731,Anderson,864-905-1768, PH#: ,0911BEAUTYJ@GMAIL.COM,,CRC-2176 / 10/31/2021,Anderson / Limited Liability,,,,,RESTING PLACE 2 LLC,N,N,10,,-82.64407,34.481302,HLRESIDENTIALCARE,349027.9553,3816750.343
RETREAT AT CAROLINA BAY,1340 CAROLINA BAY BLVD,HARTSVILLE,SC,29550,Darlington,843-845-1563, PH#: ,YOLANDA.HUNTER@PHOENIXSRLIVING.COM,,CRC-2043 / 02/28/2022,Darlington / Limited Liability,10933 CRABAPPLE RD,ROSWELL,GA,30075,PINE TREE HILL AL LLC,Y,Y,60,,-80.10641276,34.36623947,HLRESIDENTIALCARE,582166.2272,3803126.796
RETREAT AT EASLEY,123 COUCH LN,EASLEY,SC,29642-1916,Pickens,864-859-3303, PH#: ,YOLANDA.HUNTER@PHOENIXSRLIVING.COM,,CRC-1274 / 01/31/2022,Pickens / Limited Liability,123 COUCH LN,EASLEY,SC,29642-1916,CARE RSL EASLEY OPCO LP,N,N,56,56,-82.55887099,34.81856972,HLRESIDENTIALCARE,357431.0026,3854030.996
RETREAT AT GAFFNEY,101 PARK CT,GAFFNEY,SC,29341,Cherokee,864-206-0006, PH#: ,SHELLY.SMITH@PHOENIXSRLIVING.COM,,CRC-1281 / 01/31/2022,Cherokee / Limited Liability Limited Partnership,101 PARK CT,GAFFNEY,SC,29341,CARE RSL GAFFNEY OPCO LP,Y,Y,90,90,-81.6574393,35.09200104,HLRESIDENTIALCARE,440074.3519,3883443.365
RETREAT AT LADYS ISLAND,9 SUNSET BLVD,BEAUFORT,SC,29907,Beaufort,843-379-9502, PH#: ,YOLANDA.HUNTER@PHOENIXSRLIVING.COM,,CRC-1898 / 05/31/2022,Beaufort / Limited Liability,10933 CRABAPPLE RD,ROSWELL,GA,30075,FACTORY CREEK AL LLC,Y,Y,83,,-80.6568186,32.41824722,HLRESIDENTIALCARE,532267.3909,3586848.581
RETREAT AT SUMMERVILLE,950 TRAVELERS BLVD,SUMMERVILLE,SC,29485-8213,Dorchester,843-832-8481, PH#: ,JACKIE.MAGNES@PHOENIXSRLIVING.COM,,CRC-0859 / 01/31/2022,Dorchester / ,950 TRAVELERS BLVD,SUMMERVILLE,SC,29485-8213,CARE RSL SUMMERVILLE OPCO LP,Y,Y,53,53,-80.16834349,32.9649049,HLRESIDENTIALCARE,577721.7511,3647703.248
RICE ESTATE - ASSISTED LIVING,100 FINLEY RD,COLUMBIA,SC,29203-9264,Richland,803-691-5720, PH#: ,DAMODIO@RICEESTATE.ORG,,CRC-1075 / 03/31/2022,Richland / Non-Profit Corporation,100 FINLEY RD,COLUMBIA,SC,29203-9264,LUTHERAN HOMES OF SOUTH CAROLINA INC,N,N,40,50,-80.96480344,34.10702486,HLRESIDENTIALCARE,503246.2441,3774023.344
RIDGEVIEW COMMUNITY CARE HOMES UNIT A,217 CHANDLER RD,GREER,SC,29651-1290,Greenville,864-877-8599,"DAUGHERTY, PATRICIA L. PH#: 864-877-8599",RIDGEVIEW1@MSN.COM,RIDGEVIEW1@MSN.COM,CRC-0559 / 01/31/2022,Greenville / Corporation,217 CHANDLER RD,GREER,SC,29651-1290,RIDGEVIEW COMMUNITY CARE HOMES INC,N,N,11,11,-82.23437161,34.95716095,HLRESIDENTIALCARE,387299.8559,3868988.034
RIDGEVIEW COMMUNITY CARE HOMES UNIT B,217 CHANDLER RD,GREER,SC,29651-1290,Greenville,864-877-8599,"DAUGHERTY, PATRICIA L. PH#: 864-877-8599",RIDGEVIEW1@MSN.COM,RIDGEVIEW1@MSN.COM,CRC-0560 / 01/31/2022,Greenville / Corporation,217 CHANDLER RD,GREER,SC,29651-1290,RIDGEVIEW COMMUNITY CARE HOMES INC,N,N,10,10,-82.23437051,34.95716095,HLRESIDENTIALCARE,387299.9558,3868988.033
RIDGEVIEW COMMUNITY CARE HOMES UNIT C,217 CHANDLER RD,GREER,SC,29651-1290,Greenville,864-877-8599,"DAUGHERTY, PATRICIA L. PH#: 864-877-8599",RIDGEVIEW1@MSN.COM,RIDGEVIEW1@MSN.COM,CRC-0561 / 01/31/2022,Greenville / Corporation,217 CHANDLER RD,GREER,SC,29651-1290,RIDGEVIEW COMMUNITY CARE HOMES INC,N,N,11,11,-82.23436951,34.95716095,HLRESIDENTIALCARE,387300.047,3868988.031
RIDGEVIEW COMMUNITY CARE HOMES UNIT D,217 CHANDLER RD,GREER,SC,29651-1290,Greenville,864-877-8599,"DAUGHERTY, PATRICIA L. PH#: 864-877-8599",RIDGEVIEW1@MSN.COM,RIDGEVIEW1@MSN.COM,CRC-0562 / 01/31/2022,Greenville / Corporation,217 CHANDLER RD,GREER,SC,29651-1290,RIDGEVIEW COMMUNITY CARE HOMES INC,N,N,11,11,-82.23436967,34.95716998,HLRESIDENTIALCARE,387300.0451,3868989.033
RILEY'S RESIDENTIAL CARE HOME,2327 BRIAN CHRISTOPHER RD,GREAT FALLS,SC,29055-8844,Chester,803-482-3290,"GOODE-RILEY, BEVERLY PH#: 803-482-3290",BPRILEY09@YAHOO.COM,BPRILEY09@YAHOO.COM,CRC-0900 / 10/31/2021,Chester / Sole Proprietorship,2327 BRIAN CHRISTOPHER RD,GREAT FALLS,SC,29055-8844,"GOODE-RILEY, BEVERLY",N,N,10,10,-80.93398362,34.59984869,HLRESIDENTIALCARE,506053.2837,3828671.248
RIVER PARK SENIOR LIVING,190 RIVER PARK DR,LITTLE RIVER,SC,29566,Horry,843-741-0082,"JACKSON, TOMMY PH#: 843-741-0082",DLITTLE3@MINDSPRING.COM,ED@RIVERPARKASSISTEDLIVING.COM,CRC-1962 / 02/28/2022,Horry / Limited Liability,PO BOX 6384,SPARTANBURG,SC,29304-6384,CR RIVER PARK LLC,Y,Y,90,,-78.64787852,33.86999466,HLRESIDENTIALCARE,714981.7527,3750467.879
ROCKHAVEN COMMUNITY CARE HOME,524 ROCKHAVEN DR,COLUMBIA,SC,29223-7805,Richland,803-699-5361,"BARNES, RICHIE D. PH#: 803-699-5361",RBARNES3469@GMAIL.COM,RBARNES3469@GMAIL.COM,CRC-0800 / 01/31/2022,Richland / Sole Proprietorship,524 ROCKHAVEN DR,COLUMBIA,SC,29223-7805,RICHIE D BARNES,N,N,10,12,-80.9419179,34.11177268,HLRESIDENTIALCARE,505356.7211,3774550.747
ROLLING GREEN VILLAGE ASSISTED LIVING FACILITY,1 HOKE SMITH BLVD OFC,GREENVILLE,SC,29615-5399,Greenville,864-987-9800,"TOERNER, RYAN PH#: 864-987-9800","RYANT@ROLLINGGREENVILLAGE.COM",RYANT@ROLLINGGREENVILLAGE.COM,CRC-0573 / 03/31/2022,Greenville / Non-Profit Corporation,1 HOKE SMITH BLVD OFC,GREENVILLE,SC,29615-5399,ROLLING GREEN VILLAGE,Y,Y,52,74,-82.26442352,34.84160464,HLRESIDENTIALCARE,384394.0759,3856206.693
ROSECREST COMMUNITY RESIDENTIAL CARE,200 FORTRESS DR,INMAN,SC,29349-9160,Spartanburg,864-599-8600,"YETTER, MELISSA PH#: 864-599-8600",MYETTER@LHOMES.ORG,MYETTER@LHOMES.ORG,CRC-1208 / 07/31/2021,Spartanburg / Non-Profit Corporation,200 FORTRESS DR,INMAN,SC,29349-9160,LUTHERAN HOMES OF SOUTH CAROLINA INC,Y,Y,45,59,-82.02765435,35.03863685,HLRESIDENTIALCARE,406267.2134,3877810.398
ROSEWOOD ASSISTED LIVING,5221 HWY 215,PAULINE,SC,29374-1908,Spartanburg,864-573-4060,"CLOBES, KIMBERLY H. PH#: 864-573-4060",WIJG38@GMAIL.COM,WIJG38@GMAIL.COM,CRC-1367 / 11/30/2021,Spartanburg / Ltd. Liability,PO BOX 35,PAULINE,SC,29374-0035,ROSEWOOD ASSISTED LIVING LLC,N,N,75,75,-81.862549,34.825553,HLRESIDENTIALCARE,421123.3482,3854036.937
ROUSE COMMUNITY CARE HOME #1,102 BALLENTON RD,COLUMBIA,SC,29203-9073,Richland,803-788-1753,"ROUSE, CHARLENE E. PH#: 803-788-1753",MATRICEROUSE@AOL.COM,MATRICEROUSE@GMAIL.COM,CRC-0327 / 12/31/2021,Richland / Corporation,PO BOX 134,STATE PARK,SC,29147-0134,ROUSE COMMUNITY CARE HOME INC,N,N,8,9,-80.96080405,34.109663,HLRESIDENTIALCARE,503615.0027,3774315.995
ROUSE COMMUNITY CARE HOME #2,8809 WILSON BLVD,COLUMBIA,SC,29203-1817,Richland,803-786-9357,"ROUSE, MATRICE PH#: 803-786-9357",MATRICEROUSE@AOL.COM,,CRC-0328 / 12/31/2021,Richland / Corporation,PO BOX 134,STATE PARK,SC,29147-0134,ROUSE COMMUNITY CARE HOME INC,N,N,9,10,-80.98722796,34.11104622,HLRESIDENTIALCARE,501177.9331,3774468.747
ROUSE COMMUNITY CARE HOME #3,9316 WILSON BLVD,COLUMBIA,SC,29203-9769,Richland,803-754-5720,"ROUSE, CHARLENE E. PH#: 803-754-5720",MATRICEROUSE@AOL.COM,MATRICEROUSE@AOL.COM,CRC-0238 / 09/30/2021,Richland / Corporation,PO BOX 134,STATE PARK,SC,29147-0134,ROUSE COMMUNITY CARE HOME INC,N,N,10,11,-80.99178088,34.12869932,HLRESIDENTIALCARE,500757.8712,3776426.082
ROYAL HILL COMMUNITY RESIDENTIAL CARE FACILITY,310 E MAIN ST BLD B,KINGSTREE,SC,29556,Williamsburg,843-355-1300,"PASLEY, LISHA B. PH#: 843-355-1300",ASHCOURTCOMPANIONCARE@YAHOO.COM,ASHCOURTCOMPANIONCARE@YAHOO.COM,CRC-1946 / 05/31/2022,Williamsburg / Limited Liability,310 E MAIN ST BLDG B,KINGSTREE,SC,29556,ROYAL HILL COMMUNITY RESIDENTIAL CARE FACILITY LLC,N,N,5,,-79.825641,33.664828,HLRESIDENTIALCARE,608876.666,3725612.361
RUDNICK CRCF,629 CHESTERFIELD ST,AIKEN,SC,29801-4053,Aiken,803-642-1041,"DUNBAR, REPUNZEL PH#: 803-642-1041",RDUNBAR@AIKENTDC.ORG,RDUNBAR@AIKENTDC.ORG,CRC-1429 / 02/28/2022,Aiken / Corporation,PO BOX 698,AIKEN,SC,29802-0698,TRI-DEVELOPMENT CENTER OF AIKEN COUNTY INC,N,N,8,8,-81.71417825,33.57123981,HLRESIDENTIALCARE,433717.0035,3714845.995
RUMPH'S RESIDENTIAL CARE,574 PROGRESSIVE WAY,DENMARK,SC,29042-1873,Bamberg,803-793-0068,"COLLINS, SEBRINA C. PH#: 803-793-0068",SEBRINA.COLLINS@YAHOO.COM,SEBRINA.COLLINS@YAHOO.COM,CRC-0791 / 11/30/2021,Bamberg / Corporation,PO BOX 383,DENMARK,SC,29042-0383,RUMPH'S RESIDENTIAL CARE INC,N,N,8,8,-81.13860519,33.32298903,HLRESIDENTIALCARE,487099.4582,3687103.04
S&S BOARDING HOME LLC,3589 BLUFF RD,ALLENDALE,SC,29810-4139,Allendale,803-573-7006,"HIERS, BARBARA M. PH#: 803-573-7006",ESABB@ALLENDALECOUNTY.COM,SMAN151@YAHOO.COM,CRC-1923 / 10/31/2021,Allendale / Sole Proprietorship,3629 BLUFF RD,ALLENDALE,SC,29810,"SABB, ELAINE",N,N,5,,-81.31986722,33.00543152,HLRESIDENTIALCARE,470121.1048,3651934.515
SANDERS CRCF,625 CHESTERFIELD ST,AIKEN,SC,29801-4053,Aiken,803-642-1044,"DUNBAR, REPUNZEL M. PH#: 803-642-1044",MHALL@AIKENTDC.ORG,RDUNBAR@AIKENTDC.ORG,CRC-1430 / 02/28/2022,Aiken / Corporation,PO BOX 698,AIKEN,SC,29802-0698,TRI-DEVELOPMENT CENTER OF AIKEN COUNTY INC,N,N,8,8,-81.7143048,33.57090537,HLRESIDENTIALCARE,433705.0016,3714808.996
SANDPIPER COURTYARD ASSISTED LIVING,1047 ANNA KNAPP BLVD,MOUNT PLEASANT,SC,29464-3133,Charleston,843-884-7977,"STINSON, DURENA A. PH#: 843-884-7977",DURENASTINSON@SANDPIPERCENTER.COM,,CRC-1325 / 09/30/2021,Charleston / Limited Liability,211 RIVER LANDING DR,DANIEL ISLAND,SC,29492,SANDPIPER INDEPENDENT AND ASSISTED LIVING-DELAWARE LLC,N,N,64,64,-79.86390196,32.80954881,HLRESIDENTIALCARE,606359.8719,3630745.246
SAVANNAH HALL ASSISTED LIVING,1010 LAKE HUNTER CIR,MOUNT PLEASANT,SC,29464-5417,Charleston,843-888-2030,"CARR, JOSEPH J. PH#: 843-388-2030",LICENSING@5SSL.COM,JCARR@5SSL.COM,CRC-1431 / 06/30/2022,Charleston / Limited Liability,"400 CENTRE ST, LICENSING DEPT",NEWTON,MA,02458-2094,SNH SE SG TENANT LLC,Y,Y,16,28,-79.86188389,32.81399277,HLRESIDENTIALCARE,606543.5073,3631239.962
SAVANNAH PLACE,1501 SECESSIONVILLE RD,CHARLESTON,SC,29412-8236,Charleston,843-762-1396,"GRANT, ETHELEE PH#: ",EGRANT@ENLIVANT.COM,,CRC-1410 / 11/30/2021,Charleston / Limited Liability,330 N WABASH AVE STE 3700,CHICAGO,IL,60611-7605,SAVANNAH AID OPCO LLC,N,N,44,44,-79.95764677,32.71078022,HLRESIDENTIALCARE,597691.0022,3619704.996
SC EPISCOPAL HOME AT STILL HOPES (CRCF),1 STILL HOPES DR,WEST COLUMBIA,SC,29169-7164,Lexington,803-796-6490,"ROBERTSON, NIKKI W. PH#: 803-739-5043",NROBERTSON@STILLHOPES.ORG,NROBERTSON@STILLHOPES.ORG,CRC-0144 / 07/31/2021,Lexington / Corporation,1 STILL HOPES DR,WEST COLUMBIA,SC,29169-7164,SOUTH CAROLINA EPISCOPAL HOME AT STILL HOPES INC,Y,Y,46,71,-81.06182115,33.98582944,HLRESIDENTIALCARE,494290.0026,3760586.497
SECESSIONVILLE COMMUNITY RESIDENCE,1217 SECESSIONVILLE RD,CHARLESTON,SC,29412-9749,Charleston,843-762-2134, PH#: ,ETURNER@DSNCC.COM,,CRC-1287 / 12/31/2021,Charleston / State,PO BOX 22708,CHARLESTON,SC,29413-2708,DISABILITIES BOARD OF CHARLESTON COUNTY,N,N,8,8,-79.95657524,32.72229006,HLRESIDENTIALCARE,597778.8713,3620981.997
SEDGEWOOD MANOR ASSISTED LIVING,1645 RIDGE RD,HOPKINS,SC,29061-8432,Richland,803-776-3873, PH#: ,JOE.HUNT@SEDGEWOOD.COM,,CRC-2178 / 11/30/2021,Richland / Limited Liability,,,,,SEDGEWOOD MANOR HEALTH CARE CENTER LLC,N,N,16,,-80.844179,33.96167,HLRESIDENTIALCARE,514396.2829,3757916.969
SENECA RESIDENTIAL CARE CENTER,126 TOKEENA RD,SENECA,SC,29678-1744,Oconee,864-882-7390,"LLANES, JOWIL PH#: ",SENECARESIDENTIAL@GMAIL.COM,,CRC-0337 / 12/31/2021,Oconee / Sole Proprietorship,PO BOX 428,SENECA,SC,29679-0428,WILBURN E HAMMERS,N,N,33,33,-82.9629158,34.65632314,HLRESIDENTIALCARE,320122.4615,3836684.251
SERENITY MANOR OF HOLLY HILL,656 GARDNER BLVD,HOLLY HILL,SC,29059-8450,Orangeburg,803-496-3022,"RILEY, LUTHER, III. PH#: 803-496-3022",LUTHER.RILEY@YAHOO.COM,LUTHER.RILEY@YAHOO.COM,CRC-1516 / 07/31/2021,Orangeburg / Limited Liability,704 SHELLEY RD,CHARLESTON,SC,29407-7023,SERENITY MANOR OF HOLLY HILL LLC,N,N,5,,-80.413835,33.317554,HLRESIDENTIALCARE,554560.58,3686645.184
SEVILLE'S RESIDENTIAL CARE FACILITY,109 BENNETT LN,HAMPTON,SC,29924-1375,Hampton,803-914-0105,"JENKINS, GENORA W. PH#: 803-914-0105",KAMILLE.JENKINS@GMAIL.COM,KAMILLE.JENKINS@GMAIL.COM,CRC-1178 / 08/31/2021,Hampton / Sole Proprietorship,109 BENNETT LN,HAMPTON,SC,29924-1375,GENORA W JENKINS,N,N,10,10,-81.09979684,32.86911872,HLRESIDENTIALCARE,490663.6535,3636781.998
SHEM CREEK HEALTH CENTER,1400 LIBERTY MIDTOWN DR,MOUNT PLEASANT,SC,29464,Charleston,843-936-2801,"FURLOUGH, CYNTHIA L. PH#: 843-352-4986",LFURLOUGH@LIBERTYSENIORLIVING.COM,LFURLOUGH@LIBERTYSENIORLIVING.COM,CRC-1952 / 07/31/2021,Charleston / Limited Liability,1400 LIBERTY MIDTOWN DR,MOUNT PLEASANT,SC,29464,SOUTH BAY AT MT PLEASANT LLC,Y,Y,110,,-79.85950388,32.8180114,HLRESIDENTIALCARE,608596.4036,3631068.766
SHEPHERD'S CARE CENTER,2100 N PLEASANTBURG DR,GREENVILLE,SC,29609-3156,Greenville,864-322-6212,"THOMPSON, ERIC M. PH#: 864-322-6212",ETHOMPSO@SHEPHERDSCARECENTER.COM,ETHOMPSO@SHEPHERDSCARECENTER.COM,CRC-1326 / 10/31/2021,Greenville / Ltd. Liability,2100 N PLEASANTBURG DR,GREENVILLE,SC,29609-3156,SHEPHERD'S CARE CENTER LLC,Y,Y,90,90,-82.37288901,34.8891674,HLRESIDENTIALCARE,374548.7338,3861612.06
SHERMAN RESIDENTIAL CARE,20 MAYFIELD ST,GREENVILLE,SC,29601-1815,Greenville,864-242-0401, PH#: ,0911BEAUTYJ@GMAIL.COM,,CRC-2009 / 02/28/2022,Greenville / Limited Liability,20 MAYFIELD ST,GREENVILLE,SC,29601-1815,SHERMAN RESIDENTIAL CARE 2 LLC,N,N,16,,-82.407969,34.852102,HLRESIDENTIALCARE,371285.314,3857545.765
SIX MILE RETIREMENT CENTER,120 S MAIN ST,SIX MILE,SC,29682-9332,Pickens,864-868-9050, PH#: ,SRETIREMENT@ATT.NET,,CRC-0542 / 09/30/2021,Pickens / Sole Proprietorship,PO BOX 210,SIX MILE,SC,29682-0210,WILBURN E HAMMERS,N,N,41,41,-82.81816107,34.803418,HLRESIDENTIALCARE,333684.174,3852749.673
SOMERBY OF MOUNT PLEASANT,3100 TRADITION CIR,MOUNT PLEASANT,SC,29466-7153,Charleston,843-849-3096,"CURE, CANDY D. PH#: 843-849-3096",CANDY.CURE@SOMERBYLIVING.COM,,CRC-2048 / 02/28/2022,Charleston / Limited Liability,1000 LEGION PL STE 1600,ORLANDO,FL,32801,TRADITION SENIOR CARE LLC,Y,Y,118,,-79.79363751,32.89535805,HLRESIDENTIALCARE,612829.6437,3640331.592
SOUTH ISLAND LIVING LLC,2902 S ISLAND RD,GEORGETOWN,SC,29440-4420,Georgetown,843-545-5427, PH#: ,ADMIN@SOUTHISLANDLIVING.COM,,CRC-2194 / 04/30/2022,Georgetown / Limited Liability,,,,,SOUTH ISLAND LIVING LLC,N,N,48,,-79.299648,33.327142,HLRESIDENTIALCARE,658260.4224,3688845.349
SOUTHERN HERITAGE,1713 CHARLESTON HWY,WEST COLUMBIA,SC,29169-5051,Lexington,803-796-3113,"DOUGLAS, JONATHAN PH#: 803-796-3113",JDQCSI@AOL.COM,JDQCSI@AOL.COM,CRC-0993 / 03/31/2022,Lexington / Corporation,PO BOX 25215,COLUMBIA,SC,29224-5215,QUALITY CARE SERVICES INC,N,N,10,10,-81.07825505,33.96749131,HLRESIDENTIALCARE,492770.5628,3758554.246
SOUTHERN OAKS PERSONAL CARE HOME,120 ROPER MOUNTAIN RD EXT,GREENVILLE,SC,29615-4823,Greenville,864-288-3271,"MURPHY-DAVIS, TYQUANNA PH#: 864-288-3271",MHOLTZCLAW@BLUERIDGERX.COM,,CRC-1931 / 06/30/2021,Greenville / Limited Liability,80 MEDICAL DR,WOODRUFF,SC,29388,PATRIOT LIVING LLC,N,N,64,,-82.31881857,34.85147285,HLRESIDENTIALCARE,379434.8461,3857365.18
SPRENGER HEALTHCARE AT PORT ROYAL ASSISTED LIVING,1810 RICHMOND AVE,PORT ROYAL,SC,29935,Beaufort,843-781-7700,"GUEST, BENJAMIN PH#: 843-781-7700",JCOE@SPRENGERHEALTHCARECOM,BGUEST@SPRENGERHEALTHCARE.COM,CRC-2016 / 05/31/2022,Beaufort / Corporation,3905 OBERLIN AVE,LORAIN,OH,44053,SPRENGER HEALTHCARE OF PORT ROYAL INC,N,N,59,,-80.68888,32.383536,HLRESIDENTIALCARE,529281.8489,3583042.941
SPRENGER HEALTHCARE OF BLUFFTON ASSISTED LIVING,60 OKATIE DR,OKATIE,SC,29909,Beaufort,843-548-2500,"QUANDAHL, EMILY PH#: ",EQUANDAHL@SPRENGERHEALTHCARE.COM,EQUANDAHL@SPRENGERHEALTHCARE.COM,CRC-2042 / 03/31/2022,Beaufort / Corporation,60 OKATIE DR,OKATIE,SC,29909,SPRENGER HEALTHCARE OF BLUFFTON INC,N,N,58,,-80.91117884,32.31507208,HLRESIDENTIALCARE,508360.819,3575363.39
SPRING PARK ASSISTED LIVING,925 N MAIN ST,TRAVELERS REST,SC,29690-1553,Greenville,864-610-2435,"HAWKINS, LISA PH#: 864-610-2435; LEE-POTTER, KEARA PH#: 864-610-2435",LHAWKINS@SPRINGPARKTRAVELERSREST.COM,ADMIN@SPRINGPARKSC.COM,CRC-2063 / 02/28/2022,Greenville / Limited Liability,2700 HWY 280 STE 460E,BIRMINGHAM,AL,35223,AFF18 SPRING PARK ALF LLC,Y,Y,80,,-82.458779,34.976984,HLRESIDENTIALCARE,366841.8562,3871462.488
SPRINGFIELD PLACE RESIDENTIAL CARE,2006 SPRINGFIELD CIR,NEWBERRY,SC,29108-3084,Newberry,803-405-1585, PH#: ,KMONTGOMERY@NEWBERRYCCRC.COM,,CRC-1250 / 02/28/2022,Newberry / Limited Liability,2006 SPRINGFIELD CIR,NEWBERRY,SC,29108-3084,NEWBERRY OPERATOR LLC,N,Y,50,50,-81.60139371,34.28594159,HLRESIDENTIALCARE,444649.0009,3794024.997
SPRINGHILL ASSISTED LIVING,514 S GUM ST,PAGELAND,SC,29728-9143,Chesterfield,843-675-2500, PH#: ,SPRINGHILLASSISTEDLIVING@YAHOO.COM,,CRC-1171 / 07/31/2022,Chesterfield / Corporation,514 S GUM ST,PAGELAND,SC,29728-9143,HOSPICE OF CHESTERFIELD COUNTY INC,N,N,32,32,-80.38178887,34.76790362,HLRESIDENTIALCARE,556572.0022,3847478.997
SPRINGS AT SIMPSONVILLE,214 E CURTIS ST,SIMPSONVILLE,SC,29681-2622,Greenville,864-962-8570,"MASTERSON, MARGARET J. PH#: 864-962-8570",PEGGYM@CARAVITA.COM,PEGGYM@CARAVITA.COM,CRC-1198 / 05/31/2022,Greenville / Ltd. Liability,104 S MAIN ST STE 3,SIMPSONVILLE,SC,29681-2707,CURTIS GROUP LLC,Y,Y,89,69,-82.25237893,34.73758212,HLRESIDENTIALCARE,385351.4745,3844656.6
ST GABRIEL OF MURRELLS INLET,699 PRINCE CREEK PKWY,MURRELLS INLET,SC,29576,Horry,843-353-1525,"RICHARDSON, JACQUE W. PH#: 843-353-1525",JRICHARDSON@VERITASHCG.COM,JACQUE.RICHARDSON@THRIVEATPRINCECREEK.,CRC-2110 / 07/31/2021,Horry / Limited Liability,,,,,VERITAS SENIOR LIVING LLC,Y,Y,110,,-79.048133,33.58173,HLRESIDENTIALCARE,681143.1151,3717487.653
STOKES RESIDENTIAL CARE,2525 SAINT MATTHEWS RD,ORANGEBURG,SC,29118-1319,Orangeburg,803-533-0070,"STOKES, ALBERT O. PH#: 803-533-0070",MCAKLEY18.COM,DSTOKES30@SC.RR.COM,CRC-2072 / 12/31/2021,Orangeburg / Limited Liability,1027 BERKELEY DR,ORANGEBURG,SC,29118-8356,BRIANS AND STOKES ASSISTED LIVING LLC,N,N,17,,-80.846916,33.532285,HLRESIDENTIALCARE,514214.0585,3710309.125
STRATFORD PLACE GOOSE CREEK - ASSISTED LIVING,97 BRIDGETOWN RD,GOOSE CREEK,SC,29445,Berkeley,843-300-1951,"REINHEIMER, CYNTHIA H. PH#: 843-300-1951",GCCD@STRATFORDPLACE.COM,CINDY.REINHEIMER@YAHOO.COM,CRC-2096 / 01/31/2022,Berkeley / Corporation,,,,,SPGCAL INC,N,N,34,,-80.048081,33.010661,HLRESIDENTIALCARE,588915.4103,3652871.238
STRATFORD PLACE OF GOOSE CREEK MEMORY CARE,95 BRIDGETOWN RD,GOOSE CREEK,SC,29445,Berkeley,843-300-1952,"REINHEIMER, CYNTHIA H. PH#: 843-300-1951",GCCD@STRATFORDPLACE.COM,CINDY.REINHEIMER@YAHOO.COM,CRC-1919 / 02/28/2022,Berkeley / Corporation,1327 SMYTHE ST,DANIEL ISLAND,SC,29492,SPGCMC INC,Y,Y,34,,-80.049742,33.008923,HLRESIDENTIALCARE,588761.9903,3652677.157
SUMMIT HILLS ASSISTED LIVING COMMUNITY,100 SUMMIT HILLS DR,SPARTANBURG,SC,29307-1532,Spartanburg,864-591-2222,"SCHINDLER, GREGORY PH#: 864-591-2222",LICENSING@SUMMIT-HILLS.COM,LICENSING@SUMMIT-HILLS.COM,CRC-1113 / 09/30/2021,Spartanburg / Ltd. Liability,3530 TORINGDON WAY STE 204,CHARLOTTE,NC,28277-3436,SUMMIT HILLS LLC,Y,Y,79,57,-81.89072293,34.98389125,HLRESIDENTIALCARE,418703.0016,3871618.996
SUMMIT PLACE OF ANDERSON,107 PERPETUAL SQUARE DR,ANDERSON,SC,29621-1713,Anderson,864-222-9880,"COOLEY, LARINDA PH#: 864-222-9880",LCOOLEY@CAPITALSENIORLIVING.NET,LCOOLEY@CAPITALSENIORLIVING.NET,CRC-1151 / 10/31/2021,Anderson / Limited Liability,107 PERPETUAL SQUARE DR,ANDERSON,SC,29621-1713,CSL SUMMIT PLACE SC LLC,Y,Y,89,89,-82.631676,34.552062,HLRESIDENTIALCARE,350292.8543,3824579.474
SUMMIT PLACE OF BEAUFORT,1119 PICKPOCKET PLANTATION DR,BEAUFORT,SC,29902-3771,Beaufort,843-770-0105, PH#: ,LICENSING@5SSL.COM,,CRC-1375 / 06/30/2022,Beaufort / Corporation,"400 CENTRE ST, LICENSING DEPT",NEWTON,MA,02458-2094,SNH SE TENANT TRS INC,Y,Y,87,61,-80.701887,32.438699,HLRESIDENTIALCARE,528023.581,3589102.965
SUMMIT PLACE OF DANIEL ISLAND,320 SEVEN FARMS DR,DANIEL ISLAND,SC,29492-7532,Berkeley,843-884-4104,"AMERSON, KATHERINE D. PH#: 843-884-4104",LICENSING@5SSL.COM,,CRC-1282 / 05/31/2022,Berkeley / Limited Liability,"400 CENTRE ST, LICENSING DEPT",NEWTON,MA,02458-2094,SNH SE DANIEL ISLAND TENANT LLC,N,N,76,76,-79.91392874,32.85808422,HLRESIDENTIALCARE,601620.8874,3636076.925
SUMMIT PLACE OF NORTH MYRTLE BEACH,491 HWY 17,LITTLE RIVER,SC,29566-8082,Horry,843-399-5662,"HAYES, ELIZABETH A. PH#: ",LICENSING@5SSL.COM,,CRC-1360 / 06/30/2022,Horry / Corporation,"400 CENTRE ST, LICENSING DEPT",NEWTON,MA,02458-2094,SNH SE N MYRTLE BEACH TENANT LLC,Y,Y,80,80,-78.64994274,33.86527278,HLRESIDENTIALCARE,717388.0011,3749702.998
SUNNY PINES BOARDING HOME,108 GAPWAY RD,ANDREWS,SC,29510-6786,Williamsburg,843-221-7436,"PAPILLION, GLORIA F. PH#: 843-221-7436",PAPION22@PEOPLEPC.COM,PAPION22@PEOPLEPC.COM,CRC-0098 / 05/31/2021,Williamsburg / Sole Proprietorship,PO BOX 732,ANDREWS,SC,29510-0732,"DUROUSSEAU, MATTIE H.",N,N,18,19,-79.57217,33.467017,HLRESIDENTIALCARE,632680.3055,3703974.193
SWEETGRASS COURT SENIOR LIVING COMMUNITY,1010 ANNA KNAPP BLVD,MOUNT PLEASANT,SC,29464-5400,Charleston,843-971-7756,"SINGLETARY, JESSICA PH#: ",JBRYANTSINGLETARY@5SSL.COM,,CRC-2117 / 01/31/2022,Charleston / Limited Liability,,,,,SNH SC TENANT LLC,N,N,38,,-79.864314,32.814881,HLRESIDENTIALCARE,606315.0466,3631336.04
TERRABELLA,104 DILLON DR,SPARTANBURG,SC,29307-1018,Spartanburg,864-948-9300, PH#: ,JPEARSON@TERRABELLASENIORLIVING.COM,,CRC-2193 / 05/31/2022,Spartanburg / Limited Liability,,,,,SPARTANBURG AL/MC LLC,Y,N,55,,-81.892815,34.980805,HLRESIDENTIALCARE,418509.052,3871278.385
THORNE RETIREMENT HOME,702 W 3RD AVE,LAKE VIEW,SC,29563,Dillon,843-759-9099,"SANDERSON, JAMES N. PH#: 843-759-9099",MARIE@LAKEFIELDPROP.COM,JAMES@LAKEFIELDPROP.COM,CRC-1968 / 03/31/2022,Dillon / Limited Liability Company (single member),702 W 3RD AVE,LAKE VIEW,SC,29563,LAKEFIELD PROPERTIES LLC,N,N,76,,-79.17339,34.34401,HLRESIDENTIALCARE,668010.9709,3801811.379
TRICOUNTY CRISIS STABILIZATION CENTER,5 CHARLESTON CENTER DR STE 246,CHARLESTON,SC,29401-1162,Charleston,843-953-2390,"OLIVER, RICHARD H. PH#: 843-953-2390",LAURA.UMINSKI@SCDMH.ORG,ROLIVER@CHARLESTONCOUNTY.ORG,CRC-1956 / 06/30/2021,Charleston / State,5 CHARLESTON CENTER DR STE 246,CHARLESTON,SC,29401-1162,CHARLESTON DORCHESTER MENTAL HEALTH CENTER,N,N,10,,-79.95098,32.783198,HLRESIDENTIALCARE,598236.4046,3627739.69
TRINITY ON LAURENS,213 LAURENS ST NW,AIKEN,SC,29801-3911,Aiken,803-643-4200,"HENRICH, CONSTANCE M. PH#: 803-643-4203",CHENRICH@TRINITYONLAURENS.ORG,CHENRICH@LHOMES.ORG,CRC-0935 / 06/30/2021,Aiken / Non-Profit Corporation,213 LAURENS ST NW,AIKEN,SC,29801-3911,LUTHERAN HOMES OF SOUTH CAROLINA INC,N,N,55,55,-81.72193079,33.56434501,HLRESIDENTIALCARE,432992.1479,3714086.53
TURNING POINT CRCF,820 TOMS CREEK RD,HOPKINS,SC,29061-8798,Richland,803-647-1152,"DENNIS, DORTHEA PH#: 803-647-1152",DORTHEA.DENNIS@SCDMH.ORG,DORTHEA.DENNIS@SCDMH.ORG,CRC-2075 / 06/28/2022,Richland / State,820 TOMS CREEK RD,HOPKINS,SC,29061-8798,SOUTH CAROLINA DEPARTMENT OF MENTAL HEALTH,N,N,15,,-80.764998,33.980815,HLRESIDENTIALCARE,521706.8875,3760053.661
TWILITE MANOR ADULT RESIDENTIAL CARE,2306 FORREST ST,CAYCE,SC,29033-2124,Lexington,803-794-7561,"RICHARDSON-ETHERIDGE, YOLANDA PH#: 803-794-7561",LANDAETHER@GMAIL.COM,TWILITE_MANOR@SC.RR.COM,CRC-1210 / 05/31/2022,Lexington / Limited Liability,1515 12TH ST,CAYCE,SC,29033-3101,SEASHAR LLC,N,Y,28,28,-81.07202012,33.95411986,HLRESIDENTIALCARE,493345.5239,3757071.234
TYLER RESTMORE HOME,1681 BROUGHTON ST,ORANGEBURG,SC,29115-4873,Orangeburg,803-536-0740,"BLACK, EMILY T. PH#: 803-536-0740",MICHELLEANTLEY@ATT.NET,EYBLACK52@MAIL.COM,CRC-0841 / 07/31/2021,Orangeburg / Ltd. Liability,1681 BROUGHTON ST,ORANGEBURG,SC,29115-4873,TYLER RESTMORE HOME LLC,N,N,10,11,-80.87080021,33.49443622,HLRESIDENTIALCARE,512001.5423,3706109.837
TYLER RESTMORE HOME #2,195 SELLERS AVE,ORANGEBURG,SC,29115-6724,Orangeburg,803-531-2074, PH#: ,EYBLACK52@MAIL.COM,,CRC-0889 / 07/31/2021,Orangeburg / Limited Liability,195 SELLERS AVE,ORANGEBURG,SC,29115,TYLER RESTMORE HOME LLC,N,N,9,9,-80.86026754,33.48522474,HLRESIDENTIALCARE,512981.3112,3705089.837
TYLER RESTMORE HOME 3,139 SEMINOLE DR,ORANGEBURG,SC,29115-7619,Orangeburg,803-536-0060,"ANTLEY, MICHELLE L. PH#: 803-536-0060",MICHELLEANTLEY@ATT.NET,MICHELLEANTLEY@ATT.NET,CRC-2052 / 12/31/2021,Orangeburg / Limited Liability,238 ANNADALE CIR,ORANGEBURG,SC,29118,TYLER RESTMORE HOME LLC,N,N,15,,-80.852908,33.473476,HLRESIDENTIALCARE,513666.993,3703788.253
UPSTATE RESIDENTIAL CARE,1302 S MCDUFFIE ST,ANDERSON,SC,29624-2745,Anderson,864-225-6901, PH#: ,HORACEALEXANDER@MYLASOUNDS.COM,,CRC-0233 / 08/31/2021,Anderson / Sole Proprietorship,1302 S MCDUFFIE ST,ANDERSON,SC,29624-0036,"HORACE, J ALEXANDER",N,N,10,10,-82.64661589,34.49325914,HLRESIDENTIALCARE,348815.6253,3818080.246
VANGUARD RESIDENTIAL SERVICES I,100 E HOSPITAL ST,MANNING,SC,29102-3158,Clarendon,803-435-2330,"WAY, JAMES RYAN PH#: 803-435-2330",RWAY@CCDSNB.ORG,RWAY@CCDSNB.ORG,CRC-1313 / 06/30/2021,Clarendon / Non-Profit Corporation,PO BOX 40,MANNING,SC,29102-0040,VANGUARD RESIDENTIAL SERVICES INC,N,N,8,8,-80.20808527,33.687763,HLRESIDENTIALCARE,573399.0019,3727817.998
VANGUARD RESIDENTIAL SERVICES II,512 S CHURCH ST,MANNING,SC,29102-3122,Clarendon,803-435-2330, PH#: ,RWAY@CCDSNB.ORG,,CRC-1314 / 06/30/2021,Clarendon / Corporation,PO BOX 40,MANNING,SC,29102-0040,VANGUARD RESIDENTIAL SERVICES INC,N,N,8,8,-80.2090984,33.68669622,HLRESIDENTIALCARE,573306.0033,3727698.998
VANWYEVER RESIDENTIAL CARE FACILITY,2009 COSGROVE AVE,NORTH CHARLESTON,SC,29405-5702,Charleston,843-744-6065,"LADSON, PAULINE M. PH#: 843-762-6443; LADSON, PAULINE PH#: 843-762-6443",VANWYEVER1@AOL.COM,PAULINELADSON@ATT.NET,CRC-0638 / 09/30/2021,Charleston / Sole Proprietorship,PO BOX 71184,NORTH CHARLESTON,SC,29415,AYESHA T WASHINGTON ESQUIRE AS SPECIAL ADMINISTRATOR OF THE ESTATE RHODELLE W FULTON,N,N,10,11,-79.97574734,32.85725305,HLRESIDENTIALCARE,595837.3112,3635926.972
VARNVILLE COMMUNITY RESIDENCE,266 HAMPTON RD,VARNVILLE,SC,29944,Hampton,803-943-4818,"MCQUIRE, ELISE S. PH#: 803-943-4818",MELLISSA_D_MYERS23@HCBDSN.ORG,ELISEMAC@HCBDSN.ORG,CRC-1211 / 05/31/2022,Hampton / ,PO BOX 128,HAMPTON,SC,29924,HAMPTON COUNTY DISABILITIES AND SPECIAL NEEDS BOARD,N,N,8,8,-81.07569045,32.86103551,HLRESIDENTIALCARE,492918.249,3635884.037
VILLAGE COMMUNITY CARE HOME-UNIT A,1250 SALEM CHURCH RD,ANDERSON,SC,29625-1310,Anderson,864-225-4336,"WILLIAMS, PHYLLIS S. PH#: 864-225-4336",VILLAGECARE365@GMAIL.COM,VILLAGECARE365@GMAIL.COM,CRC-0563 / 01/31/2022,Anderson / Corporation,PO BOX 5107,ANDERSON,SC,29623-5107,VILLAGE COMMUNITY CARE HOME INC,N,N,11,11,-82.69379512,34.55007547,HLRESIDENTIALCARE,344589.0034,3824452.995
VILLAGE COMMUNITY CARE HOME-UNIT B,1250 SALEM CHURCH RD,ANDERSON,SC,29625-1310,Anderson,864-225-4336,"WILLIAMS, PHYLLIS S. PH#: 864-225-4336",VILLAGECARE365@GMAIL.COM,VILLAGECARE365@GMAIL.COM,CRC-0564 / 01/31/2022,Anderson / Corporation,PO BOX 5107,ANDERSON,SC,29623-5107,VILLAGE COMMUNITY CARE HOME INC,N,N,11,11,-82.69379512,34.55007547,HLRESIDENTIALCARE,344589.0034,3824452.995
VILLAGE COMMUNITY CARE HOME-UNIT C,1250 SALEM CHURCH RD,ANDERSON,SC,29625-1310,Anderson,864-225-4336,"WILLIAMS, PHYLLIS S. PH#: 864-225-4336",VILLAGECARE365@GMAIL.COM,VILLAGECARE365@GMAIL.COM,CRC-0565 / 01/31/2022,Anderson / Corporation,PO BOX 5107,ANDERSON,SC,29623-5107,VILLAGE COMMUNITY CARE HOME INC,N,N,11,11,-82.69379512,34.55007547,HLRESIDENTIALCARE,344589.0034,3824452.995
VILLAGE COMMUNITY CARE HOME-UNIT D,1250 SALEM CHURCH RD,ANDERSON,SC,29625-1310,Anderson,864-225-4336,"WILLIAMS, PHYLLIS S. PH#: 864-225-4336",VILLAGECARE365@GMAIL.COM,VILLAGECARE365@GMAIL.COM,CRC-0566 / 01/31/2022,Anderson / Corporation,PO BOX 5107,ANDERSON,SC,29623-5107,VILLAGE COMMUNITY CARE HOME INC,N,N,11,11,-82.69379512,34.55007547,HLRESIDENTIALCARE,344589.0034,3824452.995
VILLAGE COVE ASSISTED LIVING,80 MAIN STREET OFFICE 100,HILTON HEAD ISLAND,SC,29926,Beaufort,843-689-9143,"NAPOLITANO, JENNIFER PH#: 843-689-9143",JENNIFER.NAPOLITANO@NAVIONSL.COM,JNAPOLITANO@BROOKDALE.COM,CRC-2097 / 09/30/2021,Beaufort / ,,,,,NAVION BKE HILTON HEAD VILLAGE LLC,N,N,52,,-80.719276,32.217102,HLRESIDENTIALCARE,526453.3781,3564534.792
VILLAGE INN COMMUNITY CARE HOME,112 POWELL ST,GRANITEVILLE,SC,29829-2906,Aiken,803-663-9495,"AYERS, HAZEL L. PH#: 803-663-9495",VILLAGEINNCCH@BELLSOUTH.NET,VILLAGEINNCCH@BELLSOUTH.NET,CRC-0396 / 04/30/2022,Aiken / Sole Proprietorship,112 POWELL ST,GRANITEVILLE,SC,29829-2906,MICHELE A HERRON,N,N,10,11,-81.81440319,33.5653521,HLRESIDENTIALCARE,424409.7497,3714261.817
VINEYARD BLUFFTON,25 CASSIDY DR,BLUFFTON,SC,29910,Beaufort,843-612-0700, PH#: ,KSUITE@VALEOGROUPE.US,,CRC-1988 / 09/30/2021,Beaufort / Limited Liability,1001 MOREHEAD SQUARE DR STE 300,CHARLOTTE,NC,28203,VINEYARD BLUFFTON OPERATIONS LLC,Y,Y,108,,-80.873571,32.247804,HLRESIDENTIALCARE,511909.7519,3567910.475
WALTERS BROTHERS RESIDENTIAL CARE FACILITY INC,110 GEDDINGS RD,SUMTER,SC,29150-8812,Sumter,803-506-2743,"WALTERS, JOHNNIE L., SR. PH#: 803-506-2743",JOHNNIE15@FTC-I.NET,JOHNNIE15@FTC-I.NET,CRC-1080 / 04/30/2022,Sumter / Sole Proprietorship,3300 OLD MANNING RD,SUMTER,SC,29150-9701,JOHNNIE L WALTERS,N,Y,20,20,-80.35466665,33.79433297,HLRESIDENTIALCARE,559738.863,3739539.535
WALTERS RESIDENTIAL CARE,821 DUKE AVE,COLUMBIA,SC,29203-5651,Richland,803-252-8918,"JOHNSON, DELORES W. PH#: 803-252-8918",WALTERS1987@BELLSOUTH.NET,WALTERS1987@BELLSOUTH.NET,CRC-0985 / 03/31/2022,Richland / Non-Profit Corporation,PO BOX 211263,COLUMBIA,SC,29221-6263,MIPD INC,N,N,35,35,-81.04391231,34.04069737,HLRESIDENTIALCARE,495946.7283,3766669.306
WARE SHOALS MANOR,10 N GREENWOOD AVE,WARE SHOALS,SC,29692-1239,Greenwood,864-456-7127,"OBI-MELEKWE, BERNICE O. PH#: 864-456-7127",OSKARMANI@AOL.COM,OSKARMANI@AOL.COM,CRC-1457 / 10/31/2021,Greenwood / Ltd. Liability,10 N GREENWOOD AVE,WARE SHOALS,SC,29692,HARMONY RESIDENTIAL CARE CENTER LLC,N,N,24,24,-82.25471501,34.4058518,HLRESIDENTIALCARE,384680.3937,3807871.061
WATERCREST COLUMBIA ASSISTED LIVING AND MEMORY CARE,1951 CLEMSON RD,COLUMBIA,SC,29229,Richland,803-771-7500,"PATTERSON, MATTHEW PH#: 000-000-0000",BPATTERSON@WATERCRESTSENIORLIVING.COM,BPATTERSON@WATERCRESTSENIORLIVING.COM,CRC-1985 / 10/31/2021,Richland / Limited Liability,1951 CLEMSON RD,COLUMBIA,SC,29229,TSL WATERCREST OPCO LLC,Y,Y,118,,-80.90953,34.139974,HLRESIDENTIALCARE,508341.0823,3777679.913
WATERCREST FORT MILL ASSISTED LIVING AND MEMORY CARE,8154 ENGLISH CLOVER LN,INDIAN LAND,SC,29707,Lancaster,803-590-7005, PH#: ,TLM926@OUTLOOK.COM,,CRC-2024 / 07/31/2021,Lancaster / Limited Liability,445 24TH ST STE 300,VERO BEACH,FL,32960-0961,WAYPOINT WATERCREST FORT MILL SL LLC,Y,Y,117,,-80.862251,34.975094,HLRESIDENTIALCARE,512573.7057,3870289.728
WATERSTONE ON AUGUSTA SENIOR LIVING,1004 AUGUSTA ST,GREENVILLE,SC,29605-3906,Greenville,864-605-7236, PH#: ,CYNTHIA.FOWLER@WATERSTONEONAUGUSTA.COM,,CRC-1945 / 03/31/2022,Greenville / Corporation,1240 E INDEPENDENCE ST STE 200,SPRINGFIELD,MO,65804,CHP GREENVILLE SC TENANT CORP,Y,Y,126,,-82.406136,34.833053,HLRESIDENTIALCARE,371423.2366,3855430.846
WE CARE RESIDENTIAL,2370 WILLISTON RD,AIKEN,SC,29803-9100,Aiken,803-652-3652,"BUSH, ETHEL E. PH#: 803-652-3652",STEMSIS54@GMAIL.COM,BUSHHS@ATLANTICBB.NET,CRC-1034 / 08/31/2021,Aiken / Corporation,2394 WILLISTON RD,AIKEN,SC,29803-9100,WE CARE RESIDENTIAL INC,N,N,55,55,-81.696572,33.393463,HLRESIDENTIALCARE,435218.9677,3695124.414
WELLMORE OF DANIEL ISLAND,580 ROBERT DANIEL DR,CHARLESTON,SC,29492,Berkeley,843-566-1000,"BRYANT, COLBY E. PH#: 843-566-1000",DANIELISLAND.LICENSING@WELL-MORE.COM,DANIELLSLAND.LICENSING@WELL-MORE.COM,CRC-1569 / 04/30/2022,Berkeley / Limited Liability,3530 TORINGDON WAY STE 204,CHARLOTTE,NC,28277-3431,WELLMORE OF DANIEL ISLAND LLC,Y,Y,174,,-79.895528,32.880688,HLRESIDENTIALCARE,602192.0565,3637390.273
WELLMORE OF LEXINGTON,200 WELLMORE DR,LEXINGTON,SC,29072,Lexington,803-520-1200, PH#: ,LEXINGTON.LICENSING@WELL-MORE.COM,,CRC-1557 / 06/30/2021,Lexington / Limited Liability,3530 TORINGDON WAY STE 204,CHARLOTTE,NC,28277-3436,WELLMORE OF LEXINGTON LLC,Y,Y,174,,-81.248414,33.994616,HLRESIDENTIALCARE,480133.9437,3761752.222
WELLMORE OF TEGA CAY,111 WELLMORE DR,TEGA CAY,SC,29708-0039,York,803-835-7000,"DUNN, DAVID M. PH#: 803-835-7000",TEGACAY.LICENSING@WELL-MORE.COM,DAVID.DUNN@WELL-MORE.COM,CRC-1935 / 08/31/2021,York / ,111 WELLMORE DR,FORT MILL,SC,29708,WELLMORE OF TEGA CAY LLC,Y,Y,150,,-80.99021643,35.0471643,HLRESIDENTIALCARE,500670.6656,3878531.439
WESLEY COMMONS ASSISTED LIVING FACILITY & SPECIAL CARE HOUSE,1110 MARSHALL RD,GREENWOOD,SC,29646-4299,Greenwood,864-227-7480,"DAVIS, DORIS E. PH#: 864-227-7480",DDAVIS@WESLEYCOMMONS.ORG,DDAVIS@WESLEYCOMMONS.ORG,CRC-1218 / 08/31/2021,Greenwood / Non-Profit Corporation,1110 MARSHALL RD,GREENWOOD,SC,29646-4299,WESLEY COMMONS,Y,Y,70,56,-82.12697734,34.180305,HLRESIDENTIALCARE,396144.0025,3782721.995
WESLEY COURT ASSISTED LIVING COMMUNITY,916 WESLEY CT,BOILING SPRINGS,SC,29316-5649,Spartanburg,864-599-9929,"TURNAGE, HEATHER R. PH#: 864-599-9929",WESLEYCOURT@TUTERA.COM,WESLEYCOURT@TUTERA.COM,CRC-1289 / 12/31/2021,Spartanburg / Limited Liability,916 WESLEY CT,BOILING SPRINGS,SC,29316-5649,WESLEY COURT ASSISTED LIVING FACILITY LLC,N,N,70,46,-81.97387237,35.041469,HLRESIDENTIALCARE,411175.9229,3878075.29
WESLEYAN SUITES,2100 TWIN CHURCH RD,FLORENCE,SC,29501-8200,Florence,843-664-0700,"REICH, TERESSA L. PH#: 843-664-0700",TREICH@THEMANORSENIORLIVING.COM,TREICH@THEMANORSENIORLIVING.COM,CRC-0662 / 12/31/2021,Florence / Non-Profit Corporation,2100 TWIN CHURCH RD,FLORENCE,SC,29501-8200,UNITED METHODIST MANOR OF THE PEE DEE,Y,Y,95,95,-79.8589918,34.15118694,HLRESIDENTIALCARE,605185.1828,3779507.496
WEST END RETIREMENT CENTER INC,PO BOX 736,EASLEY,SC,29641-0736,Pickens,864-485-9372,"OWENS, AMBER G. PH#: 864-859-4370",AMBER.WESTEND@OUTLOOK.COM,AMBER.WESTEND@OUTLOOK.COM,CRC-0204 / 08/31/2021,Pickens / Corporation,200 S 5TH ST,EASLEY,SC,29640-2826,WEST END RETIREMENT CENTER INC,N,N,34,34,-82.601505,34.819308,HLRESIDENTIALCARE,353532.9134,3854174.265
WESTMINSTER MEMORY CARE - AIKEN,2288 S CENTENNIAL AVE,AIKEN,SC,29803,Aiken,803-502-5599,"MILLER, JAMIE PH#: ",MILLERJAMIE@WMCAIKEN.COM,,CRC-1997 / 04/30/2022,Aiken / Limited Liability,PO BOX 1398,MURFREESBORO,TN,37133-1398,AIKEN MEMORY CARE LLC,Y,Y,48,,-81.71093661,33.51963623,HLRESIDENTIALCARE,433978.6336,3709122.473
WESTMINSTER MEMORY CARE-LEXINGTON,886 PARK RD,LEXINGTON,SC,29072,Lexington,803-356-7507,"BROWN, GARY PH#: 803-356-7507",BROWNGARY@WMCLEXINGTON.COM,,CRC-2002 / 07/31/2021,Lexington / Limited Liability,4660 COTSWOLD LN,BIRMINGHAM,AL,35242,LEXINGTON MEMORY CARE LLC,Y,Y,48,,-81.282615,34.003704,HLRESIDENTIALCARE,473902.3159,3762602.7
WESTMINSTER TOWERS RESIDENTIAL,1330 INDIA HOOK RD,ROCK HILL,SC,29732-2462,York,803-328-5000, PH#: ,JTHOMASON@WESTMINSTERTOWERS.ORG,,CRC-0580 / 09/30/2021,York / Non-Profit Corporation,1330 INDIA HOOK RD,ROCK HILL,SC,29732-2462,WESTMINSTER PRESBYTERIAN CENTER INC,N,N,35,29,-81.02893021,34.95278274,HLRESIDENTIALCARE,497358.5553,3867807.252
WESTSIDE RESIDENTIAL HOME,4112 HARTFORD ST,COLUMBIA,SC,29204-3025,Richland,803-786-7411,"JOHNSON, LOVICE D. PH#: 803-786-7411",JENTOMATT@AOL.COM,JENTOMMATT@AOL.COM,CRC-0907 / 11/30/2021,Richland / Corporation,PO BOX 7905,COLUMBIA,SC,29202-7905,WESTSIDE RESIDENTIAL HOME INC,N,N,38,38,-80.9936929,34.05198259,HLRESIDENTIALCARE,500582.0922,3767919.747
WHITE OAK ESTATES ASSISTED LIVING,400 WEBBER RD,SPARTANBURG,SC,29307-2400,Spartanburg,864-579-7004,"FOWLER, JENNIFER M. PH#: 864-579-7004",JEMAZIE@WHITEOAKMANOR.COM,JEMAZIE@WHITEOAKMANOR.COM,CRC-1334 / 09/30/2021,Spartanburg / Corporation,400 WEBBER RD,SPARTANBURG,SC,29307-2400,WHITE OAK ESTATES ASSISTED LIVING INC,N,Y,45,45,-81.87026874,34.97255178,HLRESIDENTIALCARE,420558.9712,3870344.996
WHITNEY PLACE,107 CORNWELL ST,UNION,SC,29379-2404,Union,864-427-4275,"WHITNEY, WILLIAM B. PH#: 864-427-4275",WHITNEYPLACE1990@GMAIL.COM,WBWHITNEY39@GMAIL.COM,CRC-0572 / 02/28/2022,Union / Corporation,11 PARTRIDGE DR,GREENVILLE,SC,29609-6626,WHITNEY CORPORATION OF COLUMBIA INC,N,N,24,24,-81.6170899,34.71119284,HLRESIDENTIALCARE,443492.0036,3841189.497
WILDEWOOD DOWNS ASSISTED LIVING COMMUNITY,731 POLO RD,COLUMBIA,SC,29223-4462,Richland,803-419-1243,"RICHARD, JASMINE PH#: ",LICENSING@MAXWELL-GROUP.COM,,CRC-2091 / 06/30/2022,Richland / Limited Liability,3530 TORINGDON WAY STE 204,CHARLOTTE,NC,28277-3436,WILDEWOOD RETIREMENT LLC,Y,Y,57,,-80.888461,34.087491,HLRESIDENTIALCARE,510289.924,3771862.453
WILLIAMS COMMUNITY CARE HOME,7705 RICHARD ST,COLUMBIA,SC,29209-3733,Richland,803-783-1223,"WILLIAMS, CHARLES A. PH#: 803-783-1223",CHAZWILLIAMSSR@GMAIL.COM,CHAZWILLIAMSSR@GMAIL.COM,CRC-0280 / 11/30/2021,Richland / Sole Proprietorship,8435 MONTICELLO RD,COLUMBIA,SC,29203,CHARLES A WILLIAMS SR,N,N,9,10,-80.95115502,33.94992175,HLRESIDENTIALCARE,504513.3731,3756604.497
WILLIAMSBURG RESIDENTIAL CARE FACILITY,14 WRCF ST,KINGSTREE,SC,29556-2596,Williamsburg,843-355-6214,"JACKSON, JACQUES G. PH#: 843-355-6214",JJACKSON@WRCF1985.COM,JQUESJACKSON@GMAIL.COM,CRC-0038 / 03/31/2022,Williamsburg / Sole Proprietorship,PO BOX 147,SALTERS,SC,29590-0063,"JACKSON, JACQUES G.",N,N,24,24,-79.82125155,33.67947437,HLRESIDENTIALCARE,609265.0014,3727240.997
WILLIES II RCH,46 WILSON ST,SUMTER,SC,29150-3050,Sumter,803-773-4724,"COOPER, TRACEY L. PH#: 803-236-1415",ACETW90@AOL.COM,TRACEYLDUNN7@GMAIL.COM,CRC-1485 / 12/31/2021,Sumter / Sole Proprietorship,46 WILSON ST,SUMTER,SC,29150-3050,"COOPER, TRACEY L.",N,N,5,,-80.33381964,33.93657123,HLRESIDENTIALCARE,561566.5271,3755322.979
WILLOWS OF EASLEY,105 WILLOW PL,EASLEY,SC,29640-1385,Pickens,864-855-9800,"SPEARMAN, LAURA G. PH#: 864-855-9800",LGS@THEWILLOWSOFEASLEY.COM,LGS@THEWILLOWSOFEASLEY.COM,CRC-2015 / 03/31/2022,Pickens / Limited Liability,105 WILLOW PL,EASLEY,SC,29640-1385,CPF SENIOR LIVING - WILLOWS LLC,N,Y,50,,-82.605882,34.848073,HLRESIDENTIALCARE,353183.6721,3857370.938
WINDSOR HOUSE GREENVILLE,1931 PELHAM RD,GREENVILLE,SC,29615-4002,Greenville,864-288-9450,"WILSON, RENEE PH#: 864-288-9450",CLAY.FOWLERHEALTHCAREENTERPRISE@GMAIL.CO,RWILSON@WINDSORHOUSEGREENVILLE.COM,CRC-1388 / 01/31/2022,Greenville / ,1931 PELHAM RD,GREENVILLE,SC,29615-4002,WINDOR HOUSE GREENVILLE-FHE LLC,N,N,50,50,-82.28743721,34.86209572,HLRESIDENTIALCARE,382319.003,3858505.996
WOODBRIDGE CLINTON,300 JACOBS HWY,CLINTON,SC,29325,Laurens,864-833-3425,"MIELECH, DANIEL PH#: ",ED@WOODBRIDGECLINTONSENIORLIVING.COM,DMIELECH@ENLIVANT.COM,CRC-2073 / 11/30/2021,Laurens / Limited Liability,300 JACOBS HWY,CLINTON,SC,29325,ML WOODBRIDGE CLINTON LLC,N,Y,60,,-81.876514,34.452496,HLRESIDENTIALCARE,419486.492,3812678.087
WOODBRIDGE SENIOR LIVING,2902 E MAIN ST,SPARTANBURG,SC,29307-1252,Spartanburg,864-579-0086,"HENSON, KIMBERLY PH#: ; WILLIAMS, KANISHA PH#: ; WRIGHT, MALEIKA N. PH#: ",ED@WOODBRIDGESENIORLIVING.COM,MALEIKA@PROGESSIVEMANAGEMENT.ORG,CRC-1991 / 10/31/2021,Spartanburg / Limited Liability,2902 E MAIN ST,SPARTANBURG,SC,29307-1252,CR WOODBRIDGE LLC,Y,Y,113,,-81.862828,34.983752,HLRESIDENTIALCARE,421248.9931,3871581.189
WOODLAND PLACE,850 JOHN B WHITE BLVD,SPARTANBURG,SC,29306,Spartanburg,864-576-8910, PH#: ,ED@WOODLANDPLACEAL.COM,,CRC-2038 / 08/31/2021,Spartanburg / Limited Liability,850 JOHN B WHITE SR BLVD,SPARTANBURG,SC,29306-4034,MI WOODLAND PLACE LLC,Y,Y,108,,-81.93051651,34.91762473,HLRESIDENTIALCARE,412370.9708,3865647.729
WRIGHT'S RESIDENTIAL CARE #2 A & B,12 RIVER ST,LYMAN,SC,29365-1714,Spartanburg,864-249-0412,"WRIGHT, DIANNE E. PH#: 864-249-0412",WRIGHTSCARE91@GMAIL.COM,DIWRIGHT57@YAHOO.COM,CRC-1319 / 07/31/2021,Spartanburg / Sole Proprietorship,PO BOX 1214,DUNCAN,SC,29334,DIANNE E WRIGHT,N,N,10,10,-82.13235139,34.94364599,HLRESIDENTIALCARE,396597.9358,3867378.939
WRIGHT'S RESIDENTIAL CARE FACILITY 1,950 OLD SPARTANBURG HWY,WELLFORD,SC,29385,Spartanburg,864-249-0412,"WRIGHT, DIANNE E. PH#: 864-497-5741",WRIGHTSCARE91@GMAIL.COM,WRIGHTSCARE91@GMAIL.COM,CRC-0617 / 01/31/2022,Spartanburg / Sole Proprietorship,PO BOX 268,WELLFORD,SC,29385-0268,DIANNE E WRIGHT,N,N,10,10,-82.107607,34.949046,HLRESIDENTIALCARE,398864.3484,3867952.513
ZEIGLER STREET COMMUNITY RESIDENCE,71 ZEIGLER ST,BAMBERG,SC,29003-1034,Bamberg,803-245-6169, PH#: ,TDAVIS@BCDSNB.ORG,,CRC-1297 / 06/30/2021,Bamberg / ,"16553 HERITAGE HWY, BCDSNB",DENMARK,SC,29042-8901,BAMBERG COUNTY DISABILITIES AND SPECIAL NEEDS BOARD,N,N,9,8,-81.04022462,33.30162359,HLRESIDENTIALCARE,496255.2213,3684726.496