Facility Name,DBA,State ID,Facility Type,Address,City,County,State,Zipcode,Administrator Name,Inspection Results and Facility Details,Phone
ACCORD SENIOR CARE INC ROCKWOOD,-,B087153,Home Plus,6807 E ROCKWOOD ROAD,WICHITA,SEDGWICK,KS,67206,SHERI BAKER-BRUSTER,Inspection Results and Facility Details,316-927-2725
ADVANCED CARE HOME PLUS,-,B087221,Home Plus,5501 POLO DRIVE,WICHITA,SEDGWICK,KS,67208-2753,MAHMUD ILAHE,Inspection Results and Facility Details,316-777-6477
AGAPE HOME PLUS LLC,-,B087245,Home Plus,6322 E PEACH TREE LANE,WICHITA,SEDGWICK,KS,67218,SARA RODRIGUEZ,Inspection Results and Facility Details,316-339-0076
ALMOST HOME INC,-,B005003,Home Plus,1919 VAN BUREN,GREAT BEND,BARTON,KS,67530,LEILANI SCHENKEL,Inspection Results and Facility Details,620-617-1634
AMANI HOME PLUS,-,B087231,Home Plus,1201 N PINECREST ST,WICHITA,SEDGWICK,KS,67208,ESTHER KARIOKI,Inspection Results and Facility Details,316-305-4142
AUTUMN HOME PLUS 2,-,B089087,Home Plus,720 NW WALNUT LANE,TOPEKA,SHAWNEE,KS,66617,MELANI CREOLLO,Inspection Results and Facility Details,785-232-0730
AUTUMN HOME PLUS 3,-,B089095,Home Plus,750 NW WALNUT LN,TOPEKA,SHAWNEE,KS,66617,MELANI CREOLLO,Inspection Results and Facility Details,785-232-0730
AUTUMN HOME PLUS INC,-,B089068,Home Plus,747 NW WALNUT LANE,TOPEKA,SHAWNEE,KS,66617,MELANI CREOLLO,Inspection Results and Facility Details,785-232-0730
BETHEL HOUSE,-,B087145,Home Plus,1316 CHARLOTTE ST,WICHITA,SEDGWICK,KS,67208-2659,BRANDI BUNYAN,Inspection Results and Facility Details,316-440-4406
BRIDGE HAVEN ON ALVAMAR,-,B023017,Home Plus,2147 QUAIL CREEK DRIVE,LAWRENCE,DOUGLAS,KS,66047,ROBERT WILSON,Inspection Results and Facility Details,785-371-1106
BRIDGE HAVEN THREE,MADEL'S HOUSE,B023021,Home Plus,1701 RESEARCH PARK BLDG #3,LAWRENCE,DOUGLAS,KS,66044,ROBERT WILSON,Inspection Results and Facility Details,785-550-6162
BRIDGE HAVEN VILLAGE,-,B023016,Home Plus,1701 RESEARCH PARK DRIVE,LAWRENCE,DOUGLAS,KS,66047,SARAH RANDOLPH,Inspection Results and Facility Details,785-371-1106
BRIDGE HAVEN VILLAGE TWO,-,B023019,Home Plus,1701 RESEARCH PARK DRIVE,LAWRENCE,DOUGLAS,KS,66047,SARAH RANDOLPH,Inspection Results and Facility Details,785-550-6168
CARE HAVEN HOMES  BROADMOOR,-,B046050,Home Plus,7001 W 69TH STREET,OVERLAND PARK,JOHNSON,KS,66204,NEIL BARNETT,Inspection Results and Facility Details,913-643-0111
CARE HAVEN HOMES  FONTANA,-,B046039,Home Plus,10001 FONTANA,OVERLAND PARK,JOHNSON,KS,66207,COURTNEY MAUREEN GOIN,Inspection Results and Facility Details,913-643-0111
CARE HAVEN HOMES OVERBROOK,-,B046033,Home Plus,9833 OVERBROOK CT,LEAWOOD,JOHNSON,KS,66207,COURTNEY MAUREEN GOIN,Inspection Results and Facility Details,913-643-0111
CARE HAVEN HOMES SOUTHMOOR,-,B046030,Home Plus,7010 W 69TH TERR,OVERLAND PARK,JOHNSON,KS,66204,NEIL BARNETT,Inspection Results and Facility Details,913-643-0111
CARE HAVEN HOMES SUNFLOWER,-,B046052,Home Plus,9218 LEE BOULEVARD,LEAWOOD,JOHNSON,KS,662061822,NEIL BARNETT,Inspection Results and Facility Details,913-643-0111
CARE HAVEN HOMES WYCKLOW,-,B046061,Home Plus,3 WYCKLOW STREET,OVERLAND PARK,JOHNSON,KS,66207-4005,NEIL BARNETT,Inspection Results and Facility Details,913-643-0111
CARE TOUCH HOMES PLUS LLC,-,B046060,Home Plus,11206 W 72ND TERRACE,SHAWNEE,JOHNSON,KS,66203,LEONARD NDEI,Inspection Results and Facility Details,913-850-3139
CHENEY GOLDEN AGE HOME PLUS,-,B087183,Home Plus,802 NORTH MAIN STREET,CHENEY,SEDGWICK,KS,67025-0370,JESSICA MARTIN,Inspection Results and Facility Details,316-540-3691
CHRIST CARE HOME PLUS LLC,-,B087215,Home Plus,7901 W JENNIE STREET,WICHITA,SEDGWICK,KS,67212-3072,RUBINA ANWAR,Inspection Results and Facility Details,316-308-6488
CLOVER CARE,-,B046049,Home Plus,6320 ZARDA DRIVE,SHAWNEE,JOHNSON,KS,66226,MELANIE KLOVER,Inspection Results and Facility Details,913-991-2605
COMFORT CARE HOMES INC,COMFORT CARE HOMES 29TH #2,B087248,Home Plus,8629 W 29TH ST N,WICHITA,SEDGWICK,KS,67205,SANDRA KEELER,Inspection Results and Facility Details,316-685-3322
COMFORT CARE HOMES INC,COMFORT CARE HOMES INC 29TH #1,B087247,Home Plus,8631 W 29TH ST N,WICHITA,SEDGWICK,KS,67205,BROOKE BOWLIN,Inspection Results and Facility Details,316-685-3322
COMFORT CARE HOMES INC #147,-,B087100,Home Plus,147 S RIDGEWOOD DRIVE,WICHITA,SEDGWICK,KS,67218-1817,SANDI KEELER,Inspection Results and Facility Details,316-685-3322
COMFORT CARE HOMES INC #219,-,B087206,Home Plus,219 S MORNINGSIDE ST,WICHITA,SEDGWICK,KS,67218-1813,BROOKE BOWLIN,Inspection Results and Facility Details,316-685-3322
COMFORT CARE HOMES INC #441,-,B087095,Home Plus,441 S MORNINGSIDE ST,WICHITA,SEDGWICK,KS,67218-1817,DEBBIE GOODWIN,Inspection Results and Facility Details,316-685-3322
COMFORT CARE HOMES INC #509,-,B087126,Home Plus,509 N TALLYRAND STREET,WICHITA,SEDGWICK,KS,67206-1603,BROOKE BOWLIN,Inspection Results and Facility Details,316-685-3322
COMFORT CARE HOMES INC #557,-,B087186,Home Plus,557 N ARMOUR,WICHITA,SEDGWICK,KS,67218-1817,SANDRA KEELER,Inspection Results and Facility Details,316-685-3322
COMFORT CARE HOMES INC #641,-,B087125,Home Plus,641 N BROADMOOR AVE,WICHITA,SEDGWICK,KS,67206-1603,BROOKE BOWLIN,Inspection Results and Facility Details,316-685-3322
COMFORT CARE HOMES OF KANSAS CITY LLC,COMFORTCARE HOMES KC-DELMAR,B046066,Home Plus,9631 DELMAR STREET,OVERLAND PARK,JOHNSON,KS,66207,LINDA DUGAN,Inspection Results and Facility Details,816-830-9767
COMFORTCARE HOMES MILLIES PLACE,-,B019002,Home Plus,803 LAKEVIEW DR,PITTSBURG,CRAWFORD,KS,66762,CHRIS WINDSOR,Inspection Results and Facility Details,620-308-6520
COMFORTCARE HOMES OF BALDWIN CITY LLC,-,B023014,Home Plus,232 ELM STREET,BALDWIN CITY,DOUGLAS,KS,66006-4120,SCOTT D SCHULTZ,Inspection Results and Facility Details,785-594-2603
COMFORTCARE HOMES OF HARVEY COUNTY ANNABELLES COTTAGE,-,B040003,Home Plus,1508 TERRACE DRIVE,NEWTON,HARVEY,KS,67114,PENNY BAKER LPN IVC,Inspection Results and Facility Details,316-333-1406
COMFORTCARE HOMES OF HARVEY COUNTY LLC MAMA GS HOUSE,-,B040001,Home Plus,1504 TERRACE DRIVE,NEWTON,HARVEY,KS,67114,SHARON ERWIN,Inspection Results and Facility Details,316-804-7220
COMFORTCARE HOMES OF KANSAS CITY LLC,COMFORTCARE HOMES KC - HOWE LLC,B046032,Home Plus,10205 HOWE DRIVE,LEAWOOD,JOHNSON,KS,66206,LINDA DUGAN,Inspection Results and Facility Details,913-381-2580
COMFORTCARE HOMES OF KANSAS CITY LLC,COMFORTCARE HOMES OF KC - OVERBROOK LLC,B046031,Home Plus,9825 OVERBROOK ROAD,LEAWOOD,JOHNSON,KS,66206-5308,LINDA DUGAN,Inspection Results and Facility Details,913-341-5547
COMFORTCARE HOMES OF OTTAWA LLC,-,B030013,Home Plus,27 E ROCKWOOD DRIVE,OTTAWA,FRANKLIN,KS,66067-3721,SCOTT D SCHULTZ,Inspection Results and Facility Details,785-.59-4.26
COMFORTCARE HOMES OF PITTSBURG LLC COLLEENS COTTAGE,-,B019004,Home Plus,704 LAKEVIEW DRIVE,PITTSBURG,CRAWFORD,KS,66762,CHRIS WINDSOR,Inspection Results and Facility Details,620-308-6520
COMPASSIONATE CARE WEST,-,B087167,Home Plus,968 N TYLER RD,WICHITA,SEDGWICK,KS,67212-3240,RACHAEL J. GRILL,Inspection Results and Facility Details,316-440-4167
COUNTRY LIVING OF LARNED HOME PLUS,-,B073001,Home Plus,710 WEST 9TH STREET,LARNED,PAWNEE,KS,67550,LAURA SMITH,Inspection Results and Facility Details,620-285-6212
COUNTRY LIVING OF LARNED HOME PLUS II,-,B073002,Home Plus,712 WEST 9TH,LARNED,PAWNEE,KS,67550,LAURA SMITH,Inspection Results and Facility Details,620-285-6900
COUNTRY PLACE MEMORY CARE OF CHANUTE,-,B067003,Home Plus,705 OSA MARTIN BLVD,CHANUTE,NEOSHO,KS,66720,SHANNON TYLER,Inspection Results and Facility Details,620-431-0599
COUNTRY PLACE MEMORY CARE OF FORT SCOTT,-,B006006,Home Plus,822 S HORTON STREET,FORT SCOTT,BOURBON,KS,66701,MARGARET MOYER,Inspection Results and Facility Details,620-223-1822
COVENANT CARE SENIOR LIVING,-,B087158,Home Plus,14422 TWINLAKE DRIVE,WICHITA,SEDGWICK,KS,67230-9517,NATE MATHEWS,Inspection Results and Facility Details,316-655-9996
DC DEFENSE SYSTEMS LLC,PROVIDENCE HOMES PLUS,B089101,Home Plus,1920 SW 32ND ST,TOPEKA,SHAWNEE,KS,66611-2063,LISA PEAVLER,Inspection Results and Facility Details,785-408-1559
DIVINE CARE HOMES LLC,-,B087195,Home Plus,5319 S SPRUCE STREET,WICHITA,SEDGWICK,KS,67216,RACHEL THOMAS,Inspection Results and Facility Details,316-796-4147
ELDER LIVING LLC,ASTER ESTATES,B005004,Home Plus,155 NW 10TH AVE,GREAT BEND,BARTON,KS,67530,PAMLA S LEWIS,Inspection Results and Facility Details,620-617-4096
ELLINWOOD COUNTRY LIVING,-,B005001,Home Plus,302 N. MAIN STREET,ELLINWOOD,BARTON,KS,67526-1613,LAURA SUPPES,Inspection Results and Facility Details,620-564-2100
EMERALD SENIORS LLC,-,B087210,Home Plus,1226 S BYRON ROAD,WICHITA,SEDGWICK,KS,67209,AUDRA M. CROUSE,Inspection Results and Facility Details,316-258-1883
FREMONT HOME PLUS LLC,-,B087246,Home Plus,2062 N GARNETT ST,WICHITA,SEDGWICK,KS,67226,BRYON MCNEIL,Inspection Results and Facility Details,316-305-7405
FUSION SENIOR CARE HOMES LLC,-,B087218,Home Plus,512 N BEBE STREET,WICHITA,SEDGWICK,KS,67212-6382,SYREETA BULGIN,Inspection Results and Facility Details,774-361-4056
GARDEN CITY SR OPERATIONS LLC,THE COTTAGES SENIOR CARE LIVING OF GARDEN CITY,B028002,Home Plus,2002 LABRADOR BLVD,GARDEN CITY,FINNEY,KS,67846,YESSICA PEREZ SANCHEZ,Inspection Results and Facility Details,620-290-0469
GENERATIONS HOME PLUS,-,B018003,Home Plus,28550 121ST RD,ARKANSAS CITY,COWLEY,KS,67005,DARCI WEIAND,Inspection Results and Facility Details,620-660-0938
GOLDEN BOOMERS 2,-,B087242,Home Plus,6900 STONEGATE ST,WICHITA,SEDGWICK,KS,67206,CHRISTINE NGUYEN,Inspection Results and Facility Details,316-730-3110
GOLDEN BOOMERS HOME PLUS LLC,-,B087216,Home Plus,6953 E KENTFORD CIRCLE,WICHITA,SEDGWICK,KS,67226-1026,CHRISTINE NGUYEN,Inspection Results and Facility Details,316-730-3110
GOLDEN OAKS,-,B089092,Home Plus,11701 W 60TH PLACE,SHAWNEE,JOHNSON,KS,66203,XXX,Inspection Results and Facility Details,913-717-6257
GOSHEN HOME CARE INC,-,B046036,Home Plus,9939 FOSTER STREET,OVERLAND PARK,JOHNSON,KS,66212-,MONICA KANGETHE,Inspection Results and Facility Details,913-341-2724
GRACE COTTAGE LLC,-,B087219,Home Plus,531 N CRESTLINE,WICHITA,SEDGWICK,KS,67212,AUBREONA LEHMAN,Inspection Results and Facility Details,316-990-2366
GRACEFUL HOME LLC,-,B089098,Home Plus,3100 SE ILLINOIS AVE,TOPEKA,SHAWNEE,KS,66605,GRACE TORKO,Inspection Results and Facility Details,785-424-2785
HARMONY ADULT HOME PLUS,-,B059013,Home Plus,1108 EAST SIMPSON STREET,MCPHERSON,MCPHERSON,KS,67460-6009,BRENDA A FOSTER,Inspection Results and Facility Details,620-242-7981
HARMONY HOUSE HOME PLUS LLC,-,B087240,Home Plus,400 N PETERSON AVE,WICHITA,SEDGWICK,KS,67212,LAMEHA HUGHES,Inspection Results and Facility Details,316-351-1148
HAVEN HOUSE,-,B078029,Home Plus,410 NORTH RENO AVENUE,HAVEN,RENO,KS,67543-280,HEATHER RENE HOLLE,Inspection Results and Facility Details,620-465-2421
HEART TO HEART HOME PLUS,-,B030008,Home Plus,3600 COLORADO ROAD,POMONA,FRANKLIN,KS,66076,VELDA JANE WILSON,Inspection Results and Facility Details,785-241-0023
HEARTLAND HAVEN HOME PLUS,-,B059012,Home Plus,1345 CHEROKEE ROAD,INMAN,MCPHERSON,KS,67546,ANN CHRISTINE WAGONER JORDAN,Inspection Results and Facility Details,620-585-6908
HEARTLAND MEADOWS LLC,-,B001001,Home Plus,1727 OREGON ROAD,IOLA,ALLEN,KS,66749,LESLIE NELSON WEIR,Inspection Results and Facility Details,620-228-5200
HILLSDALE PLACE LLC,-,B089086,Home Plus,1402 SW LANCASTER STREET,TOPEKA,SHAWNEE,KS,66604,TAMMY GONZALEZ,Inspection Results and Facility Details,785-783-7762
HILLSIDE GUEST HOME,-,B006003,Home Plus,1115 227TH STREET,FORT SCOTT,BOURBON,KS,66701,DEBRA RENE MORTER,Inspection Results and Facility Details,620-223-6132
HOME AGAIN SENIOR LIVING LLC,-,B049001,Home Plus,321 N MAIN STREET,HAVILAND,KIOWA,KS,67059,HALEY SIERRA JACKS,Inspection Results and Facility Details,620-862-5867
HOMESTEAD ESTATES HOME PLUS,-,B088002,Home Plus,1140 S PERSHING AVE,LIBERAL,SEWARD,KS,67901,MICHELLE LOCK-GOOCH,Inspection Results and Facility Details,620-626-5672
HORTON HOUSE,-,B006004,Home Plus,1126 S HORTON,FORT SCOTT,BOURBON,KS,66701,TRISTIAN B WURTZ,Inspection Results and Facility Details,660-644-5019
JOHNSONVILLE CARE HOME,-,B105138,Home Plus,2213 N. 22ND STREET,KANSAS CITY,WYANDOTTE,KS,66104,TIFFANY JOHNSON,Inspection Results and Facility Details,913-371-0701
JOHNSONVILLE HOME LLC,-,B105114,Home Plus,2419 N 22ND STREET,KANSAS CITY,WYANDOTTE,KS,66104-4612,TIFFANY JOHNSON,Inspection Results and Facility Details,913-371-3995
JOY HOME,-,B096017,Home Plus,"419 N PACIFIC STREET, PO BOX 26",OXFORD,SUMNER,KS,67119,TAMMY SAWYER,Inspection Results and Facility Details,620-455-3224
"KARAWAY, LLC",-,B089091,Home Plus,1815 SW WESTWOOD CIRCLE,TOPEKA,SHAWNEE,KS,66604,MEGAN KANATZAR,Inspection Results and Facility Details,785-608-4535
KEEPSAKE KOTTAGE #2,-,B087226,Home Plus,6412 E MARJORIE,WICHITA,SEDGWICK,KS,67206,KARI CAMERON,Inspection Results and Facility Details,316-650-4526
KEEPSAKE KOTTAGE #3,-,B087228,Home Plus,1411 S. MAIZE RD,WICHITA,SEDGWICK,KS,67209,KARI CAMERON,Inspection Results and Facility Details,316-650-4526
KEEPSAKE KOTTAGE LLC,KEEPSAKE KOTTAGE LLC #1,B008005,Home Plus,15834 SW BUTLER ROAD,ROSE HILL,BUTLER,KS,67133,KARI CAMERON,Inspection Results and Facility Details,316-350-6713
KEEPSAKE KOTTAGE LLC,KEEPSAKE KOTTAGE #4,B087252,Home Plus,2940 W RIVER PARK DR,WICHITA,SEDGWICK,KS,67203,KARI CAMERON,Inspection Results and Facility Details,316-650-4526
KELLY HOUSE OF MERIDEN NORTH,-,B044001,Home Plus,6313 HIGHWAY K-4,MERIDEN,JEFFERSON,KS,66512,VALERIE BENTEMAN,Inspection Results and Facility Details,785-484-0100
KELLY HOUSE OF MERIDEN SOUTH,-,B044002,Home Plus,3566 62ND STREET,MERIDEN,JEFFERSON,KS,66512,VALERIE BENTEMAN,Inspection Results and Facility Details,785-484-2165
LEGACY LIVING LLC,-,B011004,Home Plus,445 E 10TH STREET,BAXTER SPRINGS,CHEROKEE,KS,66713,RANDY DUKE DOTSON,Inspection Results and Facility Details,620-856-2756
LEISURE HOMESTEAD AT STAFFORD,-,N093002,Nursing FacilityHome Plus,405 GRAND AVENUE,STAFFORD,STAFFORD,KS,67578-2009,JAMES YOUNIE,Inspection Results and Facility Details,620-234-5208
LOIS HOUSE LLC,-,B087241,Home Plus,2734 N WELLESLEY,WICHITA,SEDGWICK,KS,67220,TRACY ALLEN,Inspection Results and Facility Details,316-409-2276
LOVING CARE OF MCPHERSON,-,B059006,Home Plus,1411 DOVER ROAD,MCPHERSON,MCPHERSON,KS,67460-1722,ANN CHRISTINE WAGONER JORDAN,Inspection Results and Facility Details,620-718-5047
LOVING HEARTS LLC,-,B087201,Home Plus,2311 W WESTPORT ST,WICHITA,SEDGWICK,KS,67203,ITANZA M CLARK,Inspection Results and Facility Details,316-239-6726
MANHATTAN RETIREMENT FOUNDATION INC,MEADOWLARK RILEY HOUSE,B081001,Home Plus,7621 FALCON RD,RILEY,RILEY,KS,66531,TRISHA MONTGOMERY,Inspection Results and Facility Details,785-485-2777
MANHATTAN RETIREMENT FOUNDATION INC,MEADOWLARK SCENIC HOUSE,B081002,Home Plus,120 N SCENIC DRIVE,MANHATTAN,RILEY,KS,66503,TRISHA MONTGOMERY,Inspection Results and Facility Details,785-317-8435
MARJORIES HOME LLC,-,B087162,Home Plus,14601 TIMBER LAKE ROAD,WICHITA,SEDGWICK,KS,67230-9220,THERESA REGIER,Inspection Results and Facility Details,316-260-1234
MARJORIES HOME LLC GP,-,B087199,Home Plus,524 N MAIN STREET,GARDEN PLAIN,SEDGWICK,KS,67050,THERESA REGIER,Inspection Results and Facility Details,316-213-9816
MARJORIES HOME OF KINGMAN LLC,-,B048002,Home Plus,1211 W KELLY AVENUE,KINGMAN,KINGMAN,KS,67068-8507,MONICA BILLS,Inspection Results and Facility Details,316-648-3368
MEADOWLARK ADULT CARE HOME 2,-,B087135,Home Plus,254 S  ROBIN ROAD,WICHITA,SEDGWICK,KS,67209,AMY PITZER,Inspection Results and Facility Details,316-773-2277
MEADOWLARK ADULT CARE HOME 3,-,B087141,Home Plus,11216 W. MAPLE STREET,WICHITA,SEDGWICK,KS,67209,SUSAN HATCHER,Inspection Results and Facility Details,316-773-2277
MEADOWLARK ADULT CARE HOME 4,-,B087147,Home Plus,1425 LEECREST STREET,WICHITA,SEDGWICK,KS,67209,SUSAN HATCHER,Inspection Results and Facility Details,316-773-2277
MEADOWLARK ADULT CARE HOME 6,-,B087178,Home Plus,10001 W. 12TH STREET NORTH,WICHITA,SEDGWICK,KS,67212,AMY PITZER,Inspection Results and Facility Details,316-773-2277
MEMORY VILLAGE OF OVERLAND PARK LLC,MAGGIE'S PLACE AT COLONIAL VILLAGE BUILDING 3,B046078,Home Plus,12640 W 137TH ST,OVERLAND PARK,JOHNSON,KS,66221 4129,ASHLEY DAWSON,Inspection Results and Facility Details,913-730-3700
MEMORY VILLAGE OF OVERLAND PARK LLC,MAGGIE'S PLACE AT COLONIAL VILLAGE BUILDING 2,B046077,Home Plus,12650 W 137TH ST,OVERLAND PARK,JOHNSON,KS,66221 4129,ASHLEY DAWSON,Inspection Results and Facility Details,913-730-3700
MEMORY VILLAGE OF OVERLAND PARK LLC,MAGGIE'S PLACE AT COLONIAL VILLAGE BUILDING 1,B046076,Home Plus,12620 W 137TH ST,OVERLAND PARK,JOHNSON,KS,662214129,ASHLEY DAWSON,Inspection Results and Facility Details,913-730-3700
MEMORY VILLAGE OF OVERLAND PARK LLC,MAGGIE'S PLACE AT COLONIAL VILLAGE BUILDING 5,B046080,Home Plus,12600 W 137TH ST,OVERLAND PARK,JOHNSON,KS,662214129,DAN CHIK,Inspection Results and Facility Details,913-730-3700
MEMORY VILLAGE OF OVERLAND PARK LLC,MAGGIE'S PLACE AT COLONIAL VILLAGE BUILDING 4,B046079,Home Plus,12630 W 137TH ST,OVERLAND PARK,JOHNSON,KS,662214129,ASHLEY DAWSON,Inspection Results and Facility Details,913-730-3700
MIDLAND CARE AT LINNWOOD PARK,-,N044005,Assisted Living FacilityHome Plus,1509 LINN ST,VALLEY FALLS,JEFFERSON,KS,66088-1185,KRISTI LEONARD,Inspection Results and Facility Details,785-945-3634
MORNINGSTAR CARE HOMES AT DUNN'S VISTA,-,B023020,Home Plus,424 WASHINGTON STREET,BALDWIN CITY,DOUGLAS,KS,66006,SCOTT D SCHULTZ,Inspection Results and Facility Details,785-.59-4.26
NEW LIFE HOME PLUS LLC,-,B087239,Home Plus,1214 N CHARLOTTE STREET,WICHITA,SEDGWICK,KS,67208,ARNOT MUNGUYA,Inspection Results and Facility Details,316-247-2209
OAKLEY #3,-,B089096,Home Plus,3314 SW FRONT,TOPEKA,SHAWNEE,KS,66604,MANDY WALES,Inspection Results and Facility Details,785-783-2128
OAKLEY PLACE #1,-,B089081,Home Plus,618 SW OAKLEY,TOPEKA,SHAWNEE,KS,66604,MANDY WALES,Inspection Results and Facility Details,785-221-7740
OAKLEY PLACE #2,-,B089082,Home Plus,"618 SW OAKLEY AVENUE, SUITE B",TOPEKA,SHAWNEE,KS,66606,MANDY WALES,Inspection Results and Facility Details,785-221-7740
OAKLEY PLACE OF ROSSVILLE,-,B089089,Home Plus,590 INDUSTRIAL TRAFFICWAY,ROSSVILLE,SHAWNEE,KS,66533,KIM GILLUM,Inspection Results and Facility Details,785-584-6075
OAKLEY PLACE OF SENECA,-,B066002,Home Plus,1306 BRANCH ST,SENECA,NEMAHA,KS,66538,JOYCE SUDBECK,Inspection Results and Facility Details,785-334-6000
OUR HOME SENIOR CARE,-,B089093,Home Plus,5745 ROSEHILL RD,SHAWNEE,JOHNSON,KS,66216,RONNETTA SULLIVAN,Inspection Results and Facility Details,913-296-3136
PEACE OF MIND HOME PLUS,-,B008003,Home Plus,400 E. SCHOOL,ROSE HILL,BUTLER,KS,67133-8465,SHALONDA BANKS,Inspection Results and Facility Details,316-260-7046
PEACE OF MIND LLC II,-,B087196,Home Plus,"223 N BURR OAK ROAD, PO BOX 173",WICHITA,SEDGWICK,KS,67206,SHALONDA BANKS,Inspection Results and Facility Details,316-295-4538
PLATINUM CARE HOMES,-,B087203,Home Plus,5701 E. 17TH NORTH,WICHITA,SEDGWICK,KS,67208,PAULA D MACK,Inspection Results and Facility Details,316-618-0584
PLEASANT HILLS,-,B078030,Home Plus,2500 PLEASANT HILLS PARKWAY,HUTCHINSON,RENO,KS,67502,SYDNI S. KRETZER,Inspection Results and Facility Details,620-665-6639
PRAIRIE ELDER HOMES  HARMONY HOUSE,-,B046059,Home Plus,11865 W 155TH TERRACE,OVERLAND PARK,JOHNSON,KS,66221,MICHALA GIBSON,Inspection Results and Facility Details,913-257-5425
PRAIRIE WIND SENIOR LIVING,-,B089084,Home Plus,5227 SE 77TH STREET,BERRYTON,SHAWNEE,KS,66409,BROOKE FISCHER,Inspection Results and Facility Details,785-862-5318
PRECIOUS GEMS HOMES  LLC,-,B087229,Home Plus,512 HORSESHOE BEND,MAIZE,SEDGWICK,KS,67101,SYREETA BULGIN,Inspection Results and Facility Details,316-977-8875
PRECIOUS GEMS HOMES PLUS LLC,PRECIOUS GEMS HOMES  AT POLO DR,B087116,Home Plus,5502 POLO DRIVE,WICHITA,SEDGWICK,KS,67208,SYREETA DWEH CHENNEH,Inspection Results and Facility Details,316-686-8098
PREMIER LIVING BY WARDEN LLC,-,B087119,Home Plus,234 S ANNA STREET,WICHITA,SEDGWICK,KS,67209-2404,RIAN PROBST,Inspection Results and Facility Details,316-945-2028
PREMIER LIVING BY WARDEN LLC 2,-,B087217,Home Plus,754 N MCCOMAS AVENUE,WICHITA,SEDGWICK,KS,67203,JANE AMMONS,Inspection Results and Facility Details,316-945-2028
PREMIER LIVING BY WARDEN LLC 4,-,B087142,Home Plus,1229 S BYRON ROAD,WICHITA,SEDGWICK,KS,67209,RIAN AHLMAN,Inspection Results and Facility Details,316-945-2028
PROGRESSIVE CARE HOME PLUS LLC,-,B071002,Home Plus,513 MILL STREET,ALTON,OSBORNE,KS,67623,DILENE REINHARDT,Inspection Results and Facility Details,785-984-2290
RAINBOW CARE HOMES LLC,RAINBOW GREENWAY,B087251,Home Plus,1858 S GREENWAY BLVD,WICHITA,SEDGWICK,KS,67213,ROSEBELL GITUNGO,Inspection Results and Facility Details,316-721-1010
REFLECTION LIVING LLC,-,B087146,Home Plus,1377 N IROQUOIS ROAD,WICHITA,SEDGWICK,KS,67203-4623,SUSAN ENGELS,Inspection Results and Facility Details,316-992-2119
REFLECTION LIVING MAIZE COURT 1,-,B087189,Home Plus,623 S. MAIZE COURT,WICHITA,SEDGWICK,KS,67209,JENNIFER MAUL,Inspection Results and Facility Details,316-680-4724
REFLECTION LIVING MAIZE COURT 2,-,B087188,Home Plus,625 S. MAIZE COURT,WICHITA,SEDGWICK,KS,67209,JENNIFER MAUL,Inspection Results and Facility Details,316-680-4724
REFLECTION LIVING MAIZE COURT 3,-,B087194,Home Plus,619 S. MAIZE COURT,WICHITA,SEDGWICK,KS,67209-1337,JENNIFER MAUL,Inspection Results and Facility Details,316-680-4724
REFLECTION LIVING OF HIDDEN LAKES LLC,-,B087155,Home Plus,550 CIRCLE LAKE,WICHITA,SEDGWICK,KS,67209-1005,SUSAN ENGELS,Inspection Results and Facility Details,316-425-5531
REFLECTIONS AT PARK WEST PLAZA,-,B087144,Home Plus,515 N. MAIZE ROAD,WICHITA,SEDGWICK,KS,67212,JAMES MARCUS PENNINGTON,Inspection Results and Facility Details,316-729-4114
RESIDENCE BEGONIA HOME PLUS,-,B087205,Home Plus,8327 EAST ZIMMERLY STREET,WICHITA,SEDGWICK,KS,67207,UGO DISASI,Inspection Results and Facility Details,316-312-3237
RESIDENCE BEGONIA II AT CRESTVIEW,-,B087209,Home Plus,15 CRESTVIEW LAKE ESTATES,WICHITA,SEDGWICK,KS,67220,AUDRA M. CROUSE,Inspection Results and Facility Details,316-616-5306
REST WELL HOME PLUS,-,B044004,Home Plus,508 UNION ST,OSKALOOSA,JEFFERSON,KS,66066,TONYA BROWN,Inspection Results and Facility Details,785-249-0800
RL DODGE CITY I LLC,-,B029001,Home Plus,2800 6TH STREET,DODGE CITY,FORD,KS,67801,TRACEE GERMAN,Inspection Results and Facility Details,620-371-3839
RL FOUNTAINWOOD 1,-,B040002,Home Plus,2004 FOUNTAINWOOD STREET,HUTCHINSON,HARVEY,KS,67502,SUSIE ENGELS,Inspection Results and Facility Details,316-992-2119
RL FOUNTAINWOOD 2,-,B078031,Home Plus,2000 FOUNTAINWOOD,HUTCHINSON,RENO,KS,67502,SUSIE ENGELS,Inspection Results and Facility Details,316-992-2119
RL KANSAS CITY I LLC,REFLECTION LIVING SHAWNEE BAUM HOUSE,B046072,Home Plus,7170 SILVERHEEL STREET,SHAWNEE,JOHNSON,KS,66227,ANGELA MOORE,Inspection Results and Facility Details,816-588-3996
ROSEWOOD COTTAGE LLC,-,B087243,Home Plus,5516 POLO DR,WICHITA,SEDGWICK,KS,67208,RANA ZAYED,Inspection Results and Facility Details,316-300-7606
RUBLE RANCH,-,B070004,Home Plus,509 WESTERN HEIGHTS,OVERBROOK,OSAGE,KS,66524,DENISE HOBACK,Inspection Results and Facility Details,785-224-3453
SENIORCARE HOMES NANTUCKET HOUSE,-,B046045,Home Plus,15100 ENGLAND ST,OVERLAND PARK,JOHNSON,KS,66221,JERALD L PULLINS JR,Inspection Results and Facility Details,913-236-0036
SENIORCARE HOMES NEWPORT HOUSE,-,B046042,Home Plus,10301 SAGAMORE ROAD,LEAWOOD,JOHNSON,KS,66206,JERALD L. PULLINS JR.,Inspection Results and Facility Details,913-236-0036
SENIORCARE HOMES TED HERSEY HOUSE,-,B046063,Home Plus,10419 LEE BLVD.,LEAWOOD,JOHNSON,KS,66206,JERALD PULLINS JR,Inspection Results and Facility Details,913-236-0036
SENIORCARE HOMES VINEYARD HOUSE,-,B046054,Home Plus,7611 W 98TH TERRACE,OVERLAND PARK,JOHNSON,KS,66212,MATTHEW WHITE,Inspection Results and Facility Details,913-907-9468
SENIORCARE HOMES WAVENY PARK HOUSE,-,B046040,Home Plus,6918 W 68TH ST,OVERLAND PARK,JOHNSON,KS,66204-,JERALD L PULLINS JR,Inspection Results and Facility Details,913-236-0036
SERENITY SENIOR CARE LLC,-,B023022,Home Plus,1126 HILLTOP DR,LAWRENCE,DOUGLAS,KS,66044,CHERRY BOLDEN,Inspection Results and Facility Details,785-393-2689
SHAWNEE HEALTH AND REHAB LLC,THE COTTAGES AT SHAWNEE,B046069,Home Plus,13509 W 67TH STREET,SHAWNEE,JOHNSON,KS,66216,CONNOR PHILLIPS,Inspection Results and Facility Details,913-268-2956
SLCG HOISINGTON LLC,COUNTRY PLACE MEMORY CARE OF HOISINGTON,B005002,Home Plus,520 N VINE STREET,HOISINGTON,BARTON,KS,67544-2014,JESSICA BAZE,Inspection Results and Facility Details,620-653-4121
SOUTH WIND HOME,-,B076002,Home Plus,496 YUCCA LANE,PRATT,PRATT,KS,67124-3457,LOYCE COVEY,Inspection Results and Facility Details,620-933-2060
SPARKLING FOUNTAIN OF LOVE ADULT CARE HOMES LLC,SPARKLING FOUNTAIN HOMES,B046068,Home Plus,8525 SWITZER RD,OVERLAND PARK,JOHNSON,KS,66214,MOSES KAMANDE,Inspection Results and Facility Details,913-963-6890
STAR LIVING LLC,-,B023018,Home Plus,3911 W 13TH STREET,LAWRENCE,DOUGLAS,KS,66049,FAITH W. GATHUNGURI,Inspection Results and Facility Details,785-691-8803
STRATFORD HOME,-,B087184,Home Plus,1425 N. STRATFORD LANE,WICHITA,SEDGWICK,KS,67206,BRANDI BUNYAN,Inspection Results and Facility Details,316-425-5509
SUNFLOWER CARE HOMES LLC,DELANE HOUSE,B056002,Home Plus,2301 DELANE DR,EMPORIA,LYON,KS,66801,CLINT ARNDT,Inspection Results and Facility Details,620-208-6670
SUNFLOWER CARE HOMES LLC,-,B056001,Home Plus,424 MARKET ST,EMPORIA,LYON,KS,66801,CHARISSE ARNDT,Inspection Results and Facility Details,620-794-1945
TAMMY THE PRO LLC,-,B089073,Home Plus,4304 SW 17TH STREET,TOPEKA,SHAWNEE,KS,66604,TAMMY GONZALEZ,Inspection Results and Facility Details,785-783-8398
THE BOGART HOUSE LLC I,-,B089072,Home Plus,1902 SW LANE ST,TOPEKA,SHAWNEE,KS,66604-,JUSTIN D BOGART,Inspection Results and Facility Details,785-383-1152
THE BOGART HOUSE LLC II,-,B089080,Home Plus,3535 SW 6TH ST,TOPEKA,SHAWNEE,KS,66606,JUSTIN BOGART,Inspection Results and Facility Details,785-969-3536
THE FIELDS OF BROOKSIDE RETIREMENT COMMUNITY,-,B070002,Home Plus,402 ASH ST,OVERBROOK,OSAGE,KS,66524,DENISE HOBACK,Inspection Results and Facility Details,785-224-9488
THE LIGHTHOUSE,-,B058003,Home Plus,1189 HWY 77,MARYSVILLE,MARSHALL,KS,66508,MANDY HABIG,Inspection Results and Facility Details,785-562-7980
THE PINES INC,-,B043003,Home Plus,725 IOWA AVENUE,HOLTON,JACKSON,KS,66436,NIKKI L RINKES,Inspection Results and Facility Details,785-364-3314
THE PINES OF HIAWATHA SOUTH,-,B007004,Home Plus,1480 230TH ST,HIAWATHA,BROWN,KS,66434,HEIDI VOIGTS,Inspection Results and Facility Details,785-740-7463
THE PINES SOUTH,-,B043004,Home Plus,14005 214TH ROAD,HOLTON,JACKSON,KS,66436-8183,NIKKI RINKES,Inspection Results and Facility Details,785-364-0106
THE PRAIRIE ELDER HOMES,-,B046056,Home Plus,15354 QUIVIRA,OVERLAND PARK,JOHNSON,KS,66223,MICHALA GIBSON,Inspection Results and Facility Details,913-257-5425
THE PRAIRIE FARMSTEAD EAST,-,B046064,Home Plus,12441 W. 151ST STREET,OVERLAND PARK,JOHNSON,KS,66221,MICHALA GIBSON,Inspection Results and Facility Details,913-257-5425
THE PRAIRIE FARMSTEAD WEST,-,B046065,Home Plus,12481 W. 151ST STREET,OVERLAND PARK,JOHNSON,KS,66221,SUSAN FRANKEN,Inspection Results and Facility Details,913-257-5425
THE WILLOW HOUSE,-,B026002,Home Plus,2900 WILLOW STREET,HAYS,ELLIS,KS,67601,SHAYNE UNSWORTH,Inspection Results and Facility Details,785-621-4959
TOPCARE HOME PLUS LLC,-,B046075,Home Plus,20687 W 125TH CT,OLATHE,JOHNSON,KS,66061,VIRGINIA KARANU,Inspection Results and Facility Details,908-938-9793
TRUSTING HANDS CARE HOME LLC,-,B087253,Home Plus,303 N TYLER,WICHITA,SEDGWICK,KS,67212,LIANE GILLESPIE,Inspection Results and Facility Details,316-650-7582
TWO TIMBERS LLC,-,B022001,Home Plus,101 EAST VIRGINIA STREET,HIGHLAND,DONIPHAN,KS,66035,PAMELA TWOMBLY,Inspection Results and Facility Details,785-442-4444
ULTRA CARE HOME PLUS,-,B087220,Home Plus,11537 E. HARRY STREET,WICHITA,SEDGWICK,KS,67207,TOLULOPE KADIRI,Inspection Results and Facility Details,316-990-5476
ULTRA CARE HOME PLUS LLC 2,-,B087234,Home Plus,2355 S BEDFORD ST,WICHITA,SEDGWICK,KS,67207,TOLULOPE KADIRI,Inspection Results and Facility Details,316-990-5476
ULTRA CARE HOME PLUS LLC 3,-,B087254,Home Plus,1532 S CREEKSIDE CT,WICHITA,SEDGWICK,KS,67230,TOLULOPE KADIRI,Inspection Results and Facility Details,316-990-5476
UNIFIED CARE HOME INC,-,B087237,Home Plus,5705 E ROCKHILL,WICHITA,SEDGWICK,KS,67208,SADIQ NKRUMBIH,Inspection Results and Facility Details,316-558-3605
UNITED METHODIST HOME INC,ALDERSGATE VILLAGE,N089068,Assisted Living FacilityHome PlusAdult Day Care,7220 SW ASBURY DR,TOPEKA,SHAWNEE,KS,66614,CARL NOYES,Inspection Results and Facility Details,785-478-9440
WELLSPRINGS OF GARDEN PLAIN,-,B087185,Home Plus,101 W AVENUE C,GARDEN PLAIN,SEDGWICK,KS,67050,MEGAN MANESS,Inspection Results and Facility Details,316-867-4111
WELLSPRINGS OF WICHITA #2,-,B087236,Home Plus,6403 E MARJORIE LN,WICHITA,SEDGWICK,KS,67206,MEGAN MANESS,Inspection Results and Facility Details,316-390-3816
WELLSPRINGS OF WICHITA LLC,-,B087137,Home Plus,6311 E MARJORIE ST,WICHITA,SEDGWICK,KS,67208-,MEGAN MANESS,Inspection Results and Facility Details,316-867-4111
WHEAT HAVEN HOME LLC,-,B077001,Home Plus,304 MARION AVE,MCDONALD,RAWLINS,KS,67745,EILEEN PORUBSKY,Inspection Results and Facility Details,785-899-9009
WILLOW,-,B022002,Home Plus,2125 HWY 36,WATHENA,DONIPHAN,KS,66090,AMY HARTMAN,Inspection Results and Facility Details,816-244-9233
WINTER MEADOW HOMES I,-,B089070,Home Plus,2832 SW MULVANE ST,TOPEKA,SHAWNEE,KS,66611-1626,BEN BOXX,Inspection Results and Facility Details,785-234-2989
WINTER MEADOW HOMES OF CARBONDALE,-,B070003,Home Plus,13450 S. TOPEKA AVENUE,CARBONDALE,OSAGE,KS,66414-9301,BEN BOXX,Inspection Results and Facility Details,785-836-7113