Facility Name,State Facility Type 1 Literal,License Number,State Facility Type 2 Literal,Address,State,County,Phone Number,Capacity
A & J CARE HOME,RESIDENTIAL FACILITY FOR GROUPS,49-AGC-37,"CHRONIC ILLNESS, MENTAL ILLNESS, RESIDENTIAL FACILITY FOR ELDERLY OR DISABLED PERSONS",5217 W GOWAN ROAD LAS VEGAS NV 89130-3118,NV,CLARK,702-645-2291,7
A BENEVOLENT HEART CARE HOME,RESIDENTIAL FACILITY FOR GROUPS,9793-AGC-1,"ALZHEIMER DISEASE, RESIDENTIAL FACILITY FOR ELDERLY OR DISABLED PERSONS",508 PEARBERRY AVENUE LAS VEGAS NV 89123,NV,CLARK,702-807-9971,9
A GOOD OLD DAYS HOME CARE II,RESIDENTIAL FACILITY FOR GROUPS,8927-AGC-3,"CHRONIC ILLNESS, MENTAL ILLNESS, INDIVIDUALS WITH INTELLECTUAL DISABILITES, RESIDENTIAL FACILITY FOR ELDERLY OR DISABLED PERSONS",4205 MIRA LOMA DR RENO NV 89502,NV,WASHOE,775-315-9503,8
A PRECIOUS GEMS ADULT CARE,RESIDENTIAL FACILITY FOR GROUPS,3171-AGC-23,"MENTAL ILLNESS, RESIDENTIAL FACILITY FOR ELDERLY OR DISABLED PERSONS",1733 HUNTERS BLUFF DRIVE NORTH LAS VEGAS NV 89032,NV,CLARK,702-636-5501,7
A R C H OF LAS  VEGAS,RESIDENTIAL FACILITY FOR GROUPS,2311-AGC-30,ALZHEIMER DISEASE,9483 LIGHTNING BAY CT LAS VEGAS NV 89123,NV,CLARK,702-616-2588,6
A SUMMERDALE HOMES @ RIATA LLC,RESIDENTIAL FACILITY FOR GROUPS,4241-AGC-21,RESIDENTIAL FACILITY FOR ELDERLY OR DISABLED PERSONS,14315 RIATA CIRCLE RENO NV 89521,NV,WASHOE,775-851-4185,8
A SUMMERDALE HOMES @ RIBEIRO LLC,RESIDENTIAL FACILITY FOR GROUPS,2194-AGC-31,RESIDENTIAL FACILITY FOR ELDERLY OR DISABLED PERSONS,1868 RIBEIRO CIRCLE RENO NV 89503,NV,WASHOE,775-746-1949,6
ABINGTON MANOR,RESIDENTIAL FACILITY FOR GROUPS,3062-AGC-25,ALZHEIMER DISEASE,478 PEARBERRY AVE LAS VEGAS NV 89183,NV,CLARK,702-837-6968,6
ABSOLUTE CIRCLE OF CARE ACKERMAN,RESIDENTIAL FACILITY FOR GROUPS,3980-AGC-21,"ALZHEIMER DISEASE, RESIDENTIAL FACILITY FOR ELDERLY OR DISABLED PERSONS",7385 ACKERMAN AVE LAS VEGAS NV 89131,NV,CLARK,702-655-1544,10
ACACIA OASIS,RESIDENTIAL FACILITY FOR GROUPS,8944-AGC-3,RESIDENTIAL FACILITY FOR ELDERLY OR DISABLED PERSONS,8630 W. NEVSO DRIVE LAS VEGAS NV 89147,NV,CLARK,702-942-8700,50
ADULT CARE AT PAH RAH,RESIDENTIAL FACILITY FOR GROUPS,10178-AGC-0,"CHRONIC ILLNESS, MENTAL ILLNESS, INDIVIDUALS WITH INTELLECTUAL DISABILITES, RESIDENTIAL FACILITY FOR ELDERLY OR DISABLED PERSONS",7300 PAH RAH DR SPARKS NV 89436,NV,WASHOE,775-870-3413,10
ADULT COMFORT AND CARE HOME 2,RESIDENTIAL FACILITY FOR GROUPS,8317-AGC-7,"CHRONIC ILLNESS, MENTAL ILLNESS, INDIVIDUALS WITH INTELLECTUAL DISABILITES, RESIDENTIAL FACILITY FOR ELDERLY OR DISABLED PERSONS",10315 QUEENSBURY AVENUE LAS VEGAS NV 89135,NV,CLARK,702-629-4663,10
ADULT COMFORT AND CARE HOME LLC,RESIDENTIAL FACILITY FOR GROUPS,7437-AGC-13,"CHRONIC ILLNESS, MENTAL ILLNESS, INDIVIDUALS WITH INTELLECTUAL DISABILITES, RESIDENTIAL FACILITY FOR ELDERLY OR DISABLED PERSONS",2105 CARROLL ST LAS VEGAS NV 89030,NV,CLARK,702-629-4663,10
ADVANCED CARE FOR THE ELDERLY LLC,RESIDENTIAL FACILITY FOR GROUPS,3596-AGC-26,RESIDENTIAL FACILITY FOR ELDERLY OR DISABLED PERSONS,9501 MULROONA COURT LAS VEGAS NV 89129,NV,CLARK,702-838-5818,8
AEGIS LIVING LAS VEGAS,RESIDENTIAL FACILITY FOR GROUPS,10333-AGC-0,ALZHEIMER DISEASE,9100 WEST DESERT INN RD. LAS VEGAS NV 89117,NV,CLARK,425-861-9993,72
"ALOHA PARADISE CARE, LLC",RESIDENTIAL FACILITY FOR GROUPS,9545-AGC-2,"ALZHEIMER DISEASE, RESIDENTIAL FACILITY FOR ELDERLY OR DISABLED PERSONS",1809 WESTWIND ROAD LAS VEGAS NV 89146,NV,CLARK,702-629-6247,8
ALTA CARE HOME,RESIDENTIAL FACILITY FOR GROUPS,69-AGC-31,"CHRONIC ILLNESS, MENTAL ILLNESS",2007 ALTA DRIVE LAS VEGAS NV 89106,NV,CLARK,702-384-6838,7
ALTERNATIVE HOME CARE,RESIDENTIAL FACILITY FOR GROUPS,9278-AGC-2,"CHRONIC ILLNESS, MENTAL ILLNESS, RESIDENTIAL FACILITY FOR ELDERLY OR DISABLED PERSONS",4504 LA ROCA CIRCLE LAS VEGAS NV 89121,NV,CLARK,702-856-6443,10
ALZHEIMERS LUXURY CARE,RESIDENTIAL FACILITY FOR GROUPS,3671-AGC-19,ALZHEIMER DISEASE,2951 VIKING ROAD LAS VEGAS NV 89121,NV,CLARK,702-471-7204,9
AMEERY CARE,RESIDENTIAL FACILITY FOR GROUPS,8675-AGC-4,"ALZHEIMER DISEASE, RESIDENTIAL FACILITY FOR ELDERLY OR DISABLED PERSONS",333 PRINCE GEORGE ROAD LAS VEGAS NV 89123,NV,CLARK,702-260-7588,10
AMEERY CARE II,RESIDENTIAL FACILITY FOR GROUPS,7197-AGC-13,"ALZHEIMER DISEASE, RESIDENTIAL FACILITY FOR ELDERLY OR DISABLED PERSONS",271 E DESERT ROSE DR HENDERSON NV 89015,NV,CLARK,702-608-7238,10
AMERICAN SENIOR HOME GABRIEL,RESIDENTIAL FACILITY FOR GROUPS,9397-AGC-2,"ALZHEIMER DISEASE, RESIDENTIAL FACILITY FOR ELDERLY OR DISABLED PERSONS",2372 GABRIEL DRIVE LAS VEGAS NV 89119,NV,CLARK,702-460-1267,10
AMETHYST CARE HOME LLC,RESIDENTIAL FACILITY FOR GROUPS,8642-AGC-4,"ALZHEIMER DISEASE, RESIDENTIAL FACILITY FOR ELDERLY OR DISABLED PERSONS",3702 INTERNET AVENUE N. LAS VEGAS NV 89031,NV,CLARK,702-636-8916,10
ANGEL CARE RESIDENTIAL HOME,RESIDENTIAL FACILITY FOR GROUPS,7543-AGC-14,ALZHEIMER DISEASE,5559 TROOPER STREET LAS VEGAS NV 89120,NV,CLARK,702-910-3611,10
ANGEL PALACE,RESIDENTIAL FACILITY FOR GROUPS,9189-AGC-2,"ALZHEIMER DISEASE, ASSISTED LIVING SERVICES, CHRONIC ILLNESS",3131 ROSANNA ST LAS VEGAS NV 89117,NV,CLARK,702-505-0959,10
ANGEL PRESTIGE,RESIDENTIAL FACILITY FOR GROUPS,3220-AGC-24,"CHRONIC ILLNESS, MENTAL ILLNESS, RESIDENTIAL FACILITY FOR ELDERLY OR DISABLED PERSONS",3712 SPITZE DRIVE LAS VEGAS NV 89103,NV,CLARK,702-871-8606,20
ANGELICAS LOVING HOME CARE,RESIDENTIAL FACILITY FOR GROUPS,5037-AGC-17,"MENTAL ILLNESS, RESIDENTIAL FACILITY FOR ELDERLY OR DISABLED PERSONS",3475 SCOTTSDALE RD RENO NV 89512,NV,WASHOE,775-800-1228,5
ANGELS CARE,RESIDENTIAL FACILITY FOR GROUPS,3483-AGC-23,MENTAL ILLNESS,1905 S 17TH STREET LAS VEGAS NV 89104,NV,CLARK,702-733-0992,9
ANGELS HOUSE ADULT CARE,RESIDENTIAL FACILITY FOR GROUPS,4063-AGC-26,"MENTAL ILLNESS, RESIDENTIAL FACILITY FOR ELDERLY OR DISABLED PERSONS",5496 TAMARUS STREET LAS VEGAS NV 89119,NV,CLARK,702-262-9062,9
APRILS VILLA,RESIDENTIAL FACILITY FOR GROUPS,5589-AGC-14,"CHRONIC ILLNESS, MENTAL ILLNESS, INDIVIDUALS WITH INTELLECTUAL DISABILITES, RESIDENTIAL FACILITY FOR ELDERLY OR DISABLED PERSONS",10450 ARBOR WAY RENO NV 89521,NV,WASHOE,775-851-4355,6
ARBORS MEMORY CARE,RESIDENTIAL FACILITY FOR GROUPS,8994-AGC-3,"ALZHEIMER DISEASE, RESIDENTIAL FACILITY FOR ELDERLY OR DISABLED PERSONS",2121 EAST PRATER WAY SPARKS NV 89434,NV,WASHOE,775-331-2229,72
ARTESIAN GARDENS,RESIDENTIAL FACILITY FOR GROUPS,8275-AGC-6,"CHRONIC ILLNESS, MENTAL ILLNESS, INDIVIDUALS WITH INTELLECTUAL DISABILITES, RESIDENTIAL FACILITY FOR ELDERLY OR DISABLED PERSONS",75 MULE DEER DRIVE RENO NV 89523,NV,WASHOE,775-345-7441,9
"ARTESIAN GARDENS SENIOR CARE II, LLC",RESIDENTIAL FACILITY FOR GROUPS,9345-AGC-3,"CHRONIC ILLNESS, MENTAL ILLNESS, INDIVIDUALS WITH INTELLECTUAL DISABILITES, RESIDENTIAL FACILITY FOR ELDERLY OR DISABLED PERSONS",1550 FIRMAN CT SPARKS NV 89434,NV,WASHOE,775-772-1272,9
AS TIME GOES BY III,RESIDENTIAL FACILITY FOR GROUPS,59-AGC-26,ALZHEIMER DISEASE,4125 BUTLER LAS VEGAS NV 89129,NV,CLARK,702-655-5557,10
AS TIME GOES BY V,RESIDENTIAL FACILITY FOR GROUPS,6083-AGC-10,ALZHEIMER DISEASE,4149 JORY TRAIL LAS VEGAS NV 89108,NV,CLARK,702-655-7175,6
AS TIME GOES BY VII,RESIDENTIAL FACILITY FOR GROUPS,4937-AGC-15,ALZHEIMER DISEASE,4240 AL CARRISON LAS VEGAS NV 89129,NV,CLARK,702-683-4568,10
AT NIGHTINGALES,RESIDENTIAL FACILITY FOR GROUPS,9662-AGC-2,"ASSISTED LIVING SERVICES, CHRONIC ILLNESS, MENTAL ILLNESS, RESIDENTIAL FACILITY FOR ELDERLY OR DISABLED PERSONS",813 FAIRWAY DRIVE LAS VEGAS NV 89107,NV,CLARK,702-334-5518,10
AT ROYAL VILLA HOME CARE,RESIDENTIAL FACILITY FOR GROUPS,7564-AGC-14,"CHRONIC ILLNESS, MENTAL ILLNESS",2970 S TORREY PINES RD LAS VEGAS NV 89146,NV,CLARK,702-257-0176,10
ATRIA SEVILLE,RESIDENTIAL FACILITY FOR GROUPS,2678-AGC-42,"ASSISTED LIVING SERVICES, CHRONIC ILLNESS, MENTAL ILLNESS, RESIDENTIAL FACILITY FOR ELDERLY OR DISABLED PERSONS",2000 N RAMPART LAS VEGAS NV 89128,NV,CLARK,702-804-6800,144
ATRIA SUMMIT RIDGE,RESIDENTIAL FACILITY FOR GROUPS,413-AGC-44,"ASSISTED LIVING SERVICES, CHRONIC ILLNESS, MENTAL ILLNESS, RESIDENTIAL FACILITY FOR ELDERLY OR DISABLED PERSONS",4880 SUMMIT RIDGE DRIVE RENO NV 89523,NV,WASHOE,775-787-3000,85
AVALON HEALTH ESTATES,RESIDENTIAL FACILITY FOR GROUPS,1934-AGC-29,ALZHEIMER DISEASE,7450 DEL REY AVE LAS VEGAS NV 89117,NV,CLARK,702-240-6102,12
AVAMERE AT CHEYENNE,RESIDENTIAL FACILITY FOR GROUPS,9131-AGC-2,"ALZHEIMER DISEASE, ASSISTED LIVING SERVICES, RESIDENTIAL FACILITY FOR ELDERLY OR DISABLED PERSONS",6031 W. CHEYENNE AVENUE LAS VEGAS NV 89108,NV,CLARK,702-658-5882,150
AVENIR MEMORY CARE AT SUMMERLIN,RESIDENTIAL FACILITY FOR GROUPS,8729-AGC-3,"ALZHEIMER DISEASE, RESIDENTIAL FACILITY FOR ELDERLY OR DISABLED PERSONS",7395 SMOKE RANCH ROAD LAS VEGAS NV 89128,NV,CLARK,702-749-9090,80
AVONDALE CARE HOME,RESIDENTIAL FACILITY FOR GROUPS,9280-AGC-3,"CHRONIC ILLNESS, MENTAL ILLNESS, RESIDENTIAL FACILITY FOR ELDERLY OR DISABLED PERSONS",6215 EAST OWENS AVENUE LAS VEGAS NV 89110,NV,CLARK,702-856-6443,10
AVONLI CARE HOME,RESIDENTIAL FACILITY FOR GROUPS,9279-AGC-3,"CHRONIC ILLNESS, MENTAL ILLNESS, RESIDENTIAL FACILITY FOR ELDERLY OR DISABLED PERSONS",3364 ROSARIO CIRCLE LAS VEGAS NV 89121,NV,CLARK,702-856-6443,10
BAILEYS GROUP HOME INC,RESIDENTIAL FACILITY FOR GROUPS,7812-AGC-8,"MENTAL ILLNESS, RESIDENTIAL FACILITY FOR ELDERLY OR DISABLED PERSONS",1998 ARCANE AVENUE RENO NV 89503,NV,WASHOE,775-473-7736,6
BECKYS HOME CARE,RESIDENTIAL FACILITY FOR GROUPS,79-AGC-30,"CHRONIC ILLNESS, MENTAL ILLNESS, RESIDENTIAL FACILITY FOR ELDERLY OR DISABLED PERSONS",4055 CLOUD NINE LANE LAS VEGAS NV 89115,NV,CLARK,702-643-3380,6
BEE HIVE HOMES OF HENDERSON,RESIDENTIAL FACILITY FOR GROUPS,10175-AGC-0,"ASSISTED LIVING SERVICES, RESIDENTIAL FACILITY FOR ELDERLY OR DISABLED PERSONS",1000 GREENWAY RD BLDG 2 HENDERSON NV 89002,NV,CLARK,702-551-0265,20
BEE HIVE HOMES OF HENDERSON MEMORY CARE,RESIDENTIAL FACILITY FOR GROUPS,9927-AGC-1,"ALZHEIMER DISEASE, ASSISTED LIVING SERVICES, RESIDENTIAL FACILITY FOR ELDERLY OR DISABLED PERSONS",1000 GREENWAY RD BLDG 1 HENDERSON NV 89002,NV,CLARK,505-270-9989,20
BEE HIVE HOMES OF MESQUITE,RESIDENTIAL FACILITY FOR GROUPS,7876-AGC-8,,780 WEST SECOND SOUTH MESQUITE NV 89027,NV,CLARK,505-270-9989,15
BEE HIVE HOMES OF MESQUITE II,RESIDENTIAL FACILITY FOR GROUPS,9234-AGC-3,"ASSISTED LIVING SERVICES, RESIDENTIAL FACILITY FOR ELDERLY OR DISABLED PERSONS",790 SECOND SOUTH ST MESQUITE NV 89027,NV,CLARK,702-346-2040,16
BEE HIVE HOMES OF PARADISE VALLEY INC,RESIDENTIAL FACILITY FOR GROUPS,2152-AGC-29,MENTAL ILLNESS,3841 E TWAIN LAS VEGAS NV 89121,NV,CLARK,702-454-9080,10
BEE HIVE HOMES OF WINNEMUCCA,RESIDENTIAL FACILITY FOR GROUPS,2352-AGC-23,RESIDENTIAL FACILITY FOR ELDERLY OR DISABLED PERSONS,1250 HANSEN STREET WINNEMUCCA NV 89445,NV,HUMBOLDT,775-623-5395,10
BELLA CARE HOME,RESIDENTIAL FACILITY FOR GROUPS,6027-AGC-17,"CHRONIC ILLNESS, MENTAL ILLNESS",5905 CONCERT DR LAS VEGAS NV 89107,NV,CLARK,702-838-7990,10
BELLA CARE HOME LLC,RESIDENTIAL FACILITY FOR GROUPS,9724-AGC-2,"ALZHEIMER DISEASE, RESIDENTIAL FACILITY FOR ELDERLY OR DISABLED PERSONS",9900 VERMILLION CLIFFS AVE LAS VEGAS NV 89147,NV,CLARK,725-500-7868,8
BELLA ESTATE CARE HOME,RESIDENTIAL FACILITY FOR GROUPS,7555-AGC-11,"CHRONIC ILLNESS, MENTAL ILLNESS",3140 COACHLIGHT CIRCLE LAS VEGAS NV 89117,NV,CLARK,702-220-4281,10
BELLA VITA CARE HOME,RESIDENTIAL FACILITY FOR GROUPS,8664-AGC-5,ALZHEIMER DISEASE,9924 WONDERFUL DAY DRIVE LAS VEGAS NV 89148,NV,CLARK,917-797-3265,10
BELLAMONTE RESIDENTIAL,RESIDENTIAL FACILITY FOR GROUPS,10226-AGC-0,"ALZHEIMER DISEASE, CHRONIC ILLNESS, RESIDENTIAL FACILITY FOR ELDERLY OR DISABLED PERSONS",7830 SOUTH SPENCER STREET LAS VEGAS NV 89123,NV,CLARK,714-363-2060,10
BERMUDA MEMORY CARE,RESIDENTIAL FACILITY FOR GROUPS,9909-AGC-1,"ALZHEIMER DISEASE, RESIDENTIAL FACILITY FOR ELDERLY OR DISABLED PERSONS",9063 HUNTING ARROW STREET LAS VEGAS NV 89123,NV,CLARK,702-235-2584,10
BEST HOME CARE AT WYOMING LLC,RESIDENTIAL FACILITY FOR GROUPS,9751-AGC-0,"CHRONIC ILLNESS, MENTAL ILLNESS, RESIDENTIAL FACILITY FOR ELDERLY OR DISABLED PERSONS",4423 E WYOMING AVE LAS VEGAS NV 89114,NV,CLARK,702-758-8696,8
BEST SOLUTIONS HOME CARE,RESIDENTIAL FACILITY FOR GROUPS,9966-AGC-1,"ALZHEIMER DISEASE, ASSISTED LIVING SERVICES, CHRONIC ILLNESS, RESIDENTIAL FACILITY FOR ELDERLY OR DISABLED PERSONS",7245 SCOTTSMOOR CT LAS VEGAS NV 89156,NV,CLARK,702-927-8711,4
BETHANY AT MT HOOD,RESIDENTIAL FACILITY FOR GROUPS,10106-AGC-0,"ALZHEIMER DISEASE, CHRONIC ILLNESS, INDIVIDUALS WITH INTELLECTUAL DISABILITES, RESIDENTIAL FACILITY FOR ELDERLY OR DISABLED PERSONS",1566 MT HOOD STREET LAS VEGAS NV 89110,NV,CLARK,702-459-4898,10
BETHEL CARE HOME,RESIDENTIAL FACILITY FOR GROUPS,9674-AGC-2,"CHRONIC ILLNESS, RESIDENTIAL FACILITY FOR ELDERLY OR DISABLED PERSONS",7742 KIT CARSON AVE. LAS VEGAS NV 89179,NV,CLARK,702-685-8574,9
BETTER DAYS GROUP HOME,RESIDENTIAL FACILITY FOR GROUPS,3847-AGC-20,"CHRONIC ILLNESS, MENTAL ILLNESS",261 E ELDORADO LANE LAS VEGAS NV 89123,NV,CLARK,702-794-2822,10
BETTER LIVING FOR SENIORS,RESIDENTIAL FACILITY FOR GROUPS,10025-AGC-0,"ALZHEIMER DISEASE, RESIDENTIAL FACILITY FOR ELDERLY OR DISABLED PERSONS",9712 ENNISKEEN AVE LAS VEGAS NV 89129-8001,NV,CLARK,702-331-5059,6
BILLMAN HOUSE,RESIDENTIAL FACILITY FOR GROUPS,3105-AGC-26,MENTAL ILLNESS,3646 BILLMAN AVE LAS VEGAS NV 89121,NV,CLARK,702-778-2753,6
BLUE SKY MEMORY CARE,RESIDENTIAL FACILITY FOR GROUPS,8480-AGC-4,"ALZHEIMER DISEASE, ASSISTED LIVING SERVICES, RESIDENTIAL FACILITY FOR ELDERLY OR DISABLED PERSONS",8025 AMIGO STREET LAS VEGAS NV 89123,NV,CLARK,702-497-2166,26
BRIGHT LIFE,RESIDENTIAL FACILITY FOR GROUPS,10145-AGC-1,"ALZHEIMER DISEASE, CHRONIC ILLNESS, RESIDENTIAL FACILITY FOR ELDERLY OR DISABLED PERSONS",10515 KENAI DR. RENO NV 89521,NV,WASHOE,775-762-2162,10
BROOKDALE LAS VEGAS,RESIDENTIAL FACILITY FOR GROUPS,1774-AGC-48,"ALZHEIMER DISEASE, ASSISTED LIVING SERVICES, MENTAL ILLNESS, RESIDENTIAL FACILITY FOR ELDERLY OR DISABLED PERSONS",3025 E RUSSELL ROAD LAS VEGAS NV 89120,NV,CLARK,702-451-7896,105
BROOKDALE RENO,RESIDENTIAL FACILITY FOR GROUPS,1884-AGC-38,"ALZHEIMER DISEASE, ASSISTED LIVING SERVICES",3105 PLUMAS STREET RENO NV 89509,NV,WASHOE,775-828-5000,56
BROOKDALE VISTA,RESIDENTIAL FACILITY FOR GROUPS,443-AGC-33,ASSISTED LIVING SERVICES,2000 E PRATER WAY SPARKS NV 89434,NV,WASHOE,775-359-7733,74
CARING HEARTS CARE HOME LLC,RESIDENTIAL FACILITY FOR GROUPS,2016-AGC-33,"MENTAL ILLNESS, INDIVIDUALS WITH INTELLECTUAL DISABILITES, RESIDENTIAL FACILITY FOR ELDERLY OR DISABLED PERSONS",64 NORTH PEARL STREET LAS VEGAS NV 89110,NV,CLARK,702-437-8448,10
CARMELA HOMES,RESIDENTIAL FACILITY FOR GROUPS,2726-AGC-30,"MENTAL ILLNESS, RESIDENTIAL FACILITY FOR ELDERLY OR DISABLED PERSONS",5500 CLEARY COURT LAS VEGAS NV 89109,NV,CLARK,702-636-0150,6
CARSON TAHOE EXPRESSIONS MEMORY CARE,RESIDENTIAL FACILITY FOR GROUPS,8640-AGC-2,"ALZHEIMER DISEASE, CHRONIC ILLNESS, MENTAL ILLNESS, INDIVIDUALS WITH INTELLECTUAL DISABILITES, RESIDENTIAL FACILITY FOR ELDERLY OR DISABLED PERSONS",1001 MOUNTAIN ST CARSON CITY NV 89703,NV,CARSON CITY,775-443-4800,54
CARSON VALLEY SENIOR LIVING,RESIDENTIAL FACILITY FOR GROUPS,105-AGC-41,"ALZHEIMER DISEASE, ASSISTED LIVING SERVICES",1189 KIMMERLING ROAD GARDNERVILLE NV 89460,NV,DOUGLAS,775-265-1400,86
CASA NORTE GROUP HOME,RESIDENTIAL FACILITY FOR GROUPS,7323-AGC-11,"CHRONIC ILLNESS, MENTAL ILLNESS, INDIVIDUALS WITH INTELLECTUAL DISABILITES",4935  NORTH MILLER LN LAS VEGAS NV 89149,NV,CLARK,702-656-0602,9
CASA OLIVA,RESIDENTIAL FACILITY FOR GROUPS,8455-AGC-6,"CHRONIC ILLNESS, MENTAL ILLNESS, INDIVIDUALS WITH INTELLECTUAL DISABILITES",3209 CEDAR STREET LAS VEGAS NV 89104,NV,CLARK,702-431-0672,9
CASCADES OF THE SIERRA,RESIDENTIAL FACILITY FOR GROUPS,5232-AGC-15,"ALZHEIMER DISEASE, ASSISTED LIVING SERVICES, RESIDENTIAL FACILITY FOR ELDERLY OR DISABLED PERSONS",275 NEIGHBORHOOD WAY SPARKS NV 89441,NV,WASHOE,425-408-9141,150
CECE GROUP HOME LLC,RESIDENTIAL FACILITY FOR GROUPS,9297-AGC-3,"CHRONIC ILLNESS, MENTAL ILLNESS, RESIDENTIAL FACILITY FOR ELDERLY OR DISABLED PERSONS",5417 IRELAND ST. LAS VEGAS NV 89149,NV,CLARK,702-768-0206,8
CESSABELLA RESIDENTIAL SUITE LLC #1,RESIDENTIAL FACILITY FOR GROUPS,5723-AGC-17,"CHRONIC ILLNESS, MENTAL ILLNESS, INDIVIDUALS WITH INTELLECTUAL DISABILITES",8295 OPAL STATION DR RENO NV 89506,NV,WASHOE,775-677-9760,8
CESSABELLA RESIDENTIAL SUITE LLC #1,RESIDENTIAL FACILITY FOR GROUPS,5723-AGC-17,"CHRONIC ILLNESS, MENTAL ILLNESS, INDIVIDUALS WITH INTELLECTUAL DISABILITES",8295 OPAL STATION DR RENO NV 89506,NV,WASHOE,775-677-9760,8
CHUTNEY RESIDENTIAL HOME,RESIDENTIAL FACILITY FOR GROUPS,2788-AGC-22,ALZHEIMER DISEASE,3881 CHUTNEY ST LAS VEGAS NV 89121,NV,CLARK,702-866-6750,7
CJ HOMES,RESIDENTIAL FACILITY FOR GROUPS,115-AGC-30,"CHRONIC ILLNESS, MENTAL ILLNESS, RESIDENTIAL FACILITY FOR ELDERLY OR DISABLED PERSONS",1627 GABRIEL DRIVE LAS VEGAS NV 89119,NV,CLARK,702-798-8246,10
CLEARWATER AT RANCHARRAH,RESIDENTIAL FACILITY FOR GROUPS,9414-AGC-0,"ALZHEIMER DISEASE, ASSISTED LIVING SERVICES, RESIDENTIAL FACILITY FOR ELDERLY OR DISABLED PERSONS",5255 KIETZKE LANE RENO NV 89511,NV,WASHOE,949-333-8580,142
CLIMBING ROSE CARE HOME,RESIDENTIAL FACILITY FOR GROUPS,2456-AGC-27,"CHRONIC ILLNESS, MENTAL ILLNESS",3848 CLIMBING ROSE ST LAS VEGAS NV 89147,NV,CLARK,702-362-1188,6
CNC ALZHEIMERS HOME CARE,RESIDENTIAL FACILITY FOR GROUPS,1932-AGC-31,ALZHEIMER DISEASE,7765 CLEARWOOD AVE LAS VEGAS NV 89123,NV,CLARK,702-798-8008,9
CORINTHIAN PLACE LLC,RESIDENTIAL FACILITY FOR GROUPS,7317-AGC-11,RESIDENTIAL FACILITY FOR ELDERLY OR DISABLED PERSONS,2630 SUNRAY DR RENO NV 89503,NV,WASHOE,775-762-3681,8
CORINTHIAN PLACE SOUTH LLC,RESIDENTIAL FACILITY FOR GROUPS,10042-AGC-1,RESIDENTIAL FACILITY FOR ELDERLY OR DISABLED PERSONS,5855 LONE HORSE DR RENO NV 89502,NV,WASHOE,775-762-3681,9
CORONADO HEIGHTS SENIOR LIVING,RESIDENTIAL FACILITY FOR GROUPS,8297-AGC-4,"ALZHEIMER DISEASE, ASSISTED LIVING SERVICES, CHRONIC ILLNESS, MENTAL ILLNESS, RESIDENTIAL FACILITY FOR ELDERLY OR DISABLED PERSONS",2320 IONE ROAD LAS VEGAS NV 89183,NV,CLARK,725-200-3400,126
COVENANT OF LOVE,RESIDENTIAL FACILITY FOR GROUPS,5061-AGC-15,"CHRONIC ILLNESS, MENTAL ILLNESS",1213 BALZAR AVE LAS VEGAS NV 89106,NV,CLARK,702-810-4830,6
D' CAESARS CARE HOME,RESIDENTIAL FACILITY FOR GROUPS,9789-AGC-1,"CHRONIC ILLNESS, MENTAL ILLNESS, RESIDENTIAL FACILITY FOR ELDERLY OR DISABLED PERSONS",3856 JEWEL AVENUE LAS VEGAS NV 89121,NV,CLARK,702-434-5882,10
DARLINGTON MANOR,RESIDENTIAL FACILITY FOR GROUPS,4983-AGC-16,"ALZHEIMER DISEASE, CHRONIC ILLNESS",339 EMDEN ST HENDERSON NV 89015,NV,CLARK,702-361-5926,9
DAWN GARDEN HOME CARE,RESIDENTIAL FACILITY FOR GROUPS,2789-AGC-35,MENTAL ILLNESS,9190 DAWN GARDEN AVE LAS VEGAS NV 89147,NV,CLARK,702-405-0991,8
DESERT INN RESIDENTIAL CARE,RESIDENTIAL FACILITY FOR GROUPS,3119-AGC-20,ALZHEIMER DISEASE,2845 BURNHAM AVENUE LAS VEGAS NV 89109,NV,CLARK,702-894-9252,4
DESERT SPRINGS SENIOR LIVING,RESIDENTIAL FACILITY FOR GROUPS,410-AGC-46,"ASSISTED LIVING SERVICES, CHRONIC ILLNESS, MENTAL ILLNESS",6650 W FLAMINGO RD LAS VEGAS NV 89103,NV,CLARK,702-732-2800,100
DESERT VIEW SENIOR LIVING,RESIDENTIAL FACILITY FOR GROUPS,8809-AGC-4,"ALZHEIMER DISEASE, ASSISTED LIVING SERVICES, CHRONIC ILLNESS, RESIDENTIAL FACILITY FOR ELDERLY OR DISABLED PERSONS",3890 N BUFFALO DRIVE LAS VEGAS NV 89129-8809,NV,CLARK,702-333-4346,113
DIAMOND RESIDENTIAL,RESIDENTIAL FACILITY FOR GROUPS,4889-AGC-19,"MENTAL ILLNESS, RESIDENTIAL FACILITY FOR ELDERLY OR DISABLED PERSONS",1800 PRINCE WAY RENO NV 89503,NV,WASHOE,775-354-7365,7
DIAMOND RETIREMENT LIVING,RESIDENTIAL FACILITY FOR GROUPS,5228-AGC-13,ALZHEIMER DISEASE,335 W SHERWOOD DR HENDERSON NV 89015,NV,CLARK,702-496-6906,10
DIGNIFIED CARE MANOR,RESIDENTIAL FACILITY FOR GROUPS,3228-AGC-26,ALZHEIMER DISEASE,2915 EL CAMINO RD LAS VEGAS NV 89146,NV,CLARK,702-227-5222,10
"DIGNITY CARE HOME, LLC",RESIDENTIAL FACILITY FOR GROUPS,7699-AGC-9,"ALZHEIMER DISEASE, CHRONIC ILLNESS, RESIDENTIAL FACILITY FOR ELDERLY OR DISABLED PERSONS",3740 LA JUNTA DRIVE LAS VEGAS NV 89120,NV,CLARK,702-595-0058,10
DIVINITY HOMECARE,RESIDENTIAL FACILITY FOR GROUPS,8483-AGC-5,RESIDENTIAL FACILITY FOR ELDERLY OR DISABLED PERSONS,3944 KENTWOOD COURT RENO NV 89503,NV,WASHOE,775-384-6812,7
DUNCAN MANOR GROUP HOME,RESIDENTIAL FACILITY FOR GROUPS,158-AGC-34,"ALZHEIMER DISEASE, CHRONIC ILLNESS, RESIDENTIAL FACILITY FOR ELDERLY OR DISABLED PERSONS",6165 DUNCAN DRIVE LAS VEGAS NV 89108,NV,CLARK,702-396-4663,9
EAGLE VALLEY CARE CENTRE,RESIDENTIAL FACILITY FOR GROUPS,160-AGC-31,RESIDENTIAL FACILITY FOR ELDERLY OR DISABLED PERSONS,1807 E LONG STREET CARSON CITY NV 89701,NV,CARSON CITY,775-883-4449,38
ELKHORN JONES MEMORY CARE LLC,RESIDENTIAL FACILITY FOR GROUPS,8700-AGC-4,ALZHEIMER DISEASE,6017 ELKHORN ROAD LAS VEGAS NV 89131,NV,CLARK,702-247-7788,24
EMBRY RIDGE SENIOR CARE LLC,RESIDENTIAL FACILITY FOR GROUPS,10339-AGC-0,"ALZHEIMER DISEASE, CHRONIC ILLNESS, RESIDENTIAL FACILITY FOR ELDERLY OR DISABLED PERSONS",5313 PADUA WAY LAS VEGAS NV 89107,NV,CLARK,702-258-1669,7
EUROPEAN HOME CARE,RESIDENTIAL FACILITY FOR GROUPS,6035-AGC-10,"ALZHEIMER DISEASE, CHRONIC ILLNESS, RESIDENTIAL FACILITY FOR ELDERLY OR DISABLED PERSONS",3212 EL CAMINO RD LAS VEGAS NV 89146,NV,CLARK,714-797-9927,10
EUROPEAN SENIORS LIVING LLC,RESIDENTIAL FACILITY FOR GROUPS,7722-AGC-10,"CHRONIC ILLNESS, MENTAL ILLNESS, RESIDENTIAL FACILITY FOR ELDERLY OR DISABLED PERSONS",3045 S. MONTE CRISTO WAY LAS VEGAS NV 89117,NV,CLARK,702-906-1284,10
EVERGREEN LIVING LLC,RESIDENTIAL FACILITY FOR GROUPS,9560-AGC-2,"ALZHEIMER DISEASE, RESIDENTIAL FACILITY FOR ELDERLY OR DISABLED PERSONS",7481 ROME BLVD LAS VEGAS NV 89131,NV,CLARK,702-982-1753,10
EVERGREEN RESIDENCE,RESIDENTIAL FACILITY FOR GROUPS,3275-AGC-23,"CHRONIC ILLNESS, MENTAL ILLNESS, INDIVIDUALS WITH INTELLECTUAL DISABILITES, RESIDENTIAL FACILITY FOR ELDERLY OR DISABLED PERSONS",1305 KINGS COURT RENO NV 89503,NV,WASHOE,775-787-9520,8
EVERLASTING SENIOR CARE,RESIDENTIAL FACILITY FOR GROUPS,8615-AGC-5,"MENTAL ILLNESS, RESIDENTIAL FACILITY FOR ELDERLY OR DISABLED PERSONS",2117 CALIFORNIA ST CARSON CITY NV 89701,NV,CARSON CITY,775-530-7882,6
FAIRWAY RESIDENTIAL CARE HOME,RESIDENTIAL FACILITY FOR GROUPS,330-AGC-33,ALZHEIMER DISEASE,3817 FAIRWAY CIRCLE LAS VEGAS NV 89108,NV,CLARK,702-646-9224,10
FAITH & HOPE HOME CARE LLC,RESIDENTIAL FACILITY FOR GROUPS,8827-AGC-3,RESIDENTIAL FACILITY FOR ELDERLY OR DISABLED PERSONS,973 LEPORI WAY SPARKS NV 89431-1165,NV,WASHOE,775-250-0431,8
FAMILY HOME CARE RHL,RESIDENTIAL FACILITY FOR GROUPS,168-AGC-31,"CHRONIC ILLNESS, MENTAL ILLNESS",975 CORDONE AVENUE RENO NV 89502,NV,WASHOE,775-324-2708,9
FERNLEY ESTATES,RESIDENTIAL FACILITY FOR GROUPS,7766-AGC-8,"ALZHEIMER DISEASE, ASSISTED LIVING SERVICES, RESIDENTIAL FACILITY FOR ELDERLY OR DISABLED PERSONS",1130 CHISHOLM TRAIL FERNLEY NV 89408,NV,LYON,775-372-8625,72
FIVE STAR PREMIER RESIDENCES OF RENO,RESIDENTIAL FACILITY FOR GROUPS,116-AGC-36,"ASSISTED LIVING SERVICES, RESIDENTIAL FACILITY FOR ELDERLY OR DISABLED PERSONS",3201 PLUMAS STREET RENO NV 89509,NV,WASHOE,775-829-1050,41
FLORENCE SENIOR CARE HOME,RESIDENTIAL FACILITY FOR GROUPS,2699-AGC-26,ALZHEIMER DISEASE,2338 FLORENCE AVENUE LAS VEGAS NV 89119,NV,CLARK,702-798-0711,7
FOREVER LIVING RESIDENCE HOME CARE LLC,RESIDENTIAL FACILITY FOR GROUPS,7507-AGC-10,"CHRONIC ILLNESS, MENTAL ILLNESS, RESIDENTIAL FACILITY FOR ELDERLY OR DISABLED PERSONS",1608 AZTEC WAY LAS VEGAS NV 89169,NV,CLARK,702-331-1695,6
FORGET ME NOT HOME CARE I,RESIDENTIAL FACILITY FOR GROUPS,409-AGC-40,"ALZHEIMER DISEASE, CHRONIC ILLNESS, RESIDENTIAL FACILITY FOR ELDERLY OR DISABLED PERSONS",5513 FLORA SPRAY ST LAS VEGAS NV 89130,NV,CLARK,702-461-5862,7
GARDEN BREEZE ALZHEIMER VILLA,RESIDENTIAL FACILITY FOR GROUPS,4959-AGC-14,ALZHEIMER DISEASE,950 GARDEN BREEZE WAY LAS VEGAS NV 89123,NV,CLARK,702-616-2489,8
GENTLE BREEZE CARE HOME,RESIDENTIAL FACILITY FOR GROUPS,7915-AGC-10,"CHRONIC ILLNESS, MENTAL ILLNESS",6862 BAILE RD LAS VEGAS NV 89146,NV,CLARK,702-816-4591,10
GENTLE SPRING CARE HOME,RESIDENTIAL FACILITY FOR GROUPS,4009-AGC-25,"CHRONIC ILLNESS, MENTAL ILLNESS, RESIDENTIAL FACILITY FOR ELDERLY OR DISABLED PERSONS",6418 SPRING MEADOW DRIVE LAS VEGAS NV 89103,NV,CLARK,702-478-5997,10
GLENDA CARE,RESIDENTIAL FACILITY FOR GROUPS,9070-AGC-2,RESIDENTIAL FACILITY FOR ELDERLY OR DISABLED PERSONS,1235 GLENDA WAY RENO NV 89509,NV,WASHOE,775-828-2157,30
GOLDEN HEART GROUP HOME CARE I,RESIDENTIAL FACILITY FOR GROUPS,9415-AGC-2,"CHRONIC ILLNESS, MENTAL ILLNESS, INDIVIDUALS WITH INTELLECTUAL DISABILITES, RESIDENTIAL FACILITY FOR ELDERLY OR DISABLED PERSONS",3413 ALPLAND LANE SPARKS NV 89434,NV,WASHOE,775-626-2909,7
GOLDEN HEART GROUP HOME CARE II,RESIDENTIAL FACILITY FOR GROUPS,9836-AGC-1,"CHRONIC ILLNESS, MENTAL ILLNESS, RESIDENTIAL FACILITY FOR ELDERLY OR DISABLED PERSONS",3990 LAKESIDE DRIVE RENO NV 89509,NV,WASHOE,775-453-2085,10
GOLDEN LAKE CARE HOME,RESIDENTIAL FACILITY FOR GROUPS,7557-AGC-11,"CHRONIC ILLNESS, MENTAL ILLNESS",9719 TUMBLE LAKE COURT LAS VEGAS NV 89147,NV,CLARK,702-471-0221,10
GOLDEN MANOR,RESIDENTIAL FACILITY FOR GROUPS,6389-AGC-12,RESIDENTIAL FACILITY FOR ELDERLY OR DISABLED PERSONS,416 SYSONBY CT RENO NV 89521,NV,WASHOE,775-762-2162,6
GOLDEN MEADOWS RESIDENTIAL,RESIDENTIAL FACILITY FOR GROUPS,3382-AGC-23,"MENTAL ILLNESS, RESIDENTIAL FACILITY FOR ELDERLY OR DISABLED PERSONS",4119 MEADOWGLEN CIRCLE LAS VEGAS NV 89121,NV,CLARK,702-434-7040,10
GOLDEN ROSE HOME,RESIDENTIAL FACILITY FOR GROUPS,9832-AGC-0,"ASSISTED LIVING SERVICES, CHRONIC ILLNESS, RESIDENTIAL FACILITY FOR ELDERLY OR DISABLED PERSONS",8055 OPAL STATION DRIVE RENO NV 89506,NV,WASHOE,775-440-4097,9
GOLDEN SUNSHINE HOME,RESIDENTIAL FACILITY FOR GROUPS,5460-AGC-16,"ALZHEIMER DISEASE, CHRONIC ILLNESS",8333 JEREMIAH LODGE AVENUE LAS VEGAS NV 89131,NV,CLARK,702-845-3974,10
GOLDEN VALLEY GROUP CARE,RESIDENTIAL FACILITY FOR GROUPS,205-AGC-31,MENTAL ILLNESS,2690 MARGARET DRIVE RENO NV 89506,NV,WASHOE,775-972-6318,10
GOLDEN VALLEY GROUP CARE II,RESIDENTIAL FACILITY FOR GROUPS,1796-AGC-31,"MENTAL ILLNESS, RESIDENTIAL FACILITY FOR ELDERLY OR DISABLED PERSONS",1140 MANHATTAN STREET RENO NV 89512,NV,WASHOE,775-688-8035,10
GOLDEN VILLA CARE HOME,RESIDENTIAL FACILITY FOR GROUPS,6414-AGC-14,"CHRONIC ILLNESS, MENTAL ILLNESS",1505 DUNEVILLE ST LAS VEGAS NV 89146,NV,CLARK,702-998-6185,10
GOLDEN YEARS CASTLE 2,RESIDENTIAL FACILITY FOR GROUPS,5231-AGC-16,"MENTAL ILLNESS, RESIDENTIAL FACILITY FOR ELDERLY OR DISABLED PERSONS",5175 SLEEPY HOLLOW DR RENO NV 89502,NV,WASHOE,775-857-4447,10
GOLDEN YEARS CASTLE HOME CARE,RESIDENTIAL FACILITY FOR GROUPS,3867-AGC-22,RESIDENTIAL FACILITY FOR ELDERLY OR DISABLED PERSONS,2060 ARCANE AVE RENO NV 89503,NV,WASHOE,775-747-7171,8
GOLDEN YEARS CASTLE HOME OF FERNLEY,RESIDENTIAL FACILITY FOR GROUPS,9431-AGC-2,"ALZHEIMER DISEASE, RESIDENTIAL FACILITY FOR ELDERLY OR DISABLED PERSONS",575 FARM DISTRICT ROAD FERNLEY NV 89408,NV,LYON,775-575-9200,16
GOLDEN YEARS CASTLE HOME OF LOVELOCK,RESIDENTIAL FACILITY FOR GROUPS,9432-AGC-2,RESIDENTIAL FACILITY FOR ELDERLY OR DISABLED PERSONS,685 AMHERST AVENUE LOVELOCK NV 89419,NV,PERSHING,775-240-9305,10
GOLDEN YEARS MEMORY CARE LLC,RESIDENTIAL FACILITY FOR GROUPS,9883-AGC-1,"CHRONIC ILLNESS, RESIDENTIAL FACILITY FOR ELDERLY OR DISABLED PERSONS",8920 LOGGERS MILL AVE LAS VEGAS NV 89143,NV,CLARK,702-202-6475,8
GOLDEN YEARS RESIDENTIAL CARE LLC,RESIDENTIAL FACILITY FOR GROUPS,9328-AGC-2,"ALZHEIMER DISEASE, CHRONIC ILLNESS, RESIDENTIAL FACILITY FOR ELDERLY OR DISABLED PERSONS",6990 EDNA AVE LAS VEGAS NV 89117,NV,CLARK,702-901-9281,10
GOOD SAMARITAN GROUP HOME INC,RESIDENTIAL FACILITY FOR GROUPS,4876-AGC-19,ALZHEIMER DISEASE,3696 S PECOS ROAD LAS VEGAS NV 89121,NV,CLARK,702-463-3653,10
GRACE OF MONACO - SECTION 10,RESIDENTIAL FACILITY FOR GROUPS,6261-AGC-11,ALZHEIMER DISEASE,7460 PALMYRA AVE LAS VEGAS NV 89117,NV,CLARK,702-522-7741,10
GRACE OF MONACO ANGEL PARK,RESIDENTIAL FACILITY FOR GROUPS,4367-AGC-22,ALZHEIMER DISEASE,8617 HIGHLANDVIEW AVE LAS VEGAS NV 89145,NV,CLARK,702-360-5003,6
GRACEFUL LIVING,RESIDENTIAL FACILITY FOR GROUPS,7914-AGC-9,RESIDENTIAL FACILITY FOR ELDERLY OR DISABLED PERSONS,2690 TRAIL RIDER DRIVE RENO NV 89521,NV,WASHOE,775-971-4421,8
GRANDMOTHERS CRIB,RESIDENTIAL FACILITY FOR GROUPS,5703-AGC-17,MENTAL ILLNESS,700 SIENNA STATION WAY RENO NV 89512,NV,WASHOE,775-470-5131,6
HACIENDA HILL MANOR,RESIDENTIAL FACILITY FOR GROUPS,3643-AGC-17,ALZHEIMER DISEASE,5544 SURREY STREET LAS VEGAS NV 89119,NV,CLARK,702-597-4697,6
HAPPY ADULT CARE,RESIDENTIAL FACILITY FOR GROUPS,2406-AGC-34,ALZHEIMER DISEASE,1905 QUAIL POINT COURT LAS VEGAS NV 89117,NV,CLARK,702-838-6388,6
HAPPY ADULT CARE II,RESIDENTIAL FACILITY FOR GROUPS,5564-AGC-15,ALZHEIMER DISEASE,2021 SEDONA MORNING DR LAS VEGAS NV 89128,NV,CLARK,702-638-2888,6
HASTINGS HOUSE,RESIDENTIAL FACILITY FOR GROUPS,7545-AGC-9,"CHRONIC ILLNESS, MENTAL ILLNESS, INDIVIDUALS WITH INTELLECTUAL DISABILITES",3253 HASTINGS AVENUE LAS VEGAS NV 89107,NV,CLARK,702-821-0823,8
HAVENBROOK,RESIDENTIAL FACILITY FOR GROUPS,10081-AGC-1,"ALZHEIMER DISEASE, RESIDENTIAL FACILITY FOR ELDERLY OR DISABLED PERSONS",7711 FOREDAWN DRIVE LAS VEGAS NV 89123,NV,CLARK,702-802-8680,10
HEALTH LIFE LLC,RESIDENTIAL FACILITY FOR GROUPS,110-AGC-33,ALZHEIMER DISEASE,5220 RANCHER AVE LAS VEGAS NV 89108,NV,CLARK,702-515-1393,8
HEALTHY HOME CARE,RESIDENTIAL FACILITY FOR GROUPS,364-AGC-32,"CHRONIC ILLNESS, MENTAL ILLNESS, INDIVIDUALS WITH INTELLECTUAL DISABILITES, RESIDENTIAL FACILITY FOR ELDERLY OR DISABLED PERSONS",1812 STARBUCK DRIVE LAS VEGAS NV 89108,NV,CLARK,702-269-8217,8
HEART TO HEART,RESIDENTIAL FACILITY FOR GROUPS,7558-AGC-9,RESIDENTIAL FACILITY FOR ELDERLY OR DISABLED PERSONS,201 RHODES ROAD RENO NV 89511,NV,WASHOE,775-720-4603,7
HELPING HANDS CARE HOME,RESIDENTIAL FACILITY FOR GROUPS,3675-AGC-29,ALZHEIMER DISEASE,2757 GALLANT HILLS DRIVE LAS VEGAS NV 89135,NV,CLARK,702-324-0314,6
HELPING HANDS CARE HOME II,RESIDENTIAL FACILITY FOR GROUPS,6262-AGC-13,"ALZHEIMER DISEASE, CHRONIC ILLNESS, INDIVIDUALS WITH INTELLECTUAL DISABILITES, RESIDENTIAL FACILITY FOR ELDERLY OR DISABLED PERSONS",11745 STONEWALL SPRINGS AVE LAS VEGAS NV 89138,NV,CLARK,702-445-0088,10
HENDERSON CARE HOME,RESIDENTIAL FACILITY FOR GROUPS,9981-AGC-1,"ALZHEIMER DISEASE, CHRONIC ILLNESS, RESIDENTIAL FACILITY FOR ELDERLY OR DISABLED PERSONS",609 CADENCE VISTA DRIVE HENDERSON NV 89011,NV,CLARK,725-735-6911,10
HERITAGE SPRINGS ASSISTED LIVING & MEMORY CARE,RESIDENTIAL FACILITY FOR GROUPS,9830-AGC-1,"ALZHEIMER DISEASE, ASSISTED LIVING SERVICES, CHRONIC ILLNESS, RESIDENTIAL FACILITY FOR ELDERLY OR DISABLED PERSONS",8720 W FLAMINGO RD LAS VEGAS NV 89147,NV,CLARK,702-360-6023,127
HIGHLAND INN OF ELKO,RESIDENTIAL FACILITY FOR GROUPS,5654-AGC-16,"ASSISTED LIVING SERVICES, RESIDENTIAL FACILITY FOR ELDERLY OR DISABLED PERSONS",2850 RUBY VISTA DR ELKO NV 89801,NV,ELKO,775-753-3727,57
HIGHLAND INN OF FALLON,RESIDENTIAL FACILITY FOR GROUPS,5653-AGC-16,"ASSISTED LIVING SERVICES, RESIDENTIAL FACILITY FOR ELDERLY OR DISABLED PERSONS",550 N SHERMAN ST FALLON NV 89406,NV,CHURCHILL,775-423-7800,37
HILLSIDE MANOR AT MOUNTAINS EDGE,RESIDENTIAL FACILITY FOR GROUPS,5316-AGC-20,"ALZHEIMER DISEASE, CHRONIC ILLNESS, RESIDENTIAL FACILITY FOR ELDERLY OR DISABLED PERSONS",9651 TRATTORIA ST LAS VEGAS NV 89178,NV,CLARK,702-485-1876,9
HOLY ANGEL CARE HOME I,RESIDENTIAL FACILITY FOR GROUPS,8156-AGC-9,ALZHEIMER DISEASE,1517 GENTLE BROOK STREET N. LAS VEGAS NV 89084,NV,CLARK,702-443-1964,10
HOLY CHILD RESIDENTIAL CARE HOME,RESIDENTIAL FACILITY FOR GROUPS,3879-AGC-21,RESIDENTIAL FACILITY FOR ELDERLY OR DISABLED PERSONS,2225 JESTER COURT RENO NV 89503,NV,WASHOE,775-787-2100,6
HOLY CHILD RESIDENTIAL CARE IV,RESIDENTIAL FACILITY FOR GROUPS,4582-AGC-17,RESIDENTIAL FACILITY FOR ELDERLY OR DISABLED PERSONS,5825 TAPPAN DRIVE RENO NV 89523,NV,WASHOE,775-746-8181,5
HOLY FAMILY HOME CARE,RESIDENTIAL FACILITY FOR GROUPS,3658-AGC-26,MENTAL ILLNESS,3235 DELNA DRIVE SPARKS NV 89431,NV,WASHOE,775-815-3768,8
HONEYBEE HOME,RESIDENTIAL FACILITY FOR GROUPS,2769-AGC-25,CHRONIC ILLNESS,1821 E AMBUSH ST PAHRUMP NV 89041,NV,NYE,775-751-3611,10
HORIZON HILLS RESIDENTIAL GROUP CARE I,RESIDENTIAL FACILITY FOR GROUPS,119-AGC-30,"MENTAL ILLNESS, RESIDENTIAL FACILITY FOR ELDERLY OR DISABLED PERSONS",8115 MOHAWK LANE RENO NV 89506,NV,WASHOE,775-750-0006,8
HOUSE OF GRACE,RESIDENTIAL FACILITY FOR GROUPS,4185-AGC-17,"CHRONIC ILLNESS, MENTAL ILLNESS, RESIDENTIAL FACILITY FOR ELDERLY OR DISABLED PERSONS",7017 CARMEN BLVD LAS VEGAS NV 89128,NV,CLARK,702-240-8555,20
IN TOUCH RESIDENTIAL CARE I,RESIDENTIAL FACILITY FOR GROUPS,2724-AGC-26,"CHRONIC ILLNESS, MENTAL ILLNESS, RESIDENTIAL FACILITY FOR ELDERLY OR DISABLED PERSONS",4131 SATINWOOD DR LAS VEGAS NV 89147,NV,CLARK,702-362-1970,7
IN TOUCH RESIDENTIAL CARE II,RESIDENTIAL FACILITY FOR GROUPS,3730-AGC-21,"CHRONIC ILLNESS, MENTAL ILLNESS",7457 WALNUT CREEK DRIVE LAS VEGAS NV 89147,NV,CLARK,702-876-7783,8
INFINITE CARE,RESIDENTIAL FACILITY FOR GROUPS,5704-AGC-16,"CHRONIC ILLNESS, MENTAL ILLNESS, INDIVIDUALS WITH INTELLECTUAL DISABILITES",3821 TOPAZ ST LAS VEGAS NV 89121,NV,CLARK,702-722-2896,10
INSPIRATIONS SENIOR LIVING IN PAHRUMP,RESIDENTIAL FACILITY FOR GROUPS,7556-AGC-14,"ALZHEIMER DISEASE, ASSISTED LIVING SERVICES, RESIDENTIAL FACILITY FOR ELDERLY OR DISABLED PERSONS",931 HONEYSUCKLE STREET PAHRUMP NV 89048,NV,NYE,775-751-2300,78
JCR HOME CARE INC,RESIDENTIAL FACILITY FOR GROUPS,4093-AGC-21,ALZHEIMER DISEASE,7160 DARBY AVE LAS VEGAS NV 89117,NV,CLARK,702-453-3861,10
JOHNNY ANGEL'S CARE HOME,RESIDENTIAL FACILITY FOR GROUPS,8983-AGC-3,"ALZHEIMER DISEASE, RESIDENTIAL FACILITY FOR ELDERLY OR DISABLED PERSONS",4460 MARLENA CIRCLE LAS VEGAS NV 89108,NV,CLARK,702-636-1140,10
JOHNSON GROUP CARE #1,RESIDENTIAL FACILITY FOR GROUPS,240-AGC-24,"MENTAL ILLNESS, RESIDENTIAL FACILITY FOR ELDERLY OR DISABLED PERSONS",1895 CARVILLE DR RENO NV 89512,NV,WASHOE,775-786-5359,6
JOHNSON GROUP CARE #2,RESIDENTIAL FACILITY FOR GROUPS,241-AGC-25,"MENTAL ILLNESS, RESIDENTIAL FACILITY FOR ELDERLY OR DISABLED PERSONS",1240 E 10TH STREET RENO NV 89512,NV,WASHOE,775-322-1024,9
JOYFUL SENIOR CARE,RESIDENTIAL FACILITY FOR GROUPS,2973-AGC-23,ALZHEIMER DISEASE,5408 TOPAZ STREET LAS VEGAS NV 89120,NV,CLARK,702-433-3735,10
JOYFUL SENIOR CARE HAVEN 2,RESIDENTIAL FACILITY FOR GROUPS,3888-AGC-18,ALZHEIMER DISEASE,4353 JODI AVE LAS VEGAS NV 89120,NV,CLARK,702-433-3735,10
JTM GROUP HOME,RESIDENTIAL FACILITY FOR GROUPS,4564-AGC-18,RESIDENTIAL FACILITY FOR ELDERLY OR DISABLED PERSONS,1435 AKARD DRIVE RENO NV 89503,NV,WASHOE,775-747-1433,8
KIND HEARTS CARE HOME LLC,RESIDENTIAL FACILITY FOR GROUPS,8720-AGC-4,ALZHEIMER DISEASE,386 SEVERN CT HENDERSON NV 89002,NV,CLARK,702-629-3594,7
KINGS ROW RESIDENCE,RESIDENTIAL FACILITY FOR GROUPS,9409-AGC-2,RESIDENTIAL FACILITY FOR ELDERLY OR DISABLED PERSONS,1254 SAINT ALBERTS DR RENO NV 89503,NV,WASHOE,775-746-4419,10
KRYSTONS HOME CARE,RESIDENTIAL FACILITY FOR GROUPS,3266-AGC-24,"CHRONIC ILLNESS, RESIDENTIAL FACILITY FOR ELDERLY OR DISABLED PERSONS",881 W GOLDEN VALLEY ROAD RENO NV 89506,NV,WASHOE,775-972-1414,6
KRYSTONS HOME CARE II,RESIDENTIAL FACILITY FOR GROUPS,3659-AGC-22,"MENTAL ILLNESS, INDIVIDUALS WITH INTELLECTUAL DISABILITES",7990 ZINFANDEL DRIVE RENO NV 89506,NV,WASHOE,775-772-3452,6
L & J GROUP HOMECARE,RESIDENTIAL FACILITY FOR GROUPS,4409-AGC-19,"MENTAL ILLNESS, RESIDENTIAL FACILITY FOR ELDERLY OR DISABLED PERSONS",1604 WILDWOOD DRIVE LAS VEGAS NV 89108,NV,CLARK,702-331-5482,10
L & N HOME CARE,RESIDENTIAL FACILITY FOR GROUPS,253-AGC-31,RESIDENTIAL FACILITY FOR ELDERLY OR DISABLED PERSONS,3995 BELMORE WAY RENO NV 89503,NV,WASHOE,775-747-4286,8
LA MANSION,RESIDENTIAL FACILITY FOR GROUPS,9050-AGC-1,"ALZHEIMER DISEASE, ASSISTED LIVING SERVICES, CHRONIC ILLNESS, RESIDENTIAL FACILITY FOR ELDERLY OR DISABLED PERSONS",5930 NORTH EL CAPITAN WAY LAS VEGAS NV 89149,NV,CLARK,702-525-1708,10
LAKE MEAD CARE HOME,RESIDENTIAL FACILITY FOR GROUPS,4101-AGC-18,MENTAL ILLNESS,4325 W LAKE MEAD BLVD LAS VEGAS NV 89108-2849,NV,CLARK,702-339-6727,6
LAKEVIEW TERRACE RETIREMENT COMMUNITY,RESIDENTIAL FACILITY FOR GROUPS,5567-AGC-18,"ALZHEIMER DISEASE, ASSISTED LIVING SERVICES, MENTAL ILLNESS, RESIDENTIAL FACILITY FOR ELDERLY OR DISABLED PERSONS",180 VILLE DRIVE BOULDER CITY NV 89005,NV,CLARK,702-293-0181,86
LANIKEHA RESIDENTIAL,RESIDENTIAL FACILITY FOR GROUPS,10193-AGC-0,"ALZHEIMER DISEASE, CHRONIC ILLNESS, RESIDENTIAL FACILITY FOR ELDERLY OR DISABLED PERSONS",465 EAST ROBINDALE ROAD LAS VEGAS NV 89123,NV,CLARK,714-363-2060,10
LAS VEGAS ALZHEIMER & MEMORY CARE 2,RESIDENTIAL FACILITY FOR GROUPS,129-AGC-30,ALZHEIMER DISEASE,3225 BRAZOS STREET LAS VEGAS NV 89169,NV,CLARK,702-471-7204,10
LAS VEGAS ALZHEIMERS & MEMORY CARE 1,RESIDENTIAL FACILITY FOR GROUPS,1970-AGC-30,"ALZHEIMER DISEASE, RESIDENTIAL FACILITY FOR ELDERLY OR DISABLED PERSONS",3224 BRAZOS STREET LAS VEGAS NV 89169,NV,CLARK,702-737-4396,10
LAS VEGAS CHATEAU FOR SENIORS,RESIDENTIAL FACILITY FOR GROUPS,7213-AGC-12,"ALZHEIMER DISEASE, MENTAL ILLNESS",4175 N TOMSIK ST LAS VEGAS NV 89129,NV,CLARK,702-478-8825,10
LAS VEGAS GROUP HOME LLC,RESIDENTIAL FACILITY FOR GROUPS,9577-AGC-2,"ALZHEIMER DISEASE, CHRONIC ILLNESS, INDIVIDUALS WITH INTELLECTUAL DISABILITES, RESIDENTIAL FACILITY FOR ELDERLY OR DISABLED PERSONS",1680 SOMBRERO DRIVE LAS VEGAS NV 89169,NV,CLARK,702-449-0122,9
LAS VENTANAS RETIREMENT COMM,RESIDENTIAL FACILITY FOR GROUPS,4000-AGC-26,"ALZHEIMER DISEASE, ASSISTED LIVING SERVICES, INDIVIDUALS WITH INTELLECTUAL DISABILITES, RESIDENTIAL FACILITY FOR ELDERLY OR DISABLED PERSONS",10401 WEST CHARLESTON LAS VEGAS NV 89135,NV,CLARK,702-207-4215,76
"LAURELWOOD GROUP HOME II,LLC",RESIDENTIAL FACILITY FOR GROUPS,8761-AGC-4,RESIDENTIAL FACILITY FOR ELDERLY OR DISABLED PERSONS,6565 MINTON CT LAS VEGAS NV 89103,NV,CLARK,702-580-5123,10
LAURELWOOD GROUP HOME LLC,RESIDENTIAL FACILITY FOR GROUPS,4240-AGC-18,RESIDENTIAL FACILITY FOR ELDERLY OR DISABLED PERSONS,4752 TORRENCE DRIVE LAS VEGAS NV 89103,NV,CLARK,702-876-4224,10
LEGACIES MEMORY CARE AT SAN MARTIN,RESIDENTIAL FACILITY FOR GROUPS,9548-AGC-2,"ALZHEIMER DISEASE, ASSISTED LIVING SERVICES, RESIDENTIAL FACILITY FOR ELDERLY OR DISABLED PERSONS",7230 GAGNIER BOULEVARD LAS VEGAS NV 89113,NV,CLARK,702-263-6313,50
LEGACY HOUSE OF CENTENNIAL HILLS,RESIDENTIAL FACILITY FOR GROUPS,8726-AGC-4,"ALZHEIMER DISEASE, ASSISTED LIVING SERVICES, CHRONIC ILLNESS, RESIDENTIAL FACILITY FOR ELDERLY OR DISABLED PERSONS",6310 N. DURANGO DRIVE LAS VEGAS NV 89149,NV,CLARK,702-239-6778,136
LEGACY HOUSE OF SOUTHERN HILLS,RESIDENTIAL FACILITY FOR GROUPS,9018-AGC-2,"ALZHEIMER DISEASE, ASSISTED LIVING SERVICES, CHRONIC ILLNESS, RESIDENTIAL FACILITY FOR ELDERLY OR DISABLED PERSONS",9750 W. SUNSET ROAD LAS VEGAS NV 89148,NV,CLARK,702-978-5000,158
LIBERTY RESIDENTIAL CARE,RESIDENTIAL FACILITY FOR GROUPS,1955-AGC-28,"CHRONIC ILLNESS, MENTAL ILLNESS, RESIDENTIAL FACILITY FOR ELDERLY OR DISABLED PERSONS",3060 LIBERTY CIRCLE SOUTH LAS VEGAS NV 89121,NV,CLARK,702-457-7775,10
LIFE SHARE CARE HOME NEVADA INC,RESIDENTIAL FACILITY FOR GROUPS,6087-AGC-12,"CHRONIC ILLNESS, MENTAL ILLNESS",7925 W ROSADA WAY LAS VEGAS NV 89149,NV,CLARK,408-854-0735,10
LIMESTONESHIRE LLC,RESIDENTIAL FACILITY FOR GROUPS,4952-AGC-19,MENTAL ILLNESS,7474 LIMESTONE DRIVE RENO NV 89511,NV,WASHOE,775-852-5870,8
LITTLE ANGEL CARE HOME,RESIDENTIAL FACILITY FOR GROUPS,4740-AGC-16,"CHRONIC ILLNESS, MENTAL ILLNESS, INDIVIDUALS WITH INTELLECTUAL DISABILITES, RESIDENTIAL FACILITY FOR ELDERLY OR DISABLED PERSONS",1436 HEAVEN DRIVE SPARKS NV 89436,NV,WASHOE,775-626-8103,5
LITTLE ANGEL CARE HOME LLC,RESIDENTIAL FACILITY FOR GROUPS,178-AGC-28,"CHRONIC ILLNESS, MENTAL ILLNESS, INDIVIDUALS WITH INTELLECTUAL DISABILITES, RESIDENTIAL FACILITY FOR ELDERLY OR DISABLED PERSONS",2570 KEYSTONE AVE RENO NV 89503,NV,WASHOE,775-746-8027,5
LIVE N LOVE,RESIDENTIAL FACILITY FOR GROUPS,7386-AGC-11,"CHRONIC ILLNESS, MENTAL ILLNESS",4850 ARIZONA AVENUE LAS VEGAS NV 89104,NV,CLARK,702-756-5909,9
"LIVINGSTON HOME II, LLC",RESIDENTIAL FACILITY FOR GROUPS,8410-AGC-6,"CHRONIC ILLNESS, MENTAL ILLNESS, RESIDENTIAL FACILITY FOR ELDERLY OR DISABLED PERSONS",5820 W. DESERT INN RD LAS VEGAS NV 89146,NV,CLARK,702-515-9959,10
LIVINGSTON HOME LLC,RESIDENTIAL FACILITY FOR GROUPS,6281-AGC-12,ALZHEIMER DISEASE,5858 PALMYRA AVE LAS VEGAS NV 89146,NV,CLARK,702-202-4555,10
LONGEVITY RESIDENTIAL CARE II,RESIDENTIAL FACILITY FOR GROUPS,7479-AGC-9,"CHRONIC ILLNESS, MENTAL ILLNESS, INDIVIDUALS WITH INTELLECTUAL DISABILITES, RESIDENTIAL FACILITY FOR ELDERLY OR DISABLED PERSONS",4073 KINGS ROW RENO NV 89503,NV,WASHOE,775-453-1196,10
LOVE & JOY RESIDENCE I,RESIDENTIAL FACILITY FOR GROUPS,3975-AGC-23,RESIDENTIAL FACILITY FOR ELDERLY OR DISABLED PERSONS,1750 CANYONLANDS WAY RENO NV 89521,NV,WASHOE,775-815-5067,8
"MAR-VON SENIOR CARE, LLC",RESIDENTIAL FACILITY FOR GROUPS,285-AGC-29,"CHRONIC ILLNESS, MENTAL ILLNESS",300 LA RUE AVENUE RENO NV 89509,NV,WASHOE,775-323-4696,18
MARTHA'S HOUSE SENIOR LIVING,RESIDENTIAL FACILITY FOR GROUPS,9204-AGC-3,"ALZHEIMER DISEASE, RESIDENTIAL FACILITY FOR ELDERLY OR DISABLED PERSONS",1516 WINWOOD STREET LAS VEGAS NV 89108,NV,CLARK,702-636-8776,8
MARVEL MANOR,RESIDENTIAL FACILITY FOR GROUPS,4405-AGC-17,RESIDENTIAL FACILITY FOR ELDERLY OR DISABLED PERSONS,4935 N DURANGO LAS VEGAS NV 89149,NV,CLARK,702-395-7878,10
MASON VALLEY RESIDENCE LLC,RESIDENTIAL FACILITY FOR GROUPS,1959-AGC-29,ALZHEIMER DISEASE,705 SOUTH STREET YERINGTON NV 89447,NV,LYON,775-463-5946,57
"MASTER CARE GROUP HOMES, LLC",RESIDENTIAL FACILITY FOR GROUPS,8683-AGC-4,"ALZHEIMER DISEASE, RESIDENTIAL FACILITY FOR ELDERLY OR DISABLED PERSONS",6562 W. MESA VISTA LAS VEGAS NV 89118,NV,CLARK,702-331-5168,5
MAYHILL MANOR,RESIDENTIAL FACILITY FOR GROUPS,61-AGC-28,"ALZHEIMER DISEASE, INDIVIDUALS WITH INTELLECTUAL DISABILITES",3855 MAYHILL AVE LAS VEGAS NV 89121,NV,CLARK,702-454-9438,6
MEADOWS CARE HOME,RESIDENTIAL FACILITY FOR GROUPS,2787-AGC-31,"CHRONIC ILLNESS, MENTAL ILLNESS",5125 MEADOWS LILLY AVE LAS VEGAS NV 89108,NV,CLARK,702-395-7674,8
MERRILL GARDENS AT GREEN VALLEY RANCH,RESIDENTIAL FACILITY FOR GROUPS,5271-AGC-19,"ASSISTED LIVING SERVICES, CHRONIC ILLNESS",1935 PASEO VERDE PKWY HENDERSON NV 89012,NV,CLARK,702-568-7900,108
MERRILL GARDENS AT SIENA HILLS,RESIDENTIAL FACILITY FOR GROUPS,3705-AGC-35,"ALZHEIMER DISEASE, ASSISTED LIVING SERVICES, CHRONIC ILLNESS, RESIDENTIAL FACILITY FOR ELDERLY OR DISABLED PERSONS",2910 W HORIZON RIDGE PARKWAY HENDERSON NV 89052,NV,CLARK,702-614-8733,116
MERRILL GARDENS AT SIENA HILLS,RESIDENTIAL FACILITY FOR GROUPS,4117-AGC-30,"ALZHEIMER DISEASE, CHRONIC ILLNESS",2920 W HORIZON RIDGE PARKWAY HENDERSON NV 89052,NV,CLARK,702-614-8733,40
MESA VALLEY ESTATES,RESIDENTIAL FACILITY FOR GROUPS,9735-AGC-1,"ALZHEIMER DISEASE, ASSISTED LIVING SERVICES, RESIDENTIAL FACILITY FOR ELDERLY OR DISABLED PERSONS",1328 BERTHA HOWE LANE MESQUITE NV 89027,NV,CLARK,702-344-5050,78
MIMI'S CARE HOME,RESIDENTIAL FACILITY FOR GROUPS,9063-AGC-3,"ALZHEIMER DISEASE, RESIDENTIAL FACILITY FOR ELDERLY OR DISABLED PERSONS",3055 S PIONEER WAY LAS VEGAS NV 89117,NV,CLARK,702-493-6745,10
MOA FAMILY CARE LLC,RESIDENTIAL FACILITY FOR GROUPS,2849-AGC-27,"CHRONIC ILLNESS, MENTAL ILLNESS, INDIVIDUALS WITH INTELLECTUAL DISABILITES",4210 PATTERSON AVE LAS VEGAS NV 89104,NV,CLARK,702-431-4390,10
"MONARCH GROUP HOME, LLC.",RESIDENTIAL FACILITY FOR GROUPS,5742-AGC-14,RESIDENTIAL FACILITY FOR ELDERLY OR DISABLED PERSONS,6112 FISHER AVE LAS VEGAS NV 89130,NV,CLARK,702-581-6931,10
MONTHILL PALMS,RESIDENTIAL FACILITY FOR GROUPS,63-AGC-26,"ALZHEIMER DISEASE, CHRONIC ILLNESS, INDIVIDUALS WITH INTELLECTUAL DISABILITES",4062 MONTHILL AVE LAS VEGAS NV 89121,NV,CLARK,702-451-3284,6
MORNING GLORY ALZHEIMERS HOME,RESIDENTIAL FACILITY FOR GROUPS,302-AGC-26,ALZHEIMER DISEASE,1821 NAVARRE LANE HENDERSON NV 89014,NV,CLARK,702-434-1740,6
MORNING STAR CARE HOME,RESIDENTIAL FACILITY FOR GROUPS,155-AGC-31,"MENTAL ILLNESS, RESIDENTIAL FACILITY FOR ELDERLY OR DISABLED PERSONS",7560 SILVER LEAF WAY LAS VEGAS NV 89147,NV,CLARK,702-220-5551,8
MORNINGSTAR OF SPARKS,RESIDENTIAL FACILITY FOR GROUPS,5192-AGC-22,"ALZHEIMER DISEASE, ASSISTED LIVING SERVICES, CHRONIC ILLNESS, RESIDENTIAL FACILITY FOR ELDERLY OR DISABLED PERSONS",2360 WINGFIELD HILLS DR SPARKS NV 89436,NV,WASHOE,775-626-5665,112
MOTHER'S TOUCH SENIOR HOME,RESIDENTIAL FACILITY FOR GROUPS,8650-AGC-4,"ALZHEIMER DISEASE, RESIDENTIAL FACILITY FOR ELDERLY OR DISABLED PERSONS",8918 KING JOHN COURT LAS VEGAS NV 89149,NV,CLARK,650-400-6090,10
MOTHERS BEST CARE FOR THE ELDERLY,RESIDENTIAL FACILITY FOR GROUPS,305-AGC-29,MENTAL ILLNESS,1225 S 8TH STREET LAS VEGAS NV 89104,NV,CLARK,702-382-1034,10
MOTHERS LOVE & CARE #2 LLC,RESIDENTIAL FACILITY FOR GROUPS,308-AGC-29,MENTAL ILLNESS,4130 GARLAN LANE RENO NV 89509,NV,WASHOE,775-828-5151,10
MYSTIC HAVEN,RESIDENTIAL FACILITY FOR GROUPS,3176-AGC-26,MENTAL ILLNESS,3421 CAMSORE POINT LANE LAS VEGAS NV 89129,NV,CLARK,702-255-9171,6
NAZARENE SENIOR CARE HOME,RESIDENTIAL FACILITY FOR GROUPS,9963-AGC-1,"ALZHEIMER DISEASE, CHRONIC ILLNESS",5362 TOPAZ ST LAS VEGAS NV 89120,NV,CLARK,702-272-2859,10
NEURORESTORATIVE NEVADA,RESIDENTIAL FACILITY FOR GROUPS,8643-AGC-4,"CHRONIC ILLNESS, MENTAL ILLNESS, INDIVIDUALS WITH INTELLECTUAL DISABILITES, RESIDENTIAL FACILITY FOR ELDERLY OR DISABLED PERSONS",7240 W. OAKEY BLVD LAS VEGAS NV 89117,NV,CLARK,702-423-9573,10
NEURORESTORATIVE NEVADA,RESIDENTIAL FACILITY FOR GROUPS,9287-AGC-2,"CHRONIC ILLNESS, MENTAL ILLNESS, INDIVIDUALS WITH INTELLECTUAL DISABILITES, RESIDENTIAL FACILITY FOR ELDERLY OR DISABLED PERSONS",3135 S MONTE CRISTO WAY LAS VEGAS NV 89117,NV,CLARK,702-489-3084,8
NEVADA MEMORY CARE,RESIDENTIAL FACILITY FOR GROUPS,6324-AGC-11,"ALZHEIMER DISEASE, RESIDENTIAL FACILITY FOR ELDERLY OR DISABLED PERSONS",2299 MONTESSOURI ST LAS VEGAS NV 89117,NV,CLARK,702-423-8833,10
NOVA ALL STAR CARE HOMES,RESIDENTIAL FACILITY FOR GROUPS,3252-AGC-26,RESIDENTIAL FACILITY FOR ELDERLY OR DISABLED PERSONS,5525 ROSE THICKET STREET LAS VEGAS NV 89130,NV,CLARK,702-873-6243,7
"NV HOME CARE FACILITIES, LLC",RESIDENTIAL FACILITY FOR GROUPS,8437-AGC-5,"ALZHEIMER DISEASE, RESIDENTIAL FACILITY FOR ELDERLY OR DISABLED PERSONS",5268 CASPIAN DRIVE LAS VEGAS NV 89118,NV,CLARK,702-889-0518,10
OAKEY ASSISTED LIVING,RESIDENTIAL FACILITY FOR GROUPS,9938-AGC-1,"ASSISTED LIVING SERVICES, CHRONIC ILLNESS, RESIDENTIAL FACILITY FOR ELDERLY OR DISABLED PERSONS",3900 W. OAKEY BLVD LAS VEGAS NV 89102,NV,CLARK,702-258-7572,112
OAKMONT OF LAS VEGAS,RESIDENTIAL FACILITY FOR GROUPS,9556-AGC-2,"ALZHEIMER DISEASE, ASSISTED LIVING SERVICES, CHRONIC ILLNESS, MENTAL ILLNESS, INDIVIDUALS WITH INTELLECTUAL DISABILITES, RESIDENTIAL FACILITY FOR ELDERLY OR DISABLED PERSONS",3185 E. FLAMINGO ROAD LAS VEGAS NV 89121,NV,CLARK,702-763-9357,150
OAKMONT OF THE LAKES,RESIDENTIAL FACILITY FOR GROUPS,9041-AGC-3,"ALZHEIMER DISEASE, ASSISTED LIVING SERVICES, CHRONIC ILLNESS, MENTAL ILLNESS, RESIDENTIAL FACILITY FOR ELDERLY OR DISABLED PERSONS",3250 SOUTH FORT APACHE ROAD LAS VEGAS NV 89117,NV,CLARK,702-830-7768,140
OASIS PLACE,RESIDENTIAL FACILITY FOR GROUPS,404-AGC-31,RESIDENTIAL FACILITY FOR ELDERLY OR DISABLED PERSONS,2722 HARDING WAY RENO NV 89503,NV,WASHOE,775-622-0112,6
OASIS SENIOR CARE HOME,RESIDENTIAL FACILITY FOR GROUPS,10170-AGC-0,"ALZHEIMER DISEASE, RESIDENTIAL FACILITY FOR ELDERLY OR DISABLED PERSONS",2945 MAVERICK STREET LAS VEGAS NV 89108,NV,CLARK,702-522-6105,10
OHANA SENIOR LIVING CARE I,RESIDENTIAL FACILITY FOR GROUPS,9602-AGC-2,ALZHEIMER DISEASE,6825 WHITE SANDS AVENUE LAS VEGAS NV 89145,NV,CLARK,702-290-8811,8
OLIVE GROVE RESIDENTIAL CARE FACILITY,RESIDENTIAL FACILITY FOR GROUPS,7665-AGC-10,"CHRONIC ILLNESS, RESIDENTIAL FACILITY FOR ELDERLY OR DISABLED PERSONS",9446 BACK BAY CIRCLE LAS VEGAS NV 89123,NV,CLARK,702-413-6947,4
"ORMSBY HEIGHTS RESIDENTIAL CARE, LLC",RESIDENTIAL FACILITY FOR GROUPS,7210-AGC-12,RESIDENTIAL FACILITY FOR ELDERLY OR DISABLED PERSONS,210 SOUTH ORMSBY BLVD CARSON CITY NV 89703,NV,CARSON CITY,775-445-0214,10
OUR HOME ADULT LIVING,RESIDENTIAL FACILITY FOR GROUPS,5523-AGC-14,RESIDENTIAL FACILITY FOR ELDERLY OR DISABLED PERSONS,4180 SIERRA MADRE DR RENO NV 89502,NV,WASHOE,775-827-1619,5
PACIFICA SENIOR LIVING GREEN VALLEY,RESIDENTIAL FACILITY FOR GROUPS,3543-AGC-36,"ALZHEIMER DISEASE, ASSISTED LIVING SERVICES, CHRONIC ILLNESS, RESIDENTIAL FACILITY FOR ELDERLY OR DISABLED PERSONS",2620 E ROBINDALE ROAD HENDERSON NV 89074,NV,CLARK,702-992-0000,108
PACIFICA SENIOR LIVING SAN MARTIN,RESIDENTIAL FACILITY FOR GROUPS,5528-AGC-21,"ALZHEIMER DISEASE, ASSISTED LIVING SERVICES, CHRONIC ILLNESS, RESIDENTIAL FACILITY FOR ELDERLY OR DISABLED PERSONS",8374 W CAPOVILLA AVE LAS VEGAS NV 89113,NV,CLARK,702-222-3600,150
PACIFICA SENIOR LIVING SPRING VALLEY,RESIDENTIAL FACILITY FOR GROUPS,2758-AGC-44,"ALZHEIMER DISEASE, ASSISTED LIVING SERVICES",8880 W TROPICANA AVE LAS VEGAS NV 89147-6000,NV,CLARK,702-920-0710,72
PALM VALLEY ASSISTED LIVING,RESIDENTIAL FACILITY FOR GROUPS,3184-AGC-36,"ASSISTED LIVING SERVICES, CHRONIC ILLNESS, MENTAL ILLNESS, RESIDENTIAL FACILITY FOR ELDERLY OR DISABLED PERSONS",5975 W TWAIN AVE LAS VEGAS NV 89103,NV,CLARK,702-368-7700,102
PALMS CARE HOME LLC,RESIDENTIAL FACILITY FOR GROUPS,9552-AGC-2,"ALZHEIMER DISEASE, CHRONIC ILLNESS, RESIDENTIAL FACILITY FOR ELDERLY OR DISABLED PERSONS",8351 WEST HAMMER LANE LAS VEGAS NV 89149,NV,CLARK,702-445-0088,10
PARADISE CREST HOME CARE,RESIDENTIAL FACILITY FOR GROUPS,297-AGC-36,"MENTAL ILLNESS, RESIDENTIAL FACILITY FOR ELDERLY OR DISABLED PERSONS",4462 FARMCREST DRIVE LAS VEGAS NV 89121,NV,CLARK,702-433-2879,10
PARADISE MEMORY CARE LLC,RESIDENTIAL FACILITY FOR GROUPS,10103-AGC-1,ALZHEIMER DISEASE,243 SAXONDALE AVENUE LAS VEGAS NV 89123,NV,CLARK,702-731-5941,10
PARADISO,RESIDENTIAL FACILITY FOR GROUPS,3707-AGC-22,ALZHEIMER DISEASE,7952 MONACO BAY COURT LAS VEGAS NV 89117,NV,CLARK,702-255-1273,9
PARK PLACE,RESIDENTIAL FACILITY FOR GROUPS,333-AGC-31,"ASSISTED LIVING SERVICES, CHRONIC ILLNESS, MENTAL ILLNESS",2305 IVES COURT RENO NV 89503,NV,WASHOE,775-746-1188,60
PEACE OF MIND LLC,RESIDENTIAL FACILITY FOR GROUPS,9600-AGC-1,"ALZHEIMER DISEASE, CHRONIC ILLNESS, RESIDENTIAL FACILITY FOR ELDERLY OR DISABLED PERSONS",4354 E HARMON AVE LAS VEGAS NV 89121,NV,CLARK,702-434-3234,10
PEARL CARE HOME LLC,RESIDENTIAL FACILITY FOR GROUPS,10013-AGC-1,"ALZHEIMER DISEASE, CHRONIC ILLNESS, RESIDENTIAL FACILITY FOR ELDERLY OR DISABLED PERSONS",1012 PARADISE VIEW ST. HENDERSON NV 89052,NV,CLARK,702-614-7079,10
PLAXIA CARE,RESIDENTIAL FACILITY FOR GROUPS,10219-AGC-0,RESIDENTIAL FACILITY FOR ELDERLY OR DISABLED PERSONS,5095 N PARK ST LAS VEGAS NV 89149,NV,CLARK,702-858-4559,10
PLEASANT CARE GROUP HOME,RESIDENTIAL FACILITY FOR GROUPS,4126-AGC-19,RESIDENTIAL FACILITY FOR ELDERLY OR DISABLED PERSONS,639 K STREET SPARKS NV 89431,NV,WASHOE,775-358-2204,5
PLEASANT CARE GROUP HOME II,RESIDENTIAL FACILITY FOR GROUPS,4504-AGC-18,"CHRONIC ILLNESS, MENTAL ILLNESS",3238 JAMESTOWN COURT SPARKS NV 89431,NV,WASHOE,775-351-2739,7
PLEASANT CARE GROUP HOME III,RESIDENTIAL FACILITY FOR GROUPS,7637-AGC-8,RESIDENTIAL FACILITY FOR ELDERLY OR DISABLED PERSONS,795 SIENNA STATION WAY RENO NV 89512,NV,WASHOE,775-657-9598,6
PLEASANT VALLEY HOME CARE,RESIDENTIAL FACILITY FOR GROUPS,9557-AGC-2,"ALZHEIMER DISEASE, RESIDENTIAL FACILITY FOR ELDERLY OR DISABLED PERSONS",9708 ENNISKEEN AVENUE LAS VEGAS NV 89129-8001,NV,CLARK,702-562-5074,10
PLEASANT VIEW HOMECARE,RESIDENTIAL FACILITY FOR GROUPS,9505-AGC-2,"ALZHEIMER DISEASE, CHRONIC ILLNESS, RESIDENTIAL FACILITY FOR ELDERLY OR DISABLED PERSONS",7036 PLEASANT VIEW AVE LAS VEGAS NV 89147,NV,CLARK,702-985-6847,8
POET'S WALK HENDERSON,RESIDENTIAL FACILITY FOR GROUPS,8702-AGC-4,"ALZHEIMER DISEASE, ASSISTED LIVING SERVICES, CHRONIC ILLNESS, RESIDENTIAL FACILITY FOR ELDERLY OR DISABLED PERSONS",1750 WEST HORIZON RIDGE PARKWAY HENDERSON NV 89012,NV,CLARK,702-899-8028,68
PRECIOUS CARE GROUP,RESIDENTIAL FACILITY FOR GROUPS,8841-AGC-3,"ALZHEIMER DISEASE, RESIDENTIAL FACILITY FOR ELDERLY OR DISABLED PERSONS",7345 ACACIA WOODS CT LAS VEGAS NV 89113,NV,CLARK,702-998-5988,10
PRESTIGE ASSISTED LIVING AT HENDERSON,RESIDENTIAL FACILITY FOR GROUPS,2916-AGC-35,"ALZHEIMER DISEASE, ASSISTED LIVING SERVICES, CHRONIC ILLNESS, MENTAL ILLNESS, INDIVIDUALS WITH INTELLECTUAL DISABILITES",1050 E LAKE MEAD PARKWAY HENDERSON NV 89015,NV,CLARK,702-564-1771,70
PRESTIGE ASSISTED LIVING AT MIRA LOMA,RESIDENTIAL FACILITY FOR GROUPS,298-AGC-41,"ALZHEIMER DISEASE, ASSISTED LIVING SERVICES, CHRONIC ILLNESS, MENTAL ILLNESS, RESIDENTIAL FACILITY FOR ELDERLY OR DISABLED PERSONS",2520 WIGWAM PARKWAY HENDERSON NV 89074,NV,CLARK,702-260-8400,138
PRIME CARE FACILITY,RESIDENTIAL FACILITY FOR GROUPS,339-AGC-27,MENTAL ILLNESS,4920 RONAN DRIVE LAS VEGAS NV 89110,NV,CLARK,725-201-5089,7
PRINCESS II GROUP HOME,RESIDENTIAL FACILITY FOR GROUPS,2677-AGC-30,"MENTAL ILLNESS, RESIDENTIAL FACILITY FOR ELDERLY OR DISABLED PERSONS",10019 PRINCESS CUT ST LAS VEGAS NV 89183,NV,CLARK,702-385-5588,10
PROVIDENCE HOME CARE,RESIDENTIAL FACILITY FOR GROUPS,6028-AGC-13,RESIDENTIAL FACILITY FOR ELDERLY OR DISABLED PERSONS,5325 VISTA LARGA CIR RENO NV 89523,NV,WASHOE,775-787-1188,8
QUALITY CARE 4 SENIORS LLC,RESIDENTIAL FACILITY FOR GROUPS,8788-AGC-4,"ALZHEIMER DISEASE, CHRONIC ILLNESS, RESIDENTIAL FACILITY FOR ELDERLY OR DISABLED PERSONS",4369 ADELPHI AVENUE LAS VEGAS NV 89120,NV,CLARK,702-595-0058,10
R & L ADULT CARE HOME #2,RESIDENTIAL FACILITY FOR GROUPS,5002-AGC-19,"CHRONIC ILLNESS, MENTAL ILLNESS",1013 STONEYPEAK AVE NORTH LAS VEGAS NV 89081,NV,CLARK,702-478-5252,8
R & L ADULT CARE HOME INC,RESIDENTIAL FACILITY FOR GROUPS,9535-AGC-1,"MENTAL ILLNESS, RESIDENTIAL FACILITY FOR ELDERLY OR DISABLED PERSONS",1811 S 7TH ST LAS VEGAS NV 89104,NV,CLARK,808-372-8418,8
RAFAEL HOME CARE,RESIDENTIAL FACILITY FOR GROUPS,2479-AGC-25,"MENTAL ILLNESS, RESIDENTIAL FACILITY FOR ELDERLY OR DISABLED PERSONS",3804 APACHE LANE LAS VEGAS NV 89107,NV,CLARK,702-880-5852,5
RAINBOW ADULT CARE LLC,RESIDENTIAL FACILITY FOR GROUPS,9008-AGC-2,"CHRONIC ILLNESS, MENTAL ILLNESS, RESIDENTIAL FACILITY FOR ELDERLY OR DISABLED PERSONS",1823 BELCASTRO STREET LAS VEGAS NV 89117,NV,CLARK,702-370-4803,10
RAINBOW CONNECTIONS GROUP CARE HOME,RESIDENTIAL FACILITY FOR GROUPS,5432-AGC-13,"ALZHEIMER DISEASE, RESIDENTIAL FACILITY FOR ELDERLY OR DISABLED PERSONS",820 ANTIGUA ST LAS VEGAS NV 89145,NV,CLARK,702-358-9917,6
ROSARIOS GROUP HOME,RESIDENTIAL FACILITY FOR GROUPS,7942-AGC-9,RESIDENTIAL FACILITY FOR ELDERLY OR DISABLED PERSONS,2885 RED ROCK STREET LAS VEGAS NV 89146,NV,CLARK,702-343-0073,8
ROSS SENIOR RESIDENCE,RESIDENTIAL FACILITY FOR GROUPS,2175-AGC-31,"ALZHEIMER DISEASE, RESIDENTIAL FACILITY FOR ELDERLY OR DISABLED PERSONS",5935 W SADDLE AVE LAS VEGAS NV 89103,NV,CLARK,702-365-6124,5
ROYAL HAVEN,RESIDENTIAL FACILITY FOR GROUPS,88-AGC-33,ALZHEIMER DISEASE,1913 COLLINS AVENUE LAS VEGAS NV 89106,NV,CLARK,702-366-9127,6
ROYAL HEIGHTS LLC,RESIDENTIAL FACILITY FOR GROUPS,7349-AGC-12,RESIDENTIAL FACILITY FOR ELDERLY OR DISABLED PERSONS,1875 KINGSROW RENO NV 89503,NV,WASHOE,775-453-1983,6
RUNAMAR HOME HEALTH INC,RESIDENTIAL FACILITY FOR GROUPS,2807-AGC-27,"CHRONIC ILLNESS, MENTAL ILLNESS",7907 MOUNTAIN MAN WAY LAS VEGAS NV 89113,NV,CLARK,702-221-8055,8
SACHELE SENIOR GUEST HOME,RESIDENTIAL FACILITY FOR GROUPS,354-AGC-25,"MENTAL ILLNESS, RESIDENTIAL FACILITY FOR ELDERLY OR DISABLED PERSONS",3398 BANCROFT CIRCLE LAS VEGAS NV 89121,NV,CLARK,702-450-3152,9
SACHELE SENIOR GUEST HOME II,RESIDENTIAL FACILITY FOR GROUPS,2274-AGC-22,ALZHEIMER DISEASE,3397 EL CAMINO REAL LAS VEGAS NV 89121,NV,CLARK,702-435-9544,9
SAINT ANNE RESIDENTIAL CARE CORP,RESIDENTIAL FACILITY FOR GROUPS,367-AGC-41,MENTAL ILLNESS,3158 KINGSPOINT AVENUE LAS VEGAS NV 89120,NV,CLARK,702-433-9470,10
SAINT ANNE'S GROUP HOME,RESIDENTIAL FACILITY FOR GROUPS,8743-AGC-4,RESIDENTIAL FACILITY FOR ELDERLY OR DISABLED PERSONS,1625 PEAVINE RD RENO NV 89503,NV,WASHOE,775-221-7449,7
SAINT BENEDICTS HOME,RESIDENTIAL FACILITY FOR GROUPS,356-AGC-31,"CHRONIC ILLNESS, MENTAL ILLNESS, INDIVIDUALS WITH INTELLECTUAL DISABILITES",3625 S ROSEWOOD DR LAS VEGAS NV 89121,NV,CLARK,702-454-0532,6
SAINT BENEDICTS HOME II,RESIDENTIAL FACILITY FOR GROUPS,1894-AGC-25,"CHRONIC ILLNESS, MENTAL ILLNESS",4532 E FLAMINGO ROAD LAS VEGAS NV 89121,NV,CLARK,702-435-1742,6
SAINT FRANCIS GROUP HOME #2,RESIDENTIAL FACILITY FOR GROUPS,385-AGC-28,"MENTAL ILLNESS, RESIDENTIAL FACILITY FOR ELDERLY OR DISABLED PERSONS",4151 E ST LOUIS AVENUE LAS VEGAS NV 89104,NV,CLARK,702-457-4961,9
SAINT FRANCIS GROUP HOME CARE III,RESIDENTIAL FACILITY FOR GROUPS,2821-AGC-27,"CHRONIC ILLNESS, MENTAL ILLNESS",4121 E BOSTON AVE LAS VEGAS NV 89104,NV,CLARK,702-457-2378,10
SAINT FRANCIS GROUP HOME CARE V,RESIDENTIAL FACILITY FOR GROUPS,2839-AGC-21,"MENTAL ILLNESS, RESIDENTIAL FACILITY FOR ELDERLY OR DISABLED PERSONS",4245 E BALTIMORE AVE LAS VEGAS NV 89104,NV,CLARK,702-431-4792,6
SAINT JEAN SENIOR CARE,RESIDENTIAL FACILITY FOR GROUPS,5936-AGC-14,"ALZHEIMER DISEASE, CHRONIC ILLNESS",6924 ACOMA CRT LAS VEGAS NV 89145,NV,CLARK,702-521-4797,10
SAINT JEREMIAH CARE HOME,RESIDENTIAL FACILITY FOR GROUPS,8089-AGC-6,ALZHEIMER DISEASE,3918 CHEROKEE AVENUE LAS VEGAS NV 89121,NV,CLARK,702-823-3277,10
SAINT JUDE HOME CARE,RESIDENTIAL FACILITY FOR GROUPS,2176-AGC-29,RESIDENTIAL FACILITY FOR ELDERLY OR DISABLED PERSONS,6880 HATHAWAY DRIVE LAS VEGAS NV 89156,NV,CLARK,702-438-5046,6
SAINT MICHAEL GROUP HOME,RESIDENTIAL FACILITY FOR GROUPS,436-AGC-29,MENTAL ILLNESS,3980 PLACITA AVENUE LAS VEGAS NV 89121,NV,CLARK,702-457-2315,5
SAINT PAUL HOME CARE II,RESIDENTIAL FACILITY FOR GROUPS,4234-AGC-21,"INDIVIDUALS WITH INTELLECTUAL DISABILITES, RESIDENTIAL FACILITY FOR ELDERLY OR DISABLED PERSONS",4900 KOENIG ROAD RENO NV 89506,NV,WASHOE,775-324-0691,10
SAINT PAULS HOME CARE III,RESIDENTIAL FACILITY FOR GROUPS,7195-AGC-11,"MENTAL ILLNESS, RESIDENTIAL FACILITY FOR ELDERLY OR DISABLED PERSONS",4910 KOENIG RD RENO NV 89506,NV,WASHOE,775-657-6483,10
SAN VICENTE HOME CARE,RESIDENTIAL FACILITY FOR GROUPS,358-AGC-29,"ALZHEIMER DISEASE, RESIDENTIAL FACILITY FOR ELDERLY OR DISABLED PERSONS",8460 RANCHO DESTINO RD LAS VEGAS NV 89123,NV,CLARK,702-361-2358,10
SANTA FE CARE HOME I,RESIDENTIAL FACILITY FOR GROUPS,7739-AGC-8,"CHRONIC ILLNESS, MENTAL ILLNESS, RESIDENTIAL FACILITY FOR ELDERLY OR DISABLED PERSONS",4621 EXPOSITION AVE LAS VEGAS NV 89102,NV,CLARK,702-685-8133,10
SENIOR RESIDENTIAL CARE,RESIDENTIAL FACILITY FOR GROUPS,5636-AGC-15,ALZHEIMER DISEASE,2269 PACINI COURT HENDERSON NV 89052,NV,CLARK,702-325-5355,10
SENIOR RESIDENTIAL CARE - CENTENNIAL,RESIDENTIAL FACILITY FOR GROUPS,3287-AGC-26,RESIDENTIAL FACILITY FOR ELDERLY OR DISABLED PERSONS,8204 CABIN SPRINGS AVE LAS VEGAS NV 89131,NV,CLARK,702-395-7555,9
SENIOR RESIDENTIAL CARE-SUMMERLIN,RESIDENTIAL FACILITY FOR GROUPS,7502-AGC-10,"CHRONIC ILLNESS, MENTAL ILLNESS, INDIVIDUALS WITH INTELLECTUAL DISABILITES",80 ALERION ST LAS VEGAS NV 89138,NV,CLARK,702-685-0322,9
SERENITY SENIOR CARE,RESIDENTIAL FACILITY FOR GROUPS,5974-AGC-13,RESIDENTIAL FACILITY FOR ELDERLY OR DISABLED PERSONS,3645 RIO POCO RENO NV 89502,NV,WASHOE,775-825-1481,9
SHELTERING ARMS CARE HOME,RESIDENTIAL FACILITY FOR GROUPS,10260-AGC-0,"CHRONIC ILLNESS, RESIDENTIAL FACILITY FOR ELDERLY OR DISABLED PERSONS","1255 LOMA VERDE CT., SPARKS NV 89436",NV,WASHOE,775-870-1502,6
SHELTERING ARMS CARE HOMES II,RESIDENTIAL FACILITY FOR GROUPS,10261-AGC-0,"CHRONIC ILLNESS, RESIDENTIAL FACILITY FOR ELDERLY OR DISABLED PERSONS",1060 RAIN WATER CT SPARKS NV 89436,NV,WASHOE,775-971-4911,7
SHEPHERD CARE HOME,RESIDENTIAL FACILITY FOR GROUPS,9689-AGC-0,"CHRONIC ILLNESS, MENTAL ILLNESS, INDIVIDUALS WITH INTELLECTUAL DISABILITES, RESIDENTIAL FACILITY FOR ELDERLY OR DISABLED PERSONS",5319 STAMPA AVE. LAS VEGAS NV 89147,NV,CLARK,702-785-2812,10
"SHINY STARS HOME CARE II, LLC",RESIDENTIAL FACILITY FOR GROUPS,8602-AGC-4,RESIDENTIAL FACILITY FOR ELDERLY OR DISABLED PERSONS,1032 SILVER CREEK LAS VEGAS NV 89183,NV,CLARK,725-777-3812,4
SIERRA MANOR CARE HOME,RESIDENTIAL FACILITY FOR GROUPS,7414-AGC-11,"CHRONIC ILLNESS, MENTAL ILLNESS, INDIVIDUALS WITH INTELLECTUAL DISABILITES, RESIDENTIAL FACILITY FOR ELDERLY OR DISABLED PERSONS",327 RIVER FLOW DRIVE RENO NV 89523,NV,WASHOE,775-787-7960,8
SIERRA PLACE RETIREMENT COMMUNITY,RESIDENTIAL FACILITY FOR GROUPS,370-AGC-39,"ASSISTED LIVING SERVICES, CHRONIC ILLNESS",1111 W COLLEGE PARKWAY CARSON CITY NV 89703,NV,CARSON CITY,425-408-9141,76
SILVER HORIZON LLC,RESIDENTIAL FACILITY FOR GROUPS,7381-AGC-12,"CHRONIC ILLNESS, MENTAL ILLNESS, RESIDENTIAL FACILITY FOR ELDERLY OR DISABLED PERSONS",1900 ELIMINATOR DRIVE LAS VEGAS NV 89146,NV,CLARK,702-463-3585,10
SILVER HORIZON-HICKAM,RESIDENTIAL FACILITY FOR GROUPS,8243-AGC-7,"CHRONIC ILLNESS, MENTAL ILLNESS, RESIDENTIAL FACILITY FOR ELDERLY OR DISABLED PERSONS",8280 HICKAM AVENUE LAS VEGAS NV 89129,NV,CLARK,702-489-8352,10
SILVER SKY ASSISTED LIVING,RESIDENTIAL FACILITY FOR GROUPS,4251-AGC-24,"ASSISTED LIVING SERVICES, CHRONIC ILLNESS, RESIDENTIAL FACILITY FOR ELDERLY OR DISABLED PERSONS",8220 SILVER SKY DRIVE LAS VEGAS NV 89145,NV,CLARK,702-835-9040,96
SILVER SKY AT DEER SPRINGS ASSISTED LIVING,RESIDENTIAL FACILITY FOR GROUPS,6013-AGC-14,ASSISTED LIVING SERVICES,6741 N DECATUR BLVD BLDG #3 LAS VEGAS NV 89130,NV,CLARK,702-462-7700,96
SILVERADO RANCH MEMORY CARE,RESIDENTIAL FACILITY FOR GROUPS,9598-AGC-2,"ALZHEIMER DISEASE, RESIDENTIAL FACILITY FOR ELDERLY OR DISABLED PERSONS",248 BARLETTA AVENUE LAS VEGAS NV 89123,NV,CLARK,702-235-2584,10
SKYLINE ESTATES,RESIDENTIAL FACILITY FOR GROUPS,9346-AGC-2,"ALZHEIMER DISEASE, RESIDENTIAL FACILITY FOR ELDERLY OR DISABLED PERSONS",2907 N. MOUNTAIN ST. CARSON CITY NV 89703,NV,CARSON CITY,775-885-9223,67
SKYLINE ESTATES,RESIDENTIAL FACILITY FOR GROUPS,9423-AGC-3,RESIDENTIAL FACILITY FOR ELDERLY OR DISABLED PERSONS,2765 MOUNTAIN ST. CARSON CITY NV 89703,NV,CARSON CITY,775-885-9223,30
SOFIA'S HOME,RESIDENTIAL FACILITY FOR GROUPS,8989-AGC-3,"CHRONIC ILLNESS, MENTAL ILLNESS, INDIVIDUALS WITH INTELLECTUAL DISABILITES, RESIDENTIAL FACILITY FOR ELDERLY OR DISABLED PERSONS",2612 WABASH CIRCLE SPARKS NV 89434,NV,WASHOE,775-200-3552,5
SOUTH MEADOWS RESIDENTIAL CARE HOME,RESIDENTIAL FACILITY FOR GROUPS,9975-AGC-1,RESIDENTIAL FACILITY FOR ELDERLY OR DISABLED PERSONS,13495 STONEY BROOK DR RENO NV 89511,NV,WASHOE,775-685-3875,10
SPENCER LUXURY CARE LP,RESIDENTIAL FACILITY FOR GROUPS,4490-AGC-17,ALZHEIMER DISEASE,1951 PAPAGO LANE LAS VEGAS NV 89169,NV,CLARK,702-433-3735,10
SPRING VALLEY ALZ CARE CENTER,RESIDENTIAL FACILITY FOR GROUPS,3363-AGC-26,"ALZHEIMER DISEASE, CHRONIC ILLNESS",6428 CRYSTAL DEW DRIVE LAS VEGAS NV 89118,NV,CLARK,702-277-8837,10
SPRING VALLEY ALZHEIMERS CARE,RESIDENTIAL FACILITY FOR GROUPS,3729-AGC-18,ALZHEIMER DISEASE,5310 SHARON MARIE COURT LAS VEGAS NV 89118,NV,CLARK,702-251-1978,8
SPRUCE OAK RESIDENTIAL CARE FACILITY,RESIDENTIAL FACILITY FOR GROUPS,5954-AGC-17,"MENTAL ILLNESS, RESIDENTIAL FACILITY FOR ELDERLY OR DISABLED PERSONS",4618 SPRUCE OAK DR NORTH LAS VEGAS NV 89031,NV,CLARK,702-462-2031,6
SRC SOUTHWEST,RESIDENTIAL FACILITY FOR GROUPS,9733-AGC-1,"ALZHEIMER DISEASE, RESIDENTIAL FACILITY FOR ELDERLY OR DISABLED PERSONS",7864 APACHE CLIFF LAS VEGAS NV 89113,NV,CLARK,702-325-5355,10
STAR HORIZONS GROUP HOME,RESIDENTIAL FACILITY FOR GROUPS,290-AGC-29,"CHRONIC ILLNESS, MENTAL ILLNESS",2122 WEBSTER ST NORTH LAS VEGAS NV 89030,NV,CLARK,702-209-6627,7
STARLIGHT GROUP HOME,RESIDENTIAL FACILITY FOR GROUPS,9326-AGC-2,"ALZHEIMER DISEASE, CHRONIC ILLNESS, MENTAL ILLNESS, RESIDENTIAL FACILITY FOR ELDERLY OR DISABLED PERSONS",2301 EAST 9TH ST. RENO NV 89512,NV,WASHOE,775-762-2162,9
STEPPING STONE APARTMENTS,RESIDENTIAL FACILITY FOR GROUPS,10017-AGC-1,"CHRONIC ILLNESS, MENTAL ILLNESS, INDIVIDUALS WITH INTELLECTUAL DISABILITES, RESIDENTIAL FACILITY FOR ELDERLY OR DISABLED PERSONS",1405 SOUTH MOJAVE ROAD LAS VEGAS NV 89104,NV,CLARK,702-259-1903,20
STERLING RIDGE,RESIDENTIAL FACILITY FOR GROUPS,9768-AGC-1,"ALZHEIMER DISEASE, ASSISTED LIVING SERVICES, CHRONIC ILLNESS, RESIDENTIAL FACILITY FOR ELDERLY OR DISABLED PERSONS",4255 SPENCER STREET LAS VEGAS NV 89119,NV,CLARK,702-732-0652,95
STONE VALLEY ALZHEIMERS SPECIAL CARE CENTER,RESIDENTIAL FACILITY FOR GROUPS,7616-AGC-10,ALZHEIMER DISEASE,6155 STONE VALLEY DRIVE RENO NV 89523,NV,WASHOE,775-746-2200,66
SUMMER BREEZE RESIDENTIAL,RESIDENTIAL FACILITY FOR GROUPS,10192-AGC-0,"ALZHEIMER DISEASE, CHRONIC ILLNESS, RESIDENTIAL FACILITY FOR ELDERLY OR DISABLED PERSONS",185 EAST WINDMILL LANE LAS VEGAS NV 89123,NV,CLARK,714-363-2060,10
SUMMERLIN RETIREMENT HOME,RESIDENTIAL FACILITY FOR GROUPS,4140-AGC-18,ALZHEIMER DISEASE,309 LA RUE COURT LAS VEGAS NV 89145,NV,CLARK,702-860-5118,10
"SUMMERLIN RETIREMENT LIVING, LLC",RESIDENTIAL FACILITY FOR GROUPS,8592-AGC-4,ALZHEIMER DISEASE,10128 SNOW CREST PLACE LAS VEGAS NV 89134,NV,CLARK,702-984-0206,7
SUMMERLIN SENIOR LIVING LLC,RESIDENTIAL FACILITY FOR GROUPS,9394-AGC-2,"ALZHEIMER DISEASE, RESIDENTIAL FACILITY FOR ELDERLY OR DISABLED PERSONS",10376 STANBERRY AVE LAS VEGAS NV 89135,NV,CLARK,702-417-9757,9
SUMMIT ESTATES,RESIDENTIAL FACILITY FOR GROUPS,8476-AGC-4,"ALZHEIMER DISEASE, ASSISTED LIVING SERVICES, RESIDENTIAL FACILITY FOR ELDERLY OR DISABLED PERSONS",222 EAST PATRIOT BLVD RENO NV 89511,NV,WASHOE,775-434-1880,134
SUMMIT GROUP HOME,RESIDENTIAL FACILITY FOR GROUPS,9555-AGC-2,"CHRONIC ILLNESS, MENTAL ILLNESS, INDIVIDUALS WITH INTELLECTUAL DISABILITES, RESIDENTIAL FACILITY FOR ELDERLY OR DISABLED PERSONS",1620 BYRD DR SPARKS NV 89431,NV,WASHOE,775-247-4000,8
SUMMIT GROUP HOME,RESIDENTIAL FACILITY FOR GROUPS,10275-AGC-0,"CHRONIC ILLNESS, MENTAL ILLNESS, INDIVIDUALS WITH INTELLECTUAL DISABILITES, RESIDENTIAL FACILITY FOR ELDERLY OR DISABLED PERSONS",9570 COMANCHE MOON DR RENO NV 89521,NV,WASHOE,775-247-4000,8
SUNLIT TERRACE GROUP HOME II,RESIDENTIAL FACILITY FOR GROUPS,10421-AGC-0,,2875 IRIDIUM COURT SPARKS NV 89436,NV,WASHOE,775-560-3178,5
SUNRISE OF HENDERSON,RESIDENTIAL FACILITY FOR GROUPS,4880-AGC-21,"ALZHEIMER DISEASE, ASSISTED LIVING SERVICES",1555 WEST HORIZON RIDGE PARKWAY HENDERSON NV 89012,NV,CLARK,702-837-6582,105
SUNSHINE CARE HOME,RESIDENTIAL FACILITY FOR GROUPS,430-AGC-34,"CHRONIC ILLNESS, MENTAL ILLNESS",3970 MARYLAND AVE LAS VEGAS NV 89121,NV,CLARK,702-914-9858,8
SUNSHINE CARE HOME II,RESIDENTIAL FACILITY FOR GROUPS,4787-AGC-20,"ALZHEIMER DISEASE, CHRONIC ILLNESS",3045 SOUTH TIOGA WAY LAS VEGAS NV 89117,NV,CLARK,702-631-1551,10
SUNSHINE VALLEY ELDER CARE,RESIDENTIAL FACILITY FOR GROUPS,403-AGC-31,RESIDENTIAL FACILITY FOR ELDERLY OR DISABLED PERSONS,465 RIDGEWAY RD HENDERSON NV 89015,NV,CLARK,702-558-7662,10
SWEET HOME BELMONT LLC,RESIDENTIAL FACILITY FOR GROUPS,5462-AGC-17,"ALZHEIMER DISEASE, CHRONIC ILLNESS, MENTAL ILLNESS, RESIDENTIAL FACILITY FOR ELDERLY OR DISABLED PERSONS",2908 BELMONT DR HENDERSON NV 89074,NV,CLARK,702-473-9752,10
TENDER LOVING CARE SENIOR RESIDENCE,RESIDENTIAL FACILITY FOR GROUPS,5743-AGC-12,ALZHEIMER DISEASE,1401 CASA DEL REY CRT LAS VEGAS NV 89117,NV,CLARK,702-228-2994,10
TENDER LOVING MEMORY CARE & ASSISTED LIVING HOME LLC,RESIDENTIAL FACILITY FOR GROUPS,10202-AGC-0,"ALZHEIMER DISEASE, ASSISTED LIVING SERVICES, RESIDENTIAL FACILITY FOR ELDERLY OR DISABLED PERSONS",3429 WEST LONE MOUNTAIN ROAD NORTH LAS VEGAS NV 89031,NV,CLARK,626-231-1353,10
"TERRACINA HOME CARE II, LLC",RESIDENTIAL FACILITY FOR GROUPS,9896-AGC-1,RESIDENTIAL FACILITY FOR ELDERLY OR DISABLED PERSONS,1721 GLEN COVE CT RENO NV 89521,NV,WASHOE,775-420-5489,6
THE AMERICANA ASSISTED LIVING,RESIDENTIAL FACILITY FOR GROUPS,9945-AGC-1,"ASSISTED LIVING SERVICES, CHRONIC ILLNESS, MENTAL ILLNESS, RESIDENTIAL FACILITY FOR ELDERLY OR DISABLED PERSONS",100 SOUTH 14TH STREET LAS VEGAS NV 89101,NV,CLARK,702-333-4100,88
THE BEST CHOICE GROUP HOME LLC,RESIDENTIAL FACILITY FOR GROUPS,10093-AGC-0,"ALZHEIMER DISEASE, ASSISTED LIVING SERVICES, RESIDENTIAL FACILITY FOR ELDERLY OR DISABLED PERSONS",2101 MARIPOSA AVE LAS VEGAS NV 89104,NV,CLARK,702-721-3829,8
THE BRIDGE AT PARADISE VALLEY ASSISTED LIVING,RESIDENTIAL FACILITY FOR GROUPS,3091-AGC-40,"ASSISTED LIVING SERVICES, CHRONIC ILLNESS",2205 EAST HARMON AVE LAS VEGAS NV 89119,NV,CLARK,702-369-6964,91
"THE CHATEAU AT GARDNERVILLE, ASSISTED LIVING AND MEMORY CARE",RESIDENTIAL FACILITY FOR GROUPS,9538-AGC-2,"ALZHEIMER DISEASE, ASSISTED LIVING SERVICES, RESIDENTIAL FACILITY FOR ELDERLY OR DISABLED PERSONS",1565 VIRGINIA RANCH ROAD GARDNERVILLE NV 89410-5704,NV,DOUGLAS,775-782-3100,150
THE ELDERLY ARISTOCRAT,RESIDENTIAL FACILITY FOR GROUPS,407-AGC-25,RESIDENTIAL FACILITY FOR ELDERLY OR DISABLED PERSONS,2380 MOHIGAN WAY LAS VEGAS NV 89169,NV,CLARK,702-796-9952,6
THE ELDERLY ARISTOCRAT III,RESIDENTIAL FACILITY FOR GROUPS,1954-AGC-25,RESIDENTIAL FACILITY FOR ELDERLY OR DISABLED PERSONS,3700 TIOGA WAY LAS VEGAS NV 89169,NV,CLARK,702-768-2304,10
THE HOMESTEAD,RESIDENTIAL FACILITY FOR GROUPS,4193-AGC-29,"ALZHEIMER DISEASE, MENTAL ILLNESS",365 WEST A STREET FALLON NV 89406,NV,CHURCHILL,775-428-2428,75
"THE HOMESTEAD AT BOULDER CITY, INC.",RESIDENTIAL FACILITY FOR GROUPS,2606-AGC-32,"ALZHEIMER DISEASE, ASSISTED LIVING SERVICES, RESIDENTIAL FACILITY FOR ELDERLY OR DISABLED PERSONS",1401 MEDICAL PARK DR BOULDER CITY NV 89005,NV,CLARK,702-294-8720,84
THE LAKES SENIOR LIVING LLC,RESIDENTIAL FACILITY FOR GROUPS,9672-AGC-2,"ALZHEIMER DISEASE, RESIDENTIAL FACILITY FOR ELDERLY OR DISABLED PERSONS",9209 SANDY SHORES DR LAS VEGAS NV 89117,NV,CLARK,702-586-7717,9
THE LODGE ASSISTED LIVING & MEMORY CARE COMMUNITY,RESIDENTIAL FACILITY FOR GROUPS,5165-AGC-21,"ALZHEIMER DISEASE, ASSISTED LIVING SERVICES, CHRONIC ILLNESS, RESIDENTIAL FACILITY FOR ELDERLY OR DISABLED PERSONS",2200 E LONG ST CARSON CITY NV 89706,NV,CARSON CITY,775-283-9888,90
THE MEADOWS HOME,RESIDENTIAL FACILITY FOR GROUPS,417-AGC-29,ALZHEIMER DISEASE,4300 DEL MONTE AVENUE LAS VEGAS NV 89102,NV,CLARK,702-258-1212,10
THE QUAIL HOUSE,RESIDENTIAL FACILITY FOR GROUPS,9911-AGC-1,"ALZHEIMER DISEASE, ASSISTED LIVING SERVICES, CHRONIC ILLNESS, MENTAL ILLNESS, RESIDENTIAL FACILITY FOR ELDERLY OR DISABLED PERSONS",3695 E QUAIL AVE LAS VEGAS NV 89120,NV,CLARK,702-757-8140,10
THE ROSE OF SHARON,RESIDENTIAL FACILITY FOR GROUPS,176-AGC-34,"CHRONIC ILLNESS, MENTAL ILLNESS",355 EVAN PICONE HENDERSON NV 89014,NV,CLARK,702-450-2082,8
THE ROYAL PLACE INC,RESIDENTIAL FACILITY FOR GROUPS,7273-AGC-10,"CHRONIC ILLNESS, MENTAL ILLNESS, RESIDENTIAL FACILITY FOR ELDERLY OR DISABLED PERSONS",3644 MOUNTCREST DRIVE LAS VEGAS NV 89121,NV,CLARK,702-476-1533,10
"THE SEASONS OF RENO, ASSISTED LIVING AND MEMORY CARE",RESIDENTIAL FACILITY FOR GROUPS,9541-AGC-2,"ALZHEIMER DISEASE, ASSISTED LIVING SERVICES, RESIDENTIAL FACILITY FOR ELDERLY OR DISABLED PERSONS",5165 SUMMIT RIDGE COURT RENO NV 89523-9092,NV,WASHOE,775-787-8200,120
THE SIENNA ARBOUR LLC,RESIDENTIAL FACILITY FOR GROUPS,10232-AGC-0,RESIDENTIAL FACILITY FOR ELDERLY OR DISABLED PERSONS,945 SIENNA PARK DRIVE RENO NV 89512,NV,WASHOE,707-515-9135,8
THE VICTORIAN CENTER LLC I,RESIDENTIAL FACILITY FOR GROUPS,2275-AGC-27,ALZHEIMER DISEASE,11 WHITEWIND LANE LAS VEGAS NV 89110,NV,CLARK,702-459-2561,10
THE VICTORIAN CENTER LLC II,RESIDENTIAL FACILITY FOR GROUPS,2850-AGC-26,ALZHEIMER DISEASE,1895 PRISCILLA ST LAS VEGAS NV 89115,NV,CLARK,702-453-2565,6
THERESIANE ADULT GROUP CARE HOME,RESIDENTIAL FACILITY FOR GROUPS,423-AGC-33,"CHRONIC ILLNESS, MENTAL ILLNESS",6620 ELLERHURST DRIVE LAS VEGAS NV 89103,NV,CLARK,702-251-7886,10
TLC COSTA BRAVA LLC,RESIDENTIAL FACILITY FOR GROUPS,7889-AGC-9,"ALZHEIMER DISEASE, CHRONIC ILLNESS, MENTAL ILLNESS",6737 COSTA BRAVA ROAD LAS VEGAS NV 89146,NV,CLARK,702-556-1639,10
TOUCH OF CLASS CARE HOME,RESIDENTIAL FACILITY FOR GROUPS,9798-AGC-1,RESIDENTIAL FACILITY FOR ELDERLY OR DISABLED PERSONS,935 MANZANITA LANE RENO NV 89509,NV,WASHOE,775-354-6486,9
"TRANQUIL BREEZES CARE HOME, LLC",RESIDENTIAL FACILITY FOR GROUPS,8548-AGC-4,CHRONIC ILLNESS,237 PALMETTO POINTE DRIVE HENDERSON NV 89012,NV,CLARK,702-292-4764,10
TRANQUILLIUM-HALEH SENIOR CARE,RESIDENTIAL FACILITY FOR GROUPS,10031-AGC-1,"ALZHEIMER DISEASE, RESIDENTIAL FACILITY FOR ELDERLY OR DISABLED PERSONS",3460 W HALEH AVE LAS VEGAS NV 89141,NV,CLARK,415-608-1938,9
TRUE LOVING CARE II LLC,RESIDENTIAL FACILITY FOR GROUPS,7520-AGC-13,CHRONIC ILLNESS,8020 FAIRFIELD AVE LAS VEGAS NV 89123,NV,CLARK,702-480-5339,10
V N SENIOR CARE INC AT WINERY RD,RESIDENTIAL FACILITY FOR GROUPS,5679-AGC-15,ALZHEIMER DISEASE,3281 WINERY RD PAHRUMP NV 89048,NV,NYE,775-727-1261,10
V N SENIOR CARE INC OF SEVEN HILLS,RESIDENTIAL FACILITY FOR GROUPS,4100-AGC-20,ALZHEIMER DISEASE,993 GOLD BEAR DRIVE HENDERSON NV 89052,NV,CLARK,702-361-1164,9
V N SENIOR CARE OF THE VINEYARDS,RESIDENTIAL FACILITY FOR GROUPS,4406-AGC-16,ALZHEIMER DISEASE,1931 W VINEYARD DRIVE SOUTH PAHRUMP NV 89048,NV,NYE,702-501-5144,10
V NICHOLAS ADULT CARE HOME #2,RESIDENTIAL FACILITY FOR GROUPS,432-AGC-26,RESIDENTIAL FACILITY FOR ELDERLY OR DISABLED PERSONS,4304 EL CAMINO AVENUE LAS VEGAS NV 89102,NV,CLARK,702-220-8089,6
VALLEY OF GOLDEN AGES,RESIDENTIAL FACILITY FOR GROUPS,9907-AGC-1,"ALZHEIMER DISEASE, CHRONIC ILLNESS, RESIDENTIAL FACILITY FOR ELDERLY OR DISABLED PERSONS",2680 MARGARET DR. RENO NV 89506,NV,WASHOE,775-762-2162,6
VEGAS VALLEY SENIOR CARE RESIDENCE,RESIDENTIAL FACILITY FOR GROUPS,8184-AGC-9,RESIDENTIAL FACILITY FOR ELDERLY OR DISABLED PERSONS,6085 S LAMB BLVD LAS VEGAS NV 89120,NV,CLARK,702-724-0218,10
VIEWCREST ADULT LIVING,RESIDENTIAL FACILITY FOR GROUPS,437-AGC-26,"MENTAL ILLNESS, RESIDENTIAL FACILITY FOR ELDERLY OR DISABLED PERSONS",3921 KINGS ROW RENO NV 89503,NV,WASHOE,775-747-3416,7
VILLA COURT ASSISTED LIVING AND MEMORY CARE,RESIDENTIAL FACILITY FOR GROUPS,9444-AGC-2,"ASSISTED LIVING SERVICES, CHRONIC ILLNESS, RESIDENTIAL FACILITY FOR ELDERLY OR DISABLED PERSONS",3985 SOUTH PEARL STREET LAS VEGAS NV 89121-7205,NV,CLARK,702-706-0036,64
VILLA COURT ASSISTED LIVING AND MEMORY CARE,RESIDENTIAL FACILITY FOR GROUPS,9454-AGC-2,"ALZHEIMER DISEASE, RESIDENTIAL FACILITY FOR ELDERLY OR DISABLED PERSONS",4025 SOUTH PEARL STREET LAS VEGAS NV 89121,NV,CLARK,702-706-0036,40
VINEYARD MAINSTREET HENDERSON,RESIDENTIAL FACILITY FOR GROUPS,9308-AGC-0,ALZHEIMER DISEASE,2895 WEST HORIZON RIDGE PARKWAY HENDERSON NV 89052,NV,CLARK,919-909-7663,64
VISTA ADULT CARE,RESIDENTIAL FACILITY FOR GROUPS,4501-AGC-18,"CHRONIC ILLNESS, MENTAL ILLNESS, INDIVIDUALS WITH INTELLECTUAL DISABILITES, RESIDENTIAL FACILITY FOR ELDERLY OR DISABLED PERSONS",1079 RICCO DRIVE SPARKS NV 89434,NV,WASHOE,775-359-3768,7
VISTA ADULT CARE AT WATERFIELD,RESIDENTIAL FACILITY FOR GROUPS,10342-AGC-0,"CHRONIC ILLNESS, MENTAL ILLNESS, INDIVIDUALS WITH INTELLECTUAL DISABILITES, RESIDENTIAL FACILITY FOR ELDERLY OR DISABLED PERSONS",3056 WATERFIELD DRIVE SPARKS NV 89434-1627,NV,WASHOE,775-338-3886,7
VN SENIOR CARE FACILITY INC,RESIDENTIAL FACILITY FOR GROUPS,9685-AGC-2,"ALZHEIMER DISEASE, RESIDENTIAL FACILITY FOR ELDERLY OR DISABLED PERSONS",2621 HOMESTEAD RD PAHRUMP NV 89048,NV,NYE,702-501-5144,10
WASHINGTON SENIOR GUEST HOME,RESIDENTIAL FACILITY FOR GROUPS,439-AGC-27,"CHRONIC ILLNESS, MENTAL ILLNESS",3709 W WASHINGTON AVE LAS VEGAS NV 89107,NV,CLARK,702-870-7157,8
WASHOE SENIOR LIVING I,RESIDENTIAL FACILITY FOR GROUPS,9071-AGC-2,RESIDENTIAL FACILITY FOR ELDERLY OR DISABLED PERSONS,4190 BISMARCK DRIVE RENO NV 89502,NV,WASHOE,775-688-9670,5
WASHOE SENIOR LIVING II,RESIDENTIAL FACILITY FOR GROUPS,8866-AGC-4,RESIDENTIAL FACILITY FOR ELDERLY OR DISABLED PERSONS,425 SONDRIO COURT RENO NV 89521,NV,WASHOE,775-688-9670,10
"WE CARE RESIDENTIAL HOME, LLC",RESIDENTIAL FACILITY FOR GROUPS,9026-AGC-3,"ALZHEIMER DISEASE, RESIDENTIAL FACILITY FOR ELDERLY OR DISABLED PERSONS",3858 MOONGATE CIRCLE LAS VEGAS NV 89103,NV,CLARK,702-945-6682,10
WELBROOK GRAND MONTECITO LLC,RESIDENTIAL FACILITY FOR GROUPS,9216-AGC-1,"ALZHEIMER DISEASE, RESIDENTIAL FACILITY FOR ELDERLY OR DISABLED PERSONS",6660 GRAND MONTECITO PARKWAY LAS VEGAS NV 89149,NV,CLARK,801-683-6565,46
WENTWORTH OF LAS VEGAS,RESIDENTIAL FACILITY FOR GROUPS,2489-AGC-42,"ALZHEIMER DISEASE, ASSISTED LIVING SERVICES, CHRONIC ILLNESS, MENTAL ILLNESS",2620 LAKE SAHARA DR LAS VEGAS NV 89117,NV,CLARK,702-233-9800,150
WEST MORNING STAR CARE HOME,RESIDENTIAL FACILITY FOR GROUPS,4486-AGC-16,"MENTAL ILLNESS, RESIDENTIAL FACILITY FOR ELDERLY OR DISABLED PERSONS",7375 MOUNTAIN ASH DRIVE LAS VEGAS NV 89147,NV,CLARK,702-222-0858,8
WHISPERING HEIGHTS,RESIDENTIAL FACILITY FOR GROUPS,444-AGC-29,RESIDENTIAL FACILITY FOR ELDERLY OR DISABLED PERSONS,2397 EMPIRE RANCH ROAD CARSON CITY NV 89701,NV,CARSON CITY,775-885-8242,8
WICKER BASKET,RESIDENTIAL FACILITY FOR GROUPS,9723-AGC-0,"ALZHEIMER DISEASE, RESIDENTIAL FACILITY FOR ELDERLY OR DISABLED PERSONS",3020 BEAUFORT COURT NORTH LAS VEGAS NV 89032,NV,CLARK,702-731-5941,10
WINDSONG CARE HOME L.L.C.,RESIDENTIAL FACILITY FOR GROUPS,8988-AGC-3,"ALZHEIMER DISEASE, RESIDENTIAL FACILITY FOR ELDERLY OR DISABLED PERSONS",209 WINDSONG ST LAS VEGAS NV 89145,NV,CLARK,702-815-9998,10
WINWOOD HOME CARE LLC,RESIDENTIAL FACILITY FOR GROUPS,10076-AGC-0,"ALZHEIMER DISEASE, CHRONIC ILLNESS, RESIDENTIAL FACILITY FOR ELDERLY OR DISABLED PERSONS",2516 WINWOOD STREET LAS VEGAS NV 89108,NV,CLARK,702-506-1415,16